{"type":"FeatureCollection","features":[{"type":"Feature","properties":{},"geometry":{"type":"Polygon","coordinates":[[[34.03,-64.43],[36.01,-64.35],[36.78,-64.87],[34.59,-64.87],[34.03,-64.43]]]}},{"type":"Feature","properties":{},"geometry":{"type":"Polygon","coordinates":[[[42.79,-63.16],[42.29,-63.48],[42.05,-62.83],[43.46,-63.04],[42.79,-63.16]]]}},{"type":"Feature","properties":{},"geometry":{"type":"Polygon","coordinates":[[[-2.12,-62.82],[-0.29,-62.14],[0.37,-62.88],[-0.11,-63.24],[-2.12,-62.82]]]}},{"type":"Feature","properties":{},"geometry":{"type":"Polygon","coordinates":[[[19.61,-71.44],[20.04,-71.8],[19.24,-71.65],[19.61,-71.44]]]}},{"type":"Feature","properties":{},"geometry":{"type":"Polygon","coordinates":[[[10.27,-71.21],[11.53,-71.23],[9.72,-71.28],[10.27,-71.21]]]}},{"type":"Feature","properties":{},"geometry":{"type":"Polygon","coordinates":[[[14.9,-72.2],[11.81,-71.67],[15.55,-71.59],[14.9,-72.2]]]}},{"type":"Feature","properties":{},"geometry":{"type":"Polygon","coordinates":[[[17.64,-72.9],[16.87,-72.61],[17.25,-72.21],[16.27,-72.29],[16,-71.89],[18.88,-72.66],[17.64,-72.9]]]}},{"type":"Feature","properties":{},"geometry":{"type":"Polygon","coordinates":[[[-11.49,-63.15],[-9.72,-62.86],[-10.35,-63.34],[-11.49,-63.15]]]}},{"type":"Feature","properties":{},"geometry":{"type":"Polygon","coordinates":[[[-5.77,-69.38],[-5.05,-69.23],[-6.78,-68.74],[-5.58,-68.85],[-6.52,-68.54],[-5.1,-68.37],[-2.94,-70.2],[-5.77,-69.38]]]}},{"type":"Feature","properties":{},"geometry":{"type":"Polygon","coordinates":[[[-16.46,-62.89],[-15.79,-63.37],[-16.51,-63.29],[-16.46,-62.89]]]}},{"type":"Feature","properties":{},"geometry":{"type":"Polygon","coordinates":[[[-18.79,-63.26],[-17.79,-63.19],[-17.81,-63.53],[-18.47,-63.68],[-18.79,-63.26]]]}},{"type":"Feature","properties":{},"geometry":{"type":"Polygon","coordinates":[[[-20.09,-61.56],[-14.21,-61.04],[-12.09,-61.52],[-11.97,-62.21],[-13.86,-62.01],[-14.39,-62.37],[-13.03,-62.73],[-14.49,-63.45],[-14.13,-63.13],[-15.06,-63.17],[-14.37,-62.75],[-15.04,-62.97],[-15.03,-62.39],[-15.51,-62.69],[-16.04,-62.06],[-15.68,-61.86],[-16.94,-62.13],[-17.23,-61.6],[-18.18,-62.23],[-19.65,-62.3],[-20.09,-61.56]]]}},{"type":"Feature","properties":{},"geometry":{"type":"Polygon","coordinates":[[[-24.39,-60.35],[-22.23,-60.86],[-22.92,-61.02],[-24.39,-60.35]]]}},{"type":"Feature","properties":{},"geometry":{"type":"Polygon","coordinates":[[[57.78,-47.44],[57.12,-48.23],[56.61,-47.89],[57.78,-47.44]]]}},{"type":"Feature","properties":{},"geometry":{"type":"Polygon","coordinates":[[[-27.94,-57.97],[-27.27,-57.85],[-26.97,-58.29],[-27.4,-58.49],[-27.94,-57.97]]]}},{"type":"Feature","properties":{},"geometry":{"type":"Polygon","coordinates":[[[-27.17,-55.53],[-26.08,-55.56],[-26.31,-55.93],[-27.17,-55.53]]]}},{"type":"Feature","properties":{},"geometry":{"type":"Polygon","coordinates":[[[-2.62,-62.99],[-1.71,-63.58],[-0.59,-63.47],[-1.27,-63.74],[-0.88,-63.97],[3.78,-62.35],[2.76,-62.51],[3.32,-62.09],[5.45,-61.71],[8.46,-61.98],[13.03,-60.24],[15.91,-61.85],[15.5,-62.98],[15.85,-63.51],[14.18,-64.18],[3.11,-64.77],[1.53,-65.26],[-0.83,-65.11],[-3.52,-63.68],[-2.62,-62.99]]]}},{"type":"Feature","properties":{},"geometry":{"type":"Polygon","coordinates":[[[-27.93,-55.09],[-27.19,-55.03],[-27.46,-55.62],[-26.26,-56.22],[-26.79,-56.64],[-25.74,-57.83],[-24.65,-58.08],[-24.15,-57.95],[-24.27,-57.39],[-23.79,-57.6],[-24.16,-57.75],[-23.57,-57.97],[-24.25,-58.34],[-23.25,-58.38],[-24.52,-58.6],[-23.2,-58.84],[-23.26,-59.29],[-22.6,-59.63],[-20.03,-59.74],[-19.63,-59.4],[-20.22,-59.21],[-20.08,-58.9],[-19.13,-59.33],[-14.67,-58.72],[-11.86,-59.11],[-11.07,-58.98],[-11.27,-58.62],[-8.53,-59.03],[-6.74,-60.03],[-6.68,-59.7],[-4.24,-61.25],[-2.72,-60.62],[-1,-61.74],[-3.2,-62.55],[-2.62,-62.99],[-5.65,-65.12],[-8.44,-65.16],[-8.09,-64.81],[-8.7,-64.55],[-10.49,-64.57],[-9.3,-63.97],[-9.8,-63.49],[-8.98,-63.49],[-11.72,-60.91],[-18.85,-61.15],[-18.87,-60.61],[-19.43,-60.37],[-22.48,-60.03],[-22.51,-60.45],[-23.5,-60.32],[-22.84,-59.98],[-24.15,-59.89],[-23.94,-59.58],[-24.98,-59.44],[-25.75,-58.46],[-26.66,-58.4],[-26.27,-58.14],[-27.68,-56.92],[-27.93,-55.09]]]}},{"type":"Feature","properties":{},"geometry":{"type":"Polygon","coordinates":[[[7.91,-57.18],[6.92,-56.32],[5.12,-53.29],[5.29,-52.59],[5.96,-52.58],[4.52,-51.84],[2.85,-52.63],[1.59,-51.95],[0.97,-49.89],[1.29,-48.78],[0.6,-47.62],[0.77,-46.01],[1.96,-44.12],[1.76,-43.39],[0.89,-43.17],[1.65,-43.23],[1.31,-42.42],[2.63,-42.86],[2.91,-42.57],[2.36,-41.65],[2.8,-41.47],[3.24,-42.11],[4.22,-41.51],[3.62,-40.65],[4.66,-41.56],[5.44,-41.48],[6.1,-39.93],[7.87,-39.01],[9.67,-38.98],[11.32,-38.13],[14.31,-37.92],[18.46,-36.65],[18.5,-35.62],[20.79,-36.99],[21.86,-35.5],[24.44,-34.36],[25.32,-34.73],[25.77,-34.46],[25.36,-34.13],[25.82,-33.99],[25.99,-34.47],[26.52,-34.44],[26.4,-33.66],[27.31,-33.3],[29.02,-33.59],[29.68,-34.32],[29.12,-34.46],[30.27,-35.3],[34.96,-36.8],[34.67,-37.7],[34.13,-37.81],[34.53,-37.9],[34.02,-37.96],[34.3,-38.18],[33.78,-38.08],[33.76,-38.66],[33.1,-38.92],[33.88,-40.41],[35.57,-39.22],[36.57,-39.45],[38.88,-38.59],[41.79,-38.59],[45.35,-39.64],[47.68,-41.11],[48.35,-41.29],[48.8,-40.7],[49.43,-40.96],[49.09,-41.45],[50.5,-41.89],[51.83,-44.3],[54.73,-44.73],[54.44,-45.62],[55.12,-46.06],[55,-46.94],[56.44,-47.87],[56.06,-48.07],[58.8,-49.23],[58.41,-50.23],[58.84,-50.69],[60.35,-50.2],[61.47,-51.97],[63.04,-51.79],[62.08,-52.23],[61.9,-52.87],[62.79,-55.01],[62.56,-55.33],[63.06,-55.59],[62.82,-56.13],[63.82,-56.72],[62.24,-56.51],[62.06,-57.26],[62.49,-57.76],[61.36,-57.69],[62.07,-58.78],[61.32,-59.01],[62.44,-59.81],[61.19,-60.3],[61.49,-60.48],[60.99,-61],[61.48,-61.08],[60.91,-61.76],[58.86,-62.52],[58.6,-62.78],[59.04,-62.83],[58.58,-62.83],[58.9,-63.07],[58,-63.36],[58.45,-63.37],[57.51,-64.73],[54.64,-65.57],[51.24,-64.66],[51.25,-63.92],[50.16,-63.76],[50.28,-63.36],[49.04,-63.41],[49.42,-63.15],[48.66,-62.97],[49.62,-62.93],[49.1,-62.68],[48.12,-62.59],[47.51,-63.08],[47.2,-63.03],[47.63,-62.59],[47.14,-62.49],[41.6,-62.05],[41.34,-62.28],[41.89,-62.53],[40.29,-62.64],[40.85,-62.11],[40.08,-61.23],[33.87,-60.76],[33.84,-60.39],[33.11,-60.51],[33.43,-60.8],[31.12,-60.62],[28.11,-61.13],[26.4,-60.25],[28.13,-61.27],[25.54,-61.53],[23.94,-61.13],[22.42,-61.26],[22.04,-61.73],[20.3,-61.66],[23.12,-62.53],[24.55,-64.07],[21.36,-64.44],[20.53,-63.17],[17.87,-61.59],[13.93,-61.45],[12.34,-59.68],[7.91,-57.18]]]}},{"type":"Feature","properties":{},"geometry":{"type":"Polygon","coordinates":[[[28.84,-62.71],[30.13,-63.51],[30.17,-64],[27.94,-64.99],[34.77,-65.62],[37.46,-66.85],[34.48,-67.45],[32.55,-67.32],[32.86,-67.45],[32.18,-67.94],[31.3,-68],[31.9,-68.32],[31.28,-68.36],[34.49,-68.62],[32.09,-68.88],[32.95,-69.35],[27.28,-70.99],[27.77,-71.2],[25.51,-71.51],[25.18,-71.19],[11.66,-71.19],[9.66,-70.59],[8.19,-71.06],[8.88,-70.81],[7.93,-70.81],[8.73,-70.55],[8.36,-70.44],[8.89,-70.01],[7.64,-69.94],[6.88,-70.39],[6.26,-70.18],[6.65,-69.83],[6.26,-69.49],[4.98,-69.46],[5.9,-68.8],[3.85,-68.95],[2.99,-68.56],[3.43,-68.01],[2.4,-67.81],[1.78,-68.49],[0.45,-68.48],[0.16,-68.75],[0.63,-68.98],[0.18,-69.23],[-1.49,-68.87],[-1.48,-69.23],[0,-69.43],[-1.03,-69.92],[-1.84,-68.96],[-3.39,-68.65],[-3.27,-67.92],[-4.9,-67.77],[-4.44,-67.42],[-5.2,-66.69],[-7.41,-66.26],[-6.44,-66.17],[-6.31,-65.57],[-7.3,-65.43],[-6.42,-65.17],[-6.31,-64.45],[3.4,-64.57],[4.95,-64.09],[15.37,-63.63],[17.56,-62.86],[24.83,-63.57],[28.84,-62.71]]]}},{"type":"Feature","properties":{},"geometry":{"type":"Polygon","coordinates":[[[-27.48,-54.32],[-27.08,-54.2],[-27.5,-54.86],[-27.48,-54.32]]]}},{"type":"Feature","properties":{},"geometry":{"type":"Polygon","coordinates":[[[-28.86,-56.03],[-28.61,-56.21],[-29.27,-56.5],[-28.86,-56.03]]]}},{"type":"Feature","properties":{},"geometry":{"type":"Polygon","coordinates":[[[-28.84,-54.86],[-28.55,-54.77],[-28.91,-55.42],[-28.84,-54.86]]]}},{"type":"Feature","properties":{},"geometry":{"type":"Polygon","coordinates":[[[-23.66,-51.98],[-24.11,-52.21],[-22.84,-52.62],[-24.92,-52.45],[-23.66,-51.98]]]}},{"type":"Feature","properties":{},"geometry":{"type":"Polygon","coordinates":[[[-23.32,-51.9],[-22.27,-51.95],[-23.2,-52.2],[-23.32,-51.9]]]}},{"type":"Feature","properties":{},"geometry":{"type":"Polygon","coordinates":[[[-27.23,-51.52],[-26.89,-51.98],[-27.43,-51.79],[-27.23,-51.52]]]}},{"type":"Feature","properties":{},"geometry":{"type":"Polygon","coordinates":[[[-26.08,-51.01],[-25.74,-51.67],[-26.28,-51.43],[-26.08,-51.01]]]}},{"type":"Feature","properties":{},"geometry":{"type":"Polygon","coordinates":[[[-28.5,-51.27],[-27.53,-51.78],[-28.84,-51.71],[-28.5,-51.27]]]}},{"type":"Feature","properties":{},"geometry":{"type":"Polygon","coordinates":[[[-27.99,-50.42],[-27.25,-50.43],[-28.23,-50.89],[-27.83,-51.31],[-28.85,-51.1],[-28.23,-51.13],[-28.71,-50.75],[-27.99,-50.42]]]}},{"type":"Feature","properties":{},"geometry":{"type":"Polygon","coordinates":[[[-26.61,-52],[-25.26,-51.88],[-26.21,-51.62],[-24.3,-51.63],[-25.68,-51.22],[-25.17,-50.62],[-26.15,-50.81],[-26.01,-50.33],[-26.38,-50.24],[-25.6,-49.76],[-22.97,-50.97],[-20.77,-51.18],[-21.84,-51.79],[-27.03,-52.17],[-26.61,-52]]]}},{"type":"Feature","properties":{},"geometry":{"type":"Polygon","coordinates":[[[-17.04,-47.07],[-17.59,-48.02],[-18.28,-47.98],[-17.45,-47.55],[-18.16,-47.27],[-17.04,-47.07]]]}},{"type":"Feature","properties":{},"geometry":{"type":"Polygon","coordinates":[[[-16.59,-46.94],[-15.43,-47.14],[-16.87,-47.99],[-16.59,-46.94]]]}},{"type":"Feature","properties":{},"geometry":{"type":"Polygon","coordinates":[[[-31.11,-48.98],[-30.72,-49.3],[-31.3,-49.3],[-31.11,-48.98]]]}},{"type":"Feature","properties":{},"geometry":{"type":"Polygon","coordinates":[[[47.14,-71.34],[46.66,-71.05],[47.28,-70.97],[47.14,-71.34]]]}},{"type":"Feature","properties":{},"geometry":{"type":"Polygon","coordinates":[[[-31.99,-48.41],[-31.47,-48.46],[-31.89,-48.84],[-31.99,-48.41]]]}},{"type":"Feature","properties":{},"geometry":{"type":"Polygon","coordinates":[[[-31.71,-47.77],[-31.83,-48.28],[-32.47,-47.77],[-31.88,-47.74],[-32.1,-47.06],[-31.37,-48.35],[-31.71,-47.77]]]}},{"type":"Feature","properties":{},"geometry":{"type":"Polygon","coordinates":[[[-32.22,-46.51],[-31.86,-47.03],[-32.31,-47],[-32.22,-46.51]]]}},{"type":"Feature","properties":{},"geometry":{"type":"Polygon","coordinates":[[[49.02,-76.52],[47.93,-76.13],[50.02,-75.9],[49.02,-76.52]]]}},{"type":"Feature","properties":{},"geometry":{"type":"Polygon","coordinates":[[[-32.48,-43.31],[-32.28,-43.57],[-32.81,-43.55],[-32.48,-43.31]]]}},{"type":"Feature","properties":{},"geometry":{"type":"Polygon","coordinates":[[[-31.92,-42.56],[-31.59,-42.67],[-32.02,-43.15],[-31.92,-42.56]]]}},{"type":"Feature","properties":{},"geometry":{"type":"Polygon","coordinates":[[[2.79,-74.75],[2.18,-74.48],[4.04,-74.49],[2.79,-74.75]]]}},{"type":"Feature","properties":{},"geometry":{"type":"Polygon","coordinates":[[[-33.6,-40.2],[-32.92,-40.58],[-33.28,-40.93],[-32.84,-41.2],[-33.03,-41.8],[-33.64,-41.7],[-33.6,-40.2]]]}},{"type":"Feature","properties":{},"geometry":{"type":"Polygon","coordinates":[[[54.76,-65.67],[53.93,-67],[54.44,-67.26],[53.71,-67.58],[54.51,-67.28],[55.73,-68.08],[55.21,-68.42],[49.11,-68.45],[50.28,-67.81],[47.84,-67.65],[48.25,-67.41],[47.9,-67.04],[48.56,-67.16],[49.28,-66.6],[54.76,-65.67]]]}},{"type":"Feature","properties":{},"geometry":{"type":"Polygon","coordinates":[[[52.1,-73.23],[48.94,-73.25],[49.53,-73.85],[48.51,-73.62],[48.4,-73.94],[49.22,-73.95],[48.77,-74.15],[44.97,-73.11],[45.92,-71.06],[44.82,-68.32],[45.91,-68.91],[45.65,-69.22],[46.8,-71.02],[52.1,-73.23]]]}},{"type":"Feature","properties":{},"geometry":{"type":"Polygon","coordinates":[[[26.98,-79.98],[30.81,-79.67],[30.45,-79.64],[31.57,-79.24],[30.21,-78.96],[37.16,-78.82],[40.99,-77.31],[40.26,-77.31],[44.01,-76.65],[53.86,-77.25],[52.29,-77.41],[53.35,-77.51],[51.85,-77.68],[52.69,-77.99],[51.63,-78.11],[52.26,-78.15],[51.9,-78.25],[43.88,-79.45],[33.96,-80.14],[26.98,-79.98]]]}},{"type":"Feature","properties":{},"geometry":{"type":"Polygon","coordinates":[[[61.7,-58.84],[61.33,-59.27],[60.28,-58.32],[60.76,-58.12],[61.7,-58.84]]]}},{"type":"Feature","properties":{},"geometry":{"type":"Polygon","coordinates":[[[73.62,-74.63],[71.47,-74.81],[72.22,-74.94],[69.9,-75.49],[70.51,-75.68],[63.05,-75.84],[63.49,-75.91],[61.62,-76.35],[64.7,-76.38],[57.88,-76.99],[56.44,-77.43],[57.64,-78.11],[56.23,-78.48],[50.71,-77.5],[50.3,-77.35],[51.44,-77.32],[51.79,-76.8],[48.43,-76.28],[45.4,-74.64],[47.44,-74.23],[49.31,-75],[51.12,-75.1],[55.26,-74.4],[56.08,-75.14],[58.7,-75.53],[66.12,-75.7],[66.89,-75.3],[65.77,-75.31],[73.44,-74.33],[73.62,-74.63]]]}},{"type":"Feature","properties":{},"geometry":{"type":"Polygon","coordinates":[[[105.24,-62.47],[105.36,-63.81],[104.84,-64.38],[104.74,-65.84],[104.05,-65.96],[103.7,-65.56],[104.1,-65.05],[103.92,-63.88],[105.24,-62.47]]]}},{"type":"Feature","properties":{},"geometry":{"type":"Polygon","coordinates":[[[90.65,-45.5],[90.25,-46.13],[89.7,-45.66],[90.65,-45.5]]]}},{"type":"Feature","properties":{},"geometry":{"type":"Polygon","coordinates":[[[21.47,-23.88],[22.37,-21.84],[23.65,-20.95],[25.42,-21.45],[25.58,-21.9],[25.79,-21.44],[26.46,-21.81],[27.94,-21.21],[28.16,-20.59],[28.34,-20.97],[29.09,-20.89],[29.54,-20.06],[30.25,-19.94],[30.26,-21.19],[29.29,-23.52],[28.78,-23.83],[28.51,-23.15],[27.93,-24.34],[20.45,-29.56],[18.33,-29.06],[17.82,-28.05],[18.87,-25.37],[21.47,-23.88]]]}},{"type":"Feature","properties":{},"geometry":{"type":"Polygon","coordinates":[[[86.91,-39.48],[86.69,-40.01],[86.18,-39.61],[86.91,-39.48]]]}},{"type":"Feature","properties":{},"geometry":{"type":"Polygon","coordinates":[[[87.11,-39.39],[87.14,-39.95],[87.86,-40.01],[87.87,-40.4],[86.89,-40.33],[87.11,-39.39]]]}},{"type":"Feature","properties":{},"geometry":{"type":"Polygon","coordinates":[[[58.75,-63.25],[58.32,-62.63],[58.78,-61.73],[62.47,-59.93],[61.86,-59.21],[63.62,-59.24],[64.52,-58.63],[62.58,-58.76],[61.74,-58.14],[65.44,-58.28],[67.21,-57.62],[66.26,-57.9],[62.47,-57.15],[61.68,-57.36],[61.87,-56.56],[62.08,-56.87],[62.96,-56.41],[64.91,-54.4],[64.07,-53.26],[64.21,-52.21],[59.93,-48.73],[57.9,-47.72],[56.28,-47.6],[54.3,-44.87],[51.88,-43.98],[51.31,-42.98],[51.38,-41.58],[54.69,-40.83],[57.25,-38.81],[59.39,-35.94],[59.15,-36.6],[60.26,-35.86],[59.62,-36.8],[60.23,-36.71],[61.29,-35.17],[63.32,-34.31],[64.34,-34.19],[63.7,-34.67],[67.44,-35.49],[67.84,-36.24],[71.42,-38.12],[73.81,-38.19],[74.51,-37.51],[75.93,-37.52],[75.21,-38.77],[76.28,-38.57],[76.12,-38.11],[76.63,-37.84],[76.91,-38.71],[77.51,-39],[77.13,-38.57],[78.11,-38.43],[77.54,-38.42],[77.92,-38.07],[78.41,-38.07],[78.57,-38.75],[78.63,-38.13],[79.17,-38.62],[79.27,-38.08],[80.14,-38.07],[80.02,-38.59],[80.77,-38.16],[80.61,-38.55],[81.65,-38.67],[81.92,-39.2],[81.84,-40.31],[80.63,-40.66],[82.05,-40.54],[82.51,-41.62],[83.39,-41.3],[83.2,-40.85],[85.66,-40.41],[85.97,-40.73],[86.12,-40.39],[86.21,-40.85],[87.09,-40.64],[88.34,-41.75],[88.82,-41.33],[88.2,-40.46],[88.58,-40.46],[89.28,-42.04],[89.81,-42.23],[89.69,-42.69],[90.41,-42.95],[90.53,-43.56],[91.54,-43.73],[91.04,-43.74],[91.56,-43.9],[91.13,-44.2],[92.26,-44.12],[92.22,-44.73],[91.27,-45],[90.26,-44.69],[89.34,-45.34],[87.83,-45.13],[88.23,-45.83],[87.7,-45.81],[88.24,-45.88],[88.6,-46.96],[88.05,-46.92],[88.69,-47.27],[89.64,-49.4],[89.57,-50.25],[90.35,-50.91],[94.33,-50],[95.44,-48.81],[97.38,-48.19],[96.87,-47.91],[99.69,-47.07],[98.79,-49.36],[97.51,-50.68],[98.6,-50.98],[98.77,-52.1],[97.24,-53.26],[97.07,-53.91],[97.4,-53.95],[95.47,-55.6],[96.92,-58.21],[96.23,-58.5],[96.14,-59.62],[94.87,-60.47],[95.39,-60.44],[95.34,-60.8],[96.06,-60.41],[96.11,-61.17],[96.61,-60.97],[95.23,-61.91],[94.86,-61.54],[95.31,-62.07],[95.11,-62.71],[95.67,-62.87],[94.95,-64.21],[95.27,-64.5],[94.24,-65.06],[94.6,-65.14],[91.91,-65.93],[90.21,-67.22],[80.44,-68.63],[78.67,-68.19],[76.62,-68.34],[76.23,-67.91],[76.5,-68.12],[75.99,-68.23],[76.4,-68.3],[75.83,-68.39],[70.07,-68.28],[65.35,-68.81],[64.32,-68.53],[62.98,-67.16],[60.72,-66.83],[60.11,-66.32],[59.13,-66.58],[60.04,-65.65],[60.8,-65.65],[59.9,-65.3],[60.18,-65.04],[61.47,-65.1],[58.39,-64.37],[58.75,-63.25]]]}},{"type":"Feature","properties":{},"geometry":{"type":"Polygon","coordinates":[[[98.57,-42.17],[98.74,-42.51],[97.97,-42.77],[97.05,-42.05],[98.57,-42.17]]]}},{"type":"Feature","properties":{},"geometry":{"type":"Polygon","coordinates":[[[131.39,6.67],[131.21,6.12],[130.39,5.81],[131.39,6.67]]]}},{"type":"Feature","properties":{},"geometry":{"type":"Polygon","coordinates":[[[94.95,-38.31],[94.98,-38.83],[94.37,-38.88],[94.95,-38.31]]]}},{"type":"Feature","properties":{},"geometry":{"type":"Polygon","coordinates":[[[95.56,-38.4],[95.25,-38.73],[95.11,-38.32],[95.56,-38.4]]]}},{"type":"Feature","properties":{},"geometry":{"type":"Polygon","coordinates":[[[124.24,3.12],[126.3,4.08],[126.96,3.84],[128.43,4.62],[128.56,5.4],[130.18,5.91],[130.95,5.45],[132.27,6.15],[132.8,5.47],[125.39,2.09],[125.25,2.49],[124.07,1.97],[124.24,3.12]]]}},{"type":"Feature","properties":{},"geometry":{"type":"Polygon","coordinates":[[[95.79,-38.02],[95.7,-38.51],[95.24,-38.26],[95.79,-38.02]]]}},{"type":"Feature","properties":{},"geometry":{"type":"Polygon","coordinates":[[[124.5,6.93],[125.08,7],[125.12,6.5],[124.78,6.28],[124.5,6.93]]]}},{"type":"Feature","properties":{},"geometry":{"type":"Polygon","coordinates":[[[122.37,6.43],[123.28,6.01],[123.81,6.26],[124.06,5.81],[122.19,5.48],[122.37,6.43]]]}},{"type":"Feature","properties":{},"geometry":{"type":"Polygon","coordinates":[[[108.22,-46.43],[107.93,-47.17],[108.61,-48.2],[108.35,-49.3],[109.29,-49.62],[108.8,-49.99],[109.71,-50.59],[109.17,-50.76],[110.33,-51.48],[109.03,-51.52],[108.7,-51.21],[109.18,-51.25],[106.62,-49.65],[106.1,-48.5],[106.4,-48.34],[105.94,-48.12],[105.93,-46.78],[104.81,-45.65],[104.06,-45.72],[103.86,-44.97],[103.65,-45.77],[102.98,-45.28],[103.09,-45.77],[101.46,-44.89],[102.33,-45.65],[102.16,-46.25],[99.45,-45.05],[99.11,-43.53],[99.6,-43.38],[97.99,-42.95],[98.77,-42.52],[98.61,-41.96],[99.66,-42.53],[98.69,-41.68],[99.35,-42.14],[99.05,-41.12],[99.58,-40.7],[99.2,-40.43],[99.45,-39.5],[99.11,-39.62],[97.15,-37.1],[102.41,-40.36],[108.22,-46.43]]]}},{"type":"Feature","properties":{},"geometry":{"type":"Polygon","coordinates":[[[119.55,7.58],[119.84,7.27],[119.39,7.22],[119.55,7.58]]]}},{"type":"Feature","properties":{},"geometry":{"type":"Polygon","coordinates":[[[-3.48,-2.76],[-3.66,-3.15],[-3.88,-2.91],[-3.48,-2.76]]]}},{"type":"Feature","properties":{},"geometry":{"type":"Polygon","coordinates":[[[110.64,4.6],[112.38,5.64],[113.63,5.17],[118.46,5.74],[121.22,1.89],[118.52,2.85],[116.89,2.92],[115.67,3.82],[111.08,3.95],[110.45,4.34],[110.64,4.6]]]}},{"type":"Feature","properties":{},"geometry":{"type":"Polygon","coordinates":[[[118.12,5.82],[118.98,6.01],[118.83,5.56],[119.54,6.3],[119.98,5.32],[120.92,5.77],[122.22,4.84],[122.76,5.58],[123.5,5.41],[125.19,3.04],[124.56,3.09],[124.71,2.74],[124.04,2.52],[124.33,2.24],[120.53,2.29],[118.12,5.82]]]}},{"type":"Feature","properties":{},"geometry":{"type":"Polygon","coordinates":[[[125.95,19.79],[126.17,19.43],[126.24,20.01],[127.07,19.86],[127.74,19.33],[129.06,19.8],[128.35,18.78],[129.05,18.69],[128.17,18.08],[128.75,17.55],[128.13,17.11],[128.71,17.35],[128.37,17.12],[129.81,16.61],[129.85,16.08],[131.35,15.94],[130.29,15.5],[131.13,13.76],[130.47,12.15],[130.8,12.18],[130.62,11.68],[131.1,11.87],[131.12,10.25],[130.45,9.28],[129.91,9.93],[129.21,9.34],[128.4,9.45],[127.79,8.29],[127.21,8.83],[126.14,7.86],[124.83,9.27],[124.09,9.08],[124.26,9.35],[123.1,9.86],[122.51,11.41],[124.55,12.04],[124.13,12.06],[123.84,13.24],[124.92,14.53],[124.91,16.24],[125.94,17.29],[125.95,19.79]]]}},{"type":"Feature","properties":{},"geometry":{"type":"Polygon","coordinates":[[[21.92,-34.43],[19.02,-35.77],[17.58,-35.44],[17.15,-34.4],[17.65,-33.89],[19.91,-33.77],[19.62,-33.85],[21.92,-34.43]]]}},{"type":"Feature","properties":{},"geometry":{"type":"Polygon","coordinates":[[[-30.45,12.5],[-30.34,11.81],[-31.26,11.59],[-30.83,11.91],[-31.09,12.29],[-30.45,12.5]]]}},{"type":"Feature","properties":{},"geometry":{"type":"Polygon","coordinates":[[[-49.61,-6.54],[-48.79,-7.73],[-50.1,-6.88],[-49.61,-6.54]]]}},{"type":"Feature","properties":{},"geometry":{"type":"Polygon","coordinates":[[[-52.4,-1.7],[-50.73,-3.79],[-50.46,-4.61],[-50.93,-4.45],[-50.39,-5.66],[-50.89,-5.72],[-52.43,-4.02],[-53.19,-4.27],[-53.16,-3.39],[-54.51,-2.28],[-54.63,-1.67],[-54.25,-1.6],[-53.13,-2.98],[-52.69,-2.11],[-53.01,-1.43],[-52.4,-1.7]]]}},{"type":"Feature","properties":{},"geometry":{"type":"Polygon","coordinates":[[[118.57,23.29],[119.49,23.57],[119.41,22.3],[118.63,21.47],[117.67,21.59],[117.42,22.43],[118.57,23.29]]]}},{"type":"Feature","properties":{},"geometry":{"type":"Polygon","coordinates":[[[-49.61,-0.46],[-48.66,-2.3],[-47.64,-8.13],[-49.99,-5.65],[-49.04,-5.49],[-49.48,-4.8],[-49.1,-3.82],[-50.33,-1.2],[-49.96,-0.85],[-52.25,1.02],[-51.77,0.59],[-51.05,0.79],[-49.61,-0.46]]]}},{"type":"Feature","properties":{},"geometry":{"type":"Polygon","coordinates":[[[136.72,43.08],[137.7,42.85],[137.54,42.45],[138.21,42.13],[137.47,40.53],[136.72,40.14],[136.83,40.85],[136.63,40.3],[136.07,40.54],[136.57,41.92],[136.07,42.32],[136.27,41.81],[135.59,41.68],[135.48,42.2],[135.87,41.96],[135.33,42.43],[136.72,43.08]]]}},{"type":"Feature","properties":{},"geometry":{"type":"Polygon","coordinates":[[[140.49,43.63],[141.18,43.13],[140.57,42.51],[139.67,42.69],[138.87,42.04],[138.56,42.67],[138.12,42.54],[139.06,43.35],[140.49,43.63]]]}},{"type":"Feature","properties":{},"geometry":{"type":"Polygon","coordinates":[[[21.67,18.67],[23.12,17.19],[21.93,17.74],[21.36,18.57],[21.67,18.67]]]}},{"type":"Feature","properties":{},"geometry":{"type":"Polygon","coordinates":[[[25.68,12.53],[24.85,12.82],[24.3,13.58],[24.47,14.16],[25.13,13.81],[25.68,12.53]]]}},{"type":"Feature","properties":{},"geometry":{"type":"Polygon","coordinates":[[[18.01,24.9],[16.51,23.94],[15.57,26.19],[16.05,26.33],[18.01,24.9]]]}},{"type":"Feature","properties":{},"geometry":{"type":"Polygon","coordinates":[[[23.63,21.63],[23.74,20.25],[23.15,21.76],[23.63,21.63]]]}},{"type":"Feature","properties":{},"geometry":{"type":"Polygon","coordinates":[[[35.63,34.74],[35.99,34.45],[35.22,34.45],[35.63,34.74]]]}},{"type":"Feature","properties":{},"geometry":{"type":"Polygon","coordinates":[[[13.25,28.59],[13.08,27.91],[12.49,28.2],[13.25,28.59]]]}},{"type":"Feature","properties":{},"geometry":{"type":"Polygon","coordinates":[[[17.48,31.7],[17.15,31.22],[15.41,30.8],[14.64,31.39],[16.84,32.36],[17.48,31.7]]]}},{"type":"Feature","properties":{},"geometry":{"type":"Polygon","coordinates":[[[140.58,43.97],[138.43,43.57],[138.23,43.03],[136.78,43.1],[136.86,43.6],[139.2,44.84],[142.63,44.98],[143.35,46.69],[144.03,46.84],[143.48,46.44],[143.91,46.08],[145.42,46.73],[146.88,48.29],[146.88,49.99],[147.43,50.64],[148.37,50.26],[148.1,50.93],[148.77,50.82],[149.48,48.86],[148.86,47.66],[148.13,47.43],[148.25,46.39],[147.77,45.66],[148.14,45.11],[147.58,44.56],[146.87,44.34],[147.12,45.07],[145.73,44.04],[145.72,44.49],[145.12,43.97],[143.74,43.92],[144.12,44.12],[143.38,44.39],[143.18,43.94],[143.62,43.61],[142.1,42.82],[141.54,43.18],[141.96,44],[140.58,43.97]]]}},{"type":"Feature","properties":{},"geometry":{"type":"Polygon","coordinates":[[[19.51,32.08],[17.59,31.77],[18.56,32.51],[19.51,32.08]]]}},{"type":"Feature","properties":{},"geometry":{"type":"Polygon","coordinates":[[[154.88,47.88],[155.2,47.88],[153.89,47.22],[154.88,47.88]]]}},{"type":"Feature","properties":{},"geometry":{"type":"Polygon","coordinates":[[[150.39,49.21],[152.76,47.52],[153.87,47.84],[153.51,47.32],[153.84,46.75],[152.19,46.46],[151.42,45.66],[148.65,46.35],[148.44,47.11],[149.59,47.05],[149.95,48.92],[150.39,49.21]]]}},{"type":"Feature","properties":{},"geometry":{"type":"Polygon","coordinates":[[[147.74,51.97],[147.35,51.63],[148.43,51.19],[147.12,50.8],[146.79,51.99],[147.74,51.97]]]}},{"type":"Feature","properties":{},"geometry":{"type":"Polygon","coordinates":[[[-5.98,33.53],[-5.88,32.82],[-6.48,32.22],[-5.83,32.85],[-5.35,32.49],[-6.57,32.05],[-6.8,32.55],[-5.98,33.53]]]}},{"type":"Feature","properties":{},"geometry":{"type":"Polygon","coordinates":[[[-8.82,33.32],[-8.64,32.89],[-7.16,32.94],[-7.78,32.42],[-8.93,32.85],[-8.82,33.32]]]}},{"type":"Feature","properties":{},"geometry":{"type":"Polygon","coordinates":[[[-9.01,36.39],[-7,35.62],[-8.55,35.84],[-9.3,36.31],[-9.01,36.39]]]}},{"type":"Feature","properties":{},"geometry":{"type":"Polygon","coordinates":[[[-70.16,15.76],[-68.43,15.23],[-67.11,13.48],[-68.24,13.69],[-67.99,14.16],[-68.47,13.82],[-69.14,14.26],[-68.87,14.58],[-70.07,14.99],[-69.74,15.49],[-70.16,15.33],[-70.16,15.76]]]}},{"type":"Feature","properties":{},"geometry":{"type":"Polygon","coordinates":[[[-1.94,35.83],[-1.25,36.27],[-0.41,36.01],[-0.93,35.11],[0.02,35.38],[-0.73,34.92],[-0.43,34.27],[0.19,34.89],[0.11,33.42],[-0.32,33.39],[-0.31,33.97],[-0.81,33.55],[-0.79,34.61],[-2.08,33.51],[-1.28,34.38],[-5.03,34.17],[-1.94,35.83]]]}},{"type":"Feature","properties":{},"geometry":{"type":"Polygon","coordinates":[[[-2.53,38.27],[-2.19,38.06],[-2.67,37.97],[-2.36,37.74],[-3.23,36.37],[-2.13,36.67],[-2.62,36.22],[-1.79,36.22],[-1.94,35.83],[-5,34.3],[-4.23,35.09],[-5.01,35.08],[-4.35,35.72],[-3.95,35.56],[-4.27,35.89],[-3.83,36.05],[-3.67,37.3],[-2.53,38.27]]]}},{"type":"Feature","properties":{},"geometry":{"type":"Polygon","coordinates":[[[-22.48,39.96],[-22,39.4],[-23.03,39.78],[-22.48,39.96]]]}},{"type":"Feature","properties":{},"geometry":{"type":"Polygon","coordinates":[[[-72.51,18.2],[-72.16,17.04],[-73,18.05],[-72.51,18.2]]]}},{"type":"Feature","properties":{},"geometry":{"type":"Polygon","coordinates":[[[-73.22,19.16],[-72.7,18.97],[-72.92,18.52],[-72.37,19.11],[-72.77,18.1],[-73.22,19.16]]]}},{"type":"Feature","properties":{},"geometry":{"type":"Polygon","coordinates":[[[152.6,57.94],[152.94,56.42],[152.43,55.33],[153.81,52.17],[153.13,52.82],[151.98,52.75],[151.32,51.44],[152.29,49.96],[152.03,49.63],[151.35,50.4],[150.59,49.57],[150.38,50.28],[150.99,51.65],[150.7,52.46],[151.49,54.8],[150.98,55.54],[151.41,57.07],[152.34,57.13],[152.03,57.93],[152.6,57.94]]]}},{"type":"Feature","properties":{},"geometry":{"type":"Polygon","coordinates":[[[-89.83,25.53],[-89.76,24.98],[-90.81,25.48],[-89.83,25.53]]]}},{"type":"Feature","properties":{},"geometry":{"type":"Polygon","coordinates":[[[147.29,67.62],[148.02,67.54],[146.65,67.2],[147.29,67.62]]]}},{"type":"Feature","properties":{},"geometry":{"type":"Polygon","coordinates":[[[2.67,39.93],[3.59,40.29],[2.56,40.1],[3.31,40.83],[2.26,40.93],[2.72,41.36],[2.22,41.77],[3.47,41.84],[3.71,42.29],[3.17,42.3],[4.17,43.06],[4.55,42.95],[4.23,42.62],[5.22,42.97],[5.83,42.31],[5.17,41.93],[5.35,41.45],[2.67,39.93]]]}},{"type":"Feature","properties":{},"geometry":{"type":"Polygon","coordinates":[[[3.94,39.53],[2.83,39.01],[3.05,39.31],[2.51,39.15],[2.95,39.45],[2.29,39.36],[2.76,39.71],[2.19,39.69],[5.35,41.45],[5.46,39.96],[3.94,39.53]]]}},{"type":"Feature","properties":{},"geometry":{"type":"Polygon","coordinates":[[[17.95,44.86],[18.35,44.38],[17.39,44.7],[17.95,44.86]]]}},{"type":"Feature","properties":{},"geometry":{"type":"Polygon","coordinates":[[[-72.85,36.56],[-72.68,35.83],[-72.88,36.26],[-73.16,36.02],[-72.85,36.56]]]}},{"type":"Feature","properties":{},"geometry":{"type":"Polygon","coordinates":[[[19.34,45.58],[19.4,44.43],[18.26,45.06],[19.23,45.11],[18.95,45.39],[19.34,45.58]]]}},{"type":"Feature","properties":{},"geometry":{"type":"Polygon","coordinates":[[[-73.43,21.35],[-72.61,20.41],[-72.98,20.31],[-72.53,20.21],[-72.57,19.63],[-73.28,20.26],[-73.43,21.35]]]}},{"type":"Feature","properties":{},"geometry":{"type":"Polygon","coordinates":[[[-20.54,43.28],[-20.55,42.53],[-20.32,43.03],[-20.63,42.5],[-20.48,42.89],[-21.18,42.57],[-20.54,43.28]]]}},{"type":"Feature","properties":{},"geometry":{"type":"Polygon","coordinates":[[[-73.77,21.95],[-73.47,21.59],[-73.77,21.01],[-73.77,21.95]]]}},{"type":"Feature","properties":{},"geometry":{"type":"Polygon","coordinates":[[[4.61,45.44],[5.18,45.05],[4.95,44.78],[4.3,45.13],[4.61,45.44]]]}},{"type":"Feature","properties":{},"geometry":{"type":"Polygon","coordinates":[[[23.7,48.1],[23.98,47.69],[23.54,47.09],[23.3,47.69],[23.7,48.1]]]}},{"type":"Feature","properties":{},"geometry":{"type":"Polygon","coordinates":[[[-74.03,19.91],[-73.91,18.97],[-74.57,19.63],[-74.03,19.91]]]}},{"type":"Feature","properties":{},"geometry":{"type":"Polygon","coordinates":[[[-74.02,23.35],[-73.5,22.46],[-73.97,22.05],[-74.02,23.35]]]}},{"type":"Feature","properties":{},"geometry":{"type":"Polygon","coordinates":[[[4.51,46.24],[4.11,45.42],[3.97,45.92],[4.51,46.24]]]}},{"type":"Feature","properties":{},"geometry":{"type":"Polygon","coordinates":[[[26.33,49.35],[26.97,49.3],[26.2,48.58],[25.8,49.13],[26.33,49.35]]]}},{"type":"Feature","properties":{},"geometry":{"type":"Polygon","coordinates":[[[6.66,46.59],[6.9,46.33],[6.01,45.78],[6.49,45.77],[5.75,44.54],[4.84,44.46],[5.42,44.91],[4.96,45.63],[5.52,45.64],[5.19,45.87],[5.42,46.44],[6.66,46.59]]]}},{"type":"Feature","properties":{},"geometry":{"type":"Polygon","coordinates":[[[6.45,45.52],[8.02,45.67],[7.68,44.58],[7.1,44.33],[7.7,44.28],[6.75,44.03],[8.12,43.97],[8.71,43.41],[6.16,42.52],[6.31,43.8],[6.06,44.06],[5.69,43.67],[5.92,44.11],[5.41,43.09],[5.35,44.09],[6.45,45.52]]]}},{"type":"Feature","properties":{},"geometry":{"type":"Polygon","coordinates":[[[8.71,43.41],[9.08,42.73],[10.08,42.36],[10.36,41.86],[9.67,41.9],[10.4,41.75],[10.38,41.15],[11.75,41.14],[11.79,40.5],[10.93,39.75],[11.83,39.56],[6.31,37.87],[7.3,39.12],[8.28,39.24],[8.71,39.88],[7.99,39.38],[6.33,39.75],[7.31,40.5],[7.16,40.85],[6.62,40.68],[6.9,41.03],[8.13,41.34],[7.31,42.73],[8.71,43.41]]]}},{"type":"Feature","properties":{},"geometry":{"type":"Polygon","coordinates":[[[26.13,49.81],[26.61,49.63],[25.78,49.57],[26.13,49.81]]]}},{"type":"Feature","properties":{},"geometry":{"type":"Polygon","coordinates":[[[-9.9,48.13],[-9.77,47.75],[-10.23,48.05],[-9.9,48.13]]]}},{"type":"Feature","properties":{},"geometry":{"type":"Polygon","coordinates":[[[-20.1,49.02],[-20.47,48.24],[-20.72,48.68],[-20.1,49.02]]]}},{"type":"Feature","properties":{},"geometry":{"type":"Polygon","coordinates":[[[-21.99,49.75],[-21.82,49.45],[-23.15,48.96],[-22.93,49.64],[-21.99,49.75]]]}},{"type":"Feature","properties":{},"geometry":{"type":"Polygon","coordinates":[[[-40.72,79.01],[-47.74,78.64],[-46.78,78.83],[-47.21,79.05],[-42.7,79.32],[-40.72,79.01]]]}},{"type":"Feature","properties":{},"geometry":{"type":"Polygon","coordinates":[[[-23.69,52.8],[-23.44,52.08],[-23.1,52.31],[-21.46,51.28],[-21.66,50.71],[-20.42,50.42],[-21.1,50.14],[-22.38,50.96],[-24.2,50],[-24.28,50.66],[-25.33,50.59],[-24.53,51.02],[-23.69,52.8]]]}},{"type":"Feature","properties":{},"geometry":{"type":"Polygon","coordinates":[[[57.94,65.77],[58.34,65.59],[57.49,65.42],[57.94,65.77]]]}},{"type":"Feature","properties":{},"geometry":{"type":"Polygon","coordinates":[[[-16.02,54.57],[-15.45,54.32],[-16.36,54.52],[-16.02,54.57]]]}},{"type":"Feature","properties":{},"geometry":{"type":"Polygon","coordinates":[[[-17.05,54.87],[-16.5,54.68],[-16.68,53.96],[-17.88,53.81],[-17.75,54.65],[-17.05,54.87]]]}},{"type":"Feature","properties":{},"geometry":{"type":"Polygon","coordinates":[[[16.4,58.41],[17.14,58.12],[16.28,57.67],[16.4,58.41]]]}},{"type":"Feature","properties":{},"geometry":{"type":"Polygon","coordinates":[[[-18.27,75.47],[-25.95,76.28],[-29.57,77.4],[-30.62,77.26],[-27.89,76.76],[-32.48,76.36],[-37.46,76.66],[-36.67,77.07],[-37.32,77.27],[-35.35,77.27],[-36.95,77.49],[-33.34,77.7],[-36.25,78.04],[-35.06,78.55],[-37.82,78.65],[-35.2,78.73],[-35.72,78.87],[-35.38,79.03],[-30.69,78.98],[-28.19,78.46],[-23.12,78.74],[-21.75,78.24],[-22.48,78.12],[-22.2,77.85],[-20.14,78.18],[-21.37,78.84],[-19.89,78.65],[-17.77,75.4],[-18.27,75.47]]]}},{"type":"Feature","properties":{},"geometry":{"type":"Polygon","coordinates":[[[15.98,58.41],[16.34,58.11],[15.73,57.93],[15.98,58.41]]]}},{"type":"Feature","properties":{},"geometry":{"type":"Polygon","coordinates":[[[38.73,63.66],[39.42,63.39],[38.52,62.86],[37.91,63.27],[38.73,63.66]]]}},{"type":"Feature","properties":{},"geometry":{"type":"Polygon","coordinates":[[[17.32,59.12],[17.74,58.88],[17.01,58.63],[17.32,59.12]]]}},{"type":"Feature","properties":{},"geometry":{"type":"Polygon","coordinates":[[[-30.3,57.32],[-29.22,56.3],[-30.26,56],[-31.92,56.66],[-30.62,57.52],[-30.3,57.32]]]}},{"type":"Feature","properties":{},"geometry":{"type":"Polygon","coordinates":[[[-2.77,73.98],[-3.86,74.28],[-1.83,74.1],[-2.77,73.98]]]}},{"type":"Feature","properties":{},"geometry":{"type":"Polygon","coordinates":[[[17.96,59.86],[18.32,59.81],[17.73,59.65],[17.96,59.86]]]}},{"type":"Feature","properties":{},"geometry":{"type":"Polygon","coordinates":[[[-6.35,51.96],[-5.21,51.27],[-6.59,51.09],[-6.08,51.1],[-6.94,51.4],[-6.35,51.96]]]}},{"type":"Feature","properties":{},"geometry":{"type":"Polygon","coordinates":[[[43.81,66.28],[45.84,65.92],[44.02,65.86],[43.81,66.28]]]}},{"type":"Feature","properties":{},"geometry":{"type":"Polygon","coordinates":[[[8.9,53.2],[9.23,52.85],[7.74,52.49],[8.9,53.2]]]}},{"type":"Feature","properties":{},"geometry":{"type":"Polygon","coordinates":[[[-16.39,73.51],[-15.31,73.42],[-16.21,73.03],[-16.39,73.51]]]}},{"type":"Feature","properties":{},"geometry":{"type":"Polygon","coordinates":[[[-17.63,72.78],[-19.58,73.05],[-16.9,73.42],[-16.69,72.87],[-17.63,72.78]]]}},{"type":"Feature","properties":{},"geometry":{"type":"Polygon","coordinates":[[[152.63,84.35],[154.38,84.31],[151.1,84.27],[152.63,84.35]]]}},{"type":"Feature","properties":{},"geometry":{"type":"Polygon","coordinates":[[[-9.76,33.48],[-8.9,32.47],[-7.57,32.06],[-7.1,32.38],[-6.29,31.83],[-9.04,31.02],[-9.99,29.89],[-10.54,30.18],[-10.32,31.01],[-10.6,30.87],[-9.21,31.78],[-8.96,31.4],[-8.26,31.83],[-9.58,31.77],[-9.27,32.42],[-12.39,30.66],[-12.99,30.89],[-13.12,30.38],[-14,30.17],[-14.69,28.76],[-14.1,28.16],[-13.87,28.5],[-13.81,28.01],[-14.83,27.92],[-14.98,28.27],[-15.07,27.83],[-15.77,27.75],[-13.49,31.06],[-9.76,33.48]]]}},{"type":"Feature","properties":{},"geometry":{"type":"Polygon","coordinates":[[[-12.79,-24],[-15.24,-28.51],[-14.17,-26.59],[-14.95,-26.25],[-14.68,-26.58],[-15.47,-28.1],[-15.58,-29.52],[-16.66,-31.28],[-18.51,-31.86],[-20.23,-31.68],[-20.93,-31.12],[-20.75,-30.17],[-21.09,-30.41],[-20.9,-31.74],[-19.41,-32.38],[-19.21,-33.25],[-27.1,-32.01],[-28.86,-31.45],[-34.44,-24.61],[-34.94,-22.76],[-34.77,-20.88],[-35.53,-18.43],[-28.68,-20.97],[-21.92,-22.83],[-12.79,-24]]]}},{"type":"Feature","properties":{},"geometry":{"type":"Polygon","coordinates":[[[-23.06,-35.42],[-23.64,-35.29],[-23.11,-35.85],[-23.42,-35.81],[-23.05,-37.4],[-25.61,-37.78],[-25.18,-38.98],[-24.56,-39.24],[-24.01,-38.76],[-23.69,-39.42],[-24.97,-39.54],[-24.25,-39.73],[-24.99,-40.55],[-24.78,-41.84],[-26.03,-42.44],[-26.34,-43.33],[-25.26,-44.06],[-24.24,-44.08],[-24.01,-44.81],[-25.26,-46.15],[-25.2,-47.14],[-25.9,-47.13],[-25.56,-47.38],[-26.06,-47.88],[-25.74,-49],[-24.7,-49.49],[-26.8,-50.28],[-26.63,-51.46],[-27.96,-51.18],[-27.27,-51.17],[-26.95,-50.47],[-27.5,-50.22],[-28.72,-50.41],[-28.57,-50.91],[-29.03,-50.98],[-28.71,-50.44],[-29.42,-50.77],[-29.74,-50.11],[-28.83,-50.19],[-28.87,-49.86],[-28.55,-50.06],[-28.84,-50.37],[-28.45,-50.31],[-28.66,-49.63],[-29.46,-49.22],[-28.74,-49.61],[-29.51,-49.58],[-29.04,-49.79],[-29.24,-50.08],[-29.58,-49.66],[-29.27,-50.16],[-30.07,-49.73],[-30,-49.27],[-30.66,-49.11],[-29.97,-48.73],[-30.27,-48.48],[-30.5,-49.01],[-30.66,-48.54],[-31.38,-48.5],[-30.56,-48.44],[-31.26,-47.88],[-30.61,-47.86],[-31.19,-47.3],[-31.44,-47.67],[-31.7,-47.1],[-31.36,-46.98],[-31.74,-46.91],[-31.32,-46.64],[-32.2,-46.38],[-30.89,-46.16],[-31.5,-45.78],[-32.37,-46.11],[-31.88,-45.89],[-32.29,-45.78],[-31.93,-45.45],[-32.3,-45.09],[-33.63,-45.37],[-33.07,-44.27],[-32.46,-44.16],[-31.95,-44.86],[-31.63,-43.85],[-31.99,-44.03],[-32.02,-43.69],[-31.38,-43.56],[-32.14,-43.45],[-31.48,-42.62],[-32.27,-42.41],[-32.06,-40.72],[-32.44,-40.53],[-31.96,-40.63],[-32.6,-40.16],[-32.16,-39.66],[-33.48,-40.14],[-33.96,-38.45],[-33.64,-37.75],[-34.68,-35.84],[-34.23,-35.53],[-33.67,-31.77],[-34.67,-27.29],[-34.5,-23.36],[-30.6,-27.66],[-27.33,-32.44],[-23.06,-35.42]]]}},{"type":"Feature","properties":{},"geometry":{"type":"Polygon","coordinates":[[[-37.6,11.26],[-35.63,11.59],[-34.41,11.15],[-33.03,11.8],[-33.67,11.88],[-31.29,12.31],[-32.3,11.93],[-31.64,11.3],[-30.12,11.16],[-30.11,10.26],[-29.18,10.41],[-27.68,9.63],[-27.45,8.46],[-27.2,8.97],[-25.9,8.06],[-23.83,8.53],[-21.66,8.26],[-19.79,7.16],[-19.21,5.58],[-18.09,4.66],[-19.35,2.57],[-18.73,3.15],[-18.99,2.42],[-18.42,3.09],[-16.37,3.14],[-16.69,1.94],[-18.18,1.26],[-17.09,1.63],[-17.14,1.17],[-16.17,1.98],[-15.87,2.95],[-14.78,2.93],[-13.22,2.51],[-13.18,2.08],[-12.75,2.46],[-12.45,2.18],[-12.55,1.64],[-12.14,1.62],[-12.43,0.6],[-12.07,1.48],[-11.92,1.12],[-11.16,1.75],[-9.96,1.4],[-7.71,1.63],[-4.69,-0.12],[-2.75,-0.45],[-2.05,-2.91],[-4.65,-7.8],[-5.12,-8.3],[-5.35,-7.93],[-5.16,-13.01],[-6.41,-17.51],[-7.27,-18.6],[-9.58,-18.83],[-12.89,-21.79],[-13.41,-21.76],[-13.01,-21.92],[-13.39,-22.55],[-13.05,-22.58],[-12.91,-24.49],[-22.02,-23.04],[-28.71,-20.97],[-35.47,-18.22],[-36.87,-16.78],[-41.64,-14.8],[-45.58,-8.9],[-46.8,-7.55],[-48.01,-7.02],[-47.83,-6.47],[-48.4,-5.27],[-47.34,-4.26],[-47.12,-3.37],[-47.4,-3.16],[-47.63,-3.62],[-48.45,-3.18],[-47.96,-0.13],[-46.94,0.42],[-46.72,1.38],[-42.56,4.01],[-41.53,7.61],[-38.84,10.79],[-37.6,11.26]]]}},{"type":"Feature","properties":{},"geometry":{"type":"Polygon","coordinates":[[[-47.24,7.11],[-46.37,6.38],[-46.61,7.01],[-45.4,7.99],[-45.18,9.42],[-43.27,10.1],[-41.8,11.44],[-41.21,11.09],[-42,10.51],[-41.52,9.7],[-41.97,8.75],[-41.47,8.04],[-40.87,8.77],[-41.54,9.79],[-40.09,10.59],[-40.14,11.35],[-39.66,10.65],[-38.22,10.22],[-39.44,9.5],[-42.24,6.43],[-43.4,2.87],[-47.65,0.4],[-46.2,2.38],[-46.75,2.62],[-46.79,4.98],[-47.64,5.78],[-47.24,7.11]]]}},{"type":"Feature","properties":{},"geometry":{"type":"Polygon","coordinates":[[[-19.59,-32.5],[-18.92,-33.11],[-19.42,-34.43],[-23.19,-36.02],[-27.1,-33.49],[-29.2,-30.83],[-19.59,-32.5]]]}},{"type":"Feature","properties":{},"geometry":{"type":"Polygon","coordinates":[[[-60.49,26.54],[-60.14,26.45],[-60.18,27.02],[-60.86,27.03],[-61.64,29.46],[-60.56,30.01],[-59.15,29.1],[-57.41,25.9],[-57.08,24.47],[-57.44,23.38],[-60.49,26.54]]]}},{"type":"Feature","properties":{},"geometry":{"type":"Polygon","coordinates":[[[-61.64,29.46],[-61.14,30.66],[-61.33,32],[-60.21,35.28],[-59.76,35.26],[-60.26,35.32],[-60.17,35.96],[-59.79,35.96],[-60.19,35.99],[-60.35,37.48],[-58.77,37.02],[-59.12,35.92],[-58.44,36.3],[-58.6,37.66],[-57.78,37.96],[-57.78,36.53],[-56.25,36.28],[-55.46,35.06],[-53.58,34.69],[-54.25,33.05],[-58.34,31.45],[-61.64,29.46]]]}},{"type":"Feature","properties":{},"geometry":{"type":"Polygon","coordinates":[[[-66.55,13.76],[-66.64,14.18],[-66.32,14.11],[-66.55,13.76]]]}},{"type":"Feature","properties":{},"geometry":{"type":"Polygon","coordinates":[[[-66.03,14.59],[-66.86,14.15],[-67.03,15],[-66.96,14.54],[-67.42,14.43],[-67.32,15.14],[-67.63,14.67],[-68.03,14.97],[-67.7,15.43],[-68.2,15.25],[-67.73,15.89],[-68.14,16.14],[-68.26,15.31],[-69,15.41],[-68.55,15.98],[-68.93,15.56],[-68.96,16.12],[-69.73,15.81],[-69.25,16.09],[-69.98,16.2],[-69.26,16.73],[-69.98,16.4],[-70.04,16.78],[-69.57,17.2],[-69.26,16.85],[-69.45,17.2],[-69.04,17.32],[-69.63,17.41],[-66.76,15.78],[-66.03,14.59]]]}},{"type":"Feature","properties":{},"geometry":{"type":"Polygon","coordinates":[[[-69.48,17.58],[-70.34,17.15],[-70.04,17.64],[-70.46,17.95],[-69.48,17.58]]]}},{"type":"Feature","properties":{},"geometry":{"type":"Polygon","coordinates":[[[-54.94,24.5],[-55.1,23.97],[-57.17,23.83],[-57.15,25.18],[-58.77,28.55],[-60.56,30.01],[-58.34,31.45],[-54.25,33.05],[-53.58,34.69],[-53.02,34.65],[-52.3,34.36],[-54.94,24.5]]]}},{"type":"Feature","properties":{},"geometry":{"type":"Polygon","coordinates":[[[-55.04,24.41],[-54.95,23.74],[-57.47,25.48],[-54.49,35.85],[-52.8,35.34],[-53.11,34.02],[-51.36,32.62],[-52.84,28.93],[-54.37,27.26],[-55.04,24.41]]]}},{"type":"Feature","properties":{},"geometry":{"type":"Polygon","coordinates":[[[-51.51,21.49],[-54.07,22.21],[-54.95,23.46],[-56.3,24.3],[-55.49,27.78],[-53.83,29.37],[-52.3,32.01],[-52.08,32.96],[-53.73,34.46],[-53.31,35.76],[-52.35,35.81],[-50.23,31.68],[-49.53,28.95],[-49.62,25.62],[-51.24,23.34],[-51.51,21.49]]]}},{"type":"Feature","properties":{},"geometry":{"type":"Polygon","coordinates":[[[-44.97,4.28],[-45.8,5.34],[-47.33,5.15],[-48.61,6],[-53.61,11.78],[-53.8,13.07],[-53.34,13.05],[-52.91,13.83],[-52.95,15.19],[-53.82,18.24],[-54.6,19.13],[-54.21,20],[-55.38,22.68],[-55.45,25.24],[-53.66,21.64],[-52.45,20.27],[-49.23,16.95],[-46.81,15.78],[-46.79,9.19],[-46.32,7.74],[-44.02,4.26],[-44.97,4.28]]]}},{"type":"Feature","properties":{},"geometry":{"type":"Polygon","coordinates":[[[-39.35,16.49],[-37.79,14.85],[-35.19,15.62],[-34.69,15.39],[-32.8,13.26],[-34.74,12.87],[-34.63,12.57],[-35.98,12.05],[-35.58,12.6],[-36.18,12.56],[-37.2,11.55],[-38.54,11.45],[-38.45,11.16],[-40.59,13.71],[-40.32,15.87],[-39.35,16.49]]]}},{"type":"Feature","properties":{},"geometry":{"type":"Polygon","coordinates":[[[-54.69,23.06],[-55.2,21.28],[-53.89,17.22],[-53.98,14.73],[-53.19,13.49],[-53.78,13.09],[-55.13,15.69],[-54.71,16.46],[-55.18,18],[-55.68,17.9],[-56.5,19.31],[-55.6,18.87],[-55.36,19.71],[-56.28,21.39],[-56.26,25.08],[-56.88,26.28],[-58.42,27.46],[-58.58,30.81],[-57.16,27.69],[-55.38,25.76],[-54.69,23.06]]]}},{"type":"Feature","properties":{},"geometry":{"type":"Polygon","coordinates":[[[-52.78,20.84],[-52.63,21.27],[-54.14,22.23],[-55.42,24.74],[-56.86,25.73],[-56.55,26.16],[-55.81,26.45],[-53.94,26.01],[-52.56,24.42],[-50.68,23.41],[-49.82,22.15],[-47.26,21.41],[-45.65,20.29],[-45.07,19.24],[-44.98,14.95],[-50.02,17.86],[-52.78,20.84]]]}},{"type":"Feature","properties":{},"geometry":{"type":"Polygon","coordinates":[[[-50.95,75],[-50.66,75.4],[-51.23,75.81],[-49.81,75.75],[-50.62,75.9],[-48.46,76.52],[-40.75,76.61],[-43.2,74.73],[-44.79,75.07],[-46.92,74.15],[-50.95,75]]]}},{"type":"Feature","properties":{},"geometry":{"type":"Polygon","coordinates":[[[-46.72,74.09],[-43.67,74.19],[-45.88,74.13],[-44.38,73.78],[-41.95,74.33],[-35.65,74.19],[-35.97,73.99],[-35.14,73.62],[-37.16,72.9],[-35.9,71.7],[-36.71,71.27],[-36.8,70.56],[-37.75,70.24],[-37.5,69.54],[-39.19,69.84],[-39.49,69.63],[-38.88,69.37],[-42.74,68.78],[-43.17,68.2],[-46.26,67.08],[-46.46,66.47],[-50.71,64.72],[-52.97,65.4],[-54.82,68.11],[-51.81,69.24],[-48.78,71.83],[-45.52,73.2],[-46.72,74.09]]]}},{"type":"Feature","properties":{},"geometry":{"type":"Polygon","coordinates":[[[-17.24,26.96],[-18.03,25.47],[-18.66,26.15],[-18.21,24.98],[-19.04,23.68],[-18.74,24.53],[-19.34,25.42],[-18.94,26.14],[-19.54,25.84],[-19.33,24.61],[-20.18,25.06],[-19.27,24.45],[-19.84,24.57],[-19.36,23.58],[-19.91,23.82],[-19.1,23.49],[-18.74,22.35],[-19.08,23.28],[-18.95,22.63],[-19.77,22.55],[-18.91,22.18],[-19.97,22.04],[-19.58,21.84],[-20.03,21.6],[-19.47,21.47],[-23.59,19.24],[-24.25,17.9],[-23.19,13.53],[-23.66,11.92],[-24.3,11.95],[-24.8,12.73],[-24.77,13.55],[-25.06,13.38],[-25.59,14.35],[-25.28,14.8],[-25.71,14.74],[-25.4,15.76],[-26.73,17.16],[-27.85,16.69],[-28,17.35],[-28.83,17.49],[-28.54,17.57],[-30.21,17.43],[-30.13,18.02],[-30.3,17.53],[-31.33,17.61],[-33.59,18.69],[-30.43,19.04],[-26.35,20.2],[-23.56,22.02],[-20,25.54],[-17.24,26.96]]]}},{"type":"Feature","properties":{},"geometry":{"type":"Polygon","coordinates":[[[-50.82,7.7],[-48.34,5.17],[-47.89,3.15],[-51.28,0.9],[-52.77,1.11],[-52.84,1.69],[-53.1,1.13],[-53.14,2.08],[-52.48,2.4],[-52.37,5.1],[-52.05,4.82],[-51.81,5.22],[-52.68,5.83],[-53.89,8.54],[-53.91,11.34],[-53.07,10.86],[-52.6,9.55],[-50.82,7.7]]]}},{"type":"Feature","properties":{},"geometry":{"type":"Polygon","coordinates":[[[-26.17,56.68],[-26.69,56.54],[-26.2,56.01],[-26.47,55.46],[-25.18,56.28],[-24.65,55.72],[-25.14,55],[-24.64,54.06],[-23.2,55.59],[-22.41,55.82],[-22.95,56.11],[-22.87,56.72],[-20.86,56.36],[-21.51,56.3],[-20.36,55.88],[-20.87,55.6],[-20.4,55.33],[-21.34,55.18],[-20.58,54.15],[-22.18,53.13],[-22.45,53.72],[-23.31,53.74],[-22.88,53.77],[-22.53,52.95],[-24.41,53.48],[-23.9,53.06],[-25.07,52.3],[-27.71,53.18],[-24.87,52.2],[-26.2,51.07],[-27.13,51.36],[-27.79,50.65],[-30.02,51.4],[-27.83,50.36],[-30.39,49.41],[-30.02,49.14],[-30.86,48.89],[-30.5,48.78],[-31.57,47.52],[-31.92,46.63],[-30.63,46.18],[-30.35,44.75],[-30.66,44.34],[-29.01,44.48],[-25.14,42.18],[-23.04,41.94],[-23.23,39.74],[-21.9,38.04],[-21.42,37.85],[-21,38.33],[-20.69,37.81],[-20.28,38.99],[-20.53,40.64],[-21.1,41.31],[-19.52,41.87],[-18.49,42.99],[-18.73,44.6],[-19.87,45.3],[-18.76,46.57],[-18.88,47.43],[-19.39,47.39],[-18.79,48.11],[-19.23,48.86],[-18.65,49.16],[-16.65,48.61],[-16.03,48.97],[-14.56,48.07],[-14.63,47.61],[-13.11,47.51],[-13.22,46.52],[-14.21,46.53],[-13.29,46.41],[-13.33,45.75],[-12.85,45.5],[-13.82,45.1],[-12.62,45.36],[-12.19,44.98],[-13.1,44.17],[-12.06,45.02],[-11.84,44.35],[-10.85,45.29],[-10.59,44.74],[-10.58,45.35],[-10.05,45.48],[-10.4,45.71],[-9.88,45.84],[-10.25,46.19],[-9.42,46.7],[-9.65,46.47],[-8.64,45.65],[-9.15,45.47],[-8.26,45.16],[-8.8,44.74],[-8.03,44.95],[-8.6,44.43],[-7.94,44.64],[-7.5,44.11],[-7.99,43.96],[-7.08,43.58],[-7.3,43.1],[-7.99,43.24],[-6.48,42.04],[-6.22,42.29],[-6.46,41.49],[-5.78,41.86],[-5.49,41.7],[-5.86,41.26],[-5.29,41.77],[-5.25,41.36],[-3.86,41.17],[-6.44,39.75],[-3.93,40.79],[-3.76,40.05],[-2.73,40.18],[-2.55,39.49],[-2.86,39.47],[-2.49,39.28],[-3.11,39.23],[-2.38,39.1],[-2.86,39.08],[-2.4,38.74],[-3.36,38.03],[-4.75,38.02],[-4.93,37.29],[-5.83,36.71],[-10.85,36.7],[-11.58,35.75],[-12.95,35.21],[-14.72,33.31],[-10.68,35.63],[-9,35.2],[-9.38,35.28],[-9.04,34.95],[-9.86,34.45],[-11.11,34.42],[-9.4,34.17],[-9.76,33.48],[-13.49,31.06],[-15.77,27.75],[-16.93,27.51],[-20,25.54],[-23,22.49],[-25.75,20.54],[-30.43,19.04],[-36.56,18.85],[-41.82,16.2],[-41.82,14.07],[-44.47,14.53],[-45.16,16.01],[-45.28,19.83],[-47.02,21.15],[-47.31,21.86],[-46.98,23.25],[-45.24,26.06],[-45.6,30.64],[-47.65,34.56],[-50.07,42.28],[-53.41,45.77],[-54.06,47.05],[-54.94,51.1],[-53.72,52.41],[-53.38,54.82],[-57.21,57.83],[-56.85,59.77],[-55.98,60.68],[-56.42,61.28],[-55.43,60.82],[-55.37,61.44],[-53.9,61.66],[-53.57,61.38],[-54.14,61.21],[-50.29,61.41],[-52.71,60.84],[-51.79,61.03],[-52.12,60.53],[-51.23,60.99],[-48.79,61.01],[-49.23,61.19],[-48.95,61.46],[-48.37,59.94],[-47.07,60.63],[-47.67,59.82],[-45.6,59.89],[-41.5,57.61],[-43.01,57.37],[-42.69,57.18],[-39.21,56.8],[-38.2,55.88],[-38.7,55.82],[-38.13,54.9],[-38.33,55.37],[-37.69,55.66],[-38,56.37],[-36.02,56.95],[-38.27,56.91],[-36.21,57.29],[-35.39,56.07],[-34.82,56.29],[-34.18,55.69],[-31.75,55.44],[-31.65,56.11],[-31.1,56.21],[-30.2,55.85],[-30.53,55.58],[-29.88,55.79],[-30.55,55.02],[-29.89,54.64],[-29.69,55.54],[-28.12,55.95],[-28.27,56.41],[-28.91,56.15],[-27.95,56.84],[-29.59,57.63],[-28.89,58.15],[-29.37,58.29],[-29.1,58.75],[-27.72,59.19],[-28.03,59.32],[-27.23,59.04],[-27.16,58.09],[-26.47,57.36],[-27.57,56.96],[-26.17,56.68]]]}},{"type":"Feature","properties":{},"geometry":{"type":"Polygon","coordinates":[[[-73.56,20.18],[-73.75,19.71],[-74.07,20.03],[-73.77,20.46],[-74.35,20.9],[-74.1,20.19],[-74.52,20.03],[-75.14,23.17],[-76.33,24.53],[-77.84,25.64],[-79.32,25.79],[-78.94,26.07],[-82.1,25.68],[-82.58,25.34],[-82.26,24.94],[-83.18,24.65],[-86.28,24.68],[-86.6,24.32],[-88.4,24.83],[-88.37,25.15],[-89.79,25.24],[-88.28,25.44],[-87.63,24.79],[-87.32,25.22],[-85.18,25.22],[-83.85,26.16],[-84.68,26.29],[-84.47,26.74],[-85.16,26.35],[-85.4,27.26],[-82.43,28.17],[-77.91,27.64],[-76.74,27.17],[-74.74,25.26],[-73.56,20.18]]]}},{"type":"Feature","properties":{},"geometry":{"type":"Polygon","coordinates":[[[-64.54,31.05],[-64.3,31.31],[-64.55,31.07],[-65.73,32.49],[-70.63,34.17],[-69.65,34.14],[-70.65,34.48],[-70.61,35.18],[-70.95,34.27],[-71.65,34.71],[-71.13,35.16],[-72.01,35.08],[-71.64,35.07],[-71.99,35.36],[-71.33,35.99],[-71.81,35.76],[-71.53,36.27],[-71.88,35.74],[-72,36.67],[-72.25,35.45],[-72.56,36.55],[-73.27,36.51],[-73.3,36.07],[-73.06,36.83],[-74.66,37.68],[-74.37,37.8],[-74.84,38.11],[-74.29,37.96],[-75.02,38.31],[-74.74,38.54],[-75.18,38.41],[-75.05,38.92],[-75.71,38.68],[-76.31,39.72],[-76.07,38.96],[-80.94,42.63],[-77.26,43.01],[-76.04,42.67],[-74.81,40.89],[-72.59,39.65],[-70.36,39.32],[-63.78,33.42],[-62.5,29.94],[-63.92,29.71],[-64.54,31.05]]]}},{"type":"Feature","properties":{},"geometry":{"type":"Polygon","coordinates":[[[-60.22,49.04],[-59.33,47.36],[-59.26,43.87],[-60.54,45.06],[-61.1,47.13],[-60.22,49.04]]]}},{"type":"Feature","properties":{},"geometry":{"type":"Polygon","coordinates":[[[-61.86,59.12],[-61.79,57.57],[-59.55,56.33],[-58.06,54.85],[-58.36,52.44],[-59.55,51.12],[-58.6,47.07],[-57.93,45.81],[-54.53,42.34],[-52.35,35.81],[-57.69,37.05],[-58.54,37.66],[-58.81,38.53],[-58.15,42.79],[-59.12,44.48],[-59.62,47.27],[-61.55,52.02],[-64.47,55.49],[-70.75,60.35],[-69.25,60.77],[-63.06,60.62],[-61.28,61.29],[-60.83,60.7],[-61.86,59.12]]]}},{"type":"Feature","properties":{},"geometry":{"type":"Polygon","coordinates":[[[53.69,71.63],[52.98,71.21],[52.88,71.59],[53.69,71.63]]]}},{"type":"Feature","properties":{},"geometry":{"type":"Polygon","coordinates":[[[9.07,55.1],[10.33,54.87],[9.97,54.77],[10.35,54.48],[9.07,55.1]]]}},{"type":"Feature","properties":{},"geometry":{"type":"Polygon","coordinates":[[[9.5,55.34],[10.31,55.09],[8.85,55.15],[9.5,55.34]]]}},{"type":"Feature","properties":{},"geometry":{"type":"Polygon","coordinates":[[[-38.45,62.35],[-38.55,61.77],[-39.13,61.6],[-37.92,61.86],[-37.03,61.39],[-37.62,61.02],[-36.36,61.03],[-36.59,61.57],[-35.98,61.44],[-35.62,61.05],[-35.77,60],[-35.25,60.24],[-35.01,61.53],[-33.94,61.42],[-33.57,60.89],[-34.1,59.18],[-32.35,58.05],[-32.44,57.66],[-34.15,57.79],[-34.23,57.18],[-33.47,57.5],[-33.27,57.1],[-34.18,56.85],[-35.57,57.15],[-36.2,57.87],[-39.67,57.41],[-41.04,57.59],[-40.69,58.28],[-42.55,58.86],[-42.73,59.52],[-42.34,59.6],[-38.77,59.12],[-40.01,59.79],[-42.42,60.13],[-42.62,60.58],[-40.17,60.69],[-42.51,61.27],[-41.18,62.07],[-38.45,62.35]]]}},{"type":"Feature","properties":{},"geometry":{"type":"Polygon","coordinates":[[[36.96,67.96],[38.19,68],[37.84,67.66],[38.28,67.79],[38,67.54],[38.52,67.34],[38.11,67.3],[39.14,66.75],[42.5,66.07],[39.62,65.54],[39.21,65.78],[39.67,65.93],[38.58,66.17],[37.36,65.83],[36.63,66.27],[37.21,66.41],[37.01,66.97],[36.56,66.92],[37.15,67.11],[36.14,67.08],[36.75,67.29],[36.09,67.42],[36.96,67.96]]]}},{"type":"Feature","properties":{},"geometry":{"type":"Polygon","coordinates":[[[8.58,55.61],[9.64,55.45],[8.19,55.32],[8.58,55.61]]]}},{"type":"Feature","properties":{},"geometry":{"type":"Polygon","coordinates":[[[47.2,70.84],[47.68,70.82],[46.82,70.38],[46.17,70.65],[47.2,70.84]]]}},{"type":"Feature","properties":{},"geometry":{"type":"Polygon","coordinates":[[[-32.87,61.81],[-32.61,61.54],[-33.48,60.95],[-34.11,61.7],[-32.87,61.81]]]}},{"type":"Feature","properties":{},"geometry":{"type":"Polygon","coordinates":[[[-18.95,60.4],[-17.16,60.06],[-16.6,59.39],[-18.66,59.37],[-19.28,59.99],[-18.95,60.4]]]}},{"type":"Feature","properties":{},"geometry":{"type":"Polygon","coordinates":[[[-16.14,51.19],[-16.52,51.41],[-16.44,50.89],[-17.38,51.15],[-17.96,50.74],[-19.03,51.3],[-18.28,52.05],[-15.69,51.93],[-16.3,52.66],[-14.71,53.73],[-15.32,54.86],[-15.8,54.9],[-15.59,55.15],[-16.71,55.55],[-17.47,55.24],[-16.76,55.75],[-17.71,56.2],[-17.53,56.55],[-17.97,56.32],[-18.66,57.31],[-19.1,56.99],[-18.68,56.49],[-20.46,56.82],[-20.03,56.39],[-21.21,57.06],[-20.47,56.64],[-23,56.88],[-23.21,57.41],[-24.24,57.22],[-24.97,58.13],[-23.46,57.91],[-25.11,58.66],[-24.19,60.05],[-23.24,60.57],[-21.42,60.53],[-22.82,59.59],[-22.82,58.88],[-22.08,58.09],[-23.35,57.9],[-22.22,57.73],[-21.76,58.44],[-22.6,58.88],[-21.58,58.91],[-22.16,59.73],[-21.47,59.65],[-22.03,59.86],[-21.22,59.8],[-21.76,60.04],[-20.31,60.45],[-19.57,60.39],[-19.13,59.76],[-19.63,58.55],[-18.82,59.12],[-17.74,58.31],[-18.34,58.83],[-17.6,58.78],[-17.87,59.22],[-16.16,59.01],[-16.78,58.23],[-15.57,58.46],[-16.33,58.21],[-15.9,58.16],[-16.21,57.69],[-15.5,58.25],[-15.7,57.69],[-15.29,58.06],[-15.21,57.45],[-14.69,58.12],[-14.08,57.95],[-14.06,57.52],[-14.87,57.29],[-13.54,57.51],[-14.41,56.88],[-13.91,57],[-14.16,56.48],[-13.11,57.32],[-13.58,56.91],[-12.84,57.23],[-12.14,56.95],[-13.32,56.47],[-12.37,56.6],[-13.22,56.06],[-12.07,56.75],[-11.43,56.17],[-13.26,55.98],[-11.14,55.7],[-12.63,55.79],[-12.03,55.66],[-12.62,55.41],[-11.83,55.22],[-12.87,55.25],[-11.13,54.88],[-11.91,54.7],[-10.89,54.56],[-10.94,54.2],[-10.65,54.47],[-10.71,54.03],[-9.87,54.43],[-10.19,54.08],[-9.73,54.26],[-9.35,53.79],[-9.9,53.81],[-9.35,53.71],[-9.83,53.45],[-8.79,53.79],[-9.26,53.27],[-8.61,53.43],[-8.64,53.09],[-8.08,53.53],[-7.55,53.1],[-8.61,52.79],[-7.96,52.48],[-8.71,52.57],[-8.18,52.27],[-8.56,52.37],[-8.42,52.04],[-9.02,52.38],[-8.99,51.34],[-10.33,52.18],[-9.58,52.8],[-10.59,52.38],[-10.32,52.82],[-10.66,52.54],[-11.96,53.07],[-11.43,52.45],[-12.25,52.51],[-12.09,51.87],[-11.55,52.1],[-11.15,51.15],[-11.07,51.47],[-10.01,50.92],[-10.43,50.74],[-9.68,50.42],[-9.6,49.69],[-10.15,50.23],[-9.65,49.35],[-10.12,49.47],[-10.05,49],[-11,49.85],[-11,49.44],[-11.95,50.21],[-11.76,49.83],[-12.7,50.19],[-10.58,48.31],[-14.39,49.51],[-14.88,49.91],[-14.23,50.05],[-15.22,50.31],[-15.62,51.14],[-16.21,50.82],[-16.14,51.19]]]}},{"type":"Feature","properties":{},"geometry":{"type":"Polygon","coordinates":[[[169.22,86.73],[174.65,86.29],[157.97,86.25],[169.22,86.73]]]}},{"type":"Feature","properties":{},"geometry":{"type":"Polygon","coordinates":[[[-29.74,61.55],[-28.33,61.3],[-29.5,60.57],[-28.48,59.84],[-30.44,58.92],[-32.08,60.67],[-30.41,60.56],[-30.32,61.04],[-31.02,61.27],[-29.74,61.55]]]}},{"type":"Feature","properties":{},"geometry":{"type":"Polygon","coordinates":[[[-26.1,61.38],[-24.36,60.92],[-25.89,59.9],[-27.18,60.06],[-26.82,59.69],[-28.03,59.34],[-27.57,61.04],[-26.1,61.38]]]}},{"type":"Feature","properties":{},"geometry":{"type":"Polygon","coordinates":[[[161.87,86.82],[158.51,87.04],[163.29,87.07],[161.87,86.82]]]}},{"type":"Feature","properties":{},"geometry":{"type":"Polygon","coordinates":[[[72.85,80.37],[75.33,80.2],[72.33,80.27],[72.85,80.37]]]}},{"type":"Feature","properties":{},"geometry":{"type":"Polygon","coordinates":[[[-41.28,64.18],[-40.53,63.43],[-39.37,63.44],[-38.82,62.53],[-45.25,61.21],[-45.79,62.29],[-46.44,62.44],[-43.39,63.75],[-43.36,64.41],[-41.28,64.18]]]}},{"type":"Feature","properties":{},"geometry":{"type":"Polygon","coordinates":[[[11.09,57.87],[11.37,57.52],[10.56,57.82],[11.09,57.87]]]}},{"type":"Feature","properties":{},"geometry":{"type":"Polygon","coordinates":[[[-26.8,63.2],[-27.08,63.4],[-26.27,63.42],[-26.8,63.2]]]}},{"type":"Feature","properties":{},"geometry":{"type":"Polygon","coordinates":[[[-156.01,87.78],[-141.26,86.99],[-153.73,87],[-162.19,87.8],[-154.69,87.97],[-156.87,87.85],[-156.01,87.78]]]}},{"type":"Feature","properties":{},"geometry":{"type":"Polygon","coordinates":[[[-21.83,62.35],[-21.66,61.88],[-22.24,61.4],[-23.42,62.07],[-21.83,62.35]]]}},{"type":"Feature","properties":{},"geometry":{"type":"Polygon","coordinates":[[[124.84,87.86],[125.31,87.86],[115.5,88.14],[124.84,87.86]]]}},{"type":"Feature","properties":{},"geometry":{"type":"Polygon","coordinates":[[[179.99,87.77],[144.97,87.49],[125,88.47],[133.53,88.91],[132.68,88.89],[160.78,88.5],[158.57,88.63],[167.3,88.87],[162.2,89.03],[163.04,89.04],[179.99,88.68],[179.99,87.87],[178.76,87.83],[179.99,87.77]]]}},{"type":"Feature","properties":{},"geometry":{"type":"Polygon","coordinates":[[[-179.99,87.87],[-179.99,88.68],[-163.44,88.13],[-179.99,87.87]]]}},{"type":"Feature","properties":{},"geometry":{"type":"Polygon","coordinates":[[[-24.58,64.5],[-24.44,64.16],[-25.18,64.26],[-24.58,64.5]]]}},{"type":"Feature","properties":{},"geometry":{"type":"Polygon","coordinates":[[[-22.19,63.73],[-23.25,62.5],[-24.02,62.28],[-25.13,62.63],[-24.05,63.07],[-25.56,63.35],[-24.61,63.35],[-23.95,64],[-23.82,63.28],[-23.27,63.43],[-23.51,63.92],[-22.19,63.73]]]}},{"type":"Feature","properties":{},"geometry":{"type":"Polygon","coordinates":[[[-26.24,65.27],[-27.53,64.41],[-26.33,64.04],[-27.69,63.51],[-31.72,64.11],[-32.08,64.63],[-29.63,64.44],[-31.28,64.81],[-30.7,65.13],[-31.93,64.94],[-32.64,65.61],[-30.79,65.48],[-31.88,65.77],[-30.31,65.58],[-31.11,65.92],[-29.29,66.05],[-29.45,65.66],[-28.83,65.39],[-29.35,64.71],[-28.41,64.31],[-27.7,65.2],[-26.24,65.27]]]}},{"type":"Feature","properties":{},"geometry":{"type":"Polygon","coordinates":[[[36.69,72.78],[38.8,72.37],[37.07,70.51],[37.36,70.18],[36.98,70.03],[37.63,69.9],[37.04,69.79],[37.63,69.68],[36.94,69.68],[37.54,69.46],[36.77,69.41],[37.66,69.23],[37,68.85],[37.91,68.65],[36.97,68.6],[38.06,68.55],[37.1,68.45],[38.14,68.11],[36.43,67.73],[36.25,68.09],[37.03,68.3],[35.42,67.99],[36.01,68.35],[35.58,68.55],[36.62,68.66],[35.49,68.63],[35.73,69.01],[35.13,69.1],[35.81,69.28],[34.33,69.47],[35.16,69.92],[34.57,70.21],[34.9,70.9],[35.39,70.9],[34.96,71.15],[36.99,72.15],[36.52,72.22],[36.69,72.78]]]}},{"type":"Feature","properties":{},"geometry":{"type":"Polygon","coordinates":[[[-20.5,63.68],[-19.87,63.32],[-20.42,62.87],[-19.16,62.85],[-18.98,62.55],[-19.46,62.7],[-18.65,62.26],[-19.66,62.39],[-19.13,61.79],[-19.38,61.45],[-15.63,60.98],[-15.01,60.46],[-15.73,60.13],[-15.33,59.91],[-16.86,59.77],[-17.32,60.37],[-18.01,60.09],[-21.41,61.1],[-20.26,62.77],[-21.42,62.95],[-21.05,63.29],[-21.49,63.57],[-20.5,63.68]]]}},{"type":"Feature","properties":{},"geometry":{"type":"Polygon","coordinates":[[[-28.01,67],[-28.05,66.67],[-30.42,66.26],[-30.76,66.49],[-29.92,66.75],[-32.56,66.44],[-32.27,66.8],[-33.61,66.97],[-29.5,67.3],[-28.01,67]]]}},{"type":"Feature","properties":{},"geometry":{"type":"Polygon","coordinates":[[[-17.79,63.59],[-17.65,63.2],[-18.12,63.16],[-17.79,63.59]]]}},{"type":"Feature","properties":{},"geometry":{"type":"Polygon","coordinates":[[[64.47,45.34],[64.37,44.98],[63.43,44.94],[63.17,47.38],[59.41,51.28],[60.13,53.9],[59.82,55.16],[54.35,61.53],[54.43,62.81],[55.3,63.86],[61.01,62.38],[67.52,59.09],[72.02,58.08],[77.9,53.88],[93.15,49.6],[84.94,45.46],[77.33,39.37],[70.74,39.16],[66.33,40.51],[64.37,41.77],[65.57,43.68],[64.43,44.09],[64.47,45.34]]]}},{"type":"Feature","properties":{},"geometry":{"type":"Polygon","coordinates":[[[97.96,44.4],[99.22,44.07],[100.4,42.9],[97.64,40.95],[90.48,39.36],[88.49,37.89],[85.61,38.49],[81.35,41.61],[79.12,42.01],[85.21,44.55],[90.45,45.86],[97.96,44.4]]]}},{"type":"Feature","properties":{},"geometry":{"type":"Polygon","coordinates":[[[99.39,48.24],[95.51,46.97],[86.73,46.34],[93.15,49.6],[96.85,48.48],[99.39,48.24]]]}},{"type":"Feature","properties":{},"geometry":{"type":"Polygon","coordinates":[[[104.25,37.72],[109.79,35.46],[107.62,35.21],[101.77,36.54],[94.87,36.89],[85.76,35.62],[86.38,36.45],[93.51,39.47],[96.19,40.1],[104.25,37.72]]]}},{"type":"Feature","properties":{},"geometry":{"type":"Polygon","coordinates":[[[145.89,57.77],[147.15,57.85],[146.38,57.5],[147.19,57.45],[147.94,57.83],[147.74,57.37],[148.08,58.12],[149.32,58.07],[150.93,56.99],[150.16,56.84],[150.89,55.84],[149.74,54.97],[148.86,52.23],[142.9,47.55],[141.32,46.92],[139.81,47.01],[139.83,47.51],[138.59,46.77],[134.41,47.97],[130.19,48],[119.92,47.82],[109.53,46.37],[105.73,47.06],[100.15,46.77],[96.62,47.56],[94.7,48.94],[100.79,48.72],[106.16,49.62],[110.93,51.48],[115.1,52.21],[118.27,53.85],[123.39,54.59],[126.97,57.22],[130.28,58.47],[137.19,57.69],[145.89,57.77]]]}},{"type":"Feature","properties":{},"geometry":{"type":"Polygon","coordinates":[[[72.64,78.57],[74.15,77.72],[73.32,78.19],[75.62,78.62],[74.66,78.65],[75.41,79.52],[73.14,79.51],[74.51,79.68],[74.28,79.88],[79.89,79.84],[78.66,80.01],[79.59,80.54],[83.98,81.21],[87.92,81.08],[93.07,81.8],[89.18,82.32],[90.25,82.41],[89.62,82.63],[102.25,83.19],[102.78,83.16],[101.78,83.08],[107.06,82.56],[106,82.21],[109.18,82.22],[108.04,82.07],[108.47,81.99],[116.41,81.97],[114.52,82.69],[119.99,81.58],[122.86,79.55],[124.18,79.36],[146.17,78.68],[160.59,77.05],[165.96,75.27],[166.81,74.1],[166.64,72.61],[152.75,71.84],[143.62,67.15],[146.11,67.05],[146.24,66.24],[135.38,65.02],[126.6,64.73],[123.63,63.01],[121.21,59.92],[116.04,58.35],[113.52,56.24],[109.52,54.81],[105.49,52.17],[100.49,50.35],[94.42,49.46],[84.25,51.83],[77.9,53.88],[73.01,57.65],[67.52,59.09],[59.24,63.01],[55.89,65.22],[59.28,65.35],[59.72,66.37],[59.45,67.12],[57.69,67.92],[58.89,68.58],[62.31,67.46],[62.72,67.84],[64.63,67.81],[61.56,67.77],[61.02,68.07],[61.33,68.34],[59.86,68.74],[56.47,68.14],[54.44,69.39],[52.04,69.74],[51.67,70.16],[51.96,70.74],[50.48,71.23],[54.5,70.18],[56.93,70.47],[53.25,70.72],[54.79,71.14],[53.6,71.27],[54.28,71.55],[53.91,71.6],[58.86,72.11],[60.87,70.68],[60.68,70.94],[64.24,70.81],[61.65,70.99],[62.06,71.13],[59.37,72.14],[55.52,72.14],[52.7,72.85],[56.33,74.46],[52.79,74.82],[54.06,74.88],[52.45,75.18],[53.21,75.47],[52.63,75.91],[53.16,75.95],[52.92,76.16],[53.97,77.14],[52.77,77.05],[54.58,77.66],[55.28,77.41],[55.01,77.65],[55.97,77.93],[55.35,78.27],[56.53,78.35],[54.45,78.38],[55.3,78.88],[50.76,79.95],[53.61,80.28],[54.25,79.75],[56.8,80.37],[58.65,80],[59.17,80.25],[58.07,80.47],[59.46,81.1],[66.52,81.34],[68.25,81.11],[65.5,80.97],[69,81.11],[70.93,80.65],[71.62,80.28],[71.15,80.21],[71.5,80.04],[71.04,79.84],[71.68,79.74],[71.35,79.53],[73.03,78.92],[71.34,78.43],[72.64,78.57]]]}},{"type":"Feature","properties":{},"geometry":{"type":"Polygon","coordinates":[[[146.98,66.48],[146.66,66.56],[147.54,66.8],[146.98,66.48]]]}},{"type":"Feature","properties":{},"geometry":{"type":"Polygon","coordinates":[[[53.7,66.36],[53.2,66.98],[50.63,67.03],[49.27,68.07],[48.49,68.05],[48.04,68.43],[48.21,69.12],[46.65,70.2],[49.43,70.69],[51.07,69.57],[57.39,67.53],[58.12,66.81],[58.2,65.85],[55.86,65.24],[53.7,66.36]]]}},{"type":"Feature","properties":{},"geometry":{"type":"Polygon","coordinates":[[[84.06,14.47],[88.75,14.84],[92.63,14.1],[94.51,12.56],[96.68,9.17],[91.58,11.52],[83.93,11.34],[80.87,11.97],[77.37,13.78],[74.14,16.62],[73.37,18.04],[78.85,15.2],[84.06,14.47]]]}},{"type":"Feature","properties":{},"geometry":{"type":"Polygon","coordinates":[[[41.66,-39.14],[42.24,-39],[42.06,-38.21],[41.73,-38.98],[41.96,-38.03],[41.62,-37.53],[41.68,-38.58],[41.11,-39.01],[38.84,-38.36],[39.26,-38.02],[38.44,-37.98],[39.06,-37.48],[37.46,-36.91],[36.84,-37.3],[35.71,-37.05],[30.59,-34.49],[30.07,-34.65],[28.33,-33.08],[21.95,-34.14],[21.58,-33.56],[20.72,-33.4],[20.54,-33.8],[20.16,-33.01],[19.21,-32.83],[18.74,-32.16],[19.46,-31.25],[27.1,-26.4],[30.45,-24.92],[32.14,-24.45],[32.56,-24.79],[32.33,-24.29],[32.99,-24.32],[32.94,-23.93],[31.73,-24.04],[30.83,-22.95],[32,-20.91],[32.6,-21.94],[33.23,-22.07],[32.61,-21],[33,-20.13],[33.57,-20.34],[33.13,-20.01],[33.51,-19.9],[33.26,-19.18],[34.15,-18.95],[34,-18.22],[34.79,-17.91],[34.34,-17.32],[38.11,-16.64],[40.79,-17.02],[46.39,-18.9],[47.63,-20.08],[47.73,-21.04],[46.63,-22.27],[45.12,-26.26],[44.85,-31],[45.57,-33.1],[49.99,-39.7],[50.17,-40.93],[41.66,-39.14]]]}},{"type":"Feature","properties":{},"geometry":{"type":"Polygon","coordinates":[[[75.16,28.02],[77.4,26.93],[78.95,26.72],[80.03,26.88],[80.83,27.82],[86.69,29.4],[93.07,28.2],[97.52,26.23],[98.61,23.89],[98.86,21.43],[96.27,24.38],[94,25.47],[90.66,25.7],[85.68,24.97],[80.07,25.22],[73.42,27.59],[72.29,27.5],[71.06,29.28],[73.01,29.24],[75.16,28.02]]]}},{"type":"Feature","properties":{},"geometry":{"type":"Polygon","coordinates":[[[104.26,29.17],[104.04,28.77],[102.83,31.08],[100.9,32.06],[92.19,33.99],[98.75,34.72],[103.57,34.12],[107.86,34.28],[106.18,32.62],[104.26,29.17]]]}},{"type":"Feature","properties":{},"geometry":{"type":"Polygon","coordinates":[[[55.86,65.24],[59.24,63.01],[55.3,63.86],[55.11,65.67],[55.86,65.24]]]}},{"type":"Feature","properties":{},"geometry":{"type":"Polygon","coordinates":[[[58.96,37.72],[58.21,38.58],[58.13,39.56],[56.63,39.65],[55.14,40.8],[56.33,41.01],[55.6,41.17],[55.91,41.8],[57.3,42.15],[56.38,43.49],[55.09,43.34],[53.94,42.29],[53.47,42.39],[53.4,41.49],[53.11,41.77],[53.13,41.4],[52.44,41.29],[51.98,40.07],[53.16,39.65],[53.24,38.75],[55.19,37.53],[49.58,38.15],[53.85,43.38],[60.16,46.66],[60.48,48.31],[59.41,51.28],[63.17,47.38],[63.31,44.34],[62.9,44.49],[63.09,43.97],[62.33,43.86],[62.29,42.77],[62.89,41.81],[63.88,42.17],[66.33,40.51],[70.74,39.16],[77.9,39.51],[75.76,37.12],[66.86,35.19],[58.99,37.22],[58.96,37.72]]]}},{"type":"Feature","properties":{},"geometry":{"type":"Polygon","coordinates":[[[43.95,-2.87],[43.44,-2.48],[42.01,-2.63],[41.2,-2.08],[39.79,-0.15],[39.67,2.37],[39.17,2.4],[39.03,3.04],[38.67,2.66],[37.92,3.06],[37.9,2.49],[37.44,2.52],[37.6,0.49],[38.27,-0.87],[37.87,-1.41],[37.98,-2.86],[38.67,-1.78],[39.13,-2.05],[38.24,-3.44],[38.63,-3.98],[40.79,-4.59],[43.38,-3.33],[42.8,-5.11],[44.29,-6.71],[44.71,-8.3],[42.99,-9.55],[42.34,-9.48],[41.88,-10.64],[40.9,-10.51],[40.13,-11.13],[39.27,-10.9],[38.59,-11.5],[36.04,-11.07],[35.48,-11.73],[31.66,-11.73],[28.67,-11.05],[27.83,-11.3],[26.51,-10.67],[26.87,-8.01],[27.67,-6.72],[27.47,-3.23],[26.82,-1.32],[27.52,1.38],[27,2.34],[27.13,6.51],[26.66,6.84],[30.91,11.23],[32.37,13.55],[34.6,13.86],[37.46,13.08],[39.05,8.53],[42.57,0.99],[43,-0.99],[44.33,-1.64],[43.95,-2.87]]]}},{"type":"Feature","properties":{},"geometry":{"type":"Polygon","coordinates":[[[47.99,-13.78],[46.75,-16.84],[44.9,-17.41],[38.03,-14.66],[35.86,-14.42],[36.83,-11.47],[38.72,-10.16],[40.23,-11.08],[43.24,-10.31],[44.81,-10.57],[48.3,-12.73],[47.99,-13.78]]]}},{"type":"Feature","properties":{},"geometry":{"type":"Polygon","coordinates":[[[80.11,25.44],[68.76,28.76],[70.78,32.2],[77.35,27.43],[80.64,27.47],[80.11,25.44]]]}},{"type":"Feature","properties":{},"geometry":{"type":"Polygon","coordinates":[[[68.24,15.57],[67.85,15.93],[68.83,17.82],[70.71,19.66],[71.46,19.72],[79.07,14.44],[73.24,14.77],[70.6,14.33],[68.24,15.57]]]}},{"type":"Feature","properties":{},"geometry":{"type":"Polygon","coordinates":[[[50.91,33.03],[51.67,32.64],[55.14,33.59],[59.3,30.46],[63.85,30.34],[64.38,29.57],[62.97,28.73],[60.76,29.33],[45.68,29.89],[45.11,30.62],[45.12,32.18],[48.14,33.72],[50.91,33.03]]]}},{"type":"Feature","properties":{},"geometry":{"type":"Polygon","coordinates":[[[6.26,73.42],[-1.81,74.15],[-2.11,74.41],[-1.73,74.71],[-3.09,75.32],[-5.2,75.16],[-5.15,74.63],[-4.56,74.57],[-5.4,74.07],[-15.98,75.04],[-17.16,75.29],[-19.37,78.7],[1.04,76.6],[5.21,75.06],[6.26,73.42]]]}},{"type":"Feature","properties":{},"geometry":{"type":"Polygon","coordinates":[[[-112.46,80.02],[-113.23,79.85],[-112.46,79.96],[-112.53,78.29],[-111.54,77.32],[-103.66,74.61],[-120.51,73.55],[-126.86,73.78],[-127.99,73.32],[-134.47,73.05],[-132.22,73.86],[-133.61,73.75],[-132.8,74.46],[-134.07,77.58],[-133.34,78.35],[-131.05,79.2],[-124.5,79.97],[-112.46,80.02]]]}},{"type":"Feature","properties":{},"geometry":{"type":"Polygon","coordinates":[[[179.99,84.49],[179.99,75.72],[176.15,77.1],[166.83,78.7],[140.93,80.66],[140.65,82.75],[136.68,84],[138.17,84.37],[139,84.32],[137.28,84.29],[154.74,84],[155.24,84.03],[154,84.15],[160.98,84.36],[158.25,84.79],[161.21,85.03],[157.16,85.1],[158.49,85.33],[164.8,85.46],[162.39,85.73],[162.99,85.75],[179.99,85.32],[179.99,84.71],[176.61,84.43],[179.99,84.49]]]}},{"type":"Feature","properties":{},"geometry":{"type":"Polygon","coordinates":[[[-179.99,84.71],[-179.99,85.32],[-167.81,84.67],[-166.61,84.44],[-170.36,84.24],[-164.28,83.61],[-163.76,83.24],[-164.91,83.27],[-163.18,83.03],[-150.96,82.61],[-147.4,81.75],[-149.92,81.19],[-148.47,80.82],[-160.4,79.96],[-165.49,78.9],[-166.59,77.97],[-166.45,77.19],[-162.67,74.2],[-162.99,73.46],[-168.03,73.62],[-172.67,72.4],[-173.58,71.79],[-171.92,71.46],[-178.19,71.4],[-178.47,71.68],[-176.47,71.73],[-179.28,72.09],[-178.88,72.16],[-179.18,72.2],[-178.25,74.44],[-179.99,75.72],[-179.99,84.49],[-177.4,84.71],[-179.99,84.71]]]}},{"type":"Feature","properties":{},"geometry":{"type":"Polygon","coordinates":[[[137.69,46.27],[136.26,45.45],[135.99,44.49],[133.49,43.2],[134.52,42.43],[135.53,40.31],[132.37,39.97],[132.1,40.73],[133.03,40.8],[132.62,40.98],[132.68,41.66],[131.55,41.91],[131.27,41.55],[130.9,41.82],[131.21,41.96],[130.57,42.03],[131.57,42.57],[131.12,42.75],[131.5,43.43],[130.39,43.9],[126.89,42.75],[127.77,43.4],[127.04,43.41],[127.3,43.81],[128.2,44.46],[127.73,44.96],[126.83,44.86],[124.62,43.29],[123.38,43.3],[123.17,42.56],[124.41,42.32],[124.65,41.3],[126.4,41.89],[128.46,41.37],[128.23,40.88],[125.66,40.27],[124.6,39.03],[125.67,38.4],[122.38,35.61],[117.74,37.34],[110.61,38.21],[97.97,43.74],[109.07,46],[119.4,47.35],[133.74,47.4],[137.69,46.27]]]}},{"type":"Feature","properties":{},"geometry":{"type":"Polygon","coordinates":[[[133.16,43.86],[133.44,42.44],[131.78,41.85],[131.96,41.56],[131.72,41.78],[131.7,41.31],[131.47,41.61],[130.89,40.98],[130.47,41.31],[130.87,41.33],[130.3,41.71],[130.7,42.63],[130.27,42.72],[133.16,43.86]]]}},{"type":"Feature","properties":{},"geometry":{"type":"Polygon","coordinates":[[[124.32,39.58],[125.56,38.08],[126.95,37.43],[125.21,37.3],[127.23,36.71],[125.77,35.69],[127.83,35.74],[127.23,35.18],[127.78,35.44],[127.88,35.13],[127.35,35],[127.84,34.15],[126.88,33.62],[126.78,32.14],[126.17,32.17],[126.7,31.85],[126.39,31.54],[126.69,30.8],[126.27,30.97],[125.91,29.8],[125.38,29.81],[125.07,28.74],[124.1,28.21],[124.19,27.73],[122.5,27.23],[122.19,26.55],[121.08,27.16],[121.47,26.32],[121.06,26.1],[120.78,26.48],[120.92,25.84],[120.34,25.93],[120.39,25.57],[118.47,24.82],[118.76,23.66],[117.96,24.16],[118.08,24.78],[117.63,24.95],[117.32,24.51],[116.49,24.86],[115.65,23.69],[114.94,23.55],[115.21,23.24],[114.69,22.38],[107.41,26.21],[106.74,27.14],[106.22,29.57],[107.18,32.05],[109.62,35.29],[111.75,36.03],[116.15,36.54],[122.27,36.12],[124.32,39.58]]]}},{"type":"Feature","properties":{},"geometry":{"type":"Polygon","coordinates":[[[111.62,22.38],[111.72,21.33],[112.24,20.93],[116.72,19.71],[118.56,17.71],[118.84,16.38],[117.28,14.49],[117.54,13.62],[116.6,11.94],[115.92,13.33],[114.51,13],[114.11,13.55],[113.89,13.09],[112.74,14],[111,13.52],[110.68,14.3],[109.97,14.12],[108.42,17.08],[107.95,20.28],[104.05,23.89],[111.62,22.38]]]}},{"type":"Feature","properties":{},"geometry":{"type":"Polygon","coordinates":[[[108.94,13.68],[110.22,10.55],[111.01,9.78],[111.44,10.22],[113.7,9.08],[115.08,9.38],[118.02,6.43],[115.69,6.7],[112.55,8.61],[111.24,8.75],[111.01,8.38],[108.23,12.11],[106.14,13.04],[104.89,14.15],[105.23,14.16],[103.63,14.19],[100.26,16.8],[98.44,18.79],[97.21,21.43],[100.31,22.3],[104.45,20.23],[105.49,19.38],[106.66,16.34],[108.94,13.68]]]}},{"type":"Feature","properties":{},"geometry":{"type":"Polygon","coordinates":[[[114.16,9.59],[116.28,9.43],[117.56,8.06],[119.23,7.48],[118.73,6.88],[117.19,6.73],[114.16,9.59]]]}},{"type":"Feature","properties":{},"geometry":{"type":"Polygon","coordinates":[[[26.98,-5.14],[29.17,-8.98],[29.07,-9.46],[28.12,-9.65],[28.75,-9.75],[29.46,-11.22],[34.65,-11.79],[36.15,-11.51],[36.59,-11.78],[35.95,-13.08],[36.35,-13.16],[35.81,-13.16],[35.5,-14],[31.22,-18.01],[28.64,-19.37],[23.52,-21.08],[22.54,-21.95],[20.97,-22.35],[19.21,-23.82],[18.27,-24.92],[18.65,-26.14],[17.75,-27.65],[17.59,-28.95],[18.27,-29.95],[17.69,-30.44],[16.29,-34.19],[14.83,-34.98],[11.59,-35.11],[7.82,-36.13],[10.18,-32.01],[11.76,-25.84],[14.27,-24.95],[15.05,-22.8],[18.27,-18.11],[19.27,-14.84],[20.45,-13.37],[21.69,-13.73],[22.49,-12.27],[26.69,-9.9],[26.98,-5.14]]]}},{"type":"Feature","properties":{},"geometry":{"type":"Polygon","coordinates":[[[7.76,-35.85],[7.16,-36.49],[7.05,-38.36],[5.7,-40],[1.35,-40.08],[1.27,-40.55],[1.78,-40.43],[-0.58,-42.17],[-5.09,-43.24],[-9.09,-43.55],[-11.38,-43.19],[-14.03,-41.57],[-16.93,-40.91],[-17.34,-39.7],[-17.82,-39.75],[-17.14,-38.22],[-16.54,-38.25],[-15.94,-37.49],[-15.23,-34.7],[-15.29,-32.49],[-12.78,-27.95],[-12.37,-22.76],[-11.21,-21.09],[-9.16,-19.45],[-7.16,-18.72],[-6.55,-17.74],[-6.38,-15.98],[-5.66,-15.57],[-5.46,-13.08],[-4.73,-13.25],[-5.33,-12.8],[-5.07,-11.52],[-5.85,-8.54],[-5.76,-6.57],[-5.17,-6.68],[-4.67,-6.01],[-4.26,-6.45],[-4.63,-5.85],[-2.75,-3.97],[-2.47,-2.97],[-2.97,-2.85],[-3.31,-1.6],[-4.48,-1.45],[-5.69,-0.5],[-2.39,-0.09],[-1.56,0.85],[1.1,1],[6.88,-3.32],[9.67,-3.49],[14.82,-4.72],[17.07,-11.29],[17.42,-13.52],[12.83,-16.49],[11.08,-19.33],[10.7,-21.29],[12.67,-26.03],[12.43,-27.28],[10.59,-32.08],[7.76,-35.85]]]}},{"type":"Feature","properties":{},"geometry":{"type":"Polygon","coordinates":[[[-8.67,27.82],[-8.29,28.79],[-7.14,29.55],[-4.24,29.79],[-2.43,30.91],[-1.87,30.74],[-1.62,29.74],[-0.27,29.39],[0.33,28.65],[3.82,28.58],[6.05,27.89],[7.04,27.08],[8.15,27.05],[9.18,26.26],[10.94,25.97],[0.66,25.99],[-4.81,27.72],[-8.67,27.82]]]}},{"type":"Feature","properties":{},"geometry":{"type":"Polygon","coordinates":[[[14.91,29.68],[14.61,28.93],[12.01,28.77],[10.64,27.99],[10.7,27.14],[7.82,26.21],[6.01,27.04],[4.67,26.86],[4.39,27.8],[4.85,27.97],[4.47,27.86],[4.37,28.47],[2.5,29.04],[3.57,30.11],[3.21,30.59],[3.89,30.77],[3.09,30.77],[4.92,32.13],[6.17,34.47],[7.47,34.43],[10.72,32.31],[12,32.03],[14.91,29.68]]]}},{"type":"Feature","properties":{},"geometry":{"type":"Polygon","coordinates":[[[-4.37,-1.84],[-4.48,-0.27],[-5.18,0.56],[-7.52,1.39],[-11.31,1.59],[-12.8,2.86],[-16.44,3.62],[-19.54,8.48],[-19.45,11.28],[-20.48,13.32],[-19.75,13.69],[-20.7,13.87],[-20.93,14.36],[-20.6,14.45],[-21.13,14.84],[-20.72,14.8],[-21.05,14.98],[-20.6,15.75],[-19.56,15.27],[-20.46,15.56],[-20.22,16.02],[-20.73,17.25],[-19.37,17.73],[-17.96,19.28],[-17.61,20.95],[-16.9,21.54],[-16.95,22.76],[-17.39,22.49],[-16.41,23.56],[-13.45,24.94],[-12.24,26.09],[-11.22,26.16],[-10.03,26.94],[-7.35,26.86],[-5.82,27.67],[-1.97,27.61],[3.53,25.95],[13.82,25.96],[13.89,25.33],[14.57,25.18],[13.69,24.78],[13.78,23.7],[12.46,23.24],[10.35,20.51],[6.27,11.44],[5.61,7.96],[6.65,2.87],[3.14,1.68],[2.23,0.33],[-0.4,-0.08],[-1.13,-1.1],[-4.37,-1.84]]]}},{"type":"Feature","properties":{},"geometry":{"type":"Polygon","coordinates":[[[27.45,10.08],[27.17,9.21],[27.73,3.47],[27.34,2.58],[28.06,0.27],[27.41,-1.19],[13.85,-4.67],[8.67,-3.58],[5.87,-3.48],[-0.02,0.69],[0.99,1.96],[4.58,2.88],[3.94,8.04],[4.87,11.45],[9.68,20.19],[11.83,22.34],[12.93,20.56],[14.94,18.95],[14.85,17.87],[16.81,15.57],[17.96,15.62],[18.65,16.79],[20.47,16.71],[21.16,15.5],[22.36,14.7],[22.32,14.22],[25.06,12.16],[26.4,12.31],[27.38,11.82],[27.45,10.08]]]}},{"type":"Feature","properties":{},"geometry":{"type":"Polygon","coordinates":[[[27.96,12.31],[27.09,13.21],[25.44,13.65],[24.72,15.48],[24.3,15.19],[23.64,15.51],[23.49,16.74],[22.71,17.2],[23.54,16.93],[22.86,17.49],[23.63,18.17],[23.36,18.86],[26.36,18.19],[27.07,17.64],[27.43,16.29],[28.75,15.94],[31.64,13.84],[32.83,10.88],[30.2,12.19],[27.96,12.31]]]}},{"type":"Feature","properties":{},"geometry":{"type":"Polygon","coordinates":[[[12.79,-25.69],[12.23,-25.99],[10.05,-21.32],[10.35,-19.35],[11.99,-16.45],[16.46,-13.33],[21.3,-13.76],[20.07,-15.19],[18.98,-18.44],[15.62,-23.04],[14.77,-25.17],[12.79,-25.69]]]}},{"type":"Feature","properties":{},"geometry":{"type":"Polygon","coordinates":[[[28.64,8.71],[27.37,7.66],[27.06,11.95],[28.05,10.98],[29.47,11.02],[31.85,13.04],[32.85,14.78],[32.1,13.03],[28.64,8.71]]]}},{"type":"Feature","properties":{},"geometry":{"type":"Polygon","coordinates":[[[27.13,-1.04],[27.09,-1.82],[27.79,-2.84],[27.77,-5.97],[28.11,-5.73],[27.69,-10.47],[23.42,-12.73],[22.58,-14.17],[19.92,-13.5],[16.5,-13.33],[13.98,-5.67],[14.03,-4.52],[27.13,-1.04]]]}},{"type":"Feature","properties":{},"geometry":{"type":"Polygon","coordinates":[[[45.98,37.81],[42.87,38.7],[43.94,39.77],[43.31,40.36],[44.09,40.49],[44.4,41.2],[41.78,39.99],[41.17,39.27],[41.19,39.7],[41.27,38.96],[41.91,38.59],[42.85,38.89],[42.72,38.53],[40.39,37.63],[39.87,38.39],[39.23,38.15],[40.16,38.9],[38.31,38.91],[38.01,39.13],[38.82,39.2],[38.33,39.49],[36.64,38.09],[36.92,37.14],[36.38,36.92],[33.77,38.07],[31.32,40.21],[25.04,42.99],[21.85,43.86],[24.4,45.1],[25.05,44.7],[25.71,45.11],[25.44,44.65],[26.11,45.24],[25.65,45.41],[26.2,45.66],[26.27,46.34],[26.11,45.53],[26.66,45.59],[25.91,47.14],[26.06,48.21],[26.69,48.53],[27.81,47.91],[28.3,48.3],[27.98,49.36],[27.32,49.26],[26.78,50.07],[31.59,51.66],[30.16,51.89],[30.02,52.31],[26.08,50.54],[25.92,51.06],[24.6,51.1],[24.39,52.05],[23.37,53.16],[24.78,55.55],[25.34,55.67],[24.99,56.26],[22.28,56.07],[22.71,55.93],[22.18,55.65],[22.53,55.35],[22.25,55.11],[22.9,54.8],[22.55,54.06],[21.2,52.75],[20.64,53.08],[21.15,52.64],[20.75,52.37],[21.36,50.62],[23.2,49.97],[22.47,49.52],[22.96,49.33],[22.65,48.94],[22.35,49.23],[22.38,48.82],[21.43,48.52],[22.06,48.46],[21.57,48.39],[22.1,48.15],[22.26,46.64],[22.05,45.98],[20.9,45.68],[20.96,45.1],[19.88,44.93],[19.32,45.78],[19.61,46.11],[18.31,47.08],[18.26,47.73],[17.75,47.65],[16.88,49.12],[16.82,48.71],[16.52,48.89],[16.8,48.21],[16.2,48.22],[15.54,47.1],[14.68,46.83],[13.48,47.25],[13.26,47.73],[13.85,47.6],[14.06,47.85],[13.48,47.79],[13.88,48.34],[12.86,48.15],[13.97,49.3],[13.32,49.19],[13.13,48.67],[12.58,48.99],[12.93,49.41],[12.61,49.18],[12.28,49.67],[13.87,49.67],[14.18,50.09],[12.4,49.72],[12.61,50.02],[12.04,50.33],[13.33,50.63],[11.97,50.78],[12.89,50.76],[12.57,50.89],[13.05,50.83],[13.05,51.19],[13.53,50.89],[12.69,51.27],[14.01,51.55],[13.16,51.47],[13.28,51.79],[14.3,51.58],[13.7,51.86],[14.35,51.74],[13.87,51.99],[14.78,52.65],[15,52.34],[15.7,52.61],[15.78,53.27],[15.12,52.54],[14.62,52.75],[16.37,54.61],[15.73,54.42],[16.17,54.73],[15.89,55.16],[16.31,55.13],[15.84,55.32],[16.74,55.72],[16.02,55.45],[16.33,55.63],[15.82,55.78],[16.31,55.94],[15.88,55.99],[16.38,56.15],[15.97,56.25],[17.24,56.6],[16.37,56.63],[17.3,56.9],[16.38,57.23],[17.08,57.43],[16.6,57.5],[16.94,57.77],[17.56,57.41],[17.04,57.85],[18.14,58.14],[17.13,58.06],[17.84,58.35],[17.5,58.38],[17.88,58.44],[17.67,59.16],[18.73,59.08],[18.11,59.53],[18.67,59.28],[18.76,59.87],[18.94,59.17],[19.45,59.48],[18.97,59.7],[19.3,60.03],[20.06,59.88],[19.25,60.34],[20.75,60.26],[20.4,60.45],[21.05,61.02],[20.73,61.35],[21.63,61.39],[21.68,60.52],[21.97,61.54],[22.43,60.99],[22.8,61.56],[22.33,61.71],[22.88,61.89],[23.23,61.24],[23.64,61.35],[23.55,61.8],[25.34,61.6],[23.89,61.1],[24.91,60.74],[26.14,60.91],[26.37,61.37],[27.24,61.31],[26.56,61.19],[26.9,60.9],[27.77,61.07],[27.75,60.69],[29.49,61.22],[34.33,60.69],[35.25,59.93],[34.06,58.82],[28.44,58.75],[31.43,58.05],[31.4,57.49],[32.35,56.77],[34.81,56.52],[34.87,57.12],[33.5,57.24],[33.4,57.67],[34.75,57.65],[34.67,57.35],[36.57,57.72],[35.37,58.33],[35.6,59.09],[36.26,59.83],[38.18,59.59],[37.55,60.57],[36.69,60.76],[36.39,61.55],[35.01,61.94],[37.83,62],[38.23,61.75],[37.36,61.41],[37.4,60.99],[38.67,60.74],[39.78,61.09],[39.29,61.76],[40.12,62],[39.49,62.18],[41.37,63.4],[41.79,63.23],[41.4,63.43],[42.1,64.04],[42.58,64.19],[41.99,63.94],[42.8,63.57],[42.5,63.19],[43.28,63.22],[43.65,63.96],[45.06,64.31],[45.19,64.6],[44.76,64.44],[45.65,65],[46.52,64.55],[47.58,65.29],[45.83,65.72],[46.17,65.9],[45.89,66.11],[48.95,66.48],[54.11,66.26],[55.3,65.07],[55.3,63.86],[54.43,62.81],[54.35,61.53],[59.28,55.96],[60.1,54.41],[59.33,51.89],[60.48,48.31],[60.41,47.12],[59.24,45.84],[53.85,43.38],[49.58,38.15],[45.98,37.81]]]}},{"type":"Feature","properties":{},"geometry":{"type":"Polygon","coordinates":[[[16.7,44.2],[16.12,44.57],[15.92,45.76],[17.5,46.99],[17.45,45.92],[18.12,45.74],[17.23,44.87],[17.61,44.13],[16.7,44.2]]]}},{"type":"Feature","properties":{},"geometry":{"type":"Polygon","coordinates":[[[36.31,34.07],[36.11,35.05],[35.34,34.78],[35.26,35.3],[38.37,36.86],[37.74,36.78],[42.97,38.42],[46.17,38.33],[42.14,36.9],[41.01,35.95],[39.33,36.27],[38.34,35.92],[36.31,34.07]]]}},{"type":"Feature","properties":{},"geometry":{"type":"Polygon","coordinates":[[[24.2,23.16],[23.73,21.79],[22.96,21.93],[23.54,20.78],[23.3,20.33],[22.67,20.95],[22.7,20.33],[22.24,20.81],[22.03,20.13],[21.38,20.23],[21.5,20.66],[21.06,20.72],[21.42,21.88],[22.17,21.84],[22.96,21.03],[21.68,22.21],[21.78,22.79],[22.16,22.75],[21.94,24.71],[23.11,25.62],[22.1,28.65],[22.68,30.38],[22.57,30.8],[21.85,30.59],[22.46,31.5],[21.63,31.86],[20.5,30.94],[20.71,29.84],[20.26,29.07],[20.38,27.91],[21.01,27.38],[20.56,27.14],[21.2,24.85],[20.84,24.78],[20.4,25.89],[19.66,25.6],[19.52,24.65],[17.86,24.55],[18.83,25.03],[19.32,26.21],[18.24,30.26],[18.94,31.86],[18.49,32.91],[17.26,33.04],[17.22,33.7],[18.39,35.05],[22.28,34.29],[26.29,31.76],[24.17,30.63],[24.5,26.68],[24.2,23.16]]]}},{"type":"Feature","properties":{},"geometry":{"type":"Polygon","coordinates":[[[18.39,32.93],[17.27,32.01],[15.41,32.31],[14.69,31.33],[10.7,31.8],[10.71,33.74],[11.27,33.32],[10.61,34.52],[9.09,35.71],[7.7,35.73],[7.36,35.95],[7.77,36.25],[7.27,36.44],[10.04,36.82],[9.39,37.86],[10.86,37.54],[11.51,38.2],[13.87,37.51],[16.05,37.65],[19.4,40.67],[22.06,41.79],[26.57,42.2],[29.56,40.76],[26.93,39.87],[25.03,38.45],[20.52,37.26],[18.39,36.2],[17.04,34.84],[17.72,33.28],[18.39,32.93]]]}},{"type":"Feature","properties":{},"geometry":{"type":"Polygon","coordinates":[[[11.51,38.2],[12.24,38.62],[12.04,39.3],[14.08,40.03],[13.4,40.13],[14.33,40.42],[13.77,40.61],[14.13,41.67],[14.59,41.08],[14.75,42.1],[16.04,42.19],[15.86,42.53],[16.43,42.73],[17.02,42.46],[17.02,42.99],[18.04,42.77],[16.85,43.39],[17.17,43.61],[16.5,43.79],[16.7,44.2],[17.61,44.13],[18.07,43.57],[18.84,43.76],[18.7,43.23],[19.92,44.02],[21.81,43.39],[21.85,43.86],[22.7,43.69],[26.57,42.2],[20.82,41.4],[18.67,40.1],[16.05,37.65],[13.87,37.51],[11.51,38.2]]]}},{"type":"Feature","properties":{},"geometry":{"type":"Polygon","coordinates":[[[36.37,36.7],[36.42,35.7],[35.94,35.17],[31.89,34.48],[30.98,35.29],[31,36.01],[33.43,37.16],[33.77,38.07],[36.37,36.7]]]}},{"type":"Feature","properties":{},"geometry":{"type":"Polygon","coordinates":[[[-23.65,65.31],[-24.31,65.04],[-23.78,65.59],[-23.65,65.31]]]}},{"type":"Feature","properties":{},"geometry":{"type":"Polygon","coordinates":[[[-19.49,64.25],[-18.71,63.86],[-20.08,64.03],[-19.49,64.25]]]}},{"type":"Feature","properties":{},"geometry":{"type":"Polygon","coordinates":[[[-24.6,66.42],[-25.67,66.02],[-26.85,66.48],[-24.6,66.42]]]}},{"type":"Feature","properties":{},"geometry":{"type":"Polygon","coordinates":[[[12.69,67.74],[14.05,67.27],[13.71,66.83],[13.21,67.14],[12.56,66.84],[11.8,67.44],[12.69,67.74]]]}},{"type":"Feature","properties":{},"geometry":{"type":"Polygon","coordinates":[[[11.51,67.91],[12.2,67.68],[11.05,67.7],[11.51,67.91]]]}},{"type":"Feature","properties":{},"geometry":{"type":"Polygon","coordinates":[[[-23.6,66.94],[-24.04,66.48],[-25.47,67],[-23.6,66.94]]]}},{"type":"Feature","properties":{},"geometry":{"type":"Polygon","coordinates":[[[-18.82,65.16],[-18.48,64.68],[-18.93,64.41],[-20.14,64.47],[-19.28,65.4],[-18.82,65.16]]]}},{"type":"Feature","properties":{},"geometry":{"type":"Polygon","coordinates":[[[6.43,67.22],[7.53,66.78],[6.09,67.3],[6.43,67.22]]]}},{"type":"Feature","properties":{},"geometry":{"type":"Polygon","coordinates":[[[-20.28,66.53],[-20.64,65.98],[-20.02,66.06],[-19.95,65.38],[-20.75,64.77],[-21.43,64.95],[-21.46,65.62],[-22.29,65.77],[-21.13,65.97],[-21.01,66.27],[-21.63,66.24],[-21.27,66.58],[-20.28,66.53]]]}},{"type":"Feature","properties":{},"geometry":{"type":"Polygon","coordinates":[[[41.02,80.09],[44.42,79.93],[42.63,80.28],[46.63,80.44],[47.8,80.26],[48,79.82],[47.21,79.61],[48.03,79.23],[41.02,80.09]]]}},{"type":"Feature","properties":{},"geometry":{"type":"Polygon","coordinates":[[[7.41,68.8],[11.25,68.14],[10.5,67.59],[11.21,66.68],[7.41,68.8]]]}},{"type":"Feature","properties":{},"geometry":{"type":"Polygon","coordinates":[[[11.02,66.62],[11.5,65.75],[11.19,65.62],[9.05,66.3],[10.28,66.4],[9.33,66.48],[10.16,66.93],[8.88,66.48],[8.38,66.75],[9.66,67.32],[11.02,66.62]]]}},{"type":"Feature","properties":{},"geometry":{"type":"Polygon","coordinates":[[[9.08,67.6],[8.84,67.28],[8.38,67.62],[8.14,67.4],[8.63,67.15],[7.94,66.85],[5.54,67.98],[6.55,68.44],[6.26,68.07],[7.35,67.91],[7.03,68.43],[9.08,67.6]]]}},{"type":"Feature","properties":{},"geometry":{"type":"Polygon","coordinates":[[[35.81,79.32],[38.75,79.18],[36.64,79.5],[38.35,79.74],[43.43,79.4],[41.01,78.65],[37.74,78.44],[35.65,78.92],[36.14,78.96],[35.81,79.32]]]}},{"type":"Feature","properties":{},"geometry":{"type":"Polygon","coordinates":[[[14.1,70.49],[14.43,70.44],[13.73,70.17],[14.1,70.49]]]}},{"type":"Feature","properties":{},"geometry":{"type":"Polygon","coordinates":[[[23.22,73.3],[24.01,73.12],[22.97,73.13],[23.22,73.3]]]}},{"type":"Feature","properties":{},"geometry":{"type":"Polygon","coordinates":[[[23.26,73.51],[24.23,73.25],[22.96,73.36],[23.26,73.51]]]}},{"type":"Feature","properties":{},"geometry":{"type":"Polygon","coordinates":[[[9.71,69.66],[12.07,69.72],[12.35,69.06],[10.34,68.54],[9.43,68.65],[10.11,68.98],[7.93,68.97],[8.71,69.13],[8.25,69.45],[10.13,69.25],[9.71,69.66]]]}},{"type":"Feature","properties":{},"geometry":{"type":"Polygon","coordinates":[[[18.58,72.46],[19.43,72.47],[18.11,71.97],[18.58,72.46]]]}},{"type":"Feature","properties":{},"geometry":{"type":"Polygon","coordinates":[[[23.62,74.25],[24.67,73.86],[22.9,73.93],[23.62,74.25]]]}},{"type":"Feature","properties":{},"geometry":{"type":"Polygon","coordinates":[[[19.51,72.9],[20.38,72.87],[20.1,72.28],[20.63,72.01],[19.5,71.98],[19.99,72.14],[19.39,72.17],[19.91,72.43],[19.21,72.58],[19.51,72.9]]]}},{"type":"Feature","properties":{},"geometry":{"type":"Polygon","coordinates":[[[23.39,74.8],[24.74,74.52],[23.89,74.28],[23.39,74.8]]]}},{"type":"Feature","properties":{},"geometry":{"type":"Polygon","coordinates":[[[30.03,79.28],[35.05,79.38],[35.87,78.7],[34.13,78.38],[30.03,79.28]]]}},{"type":"Feature","properties":{},"geometry":{"type":"Polygon","coordinates":[[[-13.67,66.93],[-13.94,65.48],[-13.19,65.61],[-14.22,64.85],[-13.48,64.76],[-13.58,64.38],[-15.35,64.1],[-15.14,64.46],[-16.41,63.8],[-16.3,64.32],[-16.64,63.88],[-17.62,64.2],[-17.64,64.53],[-17.03,64.44],[-17.62,64.66],[-17.46,65.1],[-15.82,64.91],[-17.36,65.44],[-16.44,65.68],[-16.98,66.07],[-16.05,65.93],[-15.68,66.04],[-16.31,66.43],[-15.08,66.28],[-15.18,66.69],[-13.67,66.93]]]}},{"type":"Feature","properties":{},"geometry":{"type":"Polygon","coordinates":[[[-1.92,64.21],[-1.5,63.67],[-2.41,64.2],[-1.92,64.21]]]}},{"type":"Feature","properties":{},"geometry":{"type":"Polygon","coordinates":[[[-4.55,66.79],[-3.69,66.46],[-4.64,66.28],[-3.26,66.38],[-2.95,66.24],[-3.21,65.87],[-2.59,65.67],[-4.06,65.23],[-5.66,65.47],[-4.96,65.14],[-6.44,64.92],[-4.23,65.08],[-6.86,64.22],[-7.18,64.47],[-7.22,64.09],[-8.04,64.25],[-7.44,64.02],[-8.08,63.74],[-10.93,63.87],[-9.67,63.48],[-10.97,63.72],[-10.4,63.49],[-11.27,63.48],[-10.13,63.14],[-11.53,62.74],[-11.32,62.43],[-12.37,62.6],[-12.85,62.09],[-14.58,62.38],[-13.05,61.75],[-13.65,61.26],[-15.12,61.22],[-14.74,61.45],[-15.24,61.9],[-16.72,61.75],[-18.52,62.54],[-16.57,62.73],[-16.5,63.49],[-15.79,63.29],[-15.98,62.86],[-15.54,62.61],[-13.86,63.09],[-15.1,62.72],[-15.38,63.29],[-14.58,63.57],[-15.91,63.65],[-14.92,64.12],[-13.37,63.53],[-13.46,63.85],[-12.76,63.76],[-13.8,64.16],[-13.34,64.05],[-13.56,64.95],[-12.93,65.42],[-11.31,64.28],[-11.84,64.48],[-11.76,65.16],[-9.71,64.97],[-10.32,65.15],[-8.87,65.11],[-9.68,65.32],[-8.33,65.66],[-12.21,65.48],[-12.64,65.69],[-10.45,65.83],[-12.86,65.78],[-13.09,66.19],[-11.06,66.11],[-13.05,66.29],[-11.6,66.48],[-12.81,66.99],[-10.96,67.05],[-10.24,66.59],[-10.46,67.05],[-9.58,67.14],[-9.57,66.63],[-9.14,66.8],[-8.69,66.15],[-9.01,66.9],[-8.12,67.18],[-6.94,67.04],[-7.08,66.52],[-6.65,66.62],[-6.77,67.07],[-5.73,66.54],[-4.55,66.79]]]}},{"type":"Feature","properties":{},"geometry":{"type":"Polygon","coordinates":[[[-5.77,46.08],[-5.2,46.64],[-5.81,46.44],[-5.63,46.96],[-5.98,46.99],[-4.73,47.32],[-5.94,47.03],[-6.34,47.41],[-5.43,47.7],[-6.48,47.7],[-4.53,48.43],[-6.52,47.77],[-6.53,48.18],[-5.8,48.19],[-6.42,48.31],[-5.66,48.48],[-6.68,48.78],[-4.53,48.77],[-6.61,48.9],[-5.91,49.4],[-4.34,49.11],[-5.06,49.33],[-4.37,49.45],[-4.87,49.6],[-6.49,49.27],[-5.47,49.6],[-6.18,49.85],[-4.36,49.53],[-5.1,49.82],[-4.71,50.11],[-6.21,50],[-4.84,50.2],[-4.83,50.75],[-4.33,50.57],[-4.43,50.95],[-4.85,50.82],[-4.29,51.62],[-6.62,52.34],[-4.44,51.93],[-5.15,52.65],[-4.6,52.63],[-5.3,52.76],[-4.89,52.92],[-5.45,52.81],[-4.79,53.1],[-5.65,53.07],[-4.92,53.33],[-5.87,53.66],[-6.13,53.11],[-6.98,53.18],[-6.44,53.68],[-6.95,53.71],[-6.53,54.02],[-6.9,54.16],[-6.3,54.51],[-6.84,54.8],[-6.46,55.05],[-6.83,55.97],[-7.43,55.85],[-6.79,56.1],[-7.81,57.13],[-7.59,57.5],[-9.64,58.33],[-12.01,58.3],[-12.38,58.65],[-11.5,58.85],[-12.82,59.36],[-10.52,59.32],[-10.36,59.65],[-11.67,59.66],[-12.85,60.57],[-9.42,61.2],[-8.26,62],[-9.5,62.36],[-7.81,63],[-7.68,62.59],[-7.7,63],[-6.97,62.9],[-6.57,63.64],[-5.39,63],[-6.12,63.72],[-4.47,64],[-4.44,63.17],[-4.06,63.64],[-3.16,63.19],[-3.41,64.11],[-1.49,63.33],[-1.49,63.85],[-0.78,63.8],[-1.84,64.34],[-0.03,64.1],[-1.78,64.7],[0.24,64.36],[0.63,64.78],[0.02,65.04],[1.07,65.27],[3.65,65.17],[1.17,64.4],[3.84,65.06],[3.89,64.66],[5.32,64.65],[2.29,63.48],[4.77,63.94],[4.51,63.34],[5.7,64.15],[6.11,63.56],[5.77,62.6],[6.76,63.81],[7.52,63.69],[7.6,64.19],[9.26,64.09],[8.63,63.06],[6.84,62.72],[8.71,62.87],[7.24,62.32],[7.68,61.97],[8.5,62.4],[7.95,61.88],[8.44,61.47],[7.84,60.99],[8.07,59.88],[8.37,60.25],[9.14,60.1],[8.53,59.78],[9.72,59.72],[10.04,59.19],[8.4,59.26],[9.06,59.22],[8.23,58.9],[9.67,58.64],[8.87,58.32],[9.79,58.34],[10.39,57.72],[8.94,57.94],[9.94,57.53],[9.02,57.43],[10.96,56.99],[9.43,56.9],[10.55,56.64],[9.38,56.59],[9.93,55.99],[9.83,56.4],[10.62,56.32],[10.67,55.89],[9.81,55.57],[8.84,55.88],[9.74,55.95],[7.94,56.07],[8.6,55.7],[7.31,55.54],[7.87,55.33],[7.23,55.15],[8.57,55.22],[7.46,54.9],[8.89,54.87],[8.16,54.5],[8.71,54.56],[8.67,54.18],[9.01,54.63],[10.3,54.24],[10.07,53.93],[10.66,54.12],[10.42,53.81],[10.84,53.89],[10.69,53.42],[11.27,52.99],[10.66,53.22],[10.74,52.81],[10.34,52.77],[9.38,53.56],[7.01,54.08],[7.83,53.77],[7.29,53.55],[8.95,53.5],[8.34,53.03],[7.68,53.18],[7.68,52.66],[7.14,52.43],[8.75,52.5],[7.59,52.12],[8.29,52.05],[9.32,52.61],[11.03,52.38],[9.19,50.83],[6.75,50.17],[7.01,50.01],[5.71,50.46],[6.12,49.8],[5.47,49.51],[4.84,48.14],[4.1,48.18],[4.31,47.87],[3.29,47.79],[3.36,47.45],[2.89,48.11],[2.76,47.3],[1.01,46.72],[1.51,45.99],[0.8,45.86],[1.48,45.3],[0.85,45.46],[1.34,45.19],[0.6,45.06],[0.8,44.5],[-0.16,44.32],[0.5,43.97],[-0.04,44.1],[0.54,43.6],[-0.08,43.17],[0.37,42.99],[-0.18,42.91],[0.22,42.68],[-0.42,42.7],[0.18,42.64],[-0.35,42.41],[0.1,42.15],[-0.79,42.2],[-0.07,41.66],[-0.72,41.95],[-1.42,41.65],[-0.97,42.13],[-1.45,41.69],[-1.07,42.31],[-1.99,42.13],[-1.5,42.47],[-2.14,42.31],[-1.46,42.76],[-2.02,42.48],[-1.85,42.9],[-3.46,42.39],[-3.24,42.9],[-3.99,42.98],[-3.45,43.1],[-4.12,43.14],[-3.66,43.21],[-4.21,43.41],[-3.82,43.66],[-4.76,44.09],[-4.33,44.65],[-4.78,44.38],[-4.55,44.82],[-5.22,44.95],[-4.61,44.98],[-5.48,45.32],[-4.81,45.81],[-5.57,45.81],[-4.56,46.05],[-4.87,46.29],[-4.21,45.94],[-4.52,46.43],[-5.06,46.84],[-4.84,46.36],[-5.77,46.08]]]}}]}
