{"type":"FeatureCollection","features":[{"type":"Feature","properties":{},"geometry":{"type":"Polygon","coordinates":[[[104.18,-77.42],[104.62,-76.82],[106.08,-76.47],[108.32,-76.81],[105.3,-77.56],[104.18,-77.42]]]}},{"type":"Feature","properties":{},"geometry":{"type":"Polygon","coordinates":[[[106.17,-73.38],[106.81,-73.73],[104.59,-73.52],[106.31,-73.06],[106.17,-73.38]]]}},{"type":"Feature","properties":{},"geometry":{"type":"Polygon","coordinates":[[[119.39,-79],[119.11,-78.88],[120.62,-78.68],[119.39,-79]]]}},{"type":"Feature","properties":{},"geometry":{"type":"Polygon","coordinates":[[[-57.45,-85.35],[-43.97,-85.58],[-44.61,-85.97],[-51.83,-86.35],[-59.11,-85.83],[-57.45,-85.35]]]}},{"type":"Feature","properties":{},"geometry":{"type":"Polygon","coordinates":[[[120.18,-78.59],[119.93,-78.34],[121.11,-78.37],[120.18,-78.59]]]}},{"type":"Feature","properties":{},"geometry":{"type":"Polygon","coordinates":[[[146.02,-81.42],[146.41,-81.44],[144.62,-81.26],[146.02,-81.42]]]}},{"type":"Feature","properties":{},"geometry":{"type":"Polygon","coordinates":[[[166.36,-84.61],[162.82,-84.39],[168.39,-84.63],[166.36,-84.61]]]}},{"type":"Feature","properties":{},"geometry":{"type":"Polygon","coordinates":[[[160.24,-82.98],[164.56,-83.87],[158.23,-83.91],[155.59,-83.31],[160.24,-82.98]]]}},{"type":"Feature","properties":{},"geometry":{"type":"Polygon","coordinates":[[[-79.96,-82.53],[-81.13,-82.48],[-79.64,-82.42],[-79.96,-82.53]]]}},{"type":"Feature","properties":{},"geometry":{"type":"Polygon","coordinates":[[[-73.46,-81.72],[-72.86,-81.96],[-73.88,-81.76],[-73.46,-81.72]]]}},{"type":"Feature","properties":{},"geometry":{"type":"Polygon","coordinates":[[[-154.43,-86.37],[-155.43,-86.1],[-154.14,-86.24],[-154.43,-86.37]]]}},{"type":"Feature","properties":{},"geometry":{"type":"Polygon","coordinates":[[[159,-81.92],[158.83,-82.28],[156.09,-82.49],[158.2,-82.64],[156.94,-82.95],[154.48,-82.82],[154.94,-82.66],[154.75,-82.36],[156.4,-82.04],[155.12,-81.99],[159,-81.92]]]}},{"type":"Feature","properties":{},"geometry":{"type":"Polygon","coordinates":[[[-77.35,-81.66],[-75.13,-81.68],[-73.2,-82.29],[-77.95,-82.1],[-76.92,-81.92],[-77.96,-81.88],[-77.35,-81.66]]]}},{"type":"Feature","properties":{},"geometry":{"type":"Polygon","coordinates":[[[-81.85,-81.87],[-80.93,-82.06],[-83.91,-82.37],[-81.85,-81.87]]]}},{"type":"Feature","properties":{},"geometry":{"type":"Polygon","coordinates":[[[-92.97,-86.3],[-97.41,-85.81],[-93.76,-85.8],[-92.85,-85.95],[-92.97,-86.3]]]}},{"type":"Feature","properties":{},"geometry":{"type":"Polygon","coordinates":[[[-133.4,-85.89],[-129.79,-86.01],[-134.24,-85.92],[-133.4,-85.89]]]}},{"type":"Feature","properties":{},"geometry":{"type":"Polygon","coordinates":[[[-125.4,-85.28],[-124.27,-85.25],[-125.79,-85.57],[-117.19,-85.25],[-116.53,-85.39],[-120.25,-85.62],[-113.34,-85.75],[-126.34,-86],[-141.07,-85.4],[-124.92,-85.22],[-125.4,-85.28]]]}},{"type":"Feature","properties":{},"geometry":{"type":"Polygon","coordinates":[[[-84.86,-78.63],[-83.65,-78.83],[-86.65,-78.9],[-84.86,-78.63]]]}},{"type":"Feature","properties":{},"geometry":{"type":"Polygon","coordinates":[[[-81.45,-78.12],[-80.35,-78.27],[-81.7,-78.29],[-81.45,-78.12]]]}},{"type":"Feature","properties":{},"geometry":{"type":"Polygon","coordinates":[[[-78.58,-77.38],[-67.99,-80.16],[-68.7,-80.25],[-68.08,-80.39],[-68.56,-80.69],[-72.2,-81.07],[-74.15,-80.98],[-71.44,-80.46],[-76.15,-80.13],[-75.4,-80.41],[-77.84,-80.86],[-82.18,-80.5],[-78.14,-80.3],[-80.05,-80.1],[-75.1,-79.37],[-77.78,-78.96],[-75.7,-78.6],[-79.54,-78.48],[-81.27,-77.89],[-78.58,-77.38]]]}},{"type":"Feature","properties":{},"geometry":{"type":"Polygon","coordinates":[[[-78.54,-74.96],[-77.67,-75.44],[-78.13,-75.7],[-77.7,-75.89],[-79.22,-76.07],[-79.26,-75.25],[-78.54,-74.96]]]}},{"type":"Feature","properties":{},"geometry":{"type":"Polygon","coordinates":[[[91.65,-56.56],[91.87,-57.47],[90.98,-57.4],[91.65,-56.56]]]}},{"type":"Feature","properties":{},"geometry":{"type":"Polygon","coordinates":[[[-77.15,-73.65],[-76.86,-73.94],[-77.34,-74.03],[-77.15,-73.65]]]}},{"type":"Feature","properties":{},"geometry":{"type":"Polygon","coordinates":[[[-75.32,-72.11],[-74.31,-72.32],[-76.13,-72.65],[-75.32,-72.11]]]}},{"type":"Feature","properties":{},"geometry":{"type":"Polygon","coordinates":[[[-74.29,-71.73],[-73.72,-71.81],[-73.83,-72.16],[-74.35,-72.26],[-74.29,-71.73]]]}},{"type":"Feature","properties":{},"geometry":{"type":"Polygon","coordinates":[[[-68.65,-70.84],[-67.3,-71.06],[-68.11,-71.46],[-69.19,-71.18],[-68.65,-70.84]]]}},{"type":"Feature","properties":{},"geometry":{"type":"Polygon","coordinates":[[[-64.95,-85.88],[-60.13,-86.27],[-68.05,-86.37],[-33.49,-87.05],[-22.43,-86.89],[-31.28,-86.78],[-27.09,-86.57],[-11.2,-86.5],[13.1,-86.99],[23.42,-86.47],[41.22,-84.41],[62.39,-84.95],[71.84,-85.8],[79.26,-85.93],[84.9,-87.06],[76.49,-87.74],[80.05,-88.53],[78.26,-88.8],[70.57,-89.21],[35.35,-89.63],[-57.17,-89.44],[-71.17,-89.02],[-73.94,-88.25],[-89.22,-87.63],[-86.28,-86.63],[-72.72,-85.91],[-70.07,-85.51],[-70.17,-85.18],[-60.61,-85.24],[-64.95,-85.88]]]}},{"type":"Feature","properties":{},"geometry":{"type":"Polygon","coordinates":[[[-68.58,-70.22],[-67.59,-70.48],[-69.19,-70.78],[-69.52,-71.17],[-69.12,-71.68],[-70.43,-71.62],[-72.55,-72.94],[-71.62,-73.06],[-71.98,-73.55],[-69.66,-73.27],[-69.65,-73.61],[-72.27,-73.93],[-71.21,-74.32],[-73.3,-73.92],[-73.3,-74.58],[-72.5,-74.62],[-73.97,-74.86],[-73.63,-75.24],[-74.22,-75.46],[-73.05,-75.86],[-73.32,-76.07],[-72.05,-75.9],[-72.73,-76.21],[-71.67,-76.46],[-68.88,-75.94],[-69.81,-76.28],[-64.43,-77.21],[-64.12,-77.63],[-62.68,-77.5],[-62.63,-77.97],[-60.4,-78],[-60.9,-78.12],[-58.67,-78.46],[-59.65,-78.83],[-56.66,-78.96],[-57.64,-79.11],[-56.99,-79.35],[-53.94,-79.23],[-52.94,-79.53],[-54.05,-79.58],[-50.96,-80.32],[-51.28,-80.64],[-49.67,-80.64],[-50.45,-80.89],[-49.06,-81.43],[-50.22,-81.87],[-48.45,-81.65],[-48.1,-82.01],[-50.72,-83.6],[-41.99,-83.68],[-41.77,-84.32],[-44.04,-84.91],[-43.4,-85.06],[-57.95,-84.78],[-60.61,-85.24],[-90.05,-84.48],[-89.96,-83.45],[-84.86,-83.24],[-87.03,-82.89],[-84.73,-82.82],[-86.31,-82.49],[-80.71,-82.85],[-77.72,-82.49],[-76.68,-82.84],[-71.87,-82.25],[-64.84,-80.51],[-65.17,-80.03],[-66.83,-79.59],[-75.6,-77.7],[-73.21,-77.05],[-74.7,-76.97],[-73.95,-76.84],[-75.17,-76.42],[-74.48,-76.28],[-75.92,-76.15],[-75.34,-76.03],[-75.95,-75.93],[-75.49,-75.6],[-76.95,-75.81],[-77.54,-75.45],[-76.9,-75.13],[-75.72,-75.42],[-76.83,-74.82],[-75.62,-74.74],[-76.28,-74.22],[-74.83,-73.92],[-75.4,-73.69],[-74.28,-73.32],[-75.1,-72.91],[-73.97,-72.91],[-74.42,-72.75],[-72.53,-72.2],[-72.75,-71.92],[-72.1,-71.78],[-72.43,-71.56],[-68.58,-70.22]]]}},{"type":"Feature","properties":{},"geometry":{"type":"Polygon","coordinates":[[[22.55,-80.59],[18.58,-79.88],[12.07,-76.68],[12.53,-76.23],[14.22,-76.2],[10.5,-75.5],[6.27,-76.28],[3.24,-75.56],[3.37,-74.52],[2.81,-74.49],[3.24,-74.47],[2.81,-74.4],[3.21,-74.36],[2.83,-73.48],[2.31,-73.48],[3.27,-72.38],[2.04,-71.2],[2.7,-69.6],[5.3,-67.41],[3.37,-66.77],[4.77,-66.86],[4.12,-66.13],[4.72,-65.93],[6.29,-66.48],[7.13,-66.23],[5.9,-65.56],[6.18,-65.3],[6.99,-65.13],[7.75,-65.76],[9.52,-65.17],[8.86,-65.13],[8.45,-64.3],[10.3,-65.21],[11.69,-65.12],[13.44,-63.12],[26.71,-60.79],[32.09,-59.12],[31.63,-58.25],[32.07,-58.02],[35.78,-59.07],[36.34,-58.55],[36.07,-57.91],[37.73,-56.81],[39.64,-56.31],[39.96,-55.8],[41.22,-56.03],[41.88,-55.62],[41.15,-55.39],[41.73,-55.15],[42.19,-55.57],[42.93,-55.43],[42.4,-55.02],[42.56,-54.57],[44.64,-53.95],[45.96,-54.03],[47.21,-54.57],[46.52,-54.84],[48.54,-55.34],[55.73,-55.47],[55.93,-56.39],[55.29,-56.65],[55.88,-56.62],[55.25,-56.82],[55.78,-56.95],[55.01,-57],[54.86,-57.33],[55.38,-57.54],[54.66,-57.97],[56.82,-59.13],[58.2,-57.53],[59.68,-57.43],[61.13,-56.85],[62.04,-55.91],[65.67,-54.96],[70.78,-54.67],[74.7,-55.13],[75.62,-55.03],[75.64,-54.35],[76.72,-54.37],[76.51,-54.79],[77.07,-55],[78.57,-54.75],[79.97,-55.15],[82.26,-56.31],[85.78,-55.54],[86.36,-56.4],[87.5,-56.49],[88.31,-57.26],[90.78,-57.45],[90.62,-57.76],[94.64,-57.59],[95.42,-58.53],[96.39,-58.72],[97.41,-58.08],[97.23,-57.73],[100.4,-58.64],[101.57,-57.87],[101.76,-58.32],[101.27,-58.59],[101.93,-59.15],[107.21,-61.14],[108.88,-61.16],[107.31,-61.64],[109.45,-62.4],[108.45,-62.8],[110.81,-63.24],[110.63,-63.68],[112.84,-63.76],[113.21,-64.13],[112.83,-64.55],[115.39,-65.53],[115.6,-66.76],[119.25,-68.07],[118.89,-68.08],[119.75,-68.41],[119.44,-68.78],[120.06,-69.59],[120.72,-69.37],[120.33,-69.87],[116.03,-70.76],[114.07,-70.41],[111.96,-70.52],[111.27,-71.03],[109.84,-70.96],[110.41,-70.57],[109,-70.73],[108.47,-70.99],[109.35,-71.47],[107.49,-71.32],[104.53,-72.21],[104.78,-72.41],[104.25,-72.77],[103.39,-72.93],[103.76,-73.11],[101.85,-73.3],[103.53,-73.43],[102.6,-73.75],[102.94,-74],[102.6,-74.13],[101.4,-73.64],[98.08,-73.48],[91.94,-74.85],[90.19,-75.69],[88.95,-75.48],[88.48,-75.85],[89.83,-75.89],[86.38,-76.7],[87.07,-76.8],[85.44,-77.23],[86.23,-77.31],[84.24,-78.18],[78.49,-78.26],[84.82,-78.25],[82.84,-79.23],[77.77,-79.76],[75.64,-80.41],[77.17,-80.85],[73.46,-81.45],[83.14,-80.9],[93.75,-81.08],[92.35,-82.5],[67.65,-82.26],[55.64,-83.41],[30.48,-81.61],[22.55,-80.59]]]}},{"type":"Feature","properties":{},"geometry":{"type":"Polygon","coordinates":[[[179.99,-87.64],[179.99,-89.99],[-179.99,-89.99],[-179.99,-87.64],[-171.04,-87.39],[-161.64,-88.14],[-165.54,-88.33],[-150.58,-88.42],[-149.79,-88.24],[-151.67,-87.71],[-141.2,-87.49],[-147.67,-87.09],[-146.73,-86.91],[-147.04,-86.8],[-134.7,-86.75],[-149.03,-86.39],[-146.35,-85.99],[-134.15,-86.6],[-124.16,-86.4],[-114.07,-86.81],[-107,-86.55],[-107.83,-86.3],[-103.19,-86.57],[-86.45,-85.98],[-89.56,-85.61],[-88.16,-85.52],[-75.31,-85.79],[-74.07,-85.58],[-74.9,-85.36],[-64.08,-85.32],[-43.94,-87.29],[2.46,-88.22],[50.38,-87.15],[66.05,-86.03],[68.82,-85.5],[68.68,-85.17],[69.69,-84.88],[75,-84.44],[75.43,-83.76],[74.36,-83.26],[91.24,-80.75],[91.93,-80.42],[91.14,-80.24],[91.79,-80.19],[91.8,-78.75],[99.07,-78.8],[102.22,-80.05],[104.4,-79.59],[104.23,-79.04],[107.95,-78.37],[109.86,-77.53],[116.26,-76.81],[116.6,-76.88],[115.89,-77.17],[117.73,-77.46],[116.93,-77.77],[117.2,-78.06],[118.14,-78.06],[116.97,-78.77],[122.19,-79.35],[124.25,-78.8],[123.3,-78.43],[123.8,-78.18],[125.33,-78.34],[124.98,-79.06],[127.42,-78.75],[136.61,-80.31],[141.43,-80.43],[142.23,-80.74],[140.63,-80.96],[154.46,-83.86],[162.23,-84.4],[160.82,-84.73],[164.96,-85.25],[172.48,-85.03],[164.16,-85.89],[174.92,-85.8],[176.96,-86.06],[173.52,-86.36],[175.68,-86.5],[173.7,-86.56],[174.05,-86.72],[179.99,-86.78],[179.6,-87.01],[179.99,-87.19],[172.27,-87.42],[179.99,-87.64]]]}},{"type":"Feature","properties":{},"geometry":{"type":"Polygon","coordinates":[[[-66.46,-69.86],[-65.73,-69.93],[-67.58,-70.23],[-66.46,-69.86]]]}},{"type":"Feature","properties":{},"geometry":{"type":"Polygon","coordinates":[[[-71.69,-70.48],[-71.27,-70.52],[-73.21,-70.62],[-71.69,-70.48]]]}},{"type":"Feature","properties":{},"geometry":{"type":"Polygon","coordinates":[[[-69.17,-69.68],[-68.65,-69.74],[-70.42,-70.05],[-69.17,-69.68]]]}},{"type":"Feature","properties":{},"geometry":{"type":"Polygon","coordinates":[[[-54.8,-71.84],[-54.28,-72.05],[-55.19,-71.91],[-54.3,-72.38],[-55.73,-72.08],[-55.15,-71.82],[-55.79,-71.66],[-56.62,-71.98],[-56.95,-71.69],[-56.31,-71.65],[-57.15,-71.51],[-54.16,-71.75],[-54.8,-71.84]]]}},{"type":"Feature","properties":{},"geometry":{"type":"Polygon","coordinates":[[[-53.64,-71.72],[-52.12,-72.17],[-54.08,-72.01],[-53.64,-71.72]]]}},{"type":"Feature","properties":{},"geometry":{"type":"Polygon","coordinates":[[[-56.19,-71.32],[-55.46,-71.54],[-56.82,-71.43],[-56.19,-71.32]]]}},{"type":"Feature","properties":{},"geometry":{"type":"Polygon","coordinates":[[[-46.9,-72.36],[-45.92,-72.44],[-47.75,-72.36],[-46.9,-72.36]]]}},{"type":"Feature","properties":{},"geometry":{"type":"Polygon","coordinates":[[[-58.09,-70.04],[-57.38,-70.31],[-58.59,-70.27],[-58.09,-70.04]]]}},{"type":"Feature","properties":{},"geometry":{"type":"Polygon","coordinates":[[[-58.53,-69.87],[-58.21,-70],[-59.2,-70.29],[-59.16,-69.84],[-58.53,-69.87]]]}},{"type":"Feature","properties":{},"geometry":{"type":"Polygon","coordinates":[[[-55.95,-69.94],[-56.73,-70.58],[-57.18,-70.37],[-55.95,-69.94]]]}},{"type":"Feature","properties":{},"geometry":{"type":"Polygon","coordinates":[[[-59.74,-69.15],[-59.82,-69.48],[-58.83,-69.77],[-60.32,-69.89],[-59.7,-69.69],[-61.04,-69.35],[-59.74,-69.15]]]}},{"type":"Feature","properties":{},"geometry":{"type":"Polygon","coordinates":[[[-61.42,-68.17],[-59.79,-69.12],[-61.35,-68.59],[-61.42,-68.17]]]}},{"type":"Feature","properties":{},"geometry":{"type":"Polygon","coordinates":[[[-57.54,-68.71],[-56.47,-68.95],[-58.69,-68.98],[-58.22,-69.19],[-59.09,-69.19],[-58.93,-69.46],[-59.89,-68.88],[-59.13,-69.16],[-59.08,-68.68],[-57.54,-68.71]]]}},{"type":"Feature","properties":{},"geometry":{"type":"Polygon","coordinates":[[[-58.6,-70.48],[-56.47,-70.94],[-57.3,-70.35],[-54.92,-71.05],[-55.5,-71.26],[-54.56,-71.13],[-55.78,-70.27],[-53.94,-70],[-55.69,-69.76],[-54.63,-69.45],[-54.99,-69.22],[-53.06,-69.16],[-51.96,-69.52],[-51.77,-70.05],[-52.44,-70.1],[-51.28,-71.13],[-48.19,-72.13],[-51.11,-72.21],[-59.57,-70.53],[-58.6,-70.48]]]}},{"type":"Feature","properties":{},"geometry":{"type":"Polygon","coordinates":[[[-35.14,-69.89],[-34.84,-69.98],[-37.44,-70.57],[-38.59,-70.31],[-36.51,-70.19],[-37.37,-69.72],[-35.14,-69.89]]]}},{"type":"Feature","properties":{},"geometry":{"type":"Polygon","coordinates":[[[-34.19,-69.92],[-32.3,-70.28],[-35.43,-70.58],[-35.06,-70.84],[-36.27,-70.62],[-34.19,-69.92]]]}},{"type":"Feature","properties":{},"geometry":{"type":"Polygon","coordinates":[[[-59.24,-66.32],[-59.26,-66.74],[-59.98,-66.58],[-59.24,-66.32]]]}},{"type":"Feature","properties":{},"geometry":{"type":"Polygon","coordinates":[[[-58.81,-66.12],[-58.69,-66.57],[-59.14,-66.27],[-58.81,-66.12]]]}},{"type":"Feature","properties":{},"geometry":{"type":"Polygon","coordinates":[[[-59.5,-65.52],[-58.91,-65.77],[-60.12,-65.8],[-59.5,-65.52]]]}},{"type":"Feature","properties":{},"geometry":{"type":"Polygon","coordinates":[[[-58.21,-65.13],[-59.11,-65.48],[-58.88,-65.09],[-59.23,-65.02],[-57.28,-64.49],[-58.15,-65.63],[-58.93,-65.61],[-58.21,-65.13]]]}},{"type":"Feature","properties":{},"geometry":{"type":"Polygon","coordinates":[[[-57.09,-63.91],[-57.15,-64.44],[-57.88,-64.27],[-57.09,-63.91]]]}},{"type":"Feature","properties":{},"geometry":{"type":"Polygon","coordinates":[[[-57.79,-63.73],[-57.23,-63.94],[-57.8,-64.14],[-57.79,-63.73]]]}},{"type":"Feature","properties":{},"geometry":{"type":"Polygon","coordinates":[[[-57.92,-63.7],[-58.29,-64.33],[-58.04,-63.96],[-58.5,-63.94],[-57.92,-63.7]]]}},{"type":"Feature","properties":{},"geometry":{"type":"Polygon","coordinates":[[[-56.08,-63.72],[-55.54,-63.88],[-56.59,-63.74],[-56.08,-63.72]]]}},{"type":"Feature","properties":{},"geometry":{"type":"Polygon","coordinates":[[[154.27,-73.08],[153.14,-73.41],[152.06,-72.95],[154.27,-73.08]]]}},{"type":"Feature","properties":{},"geometry":{"type":"Polygon","coordinates":[[[-51.99,-60.75],[-51.67,-60.96],[-52.84,-61.09],[-51.99,-60.75]]]}},{"type":"Feature","properties":{},"geometry":{"type":"Polygon","coordinates":[[[-51.72,-58.08],[-51.18,-58.21],[-51.23,-58.67],[-52.02,-58.83],[-51.93,-59.48],[-53.25,-59.35],[-51.72,-58.08]]]}},{"type":"Feature","properties":{},"geometry":{"type":"Polygon","coordinates":[[[120.63,-69.87],[125.43,-70.98],[124.89,-70.59],[128.42,-70.73],[127.86,-71.92],[127.27,-71.79],[126.17,-72.53],[126.58,-72.53],[126.46,-72.88],[124.8,-72.29],[124.95,-72.62],[123.41,-73.13],[121.43,-72.92],[122.1,-72.72],[121.18,-72.64],[120.38,-71.88],[120.49,-71.44],[121.25,-71.67],[120.6,-71.47],[120.14,-70.61],[120.63,-69.87]]]}},{"type":"Feature","properties":{},"geometry":{"type":"Polygon","coordinates":[[[142.91,-72.58],[143.59,-72.72],[142.6,-72.71],[143.3,-73.01],[142.76,-73.26],[142.98,-73.49],[146.17,-73.49],[144.8,-73.64],[145.9,-73.69],[144.89,-73.83],[145.1,-74.18],[141.94,-74.69],[124.72,-74.36],[134.94,-74.09],[142.91,-72.58]]]}},{"type":"Feature","properties":{},"geometry":{"type":"Polygon","coordinates":[[[173.51,-75.06],[170.75,-74.85],[169.2,-75.06],[169.69,-75.31],[169.13,-75.44],[165.42,-74.49],[159.29,-74.69],[155.84,-74.16],[154.78,-73.35],[155.91,-72.78],[154.97,-72.21],[156,-72.2],[155.44,-71.92],[159.06,-72.02],[173.85,-75.01],[173.51,-75.06]]]}},{"type":"Feature","properties":{},"geometry":{"type":"Polygon","coordinates":[[[128.09,-69.42],[128.73,-69.95],[127.61,-69.55],[128.09,-69.42]]]}},{"type":"Feature","properties":{},"geometry":{"type":"Polygon","coordinates":[[[119.77,-68.7],[119.88,-69.06],[119.28,-69.23],[119.77,-68.7]]]}},{"type":"Feature","properties":{},"geometry":{"type":"Polygon","coordinates":[[[110.62,-63.42],[111.29,-63.81],[108.51,-63.42],[110.62,-63.42]]]}},{"type":"Feature","properties":{},"geometry":{"type":"Polygon","coordinates":[[[149.5,-66.93],[149.57,-67.52],[151.67,-67.95],[151.39,-68.76],[151.95,-69.22],[151.5,-69.22],[151.44,-69.79],[152.87,-70.15],[153.05,-69.43],[153.8,-69.76],[153.34,-69.87],[153.89,-70.71],[156.3,-71.27],[159.54,-71.16],[157.24,-72.49],[154.81,-72.39],[153.57,-73.26],[150.08,-74.13],[147.76,-74.3],[146.56,-73.84],[149.3,-73.07],[146.81,-71.72],[149.15,-71.51],[150.95,-70.13],[150.31,-69.16],[150.81,-69.39],[151.02,-69.09],[150.65,-69.04],[151.25,-69.02],[150.13,-69.06],[148.71,-66.89],[149.5,-66.93]]]}},{"type":"Feature","properties":{},"geometry":{"type":"Polygon","coordinates":[[[148.12,-53.16],[148.25,-53.44],[147.86,-53.34],[148.12,-53.16]]]}},{"type":"Feature","properties":{},"geometry":{"type":"Polygon","coordinates":[[[147.4,-52.35],[147.36,-52.83],[146.92,-52.48],[147.4,-52.35]]]}},{"type":"Feature","properties":{},"geometry":{"type":"Polygon","coordinates":[[[142.99,-50.86],[146.26,-53.83],[143.69,-52.33],[142.99,-50.86]]]}},{"type":"Feature","properties":{},"geometry":{"type":"Polygon","coordinates":[[[118.55,-41.99],[118.7,-42.68],[117.92,-42.49],[118.55,-41.99]]]}},{"type":"Feature","properties":{},"geometry":{"type":"Polygon","coordinates":[[[33.65,-46.56],[34.38,-44.42],[35.83,-43.35],[38.17,-43.57],[38.5,-43.99],[38.64,-43.5],[39.59,-43.75],[39.61,-43.39],[41.28,-42.89],[41.39,-42.25],[41.72,-42.59],[42.62,-42.37],[42.95,-41.46],[43.85,-41.29],[44.16,-42.43],[43.65,-44.9],[43.09,-45.3],[42.94,-44.64],[42.54,-44.69],[42.15,-45.96],[40.93,-47.04],[33.58,-52.32],[30.48,-52.08],[29.55,-51.14],[30.48,-48.36],[33.65,-46.56]]]}},{"type":"Feature","properties":{},"geometry":{"type":"Polygon","coordinates":[[[111.36,-38.3],[111.51,-38.85],[110.82,-38.71],[111.36,-38.3]]]}},{"type":"Feature","properties":{},"geometry":{"type":"Polygon","coordinates":[[[111.47,-38.15],[112.76,-38.72],[111.9,-39.05],[111.47,-38.15]]]}},{"type":"Feature","properties":{},"geometry":{"type":"Polygon","coordinates":[[[117.11,-67.2],[113.89,-66.34],[113.22,-65.48],[113.76,-65.07],[113.71,-64.5],[112.82,-63.73],[113.8,-64.62],[113.66,-64.27],[112.71,-63.67],[111.38,-63.6],[112.73,-62.93],[112.37,-62.18],[111.15,-63.02],[109.48,-62.95],[110.76,-62.75],[111.27,-62.02],[112.52,-61.59],[112.82,-60.45],[112.54,-61.01],[108.48,-61.99],[108.18,-62.45],[107.08,-61.82],[107.73,-61.96],[107.75,-61.29],[107.42,-60.38],[106.63,-60.08],[107.13,-59.69],[106.49,-59.54],[106.5,-59.07],[104.3,-58.57],[103.11,-57.72],[95.14,-56.74],[92.07,-56.74],[90.32,-57.29],[85.46,-55.82],[82,-56.02],[79.88,-54.93],[79.36,-53.85],[79.88,-53.38],[80.89,-53.47],[82.22,-52.24],[82.46,-50.8],[83.31,-49.51],[83.45,-46.18],[83.93,-46.86],[84.28,-45.77],[84.06,-46.47],[84.41,-46.3],[84.58,-46.78],[84.94,-46.39],[84.86,-44.77],[87.27,-42.71],[86.95,-43.38],[91.16,-42.62],[92.03,-43.11],[96.72,-43.31],[98.98,-42.41],[99.15,-41.55],[100.45,-40.98],[100.65,-42.35],[101.48,-41.75],[101.02,-41.42],[101.3,-40.98],[102.87,-41.63],[102.23,-41.4],[103.02,-40.89],[102.5,-41.11],[102.61,-40.66],[103.05,-40.46],[103.64,-40.99],[103.28,-40.43],[104.09,-40.64],[103.82,-40.12],[104.58,-39.78],[104.81,-40.27],[105.19,-39.6],[105.31,-39.99],[106.3,-39.69],[106.89,-40.04],[107.58,-41.02],[106.77,-41.79],[107.27,-41.42],[107.42,-41.78],[107.92,-41.13],[109.06,-41.86],[109.59,-41.25],[109.12,-40.94],[110.59,-40.22],[110.91,-39.6],[111.39,-39.75],[111.28,-39.4],[111.67,-39.76],[112.27,-39.23],[114.06,-39.69],[114.17,-39.15],[113.08,-38.64],[113.4,-38.5],[115.8,-39.98],[117.09,-40.4],[118.02,-40.17],[117.62,-40.35],[118.15,-40.3],[118.01,-40.72],[118.86,-40.22],[119.26,-40.75],[118.49,-41.08],[118.68,-41.34],[117.66,-41.46],[117.39,-42.36],[116.03,-42.76],[116.87,-43.19],[116.43,-43.38],[116.91,-43.23],[118.02,-43.99],[117.55,-44.17],[122.56,-46.58],[124.79,-44.39],[124.7,-43],[125.7,-41.78],[125.12,-41.73],[125.94,-41.27],[126.11,-40.22],[126.67,-40.01],[127.61,-42.27],[127.65,-43.82],[128.68,-43.69],[129.68,-44.56],[129.52,-46.04],[130.22,-46.55],[130.34,-48.54],[133.76,-50.11],[133.61,-50.56],[134.69,-51.45],[134.8,-52.51],[135.44,-52.61],[135.46,-52.08],[136.31,-52.64],[136.39,-52.33],[136.62,-53.47],[135.97,-53.31],[137.97,-54.04],[139.7,-55.33],[140.15,-55.98],[139.82,-57.34],[140.73,-58.26],[140.76,-58.92],[140.2,-59.41],[139.55,-61.53],[138.47,-62.22],[138.76,-62.49],[137.19,-62.8],[136.6,-63.53],[135.6,-63.43],[136.37,-63.81],[134.88,-64.82],[135.3,-65.03],[133.75,-65.62],[133.12,-67.41],[128.23,-67.53],[127.74,-67.74],[128.8,-67.62],[124.91,-68.19],[125.41,-68.32],[125.08,-68.65],[123.27,-67.91],[123.66,-67.63],[121.93,-67.57],[122.95,-67.49],[122.76,-67.12],[119.4,-67.9],[117.11,-67.2]]]}},{"type":"Feature","properties":{},"geometry":{"type":"Polygon","coordinates":[[[122.63,-36.2],[122.98,-36.43],[122.53,-36.94],[121.34,-36.65],[122.63,-36.2]]]}},{"type":"Feature","properties":{},"geometry":{"type":"Polygon","coordinates":[[[117.37,-34.19],[117.71,-34.63],[117.23,-34.9],[117.37,-34.19]]]}},{"type":"Feature","properties":{},"geometry":{"type":"Polygon","coordinates":[[[117.93,-34.03],[117.86,-34.44],[117.51,-34.13],[117.93,-34.03]]]}},{"type":"Feature","properties":{},"geometry":{"type":"Polygon","coordinates":[[[117.9,-33.61],[118.1,-34.07],[117.58,-34.03],[117.9,-33.61]]]}},{"type":"Feature","properties":{},"geometry":{"type":"Polygon","coordinates":[[[108.96,-6.5],[109.42,-6.14],[109.72,-6.55],[109.54,-6.91],[108.96,-6.5]]]}},{"type":"Feature","properties":{},"geometry":{"type":"Polygon","coordinates":[[[107.39,-8.03],[108.39,-7.92],[108.71,-7.43],[109.17,-7.69],[107.73,-8.93],[107.39,-8.03]]]}},{"type":"Feature","properties":{},"geometry":{"type":"Polygon","coordinates":[[[132.7,-36.52],[134.58,-38.97],[135.46,-38.95],[135.35,-39.42],[136.39,-39.65],[136.12,-39.97],[137.41,-40.22],[136.72,-40.31],[137.14,-40.57],[133.55,-39.84],[131.19,-37.59],[129.64,-36.99],[129.12,-37.31],[128.49,-36.73],[128.83,-37.5],[128.01,-37.31],[128.4,-37.7],[126.6,-37.51],[127.75,-37.86],[128,-38.44],[125.15,-38.37],[123.9,-37.18],[124.2,-36.87],[122.65,-37.08],[123.01,-36.42],[122.53,-35.99],[123.72,-36.11],[122.43,-35.73],[123.24,-35.88],[122.38,-35.1],[122.56,-34.54],[122.09,-34.44],[121.76,-33.54],[118.5,-32.28],[124.64,-33.21],[132.7,-36.52]]]}},{"type":"Feature","properties":{},"geometry":{"type":"Polygon","coordinates":[[[104.37,-8.46],[104.78,-8.58],[104.41,-8.85],[104.37,-8.46]]]}},{"type":"Feature","properties":{},"geometry":{"type":"Polygon","coordinates":[[[0.86,-28.85],[0.64,-29.23],[0.4,-28.97],[0.86,-28.85]]]}},{"type":"Feature","properties":{},"geometry":{"type":"Polygon","coordinates":[[[97.92,-15.36],[99,-13.62],[100.35,-13.45],[101.79,-12.25],[103.47,-11.61],[103.09,-11.34],[104.35,-10.6],[108.77,-12.51],[104.4,-13.82],[102.86,-13.64],[101.99,-14.42],[100.27,-14.77],[98.64,-15.73],[97.87,-15.68],[97.92,-15.36]]]}},{"type":"Feature","properties":{},"geometry":{"type":"Polygon","coordinates":[[[104.02,-10.7],[104.67,-10.1],[104.77,-10.56],[105.01,-9.56],[105.89,-10.2],[106.48,-9.34],[108.09,-9.47],[108.17,-8.56],[108.9,-8.32],[111.61,-9.46],[111.03,-9.75],[111.35,-9.97],[110.89,-10.5],[111.3,-10.59],[107.95,-12.52],[104.02,-10.7]]]}},{"type":"Feature","properties":{},"geometry":{"type":"Polygon","coordinates":[[[36.36,-56.36],[32.6,-58.18],[30.3,-58.07],[29.32,-57.11],[29.9,-56.54],[33.18,-56.07],[33.62,-56.12],[32.79,-56.2],[36.36,-56.36]]]}},{"type":"Feature","properties":{},"geometry":{"type":"Polygon","coordinates":[[[-24.73,-9.5],[-24.81,-10.19],[-25.74,-10.17],[-25.25,-9.98],[-25.4,-9.54],[-24.73,-9.5]]]}},{"type":"Feature","properties":{},"geometry":{"type":"Polygon","coordinates":[[[-49.41,-25.42],[-49.01,-26.82],[-50.04,-25.58],[-49.41,-25.42]]]}},{"type":"Feature","properties":{},"geometry":{"type":"Polygon","coordinates":[[[-50.43,-19.92],[-49.52,-22.46],[-49.55,-23.32],[-49.97,-23.01],[-49.88,-24.33],[-50.41,-24.22],[-51.33,-22.08],[-52.18,-22.05],[-51.81,-21.24],[-52.74,-19.72],[-52.63,-19.1],[-52.22,-19.18],[-51.63,-20.87],[-50.86,-20.2],[-50.93,-19.45],[-50.43,-19.92]]]}},{"type":"Feature","properties":{},"geometry":{"type":"Polygon","coordinates":[[[102.28,9.78],[103.01,10.3],[103.34,9.08],[102.89,8.06],[102,7.91],[101.52,8.64],[102.28,9.78]]]}},{"type":"Feature","properties":{},"geometry":{"type":"Polygon","coordinates":[[[-47.19,-19.7],[-46.87,-21.76],[-47.96,-27.58],[-49.46,-24.46],[-48.42,-24.64],[-48.62,-23.84],[-47.87,-23.04],[-48.17,-20.16],[-47.67,-19.95],[-49.29,-17.42],[-48.97,-17.99],[-48.19,-18.04],[-47.19,-19.7]]]}},{"type":"Feature","properties":{},"geometry":{"type":"Polygon","coordinates":[[[109.05,36.68],[109.89,36.36],[109.69,35.98],[110.25,35.59],[109.33,34.08],[108.59,33.76],[108.8,34.45],[108.53,33.93],[108.06,34.22],[108.73,35.54],[108.34,35.99],[108.44,35.46],[107.8,35.39],[107.78,35.92],[108.1,35.65],[107.69,36.16],[109.05,36.68]]]}},{"type":"Feature","properties":{},"geometry":{"type":"Polygon","coordinates":[[[112.53,36.88],[113.08,36.32],[112.43,35.76],[111.65,36.02],[110.83,35.44],[110.65,36.1],[110.22,36.01],[111.2,36.73],[112.53,36.88]]]}},{"type":"Feature","properties":{},"geometry":{"type":"Polygon","coordinates":[[[25.25,-7.65],[26.82,-8.94],[25.61,-8.54],[24.97,-7.78],[25.25,-7.65]]]}},{"type":"Feature","properties":{},"geometry":{"type":"Polygon","coordinates":[[[30.95,-11.88],[30.09,-11.73],[29.42,-11.08],[29.49,-10.47],[30.19,-10.71],[30.95,-11.88]]]}},{"type":"Feature","properties":{},"geometry":{"type":"Polygon","coordinates":[[[21.21,-1.8],[19.92,-2.88],[18.91,-0.69],[19.33,-0.53],[21.21,-1.8]]]}},{"type":"Feature","properties":{},"geometry":{"type":"Polygon","coordinates":[[[26.71,-4.48],[26.99,-5.83],[26.25,-4.41],[26.71,-4.48]]]}},{"type":"Feature","properties":{},"geometry":{"type":"Polygon","coordinates":[[[33.73,15.14],[34.08,14.89],[33.5,14.76],[33.73,15.14]]]}},{"type":"Feature","properties":{},"geometry":{"type":"Polygon","coordinates":[[[16.59,4.45],[16.56,3.76],[15.99,3.96],[16.59,4.45]]]}},{"type":"Feature","properties":{},"geometry":{"type":"Polygon","coordinates":[[[19.61,8.19],[19.43,7.66],[18.04,6.96],[17.28,7.42],[18.94,8.73],[19.61,8.19]]]}},{"type":"Feature","properties":{},"geometry":{"type":"Polygon","coordinates":[[[112.66,37.21],[110.67,37],[110.4,36.49],[109.1,36.69],[109.26,37.18],[111.55,38.19],[114.65,38.05],[115.54,39.69],[116.17,39.78],[115.62,39.42],[115.94,39.03],[117.38,39.56],[118.89,41],[119.14,42.69],[119.72,43.3],[120.47,42.85],[120.35,43.54],[120.9,43.38],[121.24,41.39],[120.54,40.23],[119.86,40.05],[119.31,38.32],[119.57,37.75],[118.99,37.24],[118.34,37.07],[118.65,37.78],[117.28,36.86],[117.33,37.31],[116.73,36.84],[115.48,36.89],[115.85,37.07],[115.23,37.4],[115.34,36.6],[113.85,35.94],[113.4,36.34],[113.9,37.13],[112.66,37.21]]]}},{"type":"Feature","properties":{},"geometry":{"type":"Polygon","coordinates":[[[21.23,8.92],[19.69,8.27],[20.35,9.18],[21.23,8.92]]]}},{"type":"Feature","properties":{},"geometry":{"type":"Polygon","coordinates":[[[122.08,41.68],[123.94,39.84],[124.95,40.09],[124.57,39.6],[124.79,39.01],[123.31,38.82],[122.54,38.07],[120.18,38.95],[120.09,39.72],[121.09,39.58],[122.08,41.68]]]}},{"type":"Feature","properties":{},"geometry":{"type":"Polygon","coordinates":[[[120.19,44.59],[119.81,44.29],[120.67,43.77],[119.47,43.48],[119.38,44.68],[120.19,44.59]]]}},{"type":"Feature","properties":{},"geometry":{"type":"Polygon","coordinates":[[[-0.15,7.62],[-0.53,6.3],[0,6.95],[0.42,6.61],[-0.6,6.13],[-0.81,6.62],[-0.15,7.62]]]}},{"type":"Feature","properties":{},"geometry":{"type":"Polygon","coordinates":[[[-2.54,7.35],[-2.38,6.92],[-1.13,7],[-1.64,6.46],[-2.62,6.88],[-2.54,7.35]]]}},{"type":"Feature","properties":{},"geometry":{"type":"Polygon","coordinates":[[[-2.74,10.42],[-1.07,9.68],[-2.35,9.87],[-2.74,10.42]]]}},{"type":"Feature","properties":{},"geometry":{"type":"Polygon","coordinates":[[[-62.15,-4.91],[-60.66,-5.83],[-59.83,-7.84],[-60.85,-7.37],[-60.5,-6.97],[-61.04,-7.19],[-61.57,-6.6],[-61.23,-6.35],[-62.26,-5.67],[-61.83,-5.27],[-62.26,-5.32],[-62.15,-4.91]]]}},{"type":"Feature","properties":{},"geometry":{"type":"Polygon","coordinates":[[[3.08,10.1],[3.62,10.58],[4.32,10.37],[3.97,9.44],[4.73,9.77],[4.15,9.26],[4.45,8.63],[4.91,9.29],[4.97,7.83],[4.61,7.77],[4.57,8.34],[4.19,7.89],[4.12,8.95],[3.12,7.78],[3.54,8.81],[3.16,8.34],[2.74,8.38],[2.96,8.88],[2.29,8.36],[0.61,8.29],[3.08,10.1]]]}},{"type":"Feature","properties":{},"geometry":{"type":"Polygon","coordinates":[[[2.43,12.5],[2.72,12.31],[2.34,12.2],[2.6,11.98],[1.99,10.57],[2.87,10.93],[2.49,10.45],[3.17,10.5],[3.08,10.1],[0.64,8.42],[1.23,9.24],[0.59,9.21],[1.44,9.72],[1.16,10.04],[1.57,11.48],[2.43,12.5]]]}},{"type":"Feature","properties":{},"geometry":{"type":"Polygon","coordinates":[[[-13.43,14.38],[-13.1,13.79],[-13.88,14.24],[-13.43,14.38]]]}},{"type":"Feature","properties":{},"geometry":{"type":"Polygon","coordinates":[[[-63.69,-1.97],[-63.68,-3.17],[-64.18,-1.99],[-63.69,-1.97]]]}},{"type":"Feature","properties":{},"geometry":{"type":"Polygon","coordinates":[[[-64.08,-0.86],[-63.66,-1.18],[-63.98,-1.55],[-63.32,-1.13],[-63.96,-2],[-64.08,-0.86]]]}},{"type":"Feature","properties":{},"geometry":{"type":"Polygon","coordinates":[[[125.27,50.22],[125.3,48.69],[124.71,47.64],[125.43,44.41],[124.93,45.09],[123.94,45.09],[123.19,43.83],[123.83,42.3],[123.56,41.98],[123.07,42.79],[122.3,42.02],[122.81,44.88],[123.84,47.16],[123.53,47.93],[124.14,49.42],[124.92,49.43],[124.8,50.24],[125.27,50.22]]]}},{"type":"Feature","properties":{},"geometry":{"type":"Polygon","coordinates":[[[-76.7,10.02],[-76.84,9.48],[-77.55,10.29],[-76.7,10.02]]]}},{"type":"Feature","properties":{},"geometry":{"type":"Polygon","coordinates":[[[6.25,14.48],[6.94,14.91],[6.15,14.64],[6.66,15.42],[5.83,15.45],[6.14,15.9],[5.71,16.27],[6.67,16.44],[6.8,16.91],[6.39,16.87],[7.06,17.71],[7.16,17.28],[7.88,17.71],[8.43,17.1],[7.97,16.67],[8.17,16.21],[6.25,14.48]]]}},{"type":"Feature","properties":{},"geometry":{"type":"Polygon","coordinates":[[[7.3,14.19],[6.47,13.57],[6.52,14.02],[6,13.88],[6.35,14.26],[5.89,14.21],[8.17,16.21],[8.44,14.74],[7.3,14.19]]]}},{"type":"Feature","properties":{},"geometry":{"type":"Polygon","coordinates":[[[17.11,21.13],[17.52,20.73],[16.73,20.89],[17.11,21.13]]]}},{"type":"Feature","properties":{},"geometry":{"type":"Polygon","coordinates":[[[-54.8,21.13],[-54.95,20.39],[-54.94,20.85],[-55.26,20.71],[-54.8,21.13]]]}},{"type":"Feature","properties":{},"geometry":{"type":"Polygon","coordinates":[[[17.96,22.05],[18.29,20.94],[17.29,21.37],[17.99,21.58],[17.96,22.05]]]}},{"type":"Feature","properties":{},"geometry":{"type":"Polygon","coordinates":[[[-63.68,1.3],[-63.36,-0.57],[-63.84,0.22],[-63.68,1.3]]]}},{"type":"Feature","properties":{},"geometry":{"type":"Polygon","coordinates":[[[-11.63,17.57],[-11.47,17.22],[-12.06,16.77],[-11.63,17.57]]]}},{"type":"Feature","properties":{},"geometry":{"type":"Polygon","coordinates":[[[7.1,20.11],[7.44,19.48],[6.91,19.77],[7.1,20.11]]]}},{"type":"Feature","properties":{},"geometry":{"type":"Polygon","coordinates":[[[-64.61,0.07],[-64.76,-0.87],[-65.17,-0.06],[-64.61,0.07]]]}},{"type":"Feature","properties":{},"geometry":{"type":"Polygon","coordinates":[[[-63.65,3.38],[-63.44,2.39],[-63.97,2.11],[-63.65,3.38]]]}},{"type":"Feature","properties":{},"geometry":{"type":"Polygon","coordinates":[[[21.89,26.92],[22.35,27],[22.05,26.16],[21.59,26.61],[21.89,26.92]]]}},{"type":"Feature","properties":{},"geometry":{"type":"Polygon","coordinates":[[[8.46,21.43],[8.07,19.32],[7.4,19.16],[7.78,19.65],[7.34,20.32],[7.76,20.38],[7.57,21.17],[8.46,21.43]]]}},{"type":"Feature","properties":{},"geometry":{"type":"Polygon","coordinates":[[[8.46,20.35],[9.6,20.65],[9.11,19.24],[9.57,19.25],[8.9,18.9],[9.94,18.98],[10.47,18.49],[8.73,17.33],[8.6,18.63],[8.37,18.87],[8.14,18.45],[8.19,18.86],[8,17.84],[7.83,18.83],[8.46,20.35]]]}},{"type":"Feature","properties":{},"geometry":{"type":"Polygon","coordinates":[[[10.47,18.49],[11.68,17.6],[11.98,17.15],[11.44,17.1],[12.02,17.04],[12.11,16.45],[13.18,16.61],[13.32,15.97],[12.77,15.13],[13.51,15.06],[9.38,12.75],[11.01,14.99],[10.51,14.42],[9.15,14.62],[9.82,15.46],[9.66,15.8],[9.26,15.56],[9.43,15.94],[10.33,16.38],[9.5,17.67],[10.47,18.49]]]}},{"type":"Feature","properties":{},"geometry":{"type":"Polygon","coordinates":[[[21.6,27.32],[21.84,26.97],[21.44,27.03],[21.6,27.32]]]}},{"type":"Feature","properties":{},"geometry":{"type":"Polygon","coordinates":[[[-10.84,23.27],[-11.17,22.5],[-11.32,22.96],[-10.84,23.27]]]}},{"type":"Feature","properties":{},"geometry":{"type":"Polygon","coordinates":[[[-12.11,24.09],[-13.02,23.38],[-12.79,24.05],[-12.11,24.09]]]}},{"type":"Feature","properties":{},"geometry":{"type":"Polygon","coordinates":[[[-13.59,54.09],[-15.99,54.16],[-15.49,54.64],[-13.72,54.5],[-13.59,54.09]]]}},{"type":"Feature","properties":{},"geometry":{"type":"Polygon","coordinates":[[[-12.95,27.24],[-12.87,26.5],[-12.6,26.71],[-11.59,25.59],[-11.78,25.03],[-10.94,24.68],[-11.45,24.43],[-12.26,25.32],[-13.64,24.49],[-13.61,25.15],[-14.36,25.16],[-13.74,25.52],[-12.95,27.24]]]}},{"type":"Feature","properties":{},"geometry":{"type":"Polygon","coordinates":[[[-8.33,28.98],[-7.98,28.77],[-8.14,28.06],[-8.95,27.95],[-8.81,28.78],[-8.33,28.98]]]}},{"type":"Feature","properties":{},"geometry":{"type":"Polygon","coordinates":[[[12.58,34.11],[13.12,33.92],[12.72,33.38],[12.58,34.11]]]}},{"type":"Feature","properties":{},"geometry":{"type":"Polygon","coordinates":[[[-7.13,49.57],[-9.85,50.62],[-10.78,51.88],[-11.19,51.71],[-10.41,51.17],[-10.99,51.04],[-13.84,51.73],[-13.5,52.22],[-12.82,52.09],[-13.25,52.4],[-11.94,52.37],[-12.73,52.88],[-12.1,53.29],[-12.91,53.55],[-12.37,53.8],[-10.53,53.47],[-9.93,52.85],[-8.22,52.93],[-8.13,52.04],[-7.37,52.3],[-7.63,52.99],[-7.2,52.77],[-7.13,49.57]]]}},{"type":"Feature","properties":{},"geometry":{"type":"Polygon","coordinates":[[[23.22,42.68],[23.76,42.58],[23.59,41.93],[22.86,42.41],[23.22,42.68]]]}},{"type":"Feature","properties":{},"geometry":{"type":"Polygon","coordinates":[[[-16.53,32.24],[-16.04,31.13],[-16.77,30.93],[-17.68,31.89],[-16.53,32.24]]]}},{"type":"Feature","properties":{},"geometry":{"type":"Polygon","coordinates":[[[-0.94,48.1],[-1.42,48.38],[-1.2,48.61],[-0.57,48.25],[-0.94,48.1]]]}},{"type":"Feature","properties":{},"geometry":{"type":"Polygon","coordinates":[[[-1.17,26.03],[-0.5,25.19],[-1.03,24.97],[-1.3,25.15],[-0.93,25.32],[-1.56,25.46],[-1.17,26.03]]]}},{"type":"Feature","properties":{},"geometry":{"type":"Polygon","coordinates":[[[24.11,46.01],[25.39,46.12],[24.53,45.69],[24.11,46.01]]]}},{"type":"Feature","properties":{},"geometry":{"type":"Polygon","coordinates":[[[9.02,28.22],[9.32,27.91],[8.38,27.41],[9.02,28.22]]]}},{"type":"Feature","properties":{},"geometry":{"type":"Polygon","coordinates":[[[-6.59,47.57],[-6.14,47.47],[-6.56,47.09],[-6.59,47.57]]]}},{"type":"Feature","properties":{},"geometry":{"type":"Polygon","coordinates":[[[-7.19,46.87],[-7.95,47.31],[-6.81,47.5],[-6.78,46.94],[-7.19,46.87]]]}},{"type":"Feature","properties":{},"geometry":{"type":"Polygon","coordinates":[[[-3.33,7.5],[-2.59,6.5],[-1.45,6.12],[-1.06,6.44],[-0.35,5.91],[-2.69,5.04],[-3.5,3.91],[-4.03,4.88],[-2.85,5.8],[-2.62,5.43],[-2.03,5.87],[-3.16,5.79],[-2.9,6.45],[-5.57,4.68],[-6.09,4.92],[-6.21,4.41],[-6.98,4.21],[-7.61,2.83],[-7.11,2.21],[-6.9,2.54],[-6.86,2.05],[-7.76,1.99],[-7.88,2.34],[-7.98,1.9],[-8.6,1.85],[-6.51,5.1],[-3.33,7.5]]]}},{"type":"Feature","properties":{},"geometry":{"type":"Polygon","coordinates":[[[-14.09,-48.88],[-17.22,-51.89],[-19,-52.82],[-16.79,-51.16],[-17.76,-50.67],[-17.8,-51.48],[-19.17,-52.37],[-19.02,-52.82],[-19.88,-53.73],[-22.22,-55.19],[-25.15,-55.3],[-27.48,-54.7],[-28.16,-53.98],[-27.43,-53.13],[-28.01,-53.26],[-28.45,-54.58],[-26.7,-55.58],[-26.9,-56.46],[-36.98,-53.01],[-38.9,-51.92],[-39.49,-49.05],[-41.82,-43.73],[-41.46,-41.84],[-40.35,-40.15],[-40.1,-37.6],[-33.29,-42.16],[-27.25,-45.15],[-20.5,-47.49],[-14.09,-48.88]]]}},{"type":"Feature","properties":{},"geometry":{"type":"Polygon","coordinates":[[[-33.73,-57.43],[-34.46,-57.13],[-34.09,-57.81],[-34.51,-57.68],[-34.16,-57.86],[-35.09,-58.66],[-34.72,-58.99],[-35.14,-59.26],[-37.26,-59.31],[-39.05,-58.79],[-39.44,-60.02],[-38.78,-60.46],[-37.58,-60.21],[-37.68,-60.91],[-39.62,-60.6],[-38.77,-61.01],[-40.57,-61.51],[-41.49,-62.73],[-43.91,-62.83],[-45.29,-63.49],[-44.58,-64.51],[-43.1,-64.89],[-43.61,-65.6],[-47.15,-66.31],[-48.42,-67.16],[-49.4,-66.89],[-49.27,-67.23],[-50.73,-67.46],[-51.41,-68.41],[-52,-68.49],[-51.53,-68.48],[-51.27,-69.28],[-55.65,-69.09],[-57.57,-70.06],[-58.87,-69.31],[-57.74,-69.3],[-58.42,-69.55],[-57.92,-69.59],[-56.21,-69.09],[-58.5,-68.41],[-59.91,-68.72],[-58.54,-68.44],[-60.05,-68.4],[-59.4,-68.23],[-59.32,-67.76],[-58.26,-68.2],[-57.75,-67.92],[-57.66,-68.22],[-58.59,-68.33],[-57.97,-68.45],[-57.1,-67.84],[-57.73,-67.41],[-57.49,-67.18],[-58.02,-67.38],[-57.17,-67.78],[-58.15,-67.45],[-57.92,-67.72],[-58.36,-67.76],[-57.87,-67.81],[-58.61,-67.94],[-58.36,-67.48],[-58.8,-67.99],[-58.95,-67.61],[-58.49,-67.5],[-59.13,-67.34],[-58.28,-67.01],[-58.99,-66.89],[-58.87,-66.61],[-57.39,-66.6],[-57.81,-66.41],[-57.4,-66.28],[-58.51,-66.6],[-58.54,-66.18],[-58.01,-66.17],[-58.86,-65.84],[-57.72,-66.13],[-58.17,-65.73],[-57.28,-65.7],[-57.97,-65.66],[-57.43,-65.55],[-57.79,-65.4],[-56.91,-65.64],[-57.35,-65.33],[-56.87,-64.96],[-57.71,-65.15],[-56.65,-64.64],[-57.02,-64.43],[-56.13,-64.38],[-56.9,-63.81],[-54.92,-64.15],[-55.45,-64.05],[-55.22,-63.61],[-56.76,-63.53],[-55.85,-63.54],[-56.23,-63.29],[-55.35,-63.16],[-55.38,-62.72],[-57.39,-62.41],[-55.35,-61.73],[-54.46,-61.88],[-54.27,-62.36],[-54.65,-62.67],[-53.05,-61.95],[-53.71,-61.96],[-53.36,-61.66],[-52.39,-61.8],[-53.24,-61.41],[-51.48,-60.96],[-52.27,-60.49],[-50.28,-59.12],[-50.57,-58.8],[-50.06,-59.08],[-49.83,-58.57],[-50.41,-58.42],[-49.39,-58.15],[-51.51,-58.07],[-51.41,-57.43],[-49.55,-55.92],[-49.27,-53.84],[-48.49,-53.74],[-45.1,-50.56],[-44.46,-49.47],[-44.27,-47.67],[-43.51,-47.05],[-43.56,-46.12],[-42.4,-44.9],[-41.25,-42.54],[-38.86,-47.84],[-37.55,-53.34],[-35.69,-55.8],[-33.73,-57.43]]]}},{"type":"Feature","properties":{},"geometry":{"type":"Polygon","coordinates":[[[-31.89,-8.78],[-29.92,-9.02],[-28.88,-9.78],[-27.39,-9.52],[-27.98,-9.27],[-25.59,-9.48],[-26.65,-9.58],[-26.18,-10.36],[-24.76,-10.88],[-24.98,-11.75],[-24.03,-11.83],[-22.75,-12.94],[-22.82,-14.14],[-22.44,-13.7],[-21.37,-14.87],[-18.17,-15.12],[-15.95,-16.47],[-15.24,-17.24],[-14.92,-19],[-14.11,-19.75],[-15.83,-21.59],[-15.06,-21.13],[-15.47,-21.8],[-14.75,-21.24],[-12.56,-21.54],[-13.12,-22.67],[-14.84,-23.08],[-13.61,-22.9],[-13.74,-23.35],[-12.86,-22.53],[-12.56,-22.71],[-12.24,-21.91],[-11.56,-21.84],[-9.31,-22.63],[-9.33,-23.06],[-8.81,-22.74],[-8.39,-23.34],[-8.72,-23.58],[-8.27,-23.65],[-8.74,-24.63],[-8.22,-23.81],[-7.9,-23.72],[-8.11,-24.18],[-7.2,-23.65],[-5.08,-24.25],[-3.47,-24.14],[-0.29,-26.14],[1.84,-26.58],[2.47,-28.23],[2.2,-29.98],[-1.26,-34.17],[-1.74,-33.88],[-2.03,-38.95],[-2.72,-39.77],[-2.78,-40.93],[-4.3,-42.8],[-4.19,-43.32],[-5.42,-43.86],[-5.49,-44.32],[-8.56,-44.26],[-13.61,-46.69],[-14.3,-46.57],[-13.8,-46.79],[-14.49,-47.35],[-14.04,-47.43],[-14.39,-49.33],[-17.8,-48.56],[-25.93,-45.97],[-33.33,-42.15],[-39.93,-37.42],[-39.77,-37],[-40.87,-35.6],[-44.48,-33.03],[-45.43,-31.57],[-45.12,-30.83],[-47.21,-23.93],[-48.43,-22.56],[-48.02,-22.11],[-48.11,-20.79],[-46.67,-20.24],[-46.1,-19.49],[-47.26,-18.99],[-46.96,-17.74],[-46.24,-17.49],[-45.69,-16.17],[-44.49,-16.01],[-43.92,-15.19],[-38.96,-14.13],[-36.77,-11.06],[-33.21,-8.87],[-31.89,-8.78]]]}},{"type":"Feature","properties":{},"geometry":{"type":"Polygon","coordinates":[[[-42.37,-9.65],[-41.81,-10.63],[-41.81,-9.96],[-40.32,-9.44],[-39.64,-8.17],[-37.61,-8.15],[-35.79,-7.35],[-35.35,-7.87],[-36.28,-8.17],[-36.1,-9.09],[-36.83,-9.84],[-36.58,-10.68],[-35.77,-10.17],[-36.08,-8.99],[-34.45,-8.68],[-34.27,-7.95],[-34.03,-8.75],[-32.79,-9.6],[-37.84,-11.96],[-40.17,-14.93],[-45.19,-15.78],[-43.06,-14.44],[-43.5,-14.02],[-42.7,-11.8],[-43.23,-10.76],[-42.37,-9.65]]]}},{"type":"Feature","properties":{},"geometry":{"type":"Polygon","coordinates":[[[-27.03,-55.65],[-26.39,-55.9],[-26.39,-56.4],[-27.89,-57.52],[-34.33,-57.95],[-37.92,-54.38],[-38.95,-51.24],[-36.07,-52.71],[-27.03,-55.65]]]}},{"type":"Feature","properties":{},"geometry":{"type":"Polygon","coordinates":[[[-47.82,8.48],[-47.55,8.3],[-47.4,8.85],[-47.97,9.06],[-47.78,11.55],[-46.68,11.77],[-45.82,10.51],[-45.4,6.98],[-45.57,5.52],[-46.23,4.6],[-47.82,8.48]]]}},{"type":"Feature","properties":{},"geometry":{"type":"Polygon","coordinates":[[[-47.77,11.57],[-46.94,12.55],[-46.62,13.87],[-44.53,16.62],[-44.18,16.47],[-44.55,16.67],[-43.94,17.14],[-44.26,17.28],[-43.83,18.72],[-42.76,17.86],[-43.43,16.92],[-42.75,17.09],[-42.4,18.42],[-41.65,18.47],[-42.15,17.12],[-41.02,16.48],[-40.8,15.12],[-39.4,14.29],[-39.97,13.22],[-47.77,11.57]]]}},{"type":"Feature","properties":{},"geometry":{"type":"Polygon","coordinates":[[[-58.54,-7],[-59.43,-7.24],[-59.4,-6.38],[-59.44,-6.84],[-59.89,-6.84],[-59.64,-6.18],[-60.04,-6.56],[-60.34,-6.17],[-59.92,-5.81],[-60.44,-5.86],[-59.84,-5.35],[-60.16,-5.01],[-60.48,-5.79],[-61.15,-5.52],[-60.59,-5.08],[-61.05,-5.39],[-60.94,-4.85],[-61.73,-4.96],[-61.22,-4.81],[-61.87,-4.52],[-61.07,-4.18],[-61.82,-4.33],[-61.78,-3.94],[-61.24,-3.66],[-61.04,-4.07],[-61.13,-3.69],[-60.71,-3.66],[-61.24,-3.44],[-58.96,-5.68],[-58.54,-7]]]}},{"type":"Feature","properties":{},"geometry":{"type":"Polygon","coordinates":[[[-61.06,-3.31],[-61.97,-3.52],[-61.57,-3.12],[-61.87,-2.72],[-61.06,-3.31]]]}},{"type":"Feature","properties":{},"geometry":{"type":"Polygon","coordinates":[[[-43.7,4.94],[-44.01,4.49],[-45.85,4.94],[-45.4,6.22],[-45.68,9.87],[-46.68,11.77],[-40.47,12.9],[-39.4,14.29],[-38.96,14.11],[-38.47,13.66],[-43.7,4.94]]]}},{"type":"Feature","properties":{},"geometry":{"type":"Polygon","coordinates":[[[-43.82,4.89],[-43.94,4.23],[-45.59,6.6],[-39.76,15.62],[-38.57,14.71],[-39.23,13.53],[-38.23,11.76],[-40.56,8.61],[-42.37,7.42],[-43.82,4.89]]]}},{"type":"Feature","properties":{},"geometry":{"type":"Polygon","coordinates":[[[-41.57,1.14],[-43.64,2.52],[-44.95,5.14],[-43.16,8.22],[-41.27,9.28],[-39.18,11.41],[-38.72,12.27],[-39.59,14.11],[-38.85,15.24],[-38.06,15.05],[-37.57,10.58],[-37.75,7.8],[-38.75,4.62],[-40.81,2.84],[-41.57,1.14]]]}},{"type":"Feature","properties":{},"geometry":{"type":"Polygon","coordinates":[[[-40.98,-16.65],[-41.48,-15.39],[-43.05,-15.11],[-44.03,-13.91],[-46.53,-8.52],[-46.86,-6.83],[-46.61,-5.56],[-46.19,-5.73],[-45.53,-5.13],[-45.12,-3.84],[-44.89,-0.68],[-45.29,0.41],[-44.64,1.1],[-44.76,3.99],[-43.94,6.42],[-43.61,2.48],[-43,0.8],[-41.16,-3.31],[-39.29,-5.13],[-41.26,-11.42],[-41.25,-12.94],[-40.05,-16.95],[-40.98,-16.65]]]}},{"type":"Feature","properties":{},"geometry":{"type":"Polygon","coordinates":[[[-30.78,-3.74],[-29.93,-5.79],[-27.29,-5.91],[-26.91,-6.28],[-25.85,-8.89],[-27.78,-8.65],[-27.78,-8.97],[-29.21,-9.02],[-28.65,-8.64],[-29.23,-8.48],[-30.52,-9.1],[-31.81,-8.74],[-31.83,-9.04],[-32.89,-5.91],[-31.87,-3.99],[-30.78,-3.74]]]}},{"type":"Feature","properties":{},"geometry":{"type":"Polygon","coordinates":[[[-44.03,4.14],[-45.08,2.63],[-45.33,-1.83],[-46.22,-3.93],[-45.9,-5.36],[-46.58,-5.54],[-46.93,-2.66],[-46.29,-2.06],[-46.19,-0.47],[-46.67,-0.4],[-46.92,1.19],[-46.27,0.49],[-45.77,1.2],[-45.99,3.08],[-44.69,6.53],[-44.79,7.85],[-45.66,9.44],[-44.54,12.61],[-44.52,9.26],[-43.7,6.89],[-44.03,4.14]]]}},{"type":"Feature","properties":{},"geometry":{"type":"Polygon","coordinates":[[[-42.89,0.85],[-42.64,1.23],[-43.69,2.56],[-44.05,5.31],[-44.98,6.66],[-44.57,6.97],[-43.85,7.04],[-42.37,6.11],[-39.89,1.33],[-37.79,-0.02],[-36.62,-1.49],[-36.35,-2.63],[-37.33,-6.82],[-41.25,-2.74],[-42.89,0.85]]]}},{"type":"Feature","properties":{},"geometry":{"type":"Polygon","coordinates":[[[-19.77,51.39],[-19.27,52.15],[-18.81,51.93],[-17.78,52.48],[-15.04,51.86],[-17.02,50.32],[-17.42,50.79],[-18.81,50.17],[-19.77,51.39]]]}},{"type":"Feature","properties":{},"geometry":{"type":"Polygon","coordinates":[[[-18.77,50.09],[-17.51,49.87],[-18.41,50.04],[-18.02,49.56],[-16.76,49.83],[-14.33,49.16],[-14.36,48.57],[-15.5,48.04],[-15.46,46.78],[-16.88,45.55],[-17.04,44.86],[-17.71,45.31],[-17.76,44.82],[-19.87,44.69],[-24.65,42.27],[-25.87,42],[-26.58,42.54],[-26.04,45.77],[-23.92,46.32],[-21,48.27],[-19.09,48.95],[-18.77,50.09]]]}},{"type":"Feature","properties":{},"geometry":{"type":"Polygon","coordinates":[[[-9.94,1.11],[-10.73,-0.34],[-11.25,0.37],[-10.92,-0.82],[-11.75,-2.07],[-11.42,-1.24],[-11.91,-0.31],[-11.5,0.38],[-12.06,0.11],[-11.95,-1.12],[-12.69,-0.63],[-11.9,-1.29],[-12.41,-1.14],[-12.04,-2.16],[-12.53,-1.88],[-11.81,-2.26],[-11.55,-3.42],[-11.81,-2.47],[-11.73,-3.12],[-12.49,-3.16],[-11.72,-3.57],[-12.71,-3.65],[-12.36,-3.88],[-12.8,-4.09],[-12.28,-4.25],[-16.33,-6.16],[-17.09,-7.43],[-16.5,-11.88],[-17.13,-13.44],[-17.76,-13.35],[-18.18,-12.52],[-18.06,-11.71],[-18.36,-11.84],[-18.77,-10.83],[-18.42,-10.41],[-18.84,-10.42],[-18.43,-9.44],[-19.55,-7.9],[-20.68,-8.24],[-21.22,-7.27],[-22.83,-7.2],[-22.67,-6.62],[-22.9,-7.08],[-23.87,-6.85],[-25.83,-5.44],[-22.81,-5.57],[-18.82,-4.93],[-16.03,-3.4],[-12.5,-0.16],[-9.94,1.11]]]}},{"type":"Feature","properties":{},"geometry":{"type":"Polygon","coordinates":[[[-45.6,-11.6],[-44.03,-14.78],[-44.25,-16.83],[-48.37,-17.86],[-49.77,-17.16],[-49.62,-16.59],[-50.08,-17.03],[-49.78,-16.12],[-49.02,-16.05],[-47.97,-13.54],[-47.76,-13.91],[-47.39,-13.62],[-48.01,-12.75],[-48.24,-9.8],[-47.29,-7.15],[-46.68,-7.88],[-46.67,-9.26],[-45.6,-11.6]]]}},{"type":"Feature","properties":{},"geometry":{"type":"Polygon","coordinates":[[[-14.03,31.26],[-14.39,31.16],[-14.42,30.08],[-13.46,30.8],[-13.42,28.56],[-11.74,30.17],[-11.92,31.08],[-10.68,30.62],[-11.1,30.59],[-10.4,30.01],[-11.11,29.47],[-10.92,27.97],[-11.99,27.49],[-12.41,28.3],[-12.15,27.31],[-13.34,27.96],[-13.05,27.51],[-13.95,26.84],[-15.6,27.92],[-13.8,26.62],[-14.59,25.81],[-15.49,26.07],[-16.05,25.43],[-17.47,26.38],[-16.47,25.82],[-16.16,25.03],[-17.07,25.07],[-17.06,24.62],[-18.08,24.45],[-17.87,24.14],[-18.51,23.98],[-19.68,21.88],[-18.81,21.29],[-19.15,19.47],[-17.89,19.44],[-15.26,16.79],[-13.62,16.33],[-14.04,14.21],[-13.14,12.43],[-12.77,12.21],[-12.4,12.66],[-12.18,12.12],[-11.77,13.28],[-12.23,15.63],[-10.96,16.1],[-10.09,17.18],[-10.17,18.79],[-10.97,19.55],[-10.1,20.58],[-10.09,21.62],[-10.46,21.61],[-9.98,22.3],[-10.23,23.07],[-9.8,23.34],[-9,22.76],[-7.95,23.06],[-6.93,22.13],[-6.99,21.67],[-5.89,21.54],[-5.99,20.55],[-6.72,20.57],[-6.05,20.44],[-5.74,19.53],[-6.47,19.14],[-5.57,19.38],[-5.25,19],[-5.95,18.2],[-5.15,19.04],[-5,18.37],[-4.25,19.31],[-4.06,18.76],[-3.53,19.85],[-3.81,20.2],[-3.2,20.72],[-2.61,19.68],[-2.99,19.5],[-2.32,19.2],[-2.71,18.77],[-2.14,18.98],[-2.55,18.46],[-2.06,18.68],[-1.72,18.16],[-2.08,18],[-1.39,17.64],[-1.54,17.15],[-2.07,17.28],[-0.87,16.12],[-0.68,16.37],[-0.84,15.56],[-0.32,15.95],[-0.37,15.35],[0.06,15.88],[0.11,15.47],[1.2,15.33],[-0.76,13.82],[1.17,14.95],[1.34,14.22],[2.15,14.4],[2.4,13.51],[1.91,13.42],[2.5,12.98],[1.78,12.22],[0.66,12.15],[-0.16,10.8],[-4.25,10.71],[-4.85,9.77],[-5.99,9.24],[-7.51,7.37],[-4.11,9.64],[-3.25,9.67],[-2.72,9.1],[-3.42,8.47],[-4.46,8.44],[-3.03,8.2],[-3.33,7.5],[-6.51,5.1],[-8.6,1.85],[-12.5,-0.16],[-17.63,-4.37],[-22.81,-5.57],[-29.16,-4.86],[-34.06,-6.32],[-34.55,-8.4],[-36.38,-7.68],[-37.33,-6.82],[-36.4,-2.02],[-37.79,-0.02],[-37.07,1.7],[-35.04,3.52],[-34.1,6.72],[-33.98,9.5],[-34.64,12.76],[-34.26,20.7],[-35.61,25.46],[-34.83,29.62],[-33.24,31.08],[-32.02,33.27],[-33.05,36.85],[-30.87,39.22],[-30.81,39.85],[-30.4,39.22],[-30.13,39.8],[-29.18,39.72],[-29.5,39.31],[-27.23,38.85],[-28.63,38.94],[-28.91,38.73],[-28.28,38.76],[-28.7,38.36],[-27.97,38.62],[-26.55,38.23],[-26.44,38.67],[-26.76,37.15],[-25.71,37.59],[-26.4,36.92],[-25.14,36.65],[-24.45,35.17],[-23.52,34.46],[-23.45,33.85],[-24.34,33.61],[-22.27,32.75],[-22.12,30.76],[-21.63,32.17],[-20.22,32.49],[-21.65,32.73],[-20.24,32.84],[-20.04,31.56],[-19.63,31.7],[-19.36,31.05],[-17.84,30.53],[-17.26,31.22],[-16.76,30.79],[-17.02,30.55],[-16.57,30.69],[-17.15,30],[-16.79,29.56],[-16.49,30.43],[-15.4,30.69],[-15.42,31.16],[-15.87,30.96],[-15.14,31.56],[-16.02,32.49],[-14.73,34.02],[-14.29,33.68],[-14.12,31.96],[-14.87,31.64],[-14.03,31.26]]]}},{"type":"Feature","properties":{},"geometry":{"type":"Polygon","coordinates":[[[-64.11,0.21],[-64.41,-0.2],[-64.22,0.53],[-64.62,1.1],[-64.59,0.35],[-65.02,0.31],[-64.7,3.49],[-65.35,5.1],[-66.34,6.56],[-67.57,7.11],[-67.16,7.27],[-70.01,7.79],[-70.53,7.61],[-70.39,7.13],[-71.27,7.13],[-73.95,8.1],[-74.35,7.86],[-75.72,8.9],[-75.58,9.2],[-76.77,9.74],[-75.4,9.44],[-75.07,8.62],[-74.65,8.93],[-72.81,8.27],[-71.35,8.76],[-72.02,9.13],[-71.69,9.48],[-72.41,9.33],[-72.31,10.26],[-69.48,10.24],[-65.8,8.49],[-63.75,5.39],[-64.11,0.21]]]}},{"type":"Feature","properties":{},"geometry":{"type":"Polygon","coordinates":[[[-49.89,13.64],[-49.61,13.83],[-49.89,13.66],[-50.42,15.32],[-53.88,18.26],[-53.1,17.95],[-53.79,18.55],[-53.5,19.19],[-54.11,18.44],[-54.53,19.05],[-53.94,19.33],[-54.68,19.5],[-53.85,20.47],[-54.33,20.07],[-54.08,20.98],[-54.73,19.91],[-54.57,21.03],[-55.16,21.2],[-55.36,20.79],[-54.87,21.44],[-55.82,22.69],[-55.79,23.14],[-55.41,22.84],[-55.85,23.38],[-55.53,23.52],[-55.93,23.52],[-55.62,23.95],[-56.24,23.92],[-56.28,25.07],[-56.41,24.3],[-58.57,29.12],[-55.58,28.38],[-54.8,27.71],[-54.61,25.71],[-53.39,23.93],[-51.77,23.01],[-48.51,15.7],[-48.51,12.06],[-49.78,12.21],[-49.89,13.64]]]}},{"type":"Feature","properties":{},"geometry":{"type":"Polygon","coordinates":[[[-39.1,29.45],[-39.19,27.67],[-40.56,24.4],[-41.01,25.84],[-40.55,27.9],[-39.1,29.45]]]}},{"type":"Feature","properties":{},"geometry":{"type":"Polygon","coordinates":[[[-35.17,39.04],[-35.98,37.63],[-35.02,34.3],[-36.32,32.14],[-37.71,31.21],[-38.79,27.22],[-38.82,25.87],[-37.61,21.78],[-38.06,15.05],[-41.89,17.6],[-42.39,18.78],[-40.31,22.45],[-40.21,24.93],[-38.65,32.52],[-39.59,42.25],[-38.44,42.24],[-34.99,40.66],[-33.58,40.86],[-33.66,40.23],[-35.17,39.04]]]}},{"type":"Feature","properties":{},"geometry":{"type":"Polygon","coordinates":[[[23.81,52.15],[23.98,51.69],[23.54,51.95],[23.81,52.15]]]}},{"type":"Feature","properties":{},"geometry":{"type":"Polygon","coordinates":[[[9,30.39],[9.58,30.22],[8.61,30.14],[9,30.39]]]}},{"type":"Feature","properties":{},"geometry":{"type":"Polygon","coordinates":[[[-20.1,38.02],[-20.73,37.38],[-19.95,37.48],[-19.58,36.93],[-20.04,36.64],[-18.96,36.85],[-19.24,35.43],[-18.24,36.93],[-17.69,36.35],[-18.46,34.45],[-17.65,33.16],[-17.9,32.67],[-18.83,33.1],[-19.03,32.5],[-18.48,32.74],[-18.56,32.19],[-19.88,32.63],[-20.09,33.41],[-21.44,33.17],[-23.18,33.77],[-22.74,34.38],[-23.68,35.21],[-23.3,35.88],[-21.31,34.94],[-21.84,35.75],[-23.16,36.4],[-23.12,36.87],[-21.64,36.64],[-22.74,37.12],[-22.36,37.25],[-22.72,37.63],[-21.75,38.1],[-20.1,38.02]]]}},{"type":"Feature","properties":{},"geometry":{"type":"Polygon","coordinates":[[[19.58,46.18],[20.14,46.43],[21.45,45.51],[23.63,45.51],[22.51,44.53],[21.56,44.89],[21.15,44.36],[20.51,44.62],[20.23,45.46],[19.75,45.26],[19.58,46.18]]]}},{"type":"Feature","properties":{},"geometry":{"type":"Polygon","coordinates":[[[8.35,30.56],[9.06,30.51],[8.15,30.24],[8.35,30.56]]]}},{"type":"Feature","properties":{},"geometry":{"type":"Polygon","coordinates":[[[22.02,50.22],[22.29,49.78],[21.7,49.97],[22.02,50.22]]]}},{"type":"Feature","properties":{},"geometry":{"type":"Polygon","coordinates":[[[-17.05,36.9],[-17.63,36.12],[-17.8,36.91],[-17.05,36.9]]]}},{"type":"Feature","properties":{},"geometry":{"type":"Polygon","coordinates":[[[-9.1,34.56],[-8.06,34.16],[-7.76,33.48],[-9.02,33.52],[-9.1,34.56]]]}},{"type":"Feature","properties":{},"geometry":{"type":"Polygon","coordinates":[[[-7.92,25.28],[-9.21,24.89],[-9.91,25.49],[-9.34,26.21],[-7.57,26.01],[-7.96,26.75],[-6.84,27.78],[-7.35,29.22],[-8.06,29.64],[-8.58,29.36],[-8.08,29.85],[-9.19,31.47],[-9.27,30.65],[-10.38,31.06],[-10.14,30.61],[-10.49,31.18],[-10.83,31.33],[-10.6,30.76],[-12.99,32.03],[-13.05,32.62],[-12.14,32.3],[-13.06,33.16],[-11.64,34.94],[-10.57,34.79],[-11.53,33.93],[-11.26,32.4],[-12.07,32.28],[-11.3,32.12],[-11.02,32.73],[-11.49,33.22],[-10.86,33.2],[-11.18,33.8],[-10.7,33.93],[-10.94,34.25],[-10.53,34.07],[-10.79,34.4],[-9.48,34.58],[-9.25,33.54],[-9.69,32.74],[-9.14,33.28],[-8.54,32.44],[-8.87,32.97],[-8.41,32.9],[-8.55,33.35],[-7.52,33.09],[-7.95,32.33],[-7.18,32.53],[-7.67,32.29],[-7.62,31.77],[-7.01,32.32],[-7.19,31.6],[-6.65,32.17],[-6.14,31.75],[-6.73,31.13],[-5.95,31.54],[-6.38,30.52],[-5.68,31.35],[-5.99,30.94],[-5.08,30.97],[-5.84,30.5],[-5.23,30.62],[-5.78,30.08],[-5.03,30.77],[-4.67,30.39],[-5.81,30.01],[-4.44,29.72],[-5.41,29.82],[-4.9,29.24],[-5.57,29.28],[-4.44,28.9],[-4.95,28.72],[-4.31,28.22],[-4.12,28.48],[-4.16,28.04],[-3.61,28.45],[-3.81,28.1],[-3.25,27.81],[-3.57,27.47],[-2.88,27.81],[-3.18,27.29],[-2.4,27.56],[-2.03,27.15],[-2.74,26.82],[-2.28,26.52],[-2.8,26.6],[-2.59,26.07],[-3,26.4],[-2.96,25.36],[-3.9,26.19],[-3.39,26.82],[-4.07,26.39],[-3.9,26.84],[-4.12,26.55],[-5,27.08],[-4.65,26.47],[-5.2,26.53],[-5.1,25.89],[-4.73,26.11],[-4.46,25.16],[-4.41,25.48],[-3.67,24.94],[-3.96,24.75],[-3.44,24.44],[-3.37,23.71],[-3.76,24.25],[-3.4,23.36],[-3.73,23.48],[-3.68,23.02],[-4.36,23.86],[-4.36,23.45],[-5.55,24.21],[-4.06,22.32],[-6.76,23.56],[-7.09,23.96],[-6.63,24.09],[-7.31,24.38],[-7.56,25.22],[-7.98,24.91],[-7.92,25.28]]]}},{"type":"Feature","properties":{},"geometry":{"type":"Polygon","coordinates":[[[-4.23,66.69],[-5.17,67.34],[-2.37,67.11],[-4.23,66.69]]]}},{"type":"Feature","properties":{},"geometry":{"type":"Polygon","coordinates":[[[-15.3,36.36],[-14.53,36],[-15.37,35.37],[-14.91,34.57],[-16.28,33.83],[-16.88,35.7],[-15.91,35.44],[-16.11,36.2],[-15.3,36.36]]]}},{"type":"Feature","properties":{},"geometry":{"type":"Polygon","coordinates":[[[-13.21,35.91],[-12.26,35.35],[-13.33,34.44],[-14.08,34.68],[-13.93,34.29],[-14.73,34.04],[-14.13,35.68],[-13.21,35.91]]]}},{"type":"Feature","properties":{},"geometry":{"type":"Polygon","coordinates":[[[-3.2,66.57],[-2.84,66.33],[-3.46,66.34],[-3.2,66.57]]]}},{"type":"Feature","properties":{},"geometry":{"type":"Polygon","coordinates":[[[16.08,60.97],[16.75,61.29],[16.78,60.87],[16.08,60.97]]]}},{"type":"Feature","properties":{},"geometry":{"type":"Polygon","coordinates":[[[-21.03,40.13],[-20.9,39.32],[-20.24,39.19],[-20.25,38.24],[-22.68,38.17],[-23.37,37.71],[-24.53,37.97],[-24.59,39.2],[-22.35,40],[-22.07,40.62],[-21.03,40.13]]]}},{"type":"Feature","properties":{},"geometry":{"type":"Polygon","coordinates":[[[9.45,33.04],[9.71,32.72],[9.3,32.66],[9.45,33.04]]]}},{"type":"Feature","properties":{},"geometry":{"type":"Polygon","coordinates":[[[-7.18,65.19],[-9.63,65.23],[-8.58,65.72],[-6.68,65.31],[-6.8,64.93],[-7.18,65.19]]]}},{"type":"Feature","properties":{},"geometry":{"type":"Polygon","coordinates":[[[-10.58,36.62],[-10.79,35.85],[-11.32,35.84],[-11.54,36.43],[-10.58,36.62]]]}},{"type":"Feature","properties":{},"geometry":{"type":"Polygon","coordinates":[[[-0.62,64.94],[-0.3,64.99],[-0.64,64.51],[-0.62,64.94]]]}},{"type":"Feature","properties":{},"geometry":{"type":"Polygon","coordinates":[[[-2.91,65.71],[-1.67,65.71],[-1.12,65.08],[-2.65,64.31],[-3.33,64.87],[-3.88,64.37],[-6.18,65.05],[-5.09,65.66],[-2.91,65.71]]]}},{"type":"Feature","properties":{},"geometry":{"type":"Polygon","coordinates":[[[-11.8,38.91],[-11.78,38.56],[-12.18,38.7],[-11.8,38.91]]]}},{"type":"Feature","properties":{},"geometry":{"type":"Polygon","coordinates":[[[-10.6,38.02],[-11.37,36.85],[-12.4,37.01],[-11.74,37.46],[-12.49,37.95],[-12.01,37.77],[-11.54,38.38],[-11.58,37.65],[-11.31,38.27],[-10.6,38.02]]]}},{"type":"Feature","properties":{},"geometry":{"type":"Polygon","coordinates":[[[-12.57,39.77],[-13.44,39],[-12.85,38.56],[-13.71,38.13],[-15.97,39.29],[-15.87,39.59],[-14.59,39.2],[-15.39,39.69],[-15,39.96],[-15.71,39.87],[-15.9,40.59],[-14.68,40.36],[-14.75,40.86],[-14.02,40.75],[-14.37,39.43],[-13.94,38.97],[-13.37,39.8],[-12.57,39.77]]]}},{"type":"Feature","properties":{},"geometry":{"type":"Polygon","coordinates":[[[15.98,50.37],[17.16,50.33],[17.85,48.45],[18.82,47.61],[18.5,47.44],[20.04,46.52],[19.5,46.39],[19.81,46.35],[19.47,45.89],[19.39,46.49],[18.82,45.95],[18.53,46.48],[18.95,46.74],[18.43,46.53],[18.14,47.17],[17.34,47.09],[17.41,47.63],[16.47,48.69],[16.59,49.87],[15.98,50.37]]]}},{"type":"Feature","properties":{},"geometry":{"type":"Polygon","coordinates":[[[-9.66,37.89],[-9.35,37.51],[-9.71,37.08],[-9,37.01],[-8.76,36.4],[-9.33,36.58],[-9.26,35.63],[-7.09,35.04],[-6.96,33.97],[-7.9,33.87],[-8.13,34.47],[-8.57,34.22],[-10.49,35.37],[-9.63,36.98],[-10.27,37.2],[-10.23,37.83],[-9.66,37.89]]]}},{"type":"Feature","properties":{},"geometry":{"type":"Polygon","coordinates":[[[-13.13,41.59],[-14.56,41.04],[-14.18,41.48],[-15.63,41.39],[-15.38,41.72],[-16.01,42],[-13.13,41.59]]]}},{"type":"Feature","properties":{},"geometry":{"type":"Polygon","coordinates":[[[51.42,34.06],[51.58,33.71],[50.92,33.33],[49.19,35.32],[44.05,37.32],[42.31,40.18],[33.49,44.34],[32.05,46.49],[36.35,46.9],[42.96,46.35],[47.53,47.11],[54.13,46.03],[60.3,46.97],[68.83,48.99],[66.56,42.88],[64.96,34.08],[60.88,31.55],[55.76,30.62],[53.53,30.96],[53.27,33.05],[52.18,32.97],[51.42,34.06]]]}},{"type":"Feature","properties":{},"geometry":{"type":"Polygon","coordinates":[[[79.23,37.69],[80.15,37.06],[80.63,35.66],[78.31,34.66],[70.54,34.99],[68.14,34.17],[65.83,35.55],[63.48,39.65],[61.69,40.67],[68.4,41.27],[73.59,41.02],[79.23,37.69]]]}},{"type":"Feature","properties":{},"geometry":{"type":"Polygon","coordinates":[[[75,50.67],[75.01,50.11],[73.21,48.01],[72.16,47.66],[67.04,43.74],[68.83,48.99],[72.77,49.74],[75,50.67]]]}},{"type":"Feature","properties":{},"geometry":{"type":"Polygon","coordinates":[[[119.69,50.49],[120.75,50.47],[120.04,50.18],[120.7,50.07],[121.4,50.4],[121.14,49.96],[121.58,50.68],[122.59,50.54],[123.72,49.37],[123.06,49.27],[123.5,48.23],[122.39,47.45],[121.19,44.77],[115.28,40.57],[113.1,40.03],[112.45,40.3],[112.56,40.79],[111.33,40.16],[107.83,41.74],[104.08,42.19],[94.81,43.16],[84.93,43.05],[81.59,44.24],[75.15,45.02],[73.16,46.01],[71.78,47.63],[77.46,46.55],[82.73,46.69],[87.68,47.88],[91.67,48.06],[94.99,49.28],[99.72,49.42],[103.62,51.61],[106.82,52.5],[112.41,51.09],[119.69,50.49]]]}},{"type":"Feature","properties":{},"geometry":{"type":"Polygon","coordinates":[[[19.28,60.04],[21.18,60.07],[20.17,60.13],[19.78,60.73],[18.05,61.05],[18.42,60.78],[17.62,60.73],[17.21,61],[17.57,61.38],[16.9,61.34],[18.01,61.91],[16.37,62.21],[15.54,62.92],[16.21,63.06],[16.06,63.49],[14.6,64.32],[12.63,63.9],[12.53,64.44],[11.38,64.78],[11.15,65.42],[12.24,65.69],[12.35,66.13],[13.26,66.07],[13.36,66.36],[12.82,66.15],[13.54,66.39],[13.76,67.02],[13.28,67.32],[13.54,67.57],[11.29,67],[11.54,67.19],[13.14,68.14],[17.66,69.43],[17.7,69.93],[13.11,72.59],[2.32,76.52],[-0.88,78.12],[-1.46,78.55],[-1.52,79.3],[-0.76,80.64],[5.42,80.88],[4.6,80.9],[4.99,81.03],[14.15,80.67],[14.43,80.55],[13.71,80.4],[20.9,79.78],[43.67,79.97],[55.22,79.05],[56.44,79.44],[54.9,80.02],[59.49,80.19],[61.47,79.62],[63.38,78.39],[64.86,75.68],[63.15,73.5],[63.1,71.98],[73.31,67.83],[73.59,67.33],[73.18,64.75],[75.25,62.41],[74.59,59.75],[75.29,56.8],[74.7,54.62],[73.57,52.71],[71.69,50.59],[68.83,48.99],[60.3,46.97],[54.13,46.03],[47.53,47.11],[40.86,46.37],[34.85,46.88],[31.14,47.72],[32.68,48.71],[30.99,50.1],[29.37,50.27],[29.14,50.89],[31.91,51.1],[31.68,51.48],[32.54,51.97],[31.24,51.13],[29.44,51.41],[28.71,50.91],[28.61,50.13],[26.46,50.62],[25.09,50.35],[24.07,51.11],[22.97,51.19],[25.67,51.23],[26.34,51.99],[24.6,51.37],[24.77,52.02],[23.93,52.17],[25.21,53.11],[25.21,53.6],[27.66,53.05],[27.28,53.19],[27.95,53.17],[28.8,53.94],[27.59,53.45],[25.36,53.73],[23.94,52.91],[22.11,52.86],[21.47,54.73],[19.89,54.32],[20.23,54.59],[19.35,54.52],[17.34,56.16],[17.56,55.86],[17.13,55.9],[16.82,56.6],[17.34,56.55],[16.34,57.36],[15.8,57.06],[15.29,57.52],[12.7,57.75],[12.9,58.18],[13.81,57.92],[13.4,58.66],[14.33,58.69],[12.73,59.42],[13.43,59.89],[12.93,59.83],[13.4,60.48],[14.07,60.61],[13.93,60.16],[14.18,60.71],[16.08,60.74],[19.28,60.04]]]}},{"type":"Feature","properties":{},"geometry":{"type":"Polygon","coordinates":[[[29.04,48.08],[28.24,48.44],[26.98,47.89],[25.1,48.23],[22.39,49.59],[23.08,50.55],[24.85,50.01],[29.64,49.9],[31.67,48.81],[31.11,47.73],[29.04,48.08]]]}},{"type":"Feature","properties":{},"geometry":{"type":"Polygon","coordinates":[[[65.98,-6.08],[70.51,-5.4],[74.33,-5.78],[76.34,-7.11],[78.9,-10.2],[73.57,-8.45],[66.02,-9.21],[63.82,-9],[59.48,-6.99],[56.33,-4.16],[55.61,-2.73],[60.89,-5.55],[65.98,-6.08]]]}},{"type":"Feature","properties":{},"geometry":{"type":"Polygon","coordinates":[[[65.92,-55.5],[66.53,-55.18],[65.73,-54.52],[65.89,-55.32],[65.47,-54.4],[64.68,-54.06],[65.53,-54.98],[65.15,-55.57],[61.82,-55.72],[62.1,-55.27],[61.03,-55.49],[61.46,-54.84],[59.05,-54.82],[58.51,-55.37],[56.87,-55.48],[48.54,-54.49],[47.92,-54.78],[44.76,-53.7],[41.33,-55.03],[36.29,-56.07],[35.53,-55.57],[34.23,-55.57],[34.12,-56],[33.29,-55.29],[31.85,-55.26],[30.95,-54.67],[31.7,-53.67],[34.89,-51.95],[40.44,-47.52],[45.77,-44.6],[46.72,-44.71],[46.25,-44.29],[47.06,-44.15],[46.86,-43.79],[45.41,-44.2],[43.93,-43.36],[44.65,-41.1],[45.72,-41.96],[46.53,-41.93],[45.42,-41.05],[45.59,-40.11],[46.33,-40.18],[45.7,-39.96],[46.11,-39.77],[45.58,-39.14],[46.55,-38.69],[46.13,-38.03],[46.96,-37.53],[46.24,-37.08],[51.39,-35.19],[60.38,-35.2],[61.77,-35.6],[62.74,-36.79],[62.08,-38.29],[62.23,-42.51],[64.41,-47],[66.47,-48.69],[76.17,-53.04],[77.38,-54.05],[65.92,-55.5]]]}},{"type":"Feature","properties":{},"geometry":{"type":"Polygon","coordinates":[[[58.17,0.24],[60.16,-0.85],[61.55,-1.03],[62.51,-0.85],[63.18,0.12],[68.22,2.02],[73.9,1.44],[78.12,0.1],[79.5,-2.03],[80.17,-4.41],[77.32,-1.91],[75.11,-1.15],[72.1,-1.31],[67.68,-2.47],[62.59,-2.5],[56.62,-0.16],[55.62,-0.22],[54.6,1.59],[56.3,1.49],[58.17,0.24]]]}},{"type":"Feature","properties":{},"geometry":{"type":"Polygon","coordinates":[[[31.11,47.73],[34.85,46.88],[32.05,46.49],[30.35,47.88],[31.11,47.73]]]}},{"type":"Feature","properties":{},"geometry":{"type":"Polygon","coordinates":[[[51.4,25.71],[49.77,26.99],[48.59,26.51],[46.85,26.97],[47.62,27.59],[46.99,27.46],[46.88,28.12],[47.7,28.93],[46.26,29.77],[45.41,29.17],[45.15,27.84],[44.75,27.77],[45.19,26.95],[44.82,27.09],[45.04,26.77],[44.58,26.43],[44.88,25.19],[45.98,25.24],[46.5,24.47],[48.61,24.11],[44.01,22.64],[44.49,28.76],[46.58,32.18],[47.04,33.85],[46.18,35.37],[43.44,37.47],[48.66,35.57],[50.42,33.69],[50.76,33.02],[50.38,32.94],[50.83,32.67],[50.36,32.29],[51,31.34],[52.03,30.76],[52.53,31.45],[55.39,31.01],[59.59,31.67],[64.89,35.02],[64.79,32.1],[58.95,26.67],[51.69,25.28],[51.4,25.71]]]}},{"type":"Feature","properties":{},"geometry":{"type":"Polygon","coordinates":[[[53.34,-22.42],[52.68,-22.21],[51.26,-22.79],[50.25,-22.5],[48.2,-21.05],[47.32,-18.67],[46.81,-18.78],[46.48,-18.2],[46.23,-18.67],[45.35,-18.48],[45.49,-19.03],[45.02,-19.13],[45.37,-19.21],[45.75,-21.04],[46.84,-22.18],[46.58,-22.8],[47.13,-24.16],[47.53,-22.94],[48.08,-23.06],[47.58,-24.65],[48.16,-25.06],[50.62,-25.02],[52.91,-23.04],[52.91,-24.91],[55.03,-25.96],[56.05,-27.33],[54.68,-29.06],[53.96,-29.2],[53.89,-30.44],[52.78,-30.62],[52.18,-31.45],[51.14,-31.49],[50.61,-32.27],[47.64,-32.59],[47.22,-33.37],[42.89,-34.37],[37.06,-34.74],[36.44,-33.91],[36.37,-31.84],[36.98,-30.42],[35.93,-27.04],[34.79,-25.29],[34.97,-22.51],[34.21,-21.68],[33.52,-17.55],[32.98,-17.31],[36.34,-12.19],[37.48,-9.4],[39.32,-8.83],[42.25,-8.91],[44.97,-12.91],[50.69,-19.17],[51.74,-20.93],[53.32,-21.14],[53.64,-21.59],[53.34,-22.42]]]}},{"type":"Feature","properties":{},"geometry":{"type":"Polygon","coordinates":[[[61.69,-31.35],[61.7,-34.64],[59.94,-35.81],[51.15,-35.44],[48.6,-35.85],[48.4,-35.31],[48.65,-32.75],[50.28,-30.95],[52.26,-31.38],[55.23,-29.7],[57.01,-29.43],[61.57,-30.26],[61.69,-31.35]]]}},{"type":"Feature","properties":{},"geometry":{"type":"Polygon","coordinates":[[[62.63,-2.28],[55.28,-0.08],[52.57,1.17],[54.48,4.52],[60.11,-0.35],[63.03,-0.24],[62.63,-2.28]]]}},{"type":"Feature","properties":{},"geometry":{"type":"Polygon","coordinates":[[[50.62,-5.07],[50.26,-4.69],[51.29,-2.84],[53.13,-1.07],[53.83,-1.02],[61.12,-6.3],[55.45,-6.01],[52.87,-6.4],[50.62,-5.07]]]}},{"type":"Feature","properties":{},"geometry":{"type":"Polygon","coordinates":[[[38.96,6.02],[39.58,5.59],[42.54,6.4],[46.02,3.21],[49.96,3.16],[50.45,2.4],[49.25,1.53],[47.3,2.09],[38.98,2.52],[34.23,3.29],[33.82,4.07],[34.01,5.62],[36.7,6.89],[38.96,6.02]]]}},{"type":"Feature","properties":{},"geometry":{"type":"Polygon","coordinates":[[[2.93,47.91],[-0.56,48.3],[-1.25,49.43],[-2.05,49.23],[-1.74,48.64],[-2.03,48.14],[-6.28,49.1],[-6.72,49.36],[-7.02,52.8],[0.84,50.45],[2.93,47.91]]]}},{"type":"Feature","properties":{},"geometry":{"type":"Polygon","coordinates":[[[-28.25,61.69],[-33.45,60.69],[-35.21,59.55],[-36.6,57.79],[-42.37,61.51],[-43.29,62.6],[-43.04,63.28],[-44.2,63.48],[-46.25,65.09],[-43.54,64.76],[-43.96,65.12],[-32.98,65.36],[-29.85,64.32],[-28.11,62.2],[-27.91,61.73],[-28.25,61.69]]]}},{"type":"Feature","properties":{},"geometry":{"type":"Polygon","coordinates":[[[4.43,68.32],[3.49,68.12],[3.93,68.24],[3.03,68.8],[1.46,68.67],[-0.15,69.21],[-0.44,68.86],[-2.11,69],[-1.62,68.54],[-2.44,68.35],[-1.56,68.21],[-3.36,67.96],[-3.06,67.66],[-9.91,68.19],[-10.71,68.48],[-9.93,68.72],[-13.54,69.29],[-17.34,68.5],[-20.04,68.58],[-20.81,69.2],[-22.06,69.28],[-20.52,71.3],[-20.75,72.71],[-24.35,74.1],[-37.77,75.69],[-34.36,76.32],[-33.86,76.78],[-34.73,77.03],[-34.28,77.45],[-34.92,77.63],[-34.21,78.29],[-34.71,78.69],[-34.14,78.6],[-35.57,79.22],[-38.66,79.03],[-31.13,80.51],[-29.67,80.35],[-32.28,79.91],[-27.03,80.17],[-27.38,80.04],[-21.7,78.03],[1.54,73.87],[9.27,71.57],[5.56,69.59],[4.43,68.32]]]}},{"type":"Feature","properties":{},"geometry":{"type":"Polygon","coordinates":[[[110.44,39.75],[109.02,39.07],[108.62,38.15],[106.15,37.11],[106.95,36.25],[107.53,34.05],[104.59,34.02],[104.46,34.8],[105.33,34.78],[105.14,35.66],[104.16,36.03],[103.84,35.7],[103.55,36.01],[103.86,36.12],[103.29,36.25],[104.29,36.68],[103.91,36.91],[104.38,37.54],[103.46,38.12],[100.06,37.36],[101.59,38.9],[101.25,39.45],[100.42,39.45],[98.1,38.15],[96.96,38.31],[96.62,37.6],[97.71,37.21],[97.74,36.18],[99.45,36.56],[101.24,35.82],[100.95,35.37],[98.47,35.05],[97.27,33.94],[98.15,33.19],[94.6,30.82],[90.57,33.1],[84.04,34.88],[73.35,42.08],[84.4,42.75],[94.23,42.76],[107.13,41.24],[110.44,39.75]]]}},{"type":"Feature","properties":{},"geometry":{"type":"Polygon","coordinates":[[[106.62,33.25],[107.53,32.04],[106.49,31.01],[106.77,30.79],[106.47,30.92],[106.68,30.48],[106.36,30.69],[106.18,29.94],[105.38,30.44],[105.27,31.4],[104.89,31.36],[106.62,33.25]]]}},{"type":"Feature","properties":{},"geometry":{"type":"Polygon","coordinates":[[[101.49,26.77],[103.1,25.71],[104.5,25.5],[103.12,24.89],[105.02,24.92],[104.21,23.54],[105.89,24.19],[105.62,23.48],[105.97,23.89],[106.21,23.55],[105.79,23.36],[106.53,22.7],[105.93,21.93],[106.4,20.51],[105.88,20.36],[106.44,20.22],[106.82,19.23],[106.4,19.26],[106.52,18.05],[106.01,17.79],[106.29,17.55],[105.52,16.02],[105.76,15.6],[104.72,14.44],[104.47,14.63],[104.42,13.91],[103.26,14.17],[103.88,13.48],[103.58,13.15],[103.22,13.44],[103.55,12.87],[103.01,12.79],[103.17,12.46],[101.72,11.2],[102.34,10.18],[101.47,10.44],[101.39,11.06],[100.95,11.1],[100.8,10.59],[99.97,10.71],[99.57,9.36],[98.98,9.04],[99.31,8.81],[99.1,7.85],[92.07,9.44],[90.76,10.48],[89.68,12.71],[89.84,15.32],[90.97,18.99],[92.51,20.18],[95.97,21.74],[101.15,22.95],[101.49,26.77]]]}},{"type":"Feature","properties":{},"geometry":{"type":"Polygon","coordinates":[[[96.36,7.05],[96.73,6.07],[97.31,5.82],[101.71,5.85],[103.97,4.46],[104.63,3.27],[103.76,1.02],[104.26,0.26],[103.88,-1.62],[102.84,-0.48],[101.61,-1.19],[101.09,-0.77],[101.01,-1.28],[99.68,-0.71],[98.19,-1.63],[97.68,-0.97],[97.07,-1.33],[94.85,1.14],[93.59,4.13],[89.19,6.73],[96.36,7.05]]]}},{"type":"Feature","properties":{},"geometry":{"type":"Polygon","coordinates":[[[92.17,-8.04],[94.73,-10.27],[95.79,-10.6],[95.97,-10.02],[98.51,-9.98],[99.58,-9.06],[103.62,-10.21],[101.43,-11.12],[97.71,-10.94],[96.48,-11.41],[96.45,-11.85],[92.25,-9.75],[89.97,-9.81],[88.38,-9.32],[88.68,-9.17],[87.24,-9.79],[83.17,-8.7],[80.78,-7.53],[78.72,-5.5],[81.07,-3.61],[85.44,-3.97],[86.69,-4.33],[89,-6.61],[92.17,-8.04]]]}},{"type":"Feature","properties":{},"geometry":{"type":"Polygon","coordinates":[[[98.67,-9.32],[100.6,-8.45],[102.39,-9.03],[104.14,-8.71],[103.8,-8.92],[104,-9.47],[102.74,-10.36],[98.67,-9.32]]]}},{"type":"Feature","properties":{},"geometry":{"type":"Polygon","coordinates":[[[35.82,-29.01],[39.25,-32.29],[39.26,-32.79],[38.22,-33.18],[38.97,-33.14],[40.2,-34.4],[46.31,-33.65],[47.9,-32.98],[48.48,-33.11],[48.22,-34.54],[48.7,-34.5],[48.09,-34.65],[48.03,-35.54],[44.44,-40.54],[41.77,-42.5],[32.88,-47.03],[29.93,-50.01],[29.87,-50.43],[30.81,-51.16],[29.97,-52.38],[30.15,-54.09],[31.48,-54.95],[30.79,-55.54],[30.79,-56.99],[30.32,-57.14],[30.64,-57.19],[30.22,-57.71],[30.25,-59.22],[27.91,-60.45],[22.58,-60.98],[16.38,-62.3],[19.59,-58.03],[20.65,-54.95],[20.91,-51.75],[24.33,-50.6],[24.98,-48.38],[26.76,-46.27],[28.29,-43.3],[29.2,-39.39],[30.02,-38.29],[31.62,-38.43],[32.26,-36.86],[36.64,-33.73],[35.82,-29.01]]]}},{"type":"Feature","properties":{},"geometry":{"type":"Polygon","coordinates":[[[16.24,-62.03],[15.28,-62.7],[15.8,-63.07],[14.95,-64.5],[15.36,-64.57],[13.06,-66.26],[4.77,-66.35],[4.57,-66.81],[5.55,-66.71],[0.66,-68.35],[-8.76,-68.96],[-16.79,-68.61],[-20.83,-67.79],[-22.14,-67.34],[-24.25,-65.65],[-28.57,-64.29],[-28.84,-63.68],[-28.36,-63.4],[-28.81,-63.22],[-28.27,-63.04],[-29.07,-62.96],[-26.87,-61.7],[-25.96,-61.89],[-24.51,-61.31],[-21.79,-58.81],[-20.78,-56.67],[-15.29,-52.74],[-13.17,-47.73],[-11.2,-46.27],[-8.12,-44.93],[-5.88,-44.7],[-4.6,-43.86],[-3.95,-41.8],[-2.96,-41.46],[-2.42,-39],[-1.52,-39.22],[-2.23,-38.73],[-1.76,-37.47],[-2.39,-34.44],[-2.09,-32.48],[-1.41,-32.64],[-0.76,-32.02],[-0.31,-32.48],[-0.69,-31.86],[-0.4,-32.03],[-0.22,-31.34],[1.62,-30.1],[2.01,-29.12],[1.44,-28.97],[1.14,-27.7],[-0.17,-27.48],[-1.44,-26.44],[2.27,-26.24],[3.23,-25.34],[6.17,-25.28],[12.71,-29.57],[21.95,-30.44],[26.32,-38.88],[20.99,-42.35],[19.04,-45.33],[18.76,-47.31],[22.26,-51.85],[22.14,-53.12],[20.26,-58.07],[17.77,-60.99],[16.24,-62.03]]]}},{"type":"Feature","properties":{},"geometry":{"type":"Polygon","coordinates":[[[-1.93,2.02],[-1.5,2.96],[-0.44,3.62],[2.1,3.69],[3.72,4.73],[4.2,4.53],[4.37,3.53],[5.54,3.13],[6.04,2.38],[9.1,2.28],[13.92,0.07],[15.51,-0.14],[6.27,-0.29],[1.47,1.65],[-1.93,2.02]]]}},{"type":"Feature","properties":{},"geometry":{"type":"Polygon","coordinates":[[[17.84,5.77],[17.72,4.99],[15.49,4.46],[14.42,3.5],[14.59,2.67],[12.17,1.4],[10.46,2.03],[9.29,1.73],[8.94,2.64],[9.33,2.85],[9.01,2.7],[8.86,3.3],[7.18,3.72],[8.01,4.87],[7.65,5.31],[8.22,5.54],[7.53,5.49],[8.96,6.99],[9.75,9.43],[10.84,9.52],[13.85,7.79],[14.97,7.67],[17.84,5.77]]]}},{"type":"Feature","properties":{},"geometry":{"type":"Polygon","coordinates":[[[-0.07,-27.87],[-0.08,-26.3],[-0.79,-25.42],[-3.28,-24.41],[-7.39,-23.8],[-8.81,-22.34],[-12.56,-21.06],[-12.98,-20.51],[-14.88,-15.74],[-14.28,-13],[-14.91,-10.81],[-14.14,-10.58],[-15.02,-10.23],[-15.16,-9.71],[-14.83,-9.68],[-15.26,-9.2],[-14.87,-9.31],[-15.16,-9.08],[-14.58,-8.4],[-13.67,-9.05],[-14.48,-8.61],[-14.43,-6.9],[-13.05,-6.66],[-11.47,-5.36],[-10.87,-3.76],[-10.12,-3.28],[-9.98,-2.07],[-10.43,-2.28],[-9.72,-1.56],[-3.22,1.26],[-1.97,0.86],[0.57,1.66],[3.2,1.53],[8.85,-0.35],[18.1,0.03],[18.2,-0.59],[18.84,-0.46],[18.07,-1.15],[18.24,-2.22],[17.06,-2.77],[15.27,-5.62],[11.63,-14.83],[11.03,-18.32],[12.26,-23.39],[8.44,-24.62],[7.42,-25.96],[4.48,-26.32],[3.63,-27.31],[-0.07,-27.87]]]}},{"type":"Feature","properties":{},"geometry":{"type":"Polygon","coordinates":[[[33.15,-13.99],[33.04,-14.89],[34.75,-20.42],[34.53,-21.37],[35.47,-22.36],[35.78,-23.5],[35.4,-25.06],[30.63,-27.07],[20.83,-30.49],[11.56,-29.76],[4.93,-25.57],[6.08,-24.32],[10.01,-23.42],[9.27,-19.35],[9.41,-17.11],[11.99,-10.87],[15.4,-4.76],[16.54,-3.71],[17.69,-5.42],[19.72,-6.87],[19.73,-7.95],[21.85,-10.06],[22.95,-9.89],[23.48,-8.66],[25.24,-8.52],[26.07,-9.63],[27.36,-10.26],[27.39,-10.73],[30.4,-12.35],[31.7,-11.98],[32.75,-12.29],[33.15,-13.99]]]}},{"type":"Feature","properties":{},"geometry":{"type":"Polygon","coordinates":[[[33.23,-11.7],[32.21,-10.98],[30.53,-10.82],[29.52,-9.13],[29.16,-9.49],[28.47,-9.27],[28.13,-8.07],[27.32,-7.73],[28.15,-7.88],[27.42,-7.42],[28.04,-6.64],[27.68,-5.99],[30.62,-6.19],[31.38,-6.62],[31.97,-7.88],[33.29,-8],[36.49,-9.48],[38.3,-12.12],[35.44,-11.39],[33.23,-11.7]]]}},{"type":"Feature","properties":{},"geometry":{"type":"Polygon","coordinates":[[[22.36,-51.5],[21.6,-51.86],[17.88,-47.39],[18.07,-45.4],[19.39,-43.11],[25.1,-38.81],[31.14,-38.53],[29.95,-40.14],[29.28,-43.52],[27.66,-46.47],[25.81,-48.55],[25.08,-50.76],[22.36,-51.5]]]}},{"type":"Feature","properties":{},"geometry":{"type":"Polygon","coordinates":[[[34.62,-15.1],[33.54,-16.37],[32.41,-12.22],[33.57,-12.99],[34.97,-12.68],[36.86,-10.23],[37.44,-8.31],[36.87,-10.78],[34.62,-15.1]]]}},{"type":"Feature","properties":{},"geometry":{"type":"Polygon","coordinates":[[[35.07,-24.96],[35.2,-25.73],[36.19,-26.59],[36.9,-29.66],[37.22,-29.35],[37.95,-34.08],[33.48,-37.14],[32.8,-38.71],[25.16,-38.81],[21.09,-31.47],[21.02,-30.32],[35.07,-24.96]]]}},{"type":"Feature","properties":{},"geometry":{"type":"Polygon","coordinates":[[[12.35,24.74],[11.96,25.06],[13.07,25.26],[13.2,25.71],[12.04,25.13],[11.66,25.68],[12.5,26.13],[11.52,26.12],[12.16,26.21],[12.18,26.65],[12.57,26.41],[11.91,26.68],[12.76,27.12],[12.07,27.1],[12.95,27.18],[12.48,27.39],[12.95,27.35],[12.66,27.89],[13.44,28.11],[13.75,28.77],[13.51,29.02],[13.28,28.23],[12.91,28.32],[13.6,30.41],[13.23,30.14],[13.42,30.91],[13.07,31.04],[13.54,31.54],[13.15,31.19],[12.91,31.96],[13.62,32.46],[13.06,32.38],[13.57,32.76],[12.9,32.97],[13.1,33.56],[13.59,33.28],[13.14,33.65],[13.74,34.07],[13.13,33.86],[13.49,34.24],[13.14,35],[13.81,35.06],[13.29,35.42],[13.7,35.25],[13.57,35.83],[13.91,35.18],[13.84,36.05],[14.35,36.01],[13.71,36.35],[14.63,36.47],[14.23,37.51],[14.74,37.68],[15.09,36.85],[14.88,37.87],[15.35,37.41],[15.27,38.33],[15.72,37.76],[15.69,38.34],[16.8,38.42],[16.16,37.72],[16.9,37.54],[17.54,37.89],[17.49,38.36],[18.58,37.94],[19.36,38.74],[22.41,39.12],[23.33,38.61],[23.17,37.35],[19.81,36.23],[21.94,36.12],[23.07,35.11],[24.72,35.38],[24.48,35.95],[23.57,35.77],[23.31,36.15],[24.24,36.12],[25.24,36.85],[24.2,37.16],[23.96,37.91],[23.98,38.72],[25.24,38.9],[23.14,40.32],[22.15,40.4],[23.7,41.01],[24.07,40.87],[24.02,40.01],[24.89,40.04],[25.33,40.6],[24.66,41.09],[24.99,41.48],[24.53,41.51],[24.81,42.99],[25.14,42.93],[24.78,43.71],[25.56,43.04],[25.96,43.24],[25.66,43.96],[26.17,44.58],[25.98,45.3],[26.97,45.3],[26.57,45.5],[26.76,45.96],[25.27,46.3],[28.92,48.26],[30.85,47.61],[33.79,44.12],[41.95,40.14],[43.16,37.76],[46.89,34],[46.8,32.49],[44.19,28.53],[43.43,22.43],[41.04,21.01],[38,20.87],[38.39,22.17],[37.66,22.54],[38.2,22.88],[38.14,23.63],[36.46,20.91],[36.3,21.32],[36.65,20.65],[37.29,20.5],[37.9,21.04],[37.94,20.67],[36.48,19.16],[35.78,19.73],[35.38,19.33],[35.82,20.29],[34.38,19.79],[34.07,19.91],[34.67,20.19],[34.18,20.34],[33.38,18.57],[33.93,17.75],[33.66,17.42],[31.14,17.81],[28.53,19.25],[20.26,20.81],[21.81,22.48],[22.41,22.22],[22.77,22.74],[22.71,22.25],[22.81,24.03],[22.94,23.21],[23.33,23.38],[22.07,25.78],[22.41,26.2],[23.41,25.83],[23.63,26.3],[23.04,27.25],[22.62,27.02],[21.97,27.7],[24.69,30.16],[23.38,30.45],[21.32,28.01],[21.05,28.48],[20.13,28.28],[18.64,30.05],[19.07,32.78],[18.64,33.28],[16.98,32.67],[17.81,30.78],[17.31,29.3],[16.84,29.53],[18.05,27.27],[19.51,26.95],[19.14,26.39],[19.43,25.87],[19.14,26.09],[19.28,25.7],[18.69,25.25],[19.16,25.3],[18.83,25.15],[19.27,25.01],[19.82,23.57],[19.84,22.9],[19.08,22.41],[19.28,21.85],[18.52,21.51],[18.03,22.62],[15.32,25.12],[15.48,24.23],[14.26,22.59],[13.12,22.99],[13.6,23.5],[13.2,23.37],[13.37,23.96],[12.68,23.64],[13.23,24.91],[12.77,24.19],[12.35,24.74]]]}},{"type":"Feature","properties":{},"geometry":{"type":"Polygon","coordinates":[[[16.33,20.3],[15.4,21.7],[16.27,23.14],[16.49,22.09],[17.03,22.02],[16.57,21.03],[17.03,20.37],[16.33,20.3]]]}},{"type":"Feature","properties":{},"geometry":{"type":"Polygon","coordinates":[[[34.5,14.69],[34.01,15.56],[33.48,15.1],[33.24,15.57],[35.18,17.88],[34.71,17.63],[38.19,20.64],[40.71,21.52],[38.13,18.99],[37.6,17.77],[36.15,17.59],[35.49,16.99],[34.5,14.69]]]}},{"type":"Feature","properties":{},"geometry":{"type":"Polygon","coordinates":[[[27.03,-2.89],[26.78,-4.31],[26.06,-4.27],[26.74,-5.33],[26.58,-5.81],[25.91,-5.27],[26.01,-5.88],[25.52,-5.46],[25.41,-6.15],[24.79,-6.13],[24.85,-5.69],[24.44,-5.68],[24.64,-4.48],[25.33,-4.44],[26.17,-5.15],[24.84,-4.13],[25.21,-3.54],[24.78,-1.62],[25.72,-0.58],[24.44,2.31],[24.58,4.5],[23.99,4.2],[24.41,5.18],[23.65,5.44],[22.8,4.42],[23.1,3.35],[22.8,2.54],[23.02,1.4],[23.64,0.93],[23.26,0.65],[24.09,-1.56],[23.78,-1.67],[23.26,-0.6],[22.63,-0.96],[22.6,-1.93],[21.11,-2.17],[21.93,-1.6],[22.26,-0.39],[20.93,3.56],[21.37,5.21],[20.9,6.21],[19.85,6.25],[19.76,6.9],[20.61,8.33],[23.9,7.92],[27.61,5.89],[25.98,4.51],[27.03,-2.89]]]}},{"type":"Feature","properties":{},"geometry":{"type":"Polygon","coordinates":[[[20.11,9.55],[19.38,8.46],[17.75,8.45],[17.33,7.37],[13.88,7.25],[13.61,9.23],[14.11,8.82],[13.37,9.92],[11.93,10.92],[10.79,10.78],[10.34,11.43],[12.54,12.12],[11.85,13.07],[13.08,12.94],[13.49,13.67],[15.5,13.31],[17.22,13.78],[19.2,17.29],[20.97,18.84],[24.28,20.11],[27,19.38],[24.92,17.6],[24.16,16.19],[19.41,12.75],[18.6,11.18],[19.48,9.78],[20.11,9.55]]]}},{"type":"Feature","properties":{},"geometry":{"type":"Polygon","coordinates":[[[13.49,13.67],[14,14.19],[13.72,14.82],[15.19,15.82],[14.64,15.83],[15.31,16.24],[14.84,16.35],[14.91,17.44],[15.34,17.32],[15.14,16.92],[15.59,17.31],[15.3,17.95],[16.27,18.23],[16.45,18.82],[16.96,18.64],[16.84,19.17],[17.66,19.11],[16.62,19.53],[16.33,20.3],[17.5,19.9],[18.04,20.2],[18.05,19.66],[18.78,20.63],[20.36,20.35],[20.26,20.81],[20.94,20.8],[24.28,20.11],[20.11,18.24],[17.22,13.78],[15.5,13.31],[13.49,13.67]]]}},{"type":"Feature","properties":{},"geometry":{"type":"Polygon","coordinates":[[[33.65,17.19],[33.83,15.63],[30.79,13.93],[29.81,14.48],[29.61,15.17],[31.17,16.87],[31.14,17.81],[33.65,17.19]]]}},{"type":"Feature","properties":{},"geometry":{"type":"Polygon","coordinates":[[[-9.04,38.42],[-8.64,38.01],[-9.39,38.22],[-9.04,38.42]]]}},{"type":"Feature","properties":{},"geometry":{"type":"Polygon","coordinates":[[[-11.48,40.81],[-12.11,40.48],[-12.68,40.79],[-12.2,41.24],[-11.48,40.81]]]}},{"type":"Feature","properties":{},"geometry":{"type":"Polygon","coordinates":[[[7.73,42.8],[8.38,42.69],[8.54,42],[7.4,42.39],[7.73,42.8]]]}},{"type":"Feature","properties":{},"geometry":{"type":"Polygon","coordinates":[[[-10.86,41.28],[-11.17,40.84],[-11.82,41.43],[-10.86,41.28]]]}},{"type":"Feature","properties":{},"geometry":{"type":"Polygon","coordinates":[[[-8.58,39.31],[-8.71,38.56],[-9.37,38.66],[-8.8,39.56],[-8.58,39.31]]]}},{"type":"Feature","properties":{},"geometry":{"type":"Polygon","coordinates":[[[-9.2,40.72],[-9.16,39.57],[-9.96,39.04],[-9.94,39.87],[-10.36,40.04],[-9.72,40.2],[-9.71,40.81],[-9.2,40.72]]]}},{"type":"Feature","properties":{},"geometry":{"type":"Polygon","coordinates":[[[10.36,56.52],[11.36,56.79],[10.51,56.85],[11.21,57.42],[13.19,56.66],[10.36,56.52]]]}},{"type":"Feature","properties":{},"geometry":{"type":"Polygon","coordinates":[[[4.81,43.43],[6.89,43.06],[6.67,42.47],[7.29,41.64],[4.81,43.43]]]}},{"type":"Feature","properties":{},"geometry":{"type":"Polygon","coordinates":[[[7.21,41.57],[7.58,40.6],[6.27,41.09],[6.88,41.29],[6.37,41.29],[6.68,41.79],[6.14,41.26],[5.81,41.49],[6.32,42.14],[7.21,41.57]]]}},{"type":"Feature","properties":{},"geometry":{"type":"Polygon","coordinates":[[[5.95,42.38],[5.91,42.04],[5.59,42.34],[5.56,41.55],[4.08,42.78],[4.47,43.03],[4.42,42.64],[5,42.55],[4.71,43.05],[5.95,42.38]]]}},{"type":"Feature","properties":{},"geometry":{"type":"Polygon","coordinates":[[[10.6,54.52],[10.67,54.9],[11.32,54.63],[10.6,54.52]]]}},{"type":"Feature","properties":{},"geometry":{"type":"Polygon","coordinates":[[[9.89,55.34],[10.81,55.56],[9.91,55.58],[10.1,55.96],[11.99,56.1],[11.99,55.41],[11.31,54.85],[9.89,55.34]]]}},{"type":"Feature","properties":{},"geometry":{"type":"Polygon","coordinates":[[[5.69,44.44],[6.79,44.67],[6.96,43.62],[5.02,43.63],[5.36,43.85],[5.05,44.13],[5.99,44.01],[5.69,44.44]]]}},{"type":"Feature","properties":{},"geometry":{"type":"Polygon","coordinates":[[[8.65,47.88],[9.01,47.97],[9.03,47.51],[8.68,47.37],[8.65,47.88]]]}},{"type":"Feature","properties":{},"geometry":{"type":"Polygon","coordinates":[[[9.78,50.06],[10.31,49.57],[9.71,49.65],[9.78,50.06]]]}},{"type":"Feature","properties":{},"geometry":{"type":"Polygon","coordinates":[[[8.84,48.39],[9.22,48.44],[9.67,47.55],[9.28,47.51],[8.84,48.39]]]}},{"type":"Feature","properties":{},"geometry":{"type":"Polygon","coordinates":[[[8.36,54.72],[9.77,55.32],[10.52,54.85],[10.34,54.39],[8.36,54.72]]]}},{"type":"Feature","properties":{},"geometry":{"type":"Polygon","coordinates":[[[-5.72,40.96],[-5.92,39.51],[-5.51,39.64],[-6.1,38.88],[-5.76,38.41],[-7.7,38.06],[-7.84,39.2],[-6.97,38.98],[-7.76,39.54],[-7.25,39.75],[-7.51,40.16],[-7.02,40],[-7.13,40.5],[-6.49,40.33],[-6.52,40.74],[-5.72,40.96]]]}},{"type":"Feature","properties":{},"geometry":{"type":"Polygon","coordinates":[[[-0.98,40.88],[-0.5,40.58],[-0.98,40.37],[-0.27,40.51],[0.13,39.74],[-0.59,39.34],[-1.47,39.54],[-1.06,39.23],[-1.86,38.97],[-0.67,39.11],[-2.24,38.51],[-2.24,38.13],[-2.7,38.28],[-2.36,38.06],[-2.71,37.78],[-4.3,37.89],[-3.59,37.5],[-4.32,37.74],[-3.85,37.15],[-4.64,36.76],[-4.53,36.44],[-5.13,36.62],[-5.42,36.12],[-6.4,36.43],[-5.73,36.06],[-5.65,35.41],[-6.78,35.28],[-6.81,35.96],[-7.68,35.84],[-8.47,36.35],[-8.3,36.69],[-8.59,36.44],[-8.44,36.89],[-7.53,36.81],[-7.44,37.57],[-6.94,36.67],[-5.97,37.12],[-6.69,36.78],[-6.82,37.35],[-6.35,37.62],[-7.09,37.72],[-6.52,38.17],[-5.68,37.56],[-5.33,37.78],[-5.89,38.19],[-5.38,39.44],[-4.73,38.3],[-4.75,39.17],[-3.18,39.14],[-3.63,39.33],[-2.91,39.68],[-4.13,39.28],[-5.14,39.59],[-4.04,39.84],[-5.33,39.8],[-5.44,40.22],[-4.37,40.12],[-5.42,40.32],[-4.65,40.5],[-5.27,41.02],[-4.31,41.07],[-3.94,40.61],[-4.06,41.06],[-3.61,41.16],[-3.11,40.18],[-3.3,40.92],[-2.85,41.21],[-2.24,41.09],[-2.28,40.56],[-2.15,41.12],[-1.58,40.61],[-0.98,40.88]]]}},{"type":"Feature","properties":{},"geometry":{"type":"Polygon","coordinates":[[[-0.5,20.17],[-0.11,20.75],[-0.54,20.53],[-0.7,21.07],[0.2,21.44],[-0.67,21.11],[-0.98,21.48],[-0.32,21.8],[-1.08,21.77],[0.29,22.56],[-1.12,21.83],[-1.14,22.24],[-0.61,22.28],[-1.07,22.38],[-0.53,22.57],[-1.27,22.84],[0.26,22.9],[-1.23,22.97],[-0.75,23.48],[0.38,23.24],[-0.02,23.71],[-1.16,23.34],[-0.44,23.7],[-0.96,23.92],[0.34,23.66],[-0.2,23.92],[0.06,24.23],[-0.99,24.07],[-0.03,24.31],[-0.06,24.86],[0.3,24.7],[-0.08,24.93],[0.27,25.75],[-1.37,26.41],[0.14,26.05],[-0.38,26.75],[-0.01,26.75],[-0.6,26.9],[-0.17,27.21],[-0.75,27.16],[-0.27,27.44],[-0.84,27.44],[-0.63,27.73],[-1.65,27.23],[-1.25,28.58],[-1.66,30.03],[-2.04,29.9],[-1.64,30.15],[-2.2,31.54],[-3.51,32.35],[-4.48,32.4],[-4.46,32.03],[-4.98,32.32],[-5.2,32.67],[-4.66,32.87],[-5.46,33.39],[-4.06,33.34],[-3.96,33.66],[-4.75,33.68],[-5.45,34.6],[-3.41,35.22],[-2.75,36.03],[-3.48,36.38],[-2.53,37.04],[-2.44,36.63],[-1.86,37.7],[-1.15,37.08],[-1.61,37.78],[-0.71,38.1],[-0.63,37.28],[-0.45,37.76],[0.1,37.33],[-0.13,38.24],[1.03,37.53],[0.96,38.06],[1.37,38.03],[0.71,38.53],[1.74,38.37],[0.71,38.89],[1.86,38.64],[1.65,39.3],[2.18,39.58],[3.58,39.62],[2.36,38.73],[3.71,39.52],[3.81,39.13],[4.59,39.22],[3.13,37.87],[4.43,38.48],[4.4,37.86],[4.91,38.75],[5.25,37.22],[5.94,38.93],[6.88,38.96],[6.78,37.9],[5.84,37.42],[6.87,37.71],[6.16,37.05],[6.48,36.74],[6.86,37.24],[7.16,34.73],[7.75,35.03],[7.46,34.66],[8.19,34.72],[8.51,34.23],[7.49,34.14],[7.9,34.16],[7.46,33.77],[8.4,33.64],[8.03,33.19],[8.98,32.96],[8.1,32.89],[8.81,32.58],[8.26,32.39],[9.58,32.16],[8.63,31.92],[9.39,31.77],[8.66,31.61],[9.64,31.05],[9.15,30.65],[8.46,30.85],[9.03,31.02],[7.84,30.95],[8.34,30.65],[7.54,30.37],[7.94,30.22],[7.56,29.98],[8.42,30.18],[7.76,29.75],[8.7,29.86],[8.29,29.43],[8.69,29.16],[8.82,29.64],[9.75,29.39],[9.66,29.06],[10.01,29.31],[10.66,28.26],[10.2,28.43],[10.08,27.94],[9.28,28.62],[7.6,28.91],[8.21,28.68],[7.88,28.41],[9,28.52],[8.21,28.08],[7.98,27.29],[8.91,27.58],[8.34,27.02],[8.83,27.02],[9.42,27.68],[10.62,27.63],[9.67,25.91],[8.37,24.94],[7.32,25.21],[7.7,24.59],[7.04,22.84],[6.5,22.81],[6.69,22.52],[5.97,22.36],[6.06,22.02],[5.64,22.64],[5.65,21.84],[4.44,21.13],[4.88,20.43],[4.37,20.26],[4.93,19.75],[4.45,19.86],[4.84,19.63],[4.3,19.45],[4.51,18.91],[3.8,18.67],[4.33,18.36],[3.91,18.45],[4.4,17.99],[3.91,17.26],[4.24,17.05],[3.74,17.04],[4.22,17.02],[3.83,16.75],[4.2,16.52],[3.51,16.51],[4.11,16.02],[3.58,16.27],[3.06,15.93],[3.38,16.44],[3.04,15.97],[3.28,16.61],[2.59,16.38],[2.94,16.74],[2.46,16.55],[2.95,17.03],[2.54,16.72],[2.64,17.15],[1.44,16.56],[1.57,17.09],[0.99,17.14],[1.4,17.28],[0.89,17.29],[1.13,17.73],[0.9,17.45],[1.08,17.81],[0.35,18.22],[0.64,18.78],[0.32,18.5],[0.47,18.95],[-0.04,19.06],[0.42,19.11],[-0.25,19.42],[0.23,19.93],[-0.34,19.9],[0.39,20.17],[0.15,20.4],[0.66,20.08],[0.16,20.93],[0.17,20.47],[-0.5,20.17]]]}}]}
