{"type":"FeatureCollection","features":[{"type":"Feature","properties":{},"geometry":{"type":"Polygon","coordinates":[[[33.7,-64.75],[35.71,-64.68],[36.47,-65.2],[34.25,-65.2],[33.7,-64.75]]]}},{"type":"Feature","properties":{},"geometry":{"type":"Polygon","coordinates":[[[42.58,-63.5],[42.07,-63.82],[41.83,-63.17],[43.25,-63.38],[42.58,-63.5]]]}},{"type":"Feature","properties":{},"geometry":{"type":"Polygon","coordinates":[[[-2.39,-62.88],[-0.54,-62.21],[0.1,-62.95],[-0.39,-63.31],[-2.39,-62.88]]]}},{"type":"Feature","properties":{},"geometry":{"type":"Polygon","coordinates":[[[18.93,-71.72],[19.35,-72.09],[18.54,-71.93],[18.93,-71.72]]]}},{"type":"Feature","properties":{},"geometry":{"type":"Polygon","coordinates":[[[9.47,-71.45],[10.74,-71.47],[8.9,-71.52],[9.47,-71.45]]]}},{"type":"Feature","properties":{},"geometry":{"type":"Polygon","coordinates":[[[14.12,-72.46],[11.01,-71.92],[14.8,-71.85],[14.12,-72.46]]]}},{"type":"Feature","properties":{},"geometry":{"type":"Polygon","coordinates":[[[16.86,-73.17],[16.1,-72.88],[16.5,-72.48],[15.21,-72.23],[16.21,-72.1],[18.13,-72.94],[16.86,-73.17]]]}},{"type":"Feature","properties":{},"geometry":{"type":"Polygon","coordinates":[[[-11.79,-63.16],[-10,-62.88],[-10.65,-63.35],[-11.79,-63.16]]]}},{"type":"Feature","properties":{},"geometry":{"type":"Polygon","coordinates":[[[-6.66,-69.54],[-5.93,-69.4],[-7.64,-68.9],[-6.44,-69.01],[-7.38,-68.7],[-5.93,-68.54],[-3.84,-70.37],[-6.66,-69.54]]]}},{"type":"Feature","properties":{},"geometry":{"type":"Polygon","coordinates":[[[-16.74,-62.87],[-16.09,-63.35],[-16.8,-63.27],[-16.74,-62.87]]]}},{"type":"Feature","properties":{},"geometry":{"type":"Polygon","coordinates":[[[-19.08,-63.23],[-18.08,-63.16],[-18.11,-63.5],[-18.77,-63.65],[-19.08,-63.23]]]}},{"type":"Feature","properties":{},"geometry":{"type":"Polygon","coordinates":[[[-20.33,-61.52],[-14.44,-61.03],[-12.34,-61.52],[-12.23,-62.21],[-14.12,-62],[-14.66,-62.36],[-13.32,-62.73],[-14.79,-63.44],[-14.42,-63.13],[-15.35,-63.15],[-14.65,-62.74],[-15.33,-62.96],[-15.3,-62.38],[-15.79,-62.67],[-16.3,-62.04],[-15.94,-61.85],[-17.2,-62.1],[-17.48,-61.58],[-18.44,-62.2],[-19.91,-62.26],[-20.33,-61.52]]]}},{"type":"Feature","properties":{},"geometry":{"type":"Polygon","coordinates":[[[-24.6,-60.28],[-22.45,-60.81],[-23.14,-60.96],[-24.6,-60.28]]]}},{"type":"Feature","properties":{},"geometry":{"type":"Polygon","coordinates":[[[57.74,-47.79],[57.08,-48.58],[56.56,-48.24],[57.74,-47.79]]]}},{"type":"Feature","properties":{},"geometry":{"type":"Polygon","coordinates":[[[-28.09,-57.88],[-27.42,-57.77],[-27.13,-58.21],[-27.56,-58.41],[-28.09,-57.88]]]}},{"type":"Feature","properties":{},"geometry":{"type":"Polygon","coordinates":[[[-27.28,-55.45],[-26.19,-55.48],[-26.43,-55.85],[-27.28,-55.45]]]}},{"type":"Feature","properties":{},"geometry":{"type":"Polygon","coordinates":[[[-2.9,-63.04],[-2,-63.65],[-0.88,-63.54],[-1.57,-63.8],[-1.18,-64.04],[3.53,-62.44],[2.5,-62.59],[3.08,-62.17],[5.23,-61.81],[8.24,-62.1],[12.86,-60.38],[15.73,-62.01],[15.29,-63.13],[15.62,-63.66],[13.93,-64.33],[2.8,-64.86],[1.2,-65.34],[-1.16,-65.17],[-3.82,-63.73],[-2.9,-63.04]]]}},{"type":"Feature","properties":{},"geometry":{"type":"Polygon","coordinates":[[[-28.03,-55],[-27.29,-54.95],[-27.57,-55.54],[-26.39,-56.14],[-26.92,-56.56],[-25.9,-57.75],[-24.81,-58.01],[-24.3,-57.89],[-24.42,-57.32],[-23.94,-57.54],[-24.32,-57.69],[-23.73,-57.91],[-24.41,-58.28],[-23.42,-58.32],[-24.69,-58.53],[-23.38,-58.78],[-23.45,-59.23],[-22.8,-59.58],[-20.24,-59.7],[-19.82,-59.36],[-20.41,-59.17],[-20.26,-58.86],[-19.33,-59.29],[-14.86,-58.71],[-12.06,-59.12],[-11.26,-58.99],[-11.45,-58.63],[-8.72,-59.06],[-6.95,-60.06],[-6.89,-59.73],[-4.47,-61.3],[-2.94,-60.68],[-1.24,-61.8],[-3.47,-62.6],[-2.9,-63.04],[-5.99,-65.16],[-8.79,-65.19],[-8.43,-64.84],[-9.03,-64.57],[-10.83,-64.58],[-9.62,-63.98],[-10.1,-63.51],[-9.28,-63.51],[-11.95,-60.91],[-19.08,-61.11],[-19.09,-60.58],[-19.65,-60.33],[-22.68,-59.98],[-22.72,-60.39],[-23.71,-60.26],[-23.04,-59.92],[-24.35,-59.83],[-24.13,-59.52],[-25.16,-59.37],[-25.92,-58.39],[-26.82,-58.32],[-26.43,-58.06],[-27.81,-56.83],[-28.03,-55]]]}},{"type":"Feature","properties":{},"geometry":{"type":"Polygon","coordinates":[[[7.45,-57.42],[6.47,-56.55],[4.7,-53.51],[4.88,-52.81],[5.55,-52.81],[4.11,-52.06],[2.42,-52.84],[1.17,-52.15],[0.57,-50.09],[0.91,-48.98],[0.23,-47.82],[0.41,-46.21],[1.62,-44.32],[1.43,-43.59],[0.56,-43.37],[1.33,-43.43],[0.99,-42.62],[2.31,-43.07],[2.59,-42.78],[2.05,-41.86],[2.5,-41.68],[2.93,-42.32],[3.92,-41.73],[3.32,-40.86],[4.36,-41.78],[5.15,-41.7],[5.82,-40.15],[7.6,-39.24],[9.41,-39.22],[11.07,-38.37],[14.07,-38.18],[18.25,-36.92],[18.29,-35.9],[20.58,-37.28],[21.67,-35.79],[24.26,-34.65],[25.14,-35.03],[25.59,-34.77],[25.18,-34.43],[25.65,-34.29],[25.81,-34.77],[26.35,-34.74],[26.23,-33.97],[27.14,-33.61],[28.86,-33.9],[29.51,-34.63],[28.95,-34.77],[30.1,-35.61],[34.81,-37.13],[34.51,-38.02],[33.97,-38.14],[34.37,-38.22],[33.86,-38.28],[34.14,-38.51],[33.62,-38.4],[33.6,-38.98],[32.94,-39.24],[33.71,-40.74],[35.42,-39.55],[36.42,-39.78],[38.74,-38.92],[41.66,-38.93],[45.24,-39.98],[47.57,-41.46],[48.25,-41.63],[48.71,-41.05],[49.34,-41.31],[49,-41.8],[50.41,-42.23],[51.75,-44.65],[54.67,-45.08],[54.38,-45.97],[55.06,-46.41],[54.94,-47.29],[56.38,-48.22],[56,-48.42],[58.77,-49.58],[58.37,-50.58],[58.8,-51.04],[60.33,-50.55],[61.46,-52.32],[63.04,-52.13],[62.08,-52.58],[61.89,-53.22],[62.8,-55.36],[62.56,-55.68],[63.06,-55.93],[62.83,-56.48],[63.83,-57.06],[62.24,-56.86],[62.06,-57.61],[62.49,-58.11],[61.35,-58.04],[62.08,-59.13],[61.32,-59.36],[62.45,-60.16],[61.19,-60.65],[61.49,-60.83],[60.99,-61.35],[61.48,-61.43],[60.91,-62.11],[58.83,-62.87],[58.57,-63.13],[59.02,-63.18],[58.55,-63.18],[58.88,-63.41],[57.97,-63.71],[58.42,-63.72],[57.47,-65.08],[54.57,-65.92],[51.12,-65.01],[51.13,-64.27],[50.03,-64.11],[50.15,-63.7],[48.89,-63.75],[49.28,-63.5],[48.51,-63.31],[49.48,-63.28],[48.96,-63.02],[47.97,-62.94],[47.35,-63.43],[47.04,-63.37],[47.48,-62.93],[46.98,-62.84],[41.38,-62.39],[41.11,-62.62],[41.66,-62.86],[40.05,-62.98],[40.62,-62.45],[39.85,-61.57],[33.57,-61.08],[33.55,-60.71],[32.81,-60.83],[33.13,-61.12],[30.79,-60.94],[27.75,-61.44],[26.03,-60.56],[27.77,-61.58],[25.15,-61.83],[23.55,-61.42],[22,-61.55],[21.61,-62.02],[19.86,-61.94],[22.7,-62.82],[24.11,-64.37],[20.88,-64.73],[20.07,-63.46],[17.41,-61.87],[13.44,-61.71],[11.86,-59.93],[7.45,-57.42]]]}},{"type":"Feature","properties":{},"geometry":{"type":"Polygon","coordinates":[[[28.47,-63.02],[29.76,-63.82],[29.79,-64.31],[27.52,-65.3],[34.43,-65.95],[37.14,-67.19],[34.11,-67.77],[32.16,-67.64],[32.46,-67.77],[31.77,-68.26],[30.88,-68.31],[31.48,-68.64],[30.84,-68.68],[34.1,-68.94],[31.66,-69.2],[32.6,-69.49],[26.73,-71.29],[27.22,-71.5],[24.91,-71.81],[24.59,-71.49],[10.87,-71.43],[8.87,-70.83],[7.37,-71.3],[8.07,-71.04],[7.12,-71.04],[7.94,-70.79],[7.57,-70.67],[8.12,-70.24],[6.86,-70.17],[6.07,-70.62],[5.45,-70.4],[5.87,-70.05],[5.48,-69.72],[4.18,-69.67],[5.14,-69.02],[3.07,-69.17],[2.22,-68.76],[2.68,-68.22],[1.64,-68.02],[1,-68.69],[-0.34,-68.68],[-0.65,-68.95],[-0.18,-69.18],[-0.65,-69.42],[-2.32,-69.06],[-2.32,-69.42],[-0.84,-69.62],[-1.9,-70.11],[-2.67,-69.15],[-4.22,-68.82],[-4.07,-68.1],[-5.71,-67.94],[-5.24,-67.59],[-5.98,-66.85],[-8.18,-66.42],[-7.21,-66.33],[-7.05,-65.74],[-8.04,-65.58],[-7.16,-65.33],[-7.02,-64.61],[2.75,-64.78],[4.33,-64.3],[14.85,-63.89],[17.08,-63.13],[24.4,-63.87],[28.47,-63.02]]]}},{"type":"Feature","properties":{},"geometry":{"type":"Polygon","coordinates":[[[-27.57,-54.24],[-27.17,-54.12],[-27.59,-54.77],[-27.57,-54.24]]]}},{"type":"Feature","properties":{},"geometry":{"type":"Polygon","coordinates":[[[-28.97,-55.94],[-28.73,-56.12],[-29.39,-56.41],[-28.97,-55.94]]]}},{"type":"Feature","properties":{},"geometry":{"type":"Polygon","coordinates":[[[-28.94,-54.77],[-28.64,-54.68],[-29.01,-55.33],[-28.94,-54.77]]]}},{"type":"Feature","properties":{},"geometry":{"type":"Polygon","coordinates":[[[-24.05,-51.81],[-24.5,-52.05],[-23.24,-52.45],[-25.31,-52.28],[-24.05,-51.81]]]}},{"type":"Feature","properties":{},"geometry":{"type":"Polygon","coordinates":[[[-23.71,-51.73],[-22.66,-51.79],[-23.59,-52.04],[-23.71,-51.73]]]}},{"type":"Feature","properties":{},"geometry":{"type":"Polygon","coordinates":[[[-27.6,-51.34],[-27.27,-51.8],[-27.81,-51.61],[-27.6,-51.34]]]}},{"type":"Feature","properties":{},"geometry":{"type":"Polygon","coordinates":[[[-26.45,-50.83],[-26.12,-51.49],[-26.66,-51.25],[-26.45,-50.83]]]}},{"type":"Feature","properties":{},"geometry":{"type":"Polygon","coordinates":[[[-28.86,-51.08],[-27.9,-51.59],[-29.21,-51.53],[-28.86,-51.08]]]}},{"type":"Feature","properties":{},"geometry":{"type":"Polygon","coordinates":[[[-28.35,-50.23],[-27.61,-50.25],[-28.59,-50.71],[-28.2,-51.13],[-29.21,-50.91],[-28.59,-50.94],[-29.07,-50.56],[-28.35,-50.23]]]}},{"type":"Feature","properties":{},"geometry":{"type":"Polygon","coordinates":[[[-26.99,-51.82],[-25.64,-51.71],[-26.59,-51.44],[-24.68,-51.45],[-26.05,-51.05],[-25.54,-50.45],[-26.52,-50.63],[-26.37,-50.16],[-26.74,-50.06],[-25.96,-49.59],[-23.35,-50.8],[-21.17,-51.02],[-22.23,-51.63],[-27.41,-51.99],[-26.99,-51.82]]]}},{"type":"Feature","properties":{},"geometry":{"type":"Polygon","coordinates":[[[-17.4,-46.93],[-17.96,-47.88],[-18.65,-47.84],[-17.81,-47.4],[-18.52,-47.12],[-17.4,-46.93]]]}},{"type":"Feature","properties":{},"geometry":{"type":"Polygon","coordinates":[[[-16.96,-46.8],[-15.8,-47.01],[-17.24,-47.85],[-16.96,-46.8]]]}},{"type":"Feature","properties":{},"geometry":{"type":"Polygon","coordinates":[[[-31.44,-48.78],[-31.06,-49.11],[-31.63,-49.1],[-31.44,-48.78]]]}},{"type":"Feature","properties":{},"geometry":{"type":"Polygon","coordinates":[[[46.92,-71.68],[46.43,-71.39],[47.07,-71.31],[46.92,-71.68]]]}},{"type":"Feature","properties":{},"geometry":{"type":"Polygon","coordinates":[[[-32.32,-48.21],[-31.8,-48.27],[-32.22,-48.64],[-32.32,-48.21]]]}},{"type":"Feature","properties":{},"geometry":{"type":"Polygon","coordinates":[[[-32.04,-47.58],[-32.16,-48.08],[-32.79,-47.57],[-32.2,-47.54],[-32.41,-46.86],[-31.7,-48.15],[-32.04,-47.58]]]}},{"type":"Feature","properties":{},"geometry":{"type":"Polygon","coordinates":[[[-32.53,-46.31],[-32.17,-46.83],[-32.63,-46.8],[-32.53,-46.31]]]}},{"type":"Feature","properties":{},"geometry":{"type":"Polygon","coordinates":[[[48.78,-76.86],[47.67,-76.47],[49.81,-76.25],[48.78,-76.86]]]}},{"type":"Feature","properties":{},"geometry":{"type":"Polygon","coordinates":[[[-32.76,-43.11],[-32.57,-43.37],[-33.1,-43.34],[-32.76,-43.11]]]}},{"type":"Feature","properties":{},"geometry":{"type":"Polygon","coordinates":[[[-32.21,-42.36],[-31.88,-42.47],[-32.31,-42.95],[-32.21,-42.36]]]}},{"type":"Feature","properties":{},"geometry":{"type":"Polygon","coordinates":[[[1.69,-74.96],[1.09,-74.69],[2.98,-74.7],[1.69,-74.96]]]}},{"type":"Feature","properties":{},"geometry":{"type":"Polygon","coordinates":[[[-33.87,-40],[-33.18,-40.38],[-33.54,-40.72],[-33.11,-40.99],[-33.3,-41.6],[-33.91,-41.5],[-33.87,-40]]]}},{"type":"Feature","properties":{},"geometry":{"type":"Polygon","coordinates":[[[54.68,-66.02],[53.84,-67.35],[54.36,-67.61],[53.62,-67.93],[54.43,-67.63],[55.67,-68.43],[55.14,-68.77],[48.94,-68.79],[50.14,-68.15],[47.66,-68],[48.07,-67.76],[47.73,-67.39],[48.39,-67.51],[49.12,-66.95],[54.68,-66.02]]]}},{"type":"Feature","properties":{},"geometry":{"type":"Polygon","coordinates":[[[51.97,-73.58],[48.74,-73.59],[49.34,-74.2],[48.3,-73.97],[48.17,-74.29],[49.01,-74.29],[48.55,-74.5],[44.69,-73.46],[45.68,-71.41],[44.59,-68.66],[45.7,-69.26],[45.42,-69.56],[46.58,-71.36],[51.97,-73.58]]]}},{"type":"Feature","properties":{},"geometry":{"type":"Polygon","coordinates":[[[25.93,-80.28],[30.73,-79.56],[29.34,-79.28],[36.51,-79.15],[40.51,-77.65],[39.77,-77.65],[43.63,-77],[53.74,-77.6],[52.12,-77.76],[53.22,-77.86],[51.67,-78.03],[52.53,-78.34],[51.44,-78.46],[52.09,-78.5],[51.71,-78.6],[43.42,-79.79],[33.12,-80.46],[25.93,-80.28]]]}},{"type":"Feature","properties":{},"geometry":{"type":"Polygon","coordinates":[[[61.7,-59.19],[61.33,-59.62],[60.26,-58.67],[60.75,-58.47],[61.7,-59.19]]]}},{"type":"Feature","properties":{},"geometry":{"type":"Polygon","coordinates":[[[73.96,-74.97],[71.77,-75.15],[72.54,-75.28],[70.18,-75.83],[70.81,-76.02],[63.17,-76.19],[63.62,-76.26],[61.71,-76.7],[64.87,-76.72],[57.88,-77.34],[56.4,-77.78],[57.63,-78.46],[56.18,-78.83],[50.5,-77.85],[50.08,-77.7],[51.26,-77.67],[51.62,-77.15],[48.18,-76.63],[45.1,-74.98],[47.19,-74.57],[49.1,-75.35],[50.95,-75.45],[55.19,-74.75],[56.03,-75.49],[58.71,-75.88],[66.31,-76.05],[67.09,-75.64],[65.95,-75.65],[73.76,-74.66],[73.96,-74.97]]]}},{"type":"Feature","properties":{},"geometry":{"type":"Polygon","coordinates":[[[105.7,-62.69],[105.85,-64.03],[105.33,-64.61],[105.28,-66.07],[104.58,-66.19],[104.21,-65.79],[104.61,-65.28],[104.4,-64.12],[105.7,-62.69]]]}},{"type":"Feature","properties":{},"geometry":{"type":"Polygon","coordinates":[[[90.8,-45.79],[90.41,-46.42],[89.84,-45.95],[90.8,-45.79]]]}},{"type":"Feature","properties":{},"geometry":{"type":"Polygon","coordinates":[[[21.25,-24.11],[22.15,-22.07],[23.43,-21.18],[25.2,-21.68],[25.36,-22.13],[25.57,-21.68],[26.24,-22.04],[27.72,-21.44],[27.94,-20.82],[28.13,-21.2],[28.87,-21.12],[29.33,-20.29],[30.04,-20.17],[30.05,-21.42],[29.08,-23.75],[28.57,-24.06],[28.29,-23.38],[27.71,-24.57],[20.22,-29.79],[18.09,-29.29],[17.58,-28.28],[18.63,-25.6],[21.25,-24.11]]]}},{"type":"Feature","properties":{},"geometry":{"type":"Polygon","coordinates":[[[87,-39.78],[86.78,-40.31],[86.27,-39.92],[87,-39.78]]]}},{"type":"Feature","properties":{},"geometry":{"type":"Polygon","coordinates":[[[87.21,-39.69],[87.24,-40.25],[87.96,-40.31],[87.97,-40.69],[86.99,-40.63],[87.21,-39.69]]]}},{"type":"Feature","properties":{},"geometry":{"type":"Polygon","coordinates":[[[58.73,-63.6],[58.29,-62.98],[58.75,-62.08],[62.48,-60.28],[61.86,-59.56],[63.65,-59.59],[64.55,-58.97],[62.59,-59.11],[61.74,-58.49],[65.48,-58.63],[67.26,-57.96],[66.31,-58.25],[62.47,-57.5],[61.68,-57.71],[61.87,-56.91],[62.08,-57.22],[62.97,-56.76],[64.93,-54.75],[64.08,-53.6],[64.22,-52.55],[59.9,-49.07],[57.86,-48.07],[56.23,-47.95],[54.24,-45.22],[51.79,-44.33],[51.22,-43.33],[51.3,-41.92],[54.62,-41.18],[57.2,-39.16],[59.35,-36.29],[59.11,-36.95],[60.22,-36.21],[59.58,-37.15],[60.19,-37.06],[61.26,-35.52],[63.29,-34.66],[64.32,-34.54],[63.68,-35.02],[67.44,-35.84],[67.83,-36.58],[71.44,-38.45],[73.84,-38.52],[74.54,-37.84],[75.97,-37.85],[75.25,-39.11],[76.33,-38.9],[76.15,-38.44],[76.67,-38.17],[76.96,-39.04],[77.55,-39.33],[77.17,-38.89],[78.16,-38.75],[77.59,-38.75],[77.97,-38.39],[78.46,-38.4],[78.62,-39.08],[78.68,-38.45],[79.22,-38.94],[79.33,-38.4],[80.2,-38.39],[80.07,-38.91],[80.83,-38.48],[80.68,-38.87],[81.71,-38.99],[81.99,-39.52],[81.91,-40.63],[80.7,-40.98],[82.13,-40.85],[82.59,-41.93],[83.48,-41.61],[83.28,-41.16],[85.76,-40.72],[86.07,-41.04],[86.21,-40.69],[86.31,-41.15],[87.19,-40.94],[88.46,-42.04],[88.93,-41.62],[88.31,-40.75],[88.68,-40.76],[89.4,-42.34],[89.93,-42.52],[89.81,-42.98],[90.54,-43.24],[90.67,-43.85],[91.68,-44.02],[91.18,-44.02],[91.7,-44.19],[91.27,-44.49],[92.4,-44.4],[92.37,-45.02],[91.41,-45.29],[90.4,-44.98],[89.48,-45.63],[87.96,-45.43],[88.37,-46.13],[87.83,-46.1],[88.38,-46.17],[88.75,-47.25],[88.19,-47.22],[88.85,-47.57],[89.81,-49.69],[89.74,-50.54],[90.54,-51.2],[94.54,-50.28],[95.64,-49.08],[97.58,-48.45],[97.07,-48.17],[99.89,-47.32],[99.01,-49.62],[97.73,-50.94],[98.84,-51.24],[99.02,-52.36],[97.49,-53.52],[97.33,-54.17],[97.66,-54.22],[95.74,-55.87],[97.23,-58.48],[96.55,-58.77],[96.47,-59.89],[95.2,-60.74],[95.73,-60.71],[95.69,-61.07],[96.41,-60.67],[96.47,-61.44],[96.97,-61.24],[95.59,-62.18],[95.21,-61.81],[95.67,-62.34],[95.48,-62.98],[96.05,-63.14],[95.36,-64.48],[95.69,-64.77],[94.65,-65.34],[95.02,-65.41],[92.32,-66.21],[90.63,-67.51],[80.76,-68.95],[78.96,-68.51],[76.88,-68.66],[76.48,-68.23],[76.75,-68.45],[76.24,-68.56],[76.65,-68.63],[75.56,-68.76],[70.24,-68.62],[65.44,-69.16],[64.39,-68.87],[63.02,-67.51],[60.73,-67.18],[60.11,-66.67],[59.12,-66.93],[60.04,-66],[60.81,-66],[59.89,-65.65],[60.18,-65.39],[61.48,-65.45],[58.37,-64.72],[58.73,-63.6]]]}},{"type":"Feature","properties":{},"geometry":{"type":"Polygon","coordinates":[[[98.73,-42.43],[98.91,-42.77],[98.13,-43.03],[97.2,-42.31],[98.73,-42.43]]]}},{"type":"Feature","properties":{},"geometry":{"type":"Polygon","coordinates":[[[130.8,5.77],[130.62,5.21],[129.81,4.89],[130.8,5.77]]]}},{"type":"Feature","properties":{},"geometry":{"type":"Polygon","coordinates":[[[95.07,-38.59],[95.11,-39.1],[94.49,-39.16],[95.07,-38.59]]]}},{"type":"Feature","properties":{},"geometry":{"type":"Polygon","coordinates":[[[95.68,-38.67],[95.37,-39],[95.23,-38.59],[95.68,-38.67]]]}},{"type":"Feature","properties":{},"geometry":{"type":"Polygon","coordinates":[[[123.68,2.17],[125.74,3.14],[126.39,2.89],[127.86,3.69],[127.98,4.47],[129.6,4.99],[130.37,4.54],[131.68,5.25],[132.21,4.57],[124.84,1.14],[124.69,1.54],[123.52,1.01],[123.68,2.17]]]}},{"type":"Feature","properties":{},"geometry":{"type":"Polygon","coordinates":[[[95.91,-38.29],[95.82,-38.78],[95.36,-38.53],[95.91,-38.29]]]}},{"type":"Feature","properties":{},"geometry":{"type":"Polygon","coordinates":[[[123.92,5.98],[124.5,6.05],[124.54,5.54],[124.2,5.33],[123.92,5.98]]]}},{"type":"Feature","properties":{},"geometry":{"type":"Polygon","coordinates":[[[121.79,5.46],[122.71,5.05],[123.23,5.3],[123.49,4.85],[121.62,4.51],[121.79,5.46]]]}},{"type":"Feature","properties":{},"geometry":{"type":"Polygon","coordinates":[[[108.46,-46.65],[108.18,-47.39],[108.87,-48.41],[108.62,-49.52],[109.57,-49.83],[109.08,-50.2],[110,-50.8],[109.46,-50.97],[110.63,-51.68],[109.33,-51.73],[108.99,-51.42],[109.48,-51.46],[106.89,-49.87],[106.35,-48.72],[106.65,-48.56],[106.19,-48.34],[106.16,-47],[105.02,-45.88],[104.28,-45.95],[104.06,-45.2],[103.86,-46],[103.19,-45.52],[103.3,-46.01],[101.65,-45.14],[102.53,-45.89],[102.37,-46.49],[99.63,-45.31],[99.28,-43.79],[99.77,-43.64],[98.15,-43.21],[98.93,-42.78],[98.76,-42.21],[99.83,-42.78],[98.84,-41.94],[99.52,-42.39],[99.2,-41.38],[99.73,-40.95],[99.35,-40.68],[99.7,-40.53],[99.28,-39.93],[99.6,-39.76],[99.26,-39.88],[97.26,-37.36],[102.57,-40.61],[108.46,-46.65]]]}},{"type":"Feature","properties":{},"geometry":{"type":"Polygon","coordinates":[[[118.97,6.59],[119.27,6.29],[118.82,6.23],[118.97,6.59]]]}},{"type":"Feature","properties":{},"geometry":{"type":"Polygon","coordinates":[[[-3.59,-2.69],[-3.76,-3.07],[-3.98,-2.83],[-3.59,-2.69]]]}},{"type":"Feature","properties":{},"geometry":{"type":"Polygon","coordinates":[[[110.09,3.59],[111.83,4.64],[113.07,4.17],[117.89,4.75],[120.67,0.92],[117.97,1.86],[116.34,1.93],[115.12,2.82],[114,2.55],[112.37,3.04],[110.53,2.94],[109.9,3.33],[110.09,3.59]]]}},{"type":"Feature","properties":{},"geometry":{"type":"Polygon","coordinates":[[[117.56,4.83],[118.41,5.02],[118.26,4.58],[118.97,5.32],[119.41,4.34],[120.35,4.79],[121.66,3.87],[122.19,4.61],[122.93,4.45],[124.63,2.09],[124,2.13],[124.15,1.78],[123.49,1.56],[123.78,1.28],[119.98,1.31],[117.56,4.83]]]}},{"type":"Feature","properties":{},"geometry":{"type":"Polygon","coordinates":[[[125.28,18.84],[125.49,18.49],[125.56,19.06],[126.39,18.92],[127.06,18.39],[128.37,18.87],[127.67,17.85],[128.37,17.77],[127.5,17.15],[128.08,16.63],[127.46,16.17],[128.04,16.42],[127.71,16.19],[129.14,15.69],[129.19,15.15],[130.68,15.03],[129.63,14.59],[130.48,12.85],[129.83,11.24],[130.17,11.26],[129.98,10.76],[130.47,10.96],[130.5,9.34],[129.84,8.36],[129.3,9.01],[128.6,8.42],[127.8,8.52],[127.19,7.36],[126.61,7.89],[125.55,6.91],[124.23,8.31],[123.5,8.12],[123.66,8.39],[122.5,8.89],[121.91,10.45],[123.93,11.09],[123.51,11.1],[123.22,12.28],[124.29,13.57],[124.27,15.28],[125.29,16.34],[125.28,18.84]]]}},{"type":"Feature","properties":{},"geometry":{"type":"Polygon","coordinates":[[[21.73,-34.72],[18.81,-36.05],[17.37,-35.71],[16.94,-34.67],[17.45,-34.17],[19.71,-34.05],[19.42,-34.13],[21.73,-34.72]]]}},{"type":"Feature","properties":{},"geometry":{"type":"Polygon","coordinates":[[[-30.49,12.7],[-30.39,12],[-31.31,11.79],[-30.87,12.1],[-31.14,12.49],[-30.49,12.7]]]}},{"type":"Feature","properties":{},"geometry":{"type":"Polygon","coordinates":[[[-49.48,-5.5],[-48.6,-6.65],[-49.94,-5.87],[-49.48,-5.5]]]}},{"type":"Feature","properties":{},"geometry":{"type":"Polygon","coordinates":[[[-52.49,-0.79],[-50.72,-2.81],[-50.41,-3.61],[-50.89,-3.47],[-50.3,-4.65],[-50.79,-4.74],[-52.41,-3.11],[-53.15,-3.4],[-53.16,-2.52],[-54.56,-1.48],[-54.72,-0.87],[-54.33,-0.78],[-53.15,-2.11],[-52.76,-1.22],[-53.1,-0.55],[-52.49,-0.79]]]}},{"type":"Feature","properties":{},"geometry":{"type":"Polygon","coordinates":[[[117.92,22.3],[118.83,22.58],[118.76,21.32],[117.99,20.49],[117.04,20.6],[116.78,21.44],[117.92,22.3]]]}},{"type":"Feature","properties":{},"geometry":{"type":"Polygon","coordinates":[[[-49.76,0.57],[-48.72,-1.23],[-47.44,-7],[-49.9,-4.63],[-48.95,-4.43],[-49.42,-3.76],[-49.1,-2.76],[-50.44,-0.2],[-50.09,0.17],[-52.46,1.93],[-51.96,1.52],[-51.25,1.76],[-49.76,0.57]]]}},{"type":"Feature","properties":{},"geometry":{"type":"Polygon","coordinates":[[[135.68,42.21],[136.65,42],[136.5,41.6],[137.17,41.28],[136.46,39.68],[135.73,39.28],[135.83,39.98],[135.64,39.44],[135.08,39.67],[135.56,41.05],[135.06,41.45],[135.26,40.95],[134.59,40.8],[134.47,41.32],[134.87,41.09],[134.32,41.55],[135.68,42.21]]]}},{"type":"Feature","properties":{},"geometry":{"type":"Polygon","coordinates":[[[139.39,42.8],[140.08,42.31],[139.49,41.68],[138.6,41.85],[137.82,41.19],[137.51,41.83],[137.07,41.69],[137.99,42.51],[139.39,42.8]]]}},{"type":"Feature","properties":{},"geometry":{"type":"Polygon","coordinates":[[[21.56,18.9],[23.02,17.43],[21.83,17.98],[21.25,18.8],[21.56,18.9]]]}},{"type":"Feature","properties":{},"geometry":{"type":"Polygon","coordinates":[[[25.65,12.46],[24.82,12.76],[24.27,13.51],[24.45,14.1],[25.11,13.75],[25.65,12.46]]]}},{"type":"Feature","properties":{},"geometry":{"type":"Polygon","coordinates":[[[17.86,25.12],[16.36,24.15],[15.41,26.4],[15.89,26.54],[17.86,25.12]]]}},{"type":"Feature","properties":{},"geometry":{"type":"Polygon","coordinates":[[[23.51,21.88],[23.62,20.5],[23.03,22],[23.51,21.88]]]}},{"type":"Feature","properties":{},"geometry":{"type":"Polygon","coordinates":[[[35.3,34.88],[35.65,34.58],[34.89,34.6],[35.3,34.88]]]}},{"type":"Feature","properties":{},"geometry":{"type":"Polygon","coordinates":[[[12.64,29.21],[12.47,28.53],[11.87,28.83],[12.64,29.21]]]}},{"type":"Feature","properties":{},"geometry":{"type":"Polygon","coordinates":[[[16.99,32.23],[16.65,31.76],[14.89,31.38],[14.13,31.98],[16.37,32.91],[16.99,32.23]]]}},{"type":"Feature","properties":{},"geometry":{"type":"Polygon","coordinates":[[[139.47,43.15],[137.36,42.72],[137.17,42.18],[135.74,42.24],[135.81,42.74],[138.09,44],[141.47,44.18],[142.14,45.9],[142.81,46.06],[142.28,45.65],[142.71,45.29],[144.19,45.96],[145.58,47.53],[145.54,49.23],[146.06,49.89],[146.99,49.52],[146.72,50.19],[147.37,50.09],[148.13,48.14],[147.55,46.93],[146.84,46.69],[146.98,45.65],[146.53,44.91],[146.91,44.37],[146.36,43.81],[145.67,43.58],[145.9,44.31],[144.55,43.27],[144.53,43.72],[143.96,43.19],[142.59,43.12],[142.96,43.34],[142.22,43.6],[142.04,43.14],[142.48,42.82],[140.99,42.01],[140.44,42.36],[140.83,43.19],[139.47,43.15]]]}},{"type":"Feature","properties":{},"geometry":{"type":"Polygon","coordinates":[[[19.04,32.57],[17.11,32.3],[18.11,33.03],[19.04,32.57]]]}},{"type":"Feature","properties":{},"geometry":{"type":"Polygon","coordinates":[[[153.48,47.22],[153.8,47.23],[152.53,46.55],[153.48,47.22]]]}},{"type":"Feature","properties":{},"geometry":{"type":"Polygon","coordinates":[[[149.02,48.5],[151.41,46.84],[152.49,47.17],[152.15,46.65],[152.49,46.08],[150.87,45.77],[150.13,44.96],[147.38,45.62],[147.15,46.38],[148.29,46.33],[148.6,48.2],[149.02,48.5]]]}},{"type":"Feature","properties":{},"geometry":{"type":"Polygon","coordinates":[[[146.32,51.22],[145.95,50.88],[147.03,50.45],[145.75,50.05],[145.39,51.23],[146.32,51.22]]]}},{"type":"Feature","properties":{},"geometry":{"type":"Polygon","coordinates":[[[-7,34.55],[-6.92,33.83],[-7.54,33.25],[-6.87,33.87],[-6.39,33.5],[-7.64,33.08],[-7.86,33.58],[-7,34.55]]]}},{"type":"Feature","properties":{},"geometry":{"type":"Polygon","coordinates":[[[-9.88,34.4],[-9.71,33.96],[-8.21,33.98],[-8.86,33.47],[-10,33.93],[-9.88,34.4]]]}},{"type":"Feature","properties":{},"geometry":{"type":"Polygon","coordinates":[[[-9.98,37.47],[-7.97,36.66],[-9.53,36.91],[-10.28,37.39],[-9.98,37.47]]]}},{"type":"Feature","properties":{},"geometry":{"type":"Polygon","coordinates":[[[-72.13,18.26],[-70.39,17.72],[-69.07,15.95],[-70.21,16.17],[-69.95,16.64],[-70.44,16.3],[-71.12,16.76],[-70.84,17.07],[-72.05,17.5],[-71.71,17.99],[-72.13,17.83],[-72.13,18.26]]]}},{"type":"Feature","properties":{},"geometry":{"type":"Polygon","coordinates":[[[-2.84,36.76],[-2.12,37.18],[-1.28,36.9],[-1.84,36.01],[-0.87,36.27],[-1.65,35.82],[-1.36,35.16],[-0.72,35.77],[-0.85,34.31],[-1.28,34.29],[-1.25,34.87],[-1.77,34.46],[-1.72,35.52],[-3.06,34.44],[-2.22,35.29],[-6.02,35.16],[-2.84,36.76]]]}},{"type":"Feature","properties":{},"geometry":{"type":"Polygon","coordinates":[[[-3.35,39.21],[-3.01,38.99],[-3.5,38.92],[-3.2,38.68],[-4.12,37.32],[-3,37.6],[-3.52,37.16],[-2.68,37.15],[-2.84,36.76],[-5.98,35.29],[-5.18,36.07],[-5.97,36.08],[-5.28,36.7],[-4.88,36.53],[-5.19,36.87],[-4.74,37.02],[-4.54,38.27],[-3.35,39.21]]]}},{"type":"Feature","properties":{},"geometry":{"type":"Polygon","coordinates":[[[-23.57,41.28],[-23.1,40.71],[-24.14,41.11],[-23.57,41.28]]]}},{"type":"Feature","properties":{},"geometry":{"type":"Polygon","coordinates":[[[-74.49,20.73],[-74.15,19.57],[-74.99,20.58],[-74.49,20.73]]]}},{"type":"Feature","properties":{},"geometry":{"type":"Polygon","coordinates":[[[-75.2,21.69],[-74.68,21.5],[-74.9,21.05],[-74.34,21.63],[-74.75,20.63],[-75.2,21.69]]]}},{"type":"Feature","properties":{},"geometry":{"type":"Polygon","coordinates":[[[150.87,57.26],[151.27,55.74],[150.81,54.65],[152.3,51.5],[151.6,52.14],[150.47,52.05],[149.86,50.74],[150.87,49.27],[150.62,48.94],[149.92,49.69],[149.2,48.86],[148.98,49.56],[149.53,50.94],[149.22,51.75],[149.92,54.1],[149.39,54.83],[149.75,56.36],[150.66,56.44],[150.32,57.24],[150.87,57.26]]]}},{"type":"Feature","properties":{},"geometry":{"type":"Polygon","coordinates":[[[-92.12,28.1],[-92.05,27.55],[-93.13,28.04],[-92.12,28.1]]]}},{"type":"Feature","properties":{},"geometry":{"type":"Polygon","coordinates":[[[145.29,66.36],[145.99,66.28],[144.71,65.94],[145.29,66.36]]]}},{"type":"Feature","properties":{},"geometry":{"type":"Polygon","coordinates":[[[2.3,40.75],[3.25,41.09],[2.2,40.92],[2.98,41.64],[1.92,41.76],[2.39,42.18],[1.9,42.6],[3.17,42.64],[3.43,43.09],[2.89,43.11],[3.92,43.86],[4.3,43.73],[3.96,43.41],[4.98,43.74],[5.57,43.07],[4.89,42.7],[5.06,42.22],[2.3,40.75]]]}},{"type":"Feature","properties":{},"geometry":{"type":"Polygon","coordinates":[[[3.58,40.33],[2.44,39.82],[2.67,40.12],[2.11,39.97],[2.57,40.26],[1.9,40.19],[2.39,40.53],[1.81,40.52],[5.06,42.22],[5.13,40.73],[3.58,40.33]]]}},{"type":"Feature","properties":{},"geometry":{"type":"Polygon","coordinates":[[[17.92,45.38],[18.3,44.9],[17.35,45.24],[17.92,45.38]]]}},{"type":"Feature","properties":{},"geometry":{"type":"Polygon","coordinates":[[[-74.16,39.24],[-74.07,38.49],[-74.23,38.94],[-74.54,38.72],[-74.16,39.24]]]}},{"type":"Feature","properties":{},"geometry":{"type":"Polygon","coordinates":[[[19.35,46.07],[19.37,44.92],[18.24,45.57],[19.22,45.6],[18.95,45.89],[19.35,46.07]]]}},{"type":"Feature","properties":{},"geometry":{"type":"Polygon","coordinates":[[[-75.39,23.88],[-74.57,22.94],[-74.94,22.85],[-74.49,22.74],[-74.53,22.16],[-75.25,22.8],[-75.39,23.88]]]}},{"type":"Feature","properties":{},"geometry":{"type":"Polygon","coordinates":[[[-21.5,44.57],[-21.53,43.82],[-21.28,44.31],[-21.61,43.79],[-21.45,44.17],[-22.18,43.87],[-21.5,44.57]]]}},{"type":"Feature","properties":{},"geometry":{"type":"Polygon","coordinates":[[[-75.73,24.49],[-75.42,24.13],[-75.74,23.55],[-75.73,24.49]]]}},{"type":"Feature","properties":{},"geometry":{"type":"Polygon","coordinates":[[[4.45,46.23],[5.01,45.82],[4.77,45.56],[4.12,45.92],[4.45,46.23]]]}},{"type":"Feature","properties":{},"geometry":{"type":"Polygon","coordinates":[[[23.87,48.5],[24.13,48.09],[23.66,47.49],[23.44,48.1],[23.87,48.5]]]}},{"type":"Feature","properties":{},"geometry":{"type":"Polygon","coordinates":[[[-76.02,22.45],[-75.9,21.51],[-76.56,22.18],[-76.02,22.45]]]}},{"type":"Feature","properties":{},"geometry":{"type":"Polygon","coordinates":[[[-75.97,25.89],[-75.45,25],[-75.94,24.59],[-75.97,25.89]]]}},{"type":"Feature","properties":{},"geometry":{"type":"Polygon","coordinates":[[[26.58,49.69],[27.21,49.63],[26.4,48.93],[26.03,49.48],[26.58,49.69]]]}},{"type":"Feature","properties":{},"geometry":{"type":"Polygon","coordinates":[[[6.57,47.33],[6.8,47.07],[5.88,46.54],[6.38,46.52],[5.57,45.3],[4.65,45.24],[5.25,45.68],[4.81,46.4],[5.39,46.4],[5.05,46.64],[5.31,47.21],[6.57,47.33]]]}},{"type":"Feature","properties":{},"geometry":{"type":"Polygon","coordinates":[[[6.32,46.27],[7.92,46.39],[7.54,45.31],[6.93,45.07],[7.54,45.01],[6.57,44.77],[7.95,44.69],[8.53,44.12],[5.92,43.27],[5.81,44.55],[6.12,44.55],[5.87,44.82],[5.48,44.44],[5.73,44.87],[5.18,43.86],[5.15,44.86],[6.32,46.27]]]}},{"type":"Feature","properties":{},"geometry":{"type":"Polygon","coordinates":[[[8.53,44.12],[8.88,43.43],[9.88,43.04],[10.15,42.54],[9.45,42.59],[10.18,42.42],[10.14,41.83],[11.53,41.79],[11.54,41.15],[10.65,40.42],[11.54,40.21],[5.92,38.62],[6.96,39.86],[7.95,39.96],[8.41,40.58],[7.66,40.1],[6,40.51],[7.02,41.23],[6.88,41.59],[6.32,41.42],[6.62,41.77],[7.87,42.06],[7.09,43.46],[8.53,44.12]]]}},{"type":"Feature","properties":{},"geometry":{"type":"Polygon","coordinates":[[[26.4,50.15],[26.87,49.96],[26.04,49.92],[26.4,50.15]]]}},{"type":"Feature","properties":{},"geometry":{"type":"Polygon","coordinates":[[[-10.45,49.22],[-10.33,48.84],[-10.79,49.15],[-10.45,49.22]]]}},{"type":"Feature","properties":{},"geometry":{"type":"Polygon","coordinates":[[[-20.85,50.3],[-21.26,49.52],[-21.5,49.97],[-20.85,50.3]]]}},{"type":"Feature","properties":{},"geometry":{"type":"Polygon","coordinates":[[[-22.76,51.05],[-22.6,50.75],[-23.98,50.28],[-23.73,50.96],[-22.76,51.05]]]}},{"type":"Feature","properties":{},"geometry":{"type":"Polygon","coordinates":[[[-40.2,80.52],[-48.39,80.2],[-47.25,80.38],[-47.72,80.6],[-42.42,80.85],[-40.2,80.52]]]}},{"type":"Feature","properties":{},"geometry":{"type":"Polygon","coordinates":[[[-24.4,54.13],[-24.17,53.4],[-23.81,53.63],[-22.16,52.57],[-22.38,52.01],[-21.12,51.7],[-21.83,51.43],[-23.12,52.27],[-25.02,51.34],[-25.08,52],[-26.17,51.94],[-25.33,52.36],[-24.4,54.13]]]}},{"type":"Feature","properties":{},"geometry":{"type":"Polygon","coordinates":[[[59.46,65.39],[59.82,65.2],[58.97,65.05],[59.46,65.39]]]}},{"type":"Feature","properties":{},"geometry":{"type":"Polygon","coordinates":[[[-16.4,55.77],[-15.82,55.51],[-16.75,55.73],[-16.4,55.77]]]}},{"type":"Feature","properties":{},"geometry":{"type":"Polygon","coordinates":[[[-17.44,56.09],[-16.89,55.89],[-17.11,55.17],[-18.36,55.05],[-18.18,55.88],[-17.44,56.09]]]}},{"type":"Feature","properties":{},"geometry":{"type":"Polygon","coordinates":[[[17.12,58.96],[17.32,58.54],[17.48,58.97],[17.84,58.65],[16.94,58.22],[17.12,58.96]]]}},{"type":"Feature","properties":{},"geometry":{"type":"Polygon","coordinates":[[[-16.11,76.69],[-24.29,77.63],[-27.98,78.79],[-29.19,78.67],[-26.3,78.13],[-31.51,77.79],[-37.02,78.14],[-36.05,78.54],[-36.73,78.75],[-34.51,78.74],[-36.27,78.97],[-32.13,79.14],[-35.32,79.51],[-33.83,80.01],[-36.96,80.13],[-33.93,80.19],[-34.48,80.33],[-34.04,80.5],[-28.68,80.38],[-26.04,79.83],[-20.2,80.03],[-18.9,79.51],[-19.78,79.4],[-19.58,79.14],[-17.14,79.42],[-18.2,80.11],[-16.63,79.89],[-15.6,76.62],[-16.11,76.69]]]}},{"type":"Feature","properties":{},"geometry":{"type":"Polygon","coordinates":[[[16.69,58.96],[17.03,58.66],[16.4,58.49],[16.69,58.96]]]}},{"type":"Feature","properties":{},"geometry":{"type":"Polygon","coordinates":[[[40.13,63.71],[40.79,63.43],[39.83,62.92],[39.26,63.34],[40.13,63.71]]]}},{"type":"Feature","properties":{},"geometry":{"type":"Polygon","coordinates":[[[18.11,59.65],[18.51,59.4],[17.75,59.16],[18.11,59.65]]]}},{"type":"Feature","properties":{},"geometry":{"type":"Polygon","coordinates":[[[18.66,60.13],[18.82,59.84],[18.3,59.76],[18.66,60.13]]]}},{"type":"Feature","properties":{},"geometry":{"type":"Polygon","coordinates":[[[-31.04,58.74],[-29.97,57.7],[-31.06,57.41],[-32.76,58.09],[-31.37,58.94],[-31.04,58.74]]]}},{"type":"Feature","properties":{},"geometry":{"type":"Polygon","coordinates":[[[0,74.88],[-1.04,75.21],[1.04,74.99],[0,74.88]]]}},{"type":"Feature","properties":{},"geometry":{"type":"Polygon","coordinates":[[[18.81,60.37],[19.18,60.32],[18.56,60.17],[18.81,60.37]]]}},{"type":"Feature","properties":{},"geometry":{"type":"Polygon","coordinates":[[[-6.62,52.97],[-5.49,52.26],[-6.92,52.11],[-6.39,52.11],[-7.26,52.43],[-6.62,52.97]]]}},{"type":"Feature","properties":{},"geometry":{"type":"Polygon","coordinates":[[[45.53,66.21],[47.5,65.8],[45.69,65.78],[45.53,66.21]]]}},{"type":"Feature","properties":{},"geometry":{"type":"Polygon","coordinates":[[[9,53.87],[9.31,53.51],[7.77,53.18],[9,53.87]]]}},{"type":"Feature","properties":{},"geometry":{"type":"Polygon","coordinates":[[[-14.62,74.7],[-13.49,74.59],[-14.55,74.22],[-14.62,74.7]]]}},{"type":"Feature","properties":{},"geometry":{"type":"Polygon","coordinates":[[[-16.12,73.99],[-18.17,74.3],[-15.19,74.62],[-15.1,74.07],[-16.12,73.99]]]}},{"type":"Feature","properties":{},"geometry":{"type":"Polygon","coordinates":[[[146.92,83.1],[148.38,83.07],[145.72,83.01],[146.92,83.1]]]}},{"type":"Feature","properties":{},"geometry":{"type":"Polygon","coordinates":[[[-10.82,34.58],[-9.98,33.55],[-8.65,33.11],[-8.17,33.42],[-7.36,32.85],[-10.16,32.1],[-11.16,30.99],[-11.71,31.29],[-11.46,32.12],[-11.75,31.98],[-10.32,32.86],[-10.07,32.48],[-9.35,32.9],[-10.69,32.86],[-10.36,33.51],[-13.56,31.81],[-14.16,32.04],[-14.31,31.54],[-15.21,31.34],[-15.94,29.95],[-15.35,29.34],[-15.12,29.67],[-15.07,29.18],[-16.1,29.11],[-16.24,29.46],[-16.35,29.02],[-17.06,28.96],[-14.67,32.22],[-10.82,34.58]]]}},{"type":"Feature","properties":{},"geometry":{"type":"Polygon","coordinates":[[[-13,-23.88],[-15.47,-28.38],[-14.39,-26.47],[-15.17,-26.12],[-14.9,-26.45],[-15.7,-27.97],[-15.81,-29.39],[-16.91,-31.15],[-18.76,-31.71],[-20.47,-31.53],[-21.17,-30.96],[-20.98,-30.02],[-21.32,-30.25],[-21.14,-31.58],[-19.65,-32.23],[-19.47,-33.11],[-27.33,-31.83],[-29.08,-31.26],[-34.62,-24.41],[-35.11,-22.55],[-34.93,-20.67],[-35.69,-18.21],[-28.86,-20.78],[-22.12,-22.67],[-13,-23.88]]]}},{"type":"Feature","properties":{},"geometry":{"type":"Polygon","coordinates":[[[-23.32,-35.26],[-23.9,-35.13],[-23.37,-35.68],[-23.68,-35.65],[-23.32,-37.24],[-25.88,-37.6],[-25.46,-38.81],[-24.84,-39.07],[-24.29,-38.59],[-23.97,-39.25],[-25.25,-39.36],[-24.54,-39.56],[-25.28,-40.38],[-25.07,-41.67],[-26.33,-42.27],[-26.64,-43.15],[-25.58,-43.89],[-24.56,-43.91],[-24.33,-44.64],[-26.4,-47.71],[-26.09,-48.82],[-25.06,-49.31],[-27.16,-50.1],[-27,-51.28],[-28.33,-51],[-27.64,-50.99],[-27.32,-50.29],[-27.86,-50.04],[-29.08,-50.22],[-28.93,-50.72],[-29.39,-50.79],[-29.07,-50.25],[-29.78,-50.58],[-30.09,-49.92],[-29.19,-50],[-29.22,-49.67],[-28.9,-49.87],[-29.19,-50.18],[-28.8,-50.13],[-29.01,-49.45],[-29.81,-49.03],[-29.09,-49.42],[-29.86,-49.39],[-29.39,-49.6],[-29.59,-49.89],[-29.93,-49.47],[-29.63,-49.97],[-30.42,-49.54],[-30.34,-49.08],[-30.99,-48.91],[-30.3,-48.54],[-30.6,-48.29],[-30.83,-48.81],[-31,-48.35],[-31.71,-48.3],[-30.89,-48.25],[-31.59,-47.69],[-30.94,-47.66],[-31.51,-47.1],[-31.77,-47.47],[-32.02,-46.9],[-31.68,-46.79],[-32.05,-46.71],[-31.64,-46.44],[-32.51,-46.18],[-31.21,-45.96],[-31.8,-45.58],[-32.67,-45.91],[-32.18,-45.69],[-32.6,-45.58],[-32.23,-45.25],[-32.6,-44.89],[-33.93,-45.16],[-33.36,-44.06],[-32.76,-43.95],[-32.25,-44.66],[-31.92,-43.65],[-32.28,-43.83],[-32.31,-43.49],[-31.67,-43.36],[-32.43,-43.25],[-31.77,-42.42],[-32.55,-42.21],[-32.33,-40.52],[-32.71,-40.33],[-32.23,-40.43],[-32.86,-39.95],[-32.42,-39.46],[-33.74,-39.94],[-34.21,-38.24],[-33.89,-37.54],[-34.91,-35.63],[-34.47,-35.32],[-33.88,-31.56],[-34.87,-27.08],[-34.67,-23.15],[-30.8,-27.46],[-27.56,-32.26],[-23.32,-35.26]]]}},{"type":"Feature","properties":{},"geometry":{"type":"Polygon","coordinates":[[[-37.66,11.48],[-35.68,11.8],[-34.46,11.36],[-33.08,12],[-33.72,12.09],[-31.34,12.5],[-32.35,12.13],[-31.68,11.5],[-30.17,11.35],[-30.17,10.46],[-29.23,10.6],[-27.73,9.81],[-27.51,8.64],[-27.25,9.15],[-25.96,8.23],[-23.89,8.69],[-21.72,8.42],[-19.85,7.32],[-19.27,5.73],[-18.16,4.8],[-19.43,2.71],[-18.81,3.29],[-19.07,2.57],[-18.5,3.23],[-16.44,3.28],[-16.77,2.08],[-18.26,1.41],[-17.18,1.77],[-17.23,1.31],[-16.25,2.12],[-15.94,3.09],[-14.86,3.06],[-13.3,2.64],[-13.26,2.2],[-12.83,2.58],[-12.53,2.29],[-12.63,1.76],[-12.22,1.74],[-12.52,0.72],[-12.15,1.6],[-12.01,1.24],[-11.25,1.86],[-10.05,1.51],[-7.8,1.73],[-4.78,-0.04],[-2.84,-0.38],[-2.16,-2.84],[-4.78,-7.72],[-5.26,-8.21],[-5.48,-7.85],[-5.31,-12.92],[-6.59,-17.42],[-7.45,-18.51],[-9.76,-18.73],[-13.09,-21.67],[-13.61,-21.64],[-13.21,-21.8],[-13.59,-22.43],[-13.25,-22.46],[-13.12,-24.37],[-22.21,-22.88],[-28.89,-20.78],[-35.62,-18],[-37.02,-16.56],[-41.78,-14.57],[-45.7,-8.66],[-46.91,-7.3],[-48.12,-6.77],[-47.94,-6.22],[-48.51,-5.02],[-47.45,-4.01],[-47.22,-3.13],[-47.5,-2.91],[-47.73,-3.37],[-48.55,-2.93],[-48.05,0.12],[-47.03,0.67],[-46.8,1.63],[-42.64,4.25],[-41.6,7.84],[-38.9,11.01],[-37.66,11.48]]]}},{"type":"Feature","properties":{},"geometry":{"type":"Polygon","coordinates":[[[-47.31,7.35],[-46.45,6.63],[-46.68,7.25],[-45.46,8.23],[-45.25,9.66],[-43.33,10.34],[-41.85,11.67],[-41.26,11.32],[-42.06,10.74],[-41.59,9.93],[-42.04,8.99],[-41.54,8.27],[-40.93,9],[-41.6,10.02],[-40.14,10.82],[-40.19,11.57],[-39.71,10.88],[-38.28,10.44],[-39.5,9.73],[-42.31,6.66],[-43.48,3.11],[-47.74,0.65],[-46.28,2.62],[-46.83,2.87],[-46.87,5.23],[-47.72,6.02],[-47.31,7.35]]]}},{"type":"Feature","properties":{},"geometry":{"type":"Polygon","coordinates":[[[-19.84,-32.35],[-19.17,-32.96],[-19.68,-34.28],[-23.45,-35.86],[-27.33,-33.31],[-29.42,-30.64],[-19.84,-32.35]]]}},{"type":"Feature","properties":{},"geometry":{"type":"Polygon","coordinates":[[[-62.4,28.1],[-62.04,28.02],[-62.08,28.58],[-62.77,28.59],[-63.57,31.02],[-62.47,31.57],[-61.04,30.67],[-59.27,27.47],[-58.93,26.04],[-59.3,24.95],[-62.4,28.1]]]}},{"type":"Feature","properties":{},"geometry":{"type":"Polygon","coordinates":[[[-63.57,31.02],[-63.07,32.22],[-63.27,33.56],[-62.14,36.84],[-61.68,36.82],[-62.19,36.89],[-62.1,37.52],[-61.71,37.53],[-62.12,37.55],[-62.29,39.05],[-60.68,38.59],[-61.03,37.49],[-60.34,37.87],[-60.51,39.23],[-59.67,39.53],[-59.66,38.09],[-58.1,37.85],[-57.29,36.63],[-55.38,36.26],[-56.06,34.62],[-60.22,33.02],[-63.57,31.02]]]}},{"type":"Feature","properties":{},"geometry":{"type":"Polygon","coordinates":[[[-68.5,16.22],[-68.81,16.48],[-68.26,16.57],[-68.5,16.22]]]}},{"type":"Feature","properties":{},"geometry":{"type":"Polygon","coordinates":[[[-67.96,17.04],[-68.81,16.62],[-68.97,17.46],[-68.91,17],[-69.37,16.9],[-69.27,17.61],[-69.58,17.14],[-69.98,17.45],[-69.64,17.91],[-70.15,17.73],[-69.67,18.37],[-70.08,18.62],[-70.21,17.79],[-70.96,17.9],[-70.49,18.47],[-70.89,18.05],[-70.91,18.61],[-71.69,18.31],[-71.21,18.58],[-71.94,18.7],[-71.21,19.22],[-71.94,18.9],[-72,19.29],[-71.51,19.69],[-71.21,19.34],[-71.4,19.69],[-70.97,19.81],[-71.57,19.91],[-71.14,19.96],[-68.68,18.24],[-67.96,17.04]]]}},{"type":"Feature","properties":{},"geometry":{"type":"Polygon","coordinates":[[[-71.42,20.07],[-72.3,19.66],[-71.99,20.14],[-72.41,20.46],[-71.42,20.07]]]}},{"type":"Feature","properties":{},"geometry":{"type":"Polygon","coordinates":[[[-56.76,26.07],[-56.93,25.54],[-59.02,25.4],[-59,26.75],[-60.65,30.12],[-62.47,31.57],[-60.22,33.02],[-56.06,34.62],[-55.38,36.26],[-54.8,36.22],[-54.07,35.93],[-56.76,26.07]]]}},{"type":"Feature","properties":{},"geometry":{"type":"Polygon","coordinates":[[[-56.86,25.98],[-56.77,25.31],[-59.33,27.05],[-56.3,37.42],[-54.58,36.91],[-54.9,35.59],[-53.12,34.18],[-54.63,30.5],[-56.18,28.83],[-56.86,25.98]]]}},{"type":"Feature","properties":{},"geometry":{"type":"Polygon","coordinates":[[[-53.29,23.06],[-55.89,23.78],[-56.77,25.03],[-58.15,25.87],[-57.32,29.35],[-55.64,30.94],[-54.08,33.58],[-53.85,34.53],[-55.53,36.03],[-55.1,37.33],[-54.12,37.38],[-51.97,33.24],[-51.27,30.51],[-51.37,27.18],[-53.02,24.9],[-53.29,23.06]]]}},{"type":"Feature","properties":{},"geometry":{"type":"Polygon","coordinates":[[[-45.32,5.52],[-46.21,6.54],[-47.73,6.28],[-49.05,7.07],[-54.33,12.62],[-54.58,13.89],[-54.12,13.89],[-53.73,14.69],[-53.84,16.05],[-54.87,19.05],[-55.7,19.91],[-55.35,20.8],[-56.68,23.41],[-56.89,25.97],[-54.89,22.46],[-53.6,21.14],[-50.2,17.98],[-47.7,16.92],[-47.37,10.34],[-46.84,8.92],[-44.37,5.53],[-45.32,5.52]]]}},{"type":"Feature","properties":{},"geometry":{"type":"Polygon","coordinates":[[[-41.19,16.79],[-39.49,15.28],[-36.95,16.25],[-36.44,16.07],[-34.36,14.09],[-36.27,13.55],[-36.14,13.26],[-37.44,12.64],[-37.08,13.21],[-37.68,13.13],[-38.62,12.04],[-39.95,11.83],[-39.84,11.55],[-42.18,13.92],[-42.1,16.09],[-41.19,16.79]]]}},{"type":"Feature","properties":{},"geometry":{"type":"Polygon","coordinates":[[[-56,23.83],[-56.41,22.03],[-54.89,18.03],[-54.86,15.54],[-53.99,14.34],[-54.57,13.91],[-56.05,16.44],[-55.67,17.24],[-56.22,18.75],[-56.72,18.63],[-57.62,19.99],[-56.69,19.6],[-56.5,20.45],[-57.51,22.09],[-57.7,25.77],[-58.4,26.94],[-60.01,28.05],[-60.38,31.38],[-58.76,28.34],[-56.86,26.49],[-56,23.83]]]}},{"type":"Feature","properties":{},"geometry":{"type":"Polygon","coordinates":[[[-54.58,22.4],[-54.43,22.84],[-55.95,23.8],[-57.25,26.31],[-58.71,27.3],[-58.39,27.73],[-57.64,28.02],[-55.75,27.58],[-54.35,25.98],[-52.46,24.97],[-51.59,23.71],[-49,22.96],[-47.37,21.84],[-46.8,20.79],[-46.73,16.49],[-51.8,19.42],[-54.58,22.4]]]}},{"type":"Feature","properties":{},"geometry":{"type":"Polygon","coordinates":[[[-52.29,76.56],[-51.95,76.96],[-52.58,77.38],[-50.98,77.31],[-51.88,77.47],[-49.42,78.08],[-40.72,78.12],[-43.69,76.26],[-45.43,76.61],[-47.86,75.7],[-52.29,76.56]]]}},{"type":"Feature","properties":{},"geometry":{"type":"Polygon","coordinates":[[[-47.65,75.64],[-44.27,75.73],[-46.74,75.54],[-45.08,75.32],[-42.36,75.86],[-35.43,75.66],[-35.81,75.47],[-34.95,75.09],[-37.25,74.39],[-36.02,73.17],[-36.94,72.76],[-37.1,72.05],[-38.16,71.74],[-37.94,71.03],[-39.74,71.35],[-40.08,71.13],[-39.44,70.87],[-43.63,70.31],[-44.11,69.73],[-47.47,68.63],[-47.7,68.02],[-52.26,66.29],[-54.66,66.97],[-56.62,69.68],[-53.37,70.81],[-50.03,73.39],[-46.38,74.74],[-47.65,75.64]]]}},{"type":"Feature","properties":{},"geometry":{"type":"Polygon","coordinates":[[[-18.56,28.19],[-19.39,26.72],[-20.02,27.41],[-19.58,26.23],[-20.45,24.95],[-20.13,25.79],[-20.72,26.69],[-20.29,27.41],[-20.91,27.11],[-20.72,25.88],[-21.57,26.34],[-20.66,25.72],[-21.23,25.85],[-20.77,24.85],[-21.32,25.1],[-20.51,24.76],[-20.17,23.61],[-20.5,24.54],[-20.38,23.9],[-21.21,23.82],[-20.35,23.45],[-21.42,23.32],[-21.03,23.12],[-21.49,22.88],[-20.92,22.74],[-25.12,20.57],[-25.8,19.25],[-24.8,14.86],[-25.31,13.26],[-25.94,13.29],[-26.44,14.08],[-26.4,14.9],[-26.69,14.74],[-27.21,15.71],[-26.89,16.16],[-27.32,16.11],[-27,17.12],[-28.32,18.54],[-29.45,18.08],[-29.59,18.75],[-30.43,18.9],[-30.13,18.98],[-31.82,18.85],[-31.73,19.44],[-31.91,18.95],[-32.95,19.05],[-35.22,20.15],[-27.88,21.57],[-25.04,23.35],[-21.38,26.82],[-18.56,28.19]]]}},{"type":"Feature","properties":{},"geometry":{"type":"Polygon","coordinates":[[[-51.34,8.66],[-48.74,6.25],[-48.2,4.26],[-51.48,1.85],[-52.99,1.99],[-53.08,2.57],[-53.31,1.99],[-53.4,2.95],[-52.75,3.29],[-52.77,5.99],[-52.44,5.73],[-52.21,6.14],[-53.11,6.72],[-54.46,9.36],[-54.61,12.16],[-53.75,11.72],[-53.21,10.44],[-51.34,8.66]]]}},{"type":"Feature","properties":{},"geometry":{"type":"Polygon","coordinates":[[[-26.79,58.04],[-27.34,57.91],[-26.85,57.37],[-27.16,56.83],[-25.77,57.63],[-25.26,57.06],[-25.79,56.35],[-25.32,55.41],[-23.76,56.91],[-22.93,57.13],[-23.48,57.43],[-23.36,58.03],[-21.3,57.65],[-21.98,57.6],[-20.81,57.15],[-21.35,56.88],[-20.88,56.61],[-21.86,56.48],[-21.12,55.43],[-22.83,54.44],[-23.07,55.03],[-23.96,55.06],[-23.52,55.08],[-23.19,54.26],[-25.1,54.82],[-24.59,54.39],[-25.84,53.65],[-28.53,54.57],[-25.63,53.55],[-27.05,52.43],[-27.99,52.74],[-28.7,52.04],[-30.98,52.82],[-28.75,51.75],[-31.42,50.83],[-31.04,50.55],[-31.92,50.31],[-31.55,50.2],[-32.69,48.95],[-33.07,48.07],[-31.75,47.61],[-31.5,46.17],[-31.83,45.76],[-30.13,45.89],[-26.23,43.53],[-24.09,43.26],[-24.35,41.06],[-23.03,39.35],[-22.55,39.15],[-22.11,39.63],[-21.8,39.1],[-21.36,40.27],[-21.57,41.92],[-22.13,42.6],[-20.5,43.14],[-19.42,44.25],[-19.61,45.85],[-20.75,46.57],[-19.57,47.83],[-19.66,48.68],[-20.19,48.66],[-19.55,49.37],[-19.96,50.12],[-19.36,50.41],[-17.33,49.83],[-16.68,50.18],[-15.73,49.23],[-15.21,49.26],[-15.3,48.8],[-13.75,48.66],[-13.9,47.67],[-14.92,47.7],[-13.98,47.57],[-14.05,46.91],[-13.57,46.65],[-14.58,46.27],[-13.34,46.5],[-12.91,46.12],[-13.88,45.32],[-12.78,46.15],[-12.58,45.48],[-11.54,46.4],[-11.29,45.85],[-11.26,46.46],[-10.72,46.58],[-11.06,46.81],[-10.52,46.93],[-10.89,47.29],[-10.02,47.78],[-10.26,47.56],[-9.27,46.72],[-9.8,46.55],[-8.9,46.22],[-9.46,45.81],[-8.68,46],[-9.27,45.5],[-8.6,45.69],[-8.17,45.15],[-8.67,45.02],[-7.77,44.62],[-8.01,44.14],[-8.71,44.3],[-7.22,43.07],[-6.94,43.31],[-7.22,42.51],[-6.51,42.87],[-6.23,42.7],[-6.62,42.27],[-6.02,42.77],[-5.99,42.36],[-4.59,42.14],[-7.26,40.77],[-4.68,41.76],[-4.53,41.02],[-3.48,41.13],[-3.32,40.43],[-3.64,40.42],[-3.27,40.22],[-3.9,40.18],[-3.17,40.04],[-3.65,40.03],[-3.21,39.68],[-4.2,38.99],[-5.61,39],[-5.82,38.28],[-6.75,37.72],[-11.84,37.81],[-12.6,36.88],[-14.02,36.36],[-15.86,34.49],[-11.7,36.74],[-10.01,36.28],[-10.39,36.37],[-10.06,36.03],[-10.9,35.54],[-12.17,35.54],[-10.44,35.26],[-10.82,34.58],[-14.67,32.22],[-17.06,28.96],[-18.23,28.73],[-21.38,26.82],[-24.47,23.82],[-27.27,21.9],[-32.02,20.46],[-38.21,20.33],[-43.54,17.73],[-43.56,15.6],[-46.22,16.07],[-46.9,17.56],[-47.01,21.38],[-48.76,22.7],[-49.04,23.42],[-48.71,24.81],[-46.93,27.6],[-47.27,32.18],[-49.33,36.12],[-51.76,43.84],[-55.18,47.34],[-55.85,48.62],[-56.76,52.67],[-55.49,53.98],[-55.13,56.39],[-59.13,59.4],[-58.76,61.34],[-57.85,62.25],[-58.31,62.85],[-57.27,62.39],[-57.21,63.01],[-55.66,63.23],[-55.31,62.95],[-55.91,62.78],[-51.85,62.97],[-54.4,62.41],[-53.44,62.6],[-53.79,62.1],[-52.85,62.56],[-50.29,62.57],[-50.74,62.75],[-50.44,63.02],[-49.86,61.5],[-48.48,62.19],[-49.12,61.37],[-46.95,61.44],[-42.71,59.13],[-44.29,58.9],[-43.97,58.71],[-40.34,58.31],[-39.32,57.38],[-39.84,57.33],[-39.27,56.4],[-39.47,56.87],[-38.79,57.15],[-39.1,57.87],[-37.02,58.43],[-39.37,58.41],[-37.2,58.77],[-36.39,57.55],[-35.79,57.76],[-35.15,57.16],[-32.63,56.88],[-32.5,57.55],[-31.92,57.64],[-31,57.27],[-31.35,57],[-30.68,57.2],[-31.4,56.44],[-30.73,56.06],[-30.49,56.95],[-28.84,57.34],[-28.98,57.8],[-29.66,57.55],[-28.63,58.23],[-30.29,59.04],[-29.55,59.55],[-30.04,59.69],[-29.73,60.15],[-28.27,60.58],[-28.58,60.71],[-27.77,60.42],[-27.75,59.47],[-27.07,58.73],[-28.22,58.34],[-26.79,58.04]]]}},{"type":"Feature","properties":{},"geometry":{"type":"Polygon","coordinates":[[[-75.54,22.72],[-75.73,22.25],[-76.05,22.57],[-75.74,23],[-76.33,23.44],[-76.08,22.73],[-76.51,22.58],[-77.12,25.72],[-78.32,27.09],[-79.85,28.2],[-81.37,28.37],[-80.98,28.64],[-84.21,28.26],[-84.7,27.92],[-84.38,27.52],[-85.32,27.23],[-88.49,27.26],[-88.82,26.9],[-90.66,27.4],[-90.63,27.73],[-92.09,27.81],[-90.54,28.02],[-89.87,27.37],[-89.55,27.8],[-87.37,27.8],[-86,28.74],[-86.86,28.87],[-86.64,29.32],[-87.34,28.93],[-87.6,29.84],[-84.55,30.75],[-79.91,30.21],[-78.72,29.73],[-76.69,27.81],[-75.54,22.72]]]}},{"type":"Feature","properties":{},"geometry":{"type":"Polygon","coordinates":[[[-66.22,33.15],[-65.95,33.4],[-66.23,33.18],[-67.29,34.68],[-72.13,36.71],[-71.13,36.61],[-72.12,37.02],[-72,37.71],[-72.67,36.94],[-73.13,37.48],[-72.73,37.27],[-73.03,37.55],[-72.54,37.73],[-73.45,37.7],[-72.66,38.56],[-73.18,38.37],[-73.1,38.99],[-73.25,38.35],[-73.27,39.29],[-73.19,38.64],[-73.76,38.09],[-73.76,39.07],[-74.39,39.29],[-74.69,38.77],[-74.35,39.52],[-75.92,40.47],[-75.6,40.57],[-76.06,40.91],[-75.5,40.73],[-76.22,41.12],[-75.9,41.34],[-76.37,41.24],[-76.18,41.73],[-76.89,41.53],[-77.4,42.62],[-77.23,41.85],[-81.91,45.8],[-77.99,45.96],[-76.76,45.54],[-75.69,43.68],[-73.54,42.3],[-71.27,41.81],[-65.19,35.46],[-64.25,31.9],[-65.73,31.78],[-66.22,33.15]]]}},{"type":"Feature","properties":{},"geometry":{"type":"Polygon","coordinates":[[[-62.21,50.61],[-61.29,48.92],[-61.2,45.44],[-62.52,46.63],[-63.11,48.69],[-62.21,50.61]]]}},{"type":"Feature","properties":{},"geometry":{"type":"Polygon","coordinates":[[[-64.01,60.68],[-63.92,59.13],[-61.56,57.9],[-60.01,56.42],[-60.3,54.01],[-61.53,52.69],[-60.53,48.64],[-59.84,47.38],[-56.34,43.91],[-54.12,37.38],[-59.57,38.62],[-60.45,39.23],[-60.71,40.1],[-60.05,44.35],[-61.05,46.04],[-61.58,48.83],[-63.62,53.58],[-66.68,57.04],[-73.36,61.86],[-71.8,62.29],[-65.3,62.18],[-63.43,62.85],[-62.95,62.26],[-64.01,60.68]]]}},{"type":"Feature","properties":{},"geometry":{"type":"Polygon","coordinates":[[[56.24,71.33],[55.46,70.93],[55.43,71.31],[56.24,71.33]]]}},{"type":"Feature","properties":{},"geometry":{"type":"Polygon","coordinates":[[[9.32,55.76],[10.57,55.5],[10.2,55.4],[10.56,55.11],[9.32,55.76]]]}},{"type":"Feature","properties":{},"geometry":{"type":"Polygon","coordinates":[[[9.77,55.98],[10.57,55.71],[9.09,55.81],[9.77,55.98]]]}},{"type":"Feature","properties":{},"geometry":{"type":"Polygon","coordinates":[[[55.64,72],[56.6,71.76],[55.7,71.67],[55.64,72]]]}},{"type":"Feature","properties":{},"geometry":{"type":"Polygon","coordinates":[[[-39.37,63.85],[-39.49,63.27],[-40.1,63.11],[-38.82,63.35],[-37.91,62.88],[-38.54,62.52],[-37.22,62.51],[-37.44,63.06],[-36.8,62.91],[-36.44,62.52],[-36.65,61.48],[-36.09,61.71],[-35.78,63],[-34.67,62.87],[-34.3,62.34],[-34.93,60.64],[-33.15,59.5],[-33.26,59.1],[-35.04,59.25],[-35.14,58.64],[-34.34,58.95],[-34.14,58.55],[-35.11,58.32],[-36.54,58.63],[-37.17,59.35],[-40.81,58.92],[-42.24,59.11],[-41.85,59.79],[-43.78,60.39],[-43.95,61.05],[-43.54,61.13],[-39.82,60.62],[-41.09,61.3],[-43.61,61.66],[-43.81,62.11],[-41.23,62.2],[-43.67,62.8],[-42.24,63.59],[-39.37,63.85]]]}},{"type":"Feature","properties":{},"geometry":{"type":"Polygon","coordinates":[[[38.94,68.04],[40.18,68.05],[39.78,67.73],[40.24,67.85],[39.92,67.6],[40.41,67.38],[39.99,67.35],[40.94,66.79],[44.19,66.03],[41.25,65.56],[40.87,65.82],[41.36,65.95],[40.3,66.22],[39.03,65.91],[38.36,66.36],[38.96,66.49],[38.84,67.05],[38.38,67.01],[39,67.19],[37.99,67.19],[38.94,68.04]]]}},{"type":"Feature","properties":{},"geometry":{"type":"Polygon","coordinates":[[[8.85,56.27],[9.91,56.09],[8.43,56],[8.85,56.27]]]}},{"type":"Feature","properties":{},"geometry":{"type":"Polygon","coordinates":[[[49.67,70.69],[50.14,70.65],[49.2,70.24],[48.61,70.52],[49.67,70.69]]]}},{"type":"Feature","properties":{},"geometry":{"type":"Polygon","coordinates":[[[-33.52,63.26],[-33.26,62.99],[-34.2,62.4],[-34.83,63.16],[-33.52,63.26]]]}},{"type":"Feature","properties":{},"geometry":{"type":"Polygon","coordinates":[[[-19.06,61.65],[-17.23,61.28],[-16.7,60.6],[-18.83,60.61],[-19.44,61.24],[-19.06,61.65]]]}},{"type":"Feature","properties":{},"geometry":{"type":"Polygon","coordinates":[[[-16.69,52.4],[-17.07,52.62],[-17.01,52.1],[-17.97,52.38],[-18.59,51.98],[-19.66,52.56],[-18.85,53.3],[-16.2,53.13],[-16.79,53.87],[-15.1,54.91],[-15.66,56.05],[-16.15,56.1],[-15.92,56.35],[-17.05,56.76],[-17.86,56.47],[-17.09,56.97],[-18.05,57.43],[-17.84,57.78],[-18.32,57.56],[-18.25,58.01],[-18.96,58.56],[-19.44,58.25],[-19.04,57.74],[-20.86,58.1],[-20.44,57.66],[-21.62,58.35],[-20.88,57.92],[-23.49,58.2],[-23.68,58.74],[-24.76,58.56],[-25.47,59.48],[-23.91,59.24],[-25.59,59.77],[-25.18,60.81],[-23.52,61.89],[-21.69,61.87],[-23.14,60.9],[-23.19,60.2],[-22.47,59.39],[-23.79,59.22],[-22.63,59.04],[-22.11,59.74],[-22.97,60.19],[-21.9,60.21],[-22.45,61.04],[-19.72,61.65],[-19.23,60.62],[-19.9,59.81],[-19.02,60.37],[-18.57,60.11],[-18.8,59.81],[-17.96,59.54],[-18.55,60.07],[-17.77,60.01],[-18.24,60.21],[-18.03,60.46],[-16.27,60.21],[-16.96,59.44],[-15.7,59.65],[-16.51,59.41],[-16.06,59.36],[-16.41,58.89],[-15.64,59.44],[-15.89,58.89],[-15.44,59.25],[-15.39,58.64],[-14.81,59.3],[-14.2,59.12],[-14.2,58.69],[-15.06,58.47],[-13.66,58.67],[-14.6,58.05],[-14.07,58.16],[-14.38,57.65],[-13.23,58.47],[-13.74,58.07],[-12.96,58.37],[-12.26,58.08],[-13.51,57.63],[-12.51,57.74],[-13.43,57.21],[-12.19,57.88],[-11.57,57.28],[-13.47,57.13],[-11.31,56.81],[-12.83,56.93],[-12.22,56.79],[-12.85,56.56],[-12.05,56.35],[-13.12,56.4],[-11.35,55.99],[-12.16,55.83],[-11.13,55.67],[-11.19,55.31],[-10.89,55.57],[-10.97,55.13],[-10.09,55.52],[-10.43,55.18],[-9.95,55.34],[-9.59,54.87],[-10.15,54.9],[-9.6,54.79],[-10.1,54.54],[-9.01,54.85],[-9.52,54.35],[-8.85,54.49],[-8.9,54.16],[-8.3,54.58],[-7.78,54.14],[-8.89,53.86],[-8.23,53.53],[-9,53.63],[-8.48,53.32],[-8.86,53.43],[-8.74,53.1],[-9.33,53.45],[-9.35,52.41],[-10.69,53.27],[-9.88,53.88],[-10.94,53.48],[-10.64,53.92],[-11,53.64],[-12.3,54.2],[-11.79,53.57],[-12.63,53.64],[-12.26,53.34],[-12.5,53],[-11.93,53.22],[-11.58,52.26],[-11.48,52.58],[-10.43,52.01],[-10.86,51.84],[-10.11,51.51],[-10.06,50.77],[-10.6,51.33],[-10.13,50.43],[-10.61,50.56],[-10.56,50.1],[-11.48,50.96],[-11.51,50.55],[-12.44,51.34],[-12.27,50.96],[-13.21,51.33],[-11.13,49.41],[-14.98,50.68],[-15.46,51.09],[-14.79,51.22],[-15.79,51.51],[-16.16,52.34],[-16.78,52.03],[-16.69,52.4]]]}},{"type":"Feature","properties":{},"geometry":{"type":"Polygon","coordinates":[[[156.7,85.61],[162.12,85.01],[149.3,85.03],[156.7,85.61]]]}},{"type":"Feature","properties":{},"geometry":{"type":"Polygon","coordinates":[[[-30.25,62.96],[-28.79,62.69],[-30.05,61.97],[-29.35,61.85],[-29.03,61.24],[-31.12,60.34],[-32.75,62.1],[-31.01,61.98],[-30.89,62.46],[-31.61,62.7],[-30.25,62.96]]]}},{"type":"Feature","properties":{},"geometry":{"type":"Polygon","coordinates":[[[-26.45,62.74],[-24.67,62.26],[-26.32,61.26],[-27.66,61.43],[-27.3,61.06],[-28.59,60.73],[-28.01,62.42],[-26.45,62.74]]]}},{"type":"Feature","properties":{},"geometry":{"type":"Polygon","coordinates":[[[151.15,85.64],[148.31,85.82],[151.92,85.71],[151.15,85.64]]]}},{"type":"Feature","properties":{},"geometry":{"type":"Polygon","coordinates":[[[77.76,79.65],[79.96,79.43],[77.22,79.56],[77.76,79.65]]]}},{"type":"Feature","properties":{},"geometry":{"type":"Polygon","coordinates":[[[-42.28,65.7],[-41.51,64.94],[-40.28,64.95],[-39.74,64.03],[-46.56,62.76],[-47.1,63.84],[-47.78,63.99],[-44.53,65.29],[-44.47,65.94],[-42.28,65.7]]]}},{"type":"Feature","properties":{},"geometry":{"type":"Polygon","coordinates":[[[11.6,58.48],[11.85,58.11],[11.06,58.43],[11.6,58.48]]]}},{"type":"Feature","properties":{},"geometry":{"type":"Polygon","coordinates":[[[-27.06,64.57],[-27.35,64.78],[-26.5,64.78],[-27.06,64.57]]]}},{"type":"Feature","properties":{},"geometry":{"type":"Polygon","coordinates":[[[179.99,87.2],[179.99,86.57],[171.82,87.03],[173.96,87.39],[179.99,87.2]]]}},{"type":"Feature","properties":{},"geometry":{"type":"Polygon","coordinates":[[[-179.99,86.57],[-179.99,87.2],[-166.4,86.68],[-179.99,86.57]]]}},{"type":"Feature","properties":{},"geometry":{"type":"Polygon","coordinates":[[[-21.92,63.64],[-21.78,63.18],[-22.42,62.7],[-23.61,63.4],[-21.92,63.64]]]}},{"type":"Feature","properties":{},"geometry":{"type":"Polygon","coordinates":[[[130.14,87.58],[129.77,87.56],[142.17,87.25],[144.87,87.27],[141.43,87.66],[145.63,87.66],[142.28,87.8],[168.07,87.31],[159.14,86.79],[160.3,86.75],[159.68,86.69],[142.39,86.46],[143.57,86.42],[142.61,86.16],[130.36,86.5],[125.87,87.14],[130.14,87.58]]]}},{"type":"Feature","properties":{},"geometry":{"type":"Polygon","coordinates":[[[-24.63,65.84],[-24.51,65.49],[-25.29,65.6],[-24.63,65.84]]]}},{"type":"Feature","properties":{},"geometry":{"type":"Polygon","coordinates":[[[-22.19,65.03],[-23.4,63.82],[-24.22,63.62],[-25.35,63.97],[-24.19,64.4],[-25.75,64.7],[-24.76,64.69],[-24.02,65.33],[-23.93,64.6],[-23.34,64.75],[-23.56,65.24],[-22.19,65.03]]]}},{"type":"Feature","properties":{},"geometry":{"type":"Polygon","coordinates":[[[-26.32,66.63],[-27.75,65.79],[-26.51,65.41],[-27.98,64.89],[-32.18,65.54],[-32.53,66.07],[-29.96,65.85],[-31.67,66.24],[-31.04,66.55],[-32.35,66.38],[-32.09,66.54],[-32.64,66.5],[-33.05,67.05],[-31.11,66.9],[-32.23,67.21],[-30.59,66.99],[-31.41,67.34],[-29.47,67.45],[-29.67,67.06],[-29.04,66.79],[-29.64,66.11],[-28.68,65.7],[-27.86,66.58],[-26.32,66.63]]]}},{"type":"Feature","properties":{},"geometry":{"type":"Polygon","coordinates":[[[39.66,72.86],[41.05,72.86],[41.67,72.4],[39.52,70.58],[39.74,70.25],[39.33,70.11],[39.95,69.96],[39.34,69.87],[39.91,69.74],[39.22,69.76],[39.79,69.52],[39.01,69.5],[39.86,69.29],[39.13,68.93],[40.01,68.71],[39.06,68.68],[40.14,68.61],[39.17,68.53],[40.15,68.17],[38.38,67.83],[38.25,68.19],[39.07,68.38],[37.41,68.11],[38.06,68.46],[37.66,68.66],[38.72,68.75],[37.58,68.75],[37.89,69.12],[37.3,69.22],[38.01,69.39],[36.57,69.61],[37.48,70.04],[36.95,70.35],[37.92,71.01],[37.54,71.27],[39.8,72.22],[39.35,72.3],[39.66,72.86]]]}},{"type":"Feature","properties":{},"geometry":{"type":"Polygon","coordinates":[[[-20.43,64.95],[-19.79,64.58],[-20.41,64.15],[-19.09,64.1],[-18.93,63.8],[-19.42,63.96],[-18.61,63.5],[-19.66,63.66],[-19.15,63.05],[-19.44,62.71],[-15.91,62.28],[-14.99,61.56],[-15.75,61.33],[-15.34,61.1],[-16.94,60.99],[-17.38,61.59],[-18.11,61.32],[-21.58,62.39],[-20.25,64.04],[-21.45,64.24],[-21.04,64.57],[-21.47,64.87],[-20.43,64.95]]]}},{"type":"Feature","properties":{},"geometry":{"type":"Polygon","coordinates":[[[-28.04,68.39],[-30.66,67.68],[-31,67.91],[-30.08,68.16],[-32.91,67.88],[-32.58,68.23],[-33.98,68.42],[-29.59,68.7],[-28.04,68.39]]]}},{"type":"Feature","properties":{},"geometry":{"type":"Polygon","coordinates":[[[-17.59,64.82],[-17.49,64.43],[-17.99,64.39],[-17.59,64.82]]]}},{"type":"Feature","properties":{},"geometry":{"type":"Polygon","coordinates":[[[64.45,44.84],[63.4,44.45],[63.25,46.91],[59.72,50.88],[60.58,53.48],[60.36,54.74],[55.45,61.23],[55.65,62.51],[56.63,63.54],[60.42,62.6],[68.22,58.51],[73.51,56.97],[78.09,53.11],[92.87,48.59],[84.67,44.57],[76.97,38.61],[70.44,38.53],[66.11,39.97],[64.21,41.27],[65.47,43.15],[64.36,43.59],[64.45,44.84]]]}},{"type":"Feature","properties":{},"geometry":{"type":"Polygon","coordinates":[[[97.18,43.54],[98.42,43.22],[99.6,42.06],[96.89,40.1],[89.83,38.49],[87.87,37.01],[85.02,37.61],[80.81,40.72],[78.62,41.13],[84.62,43.67],[89.78,44.98],[97.18,43.54]]]}},{"type":"Feature","properties":{},"geometry":{"type":"Polygon","coordinates":[[[98.94,47.15],[95.1,45.92],[86.46,45.42],[92.87,48.59],[96.46,47.41],[98.94,47.15]]]}},{"type":"Feature","properties":{},"geometry":{"type":"Polygon","coordinates":[[[103.49,36.88],[108.99,34.66],[106.85,34.4],[101.04,35.69],[94.22,36.01],[85.21,34.72],[85.83,35.55],[92.86,38.59],[95.5,39.23],[103.49,36.88]]]}},{"type":"Feature","properties":{},"geometry":{"type":"Polygon","coordinates":[[[144.3,57],[145.54,57.09],[144.8,56.74],[145.59,56.7],[146.31,57.09],[146.13,56.62],[146.44,57.38],[147.65,57.34],[149.27,56.28],[148.53,56.12],[149.28,55.13],[148.19,54.25],[147.42,51.49],[141.68,46.75],[140.14,46.1],[138.65,46.18],[138.66,46.68],[138.13,46.69],[137.46,45.92],[133.31,47.09],[120.03,46.86],[108.9,45.36],[105.17,46.04],[98.48,45.88],[96.22,46.55],[94.35,47.93],[100.32,47.71],[105.58,48.61],[110.25,50.47],[114.33,51.21],[117.41,52.86],[122.4,53.63],[125.85,56.27],[129.04,57.55],[135.81,56.83],[144.3,57]]]}},{"type":"Feature","properties":{},"geometry":{"type":"Polygon","coordinates":[[[76.64,77.86],[77.71,76.98],[77.12,77.48],[79.45,77.86],[78.57,77.91],[79.67,78.76],[77.55,78.78],[78.81,79.14],[83.97,79],[82.93,79.19],[88.44,80.3],[91.91,80.11],[96.9,80.75],[93.79,81.33],[94.79,81.41],[94.39,81.63],[105.68,82.04],[106.11,82],[105.21,81.94],[109.48,81.36],[108.42,81.02],[111.18,81.01],[110.14,80.88],[110.48,80.79],[117.36,80.71],[115.93,81.44],[120.38,80.31],[122.66,78.27],[123.82,78.07],[143.54,77.41],[156.91,75.9],[162.81,73.76],[163.26,71.67],[160.36,71.35],[160.68,71.11],[156.72,71.24],[150.23,70.62],[141.82,65.88],[144.19,65.79],[144.34,64.98],[134.01,63.72],[125.64,63.44],[122.78,61.73],[120.4,58.64],[115.38,57.1],[112.9,55],[108.99,53.61],[105,51.01],[100.07,49.24],[94.1,48.43],[84.23,50.95],[78.09,53.11],[73.51,56.97],[68.22,58.51],[60.42,62.6],[57.37,64.88],[60.72,64.94],[61.28,65.95],[61.12,66.7],[59.5,67.54],[60.78,68.18],[63.96,66.98],[64.42,67.35],[66.28,67.29],[63.27,67.31],[62.79,67.63],[63.14,67.88],[61.75,68.32],[58.33,67.79],[56.55,69.08],[54.24,69.48],[53.96,69.9],[54.35,70.48],[53,71.01],[56.75,69.87],[59.18,70.11],[55.62,70.43],[57.22,70.82],[56.08,70.97],[56.8,71.24],[56.45,71.29],[61.41,71.7],[61.84,71.41],[61.54,71.14],[63.08,70.22],[62.94,70.49],[66.38,70.28],[63.9,70.52],[64.26,70.81],[61.91,71.72],[58.14,71.8],[55.55,72.57],[59.53,74.1],[56.18,74.53],[57.45,74.56],[55.97,74.89],[56.81,75.17],[56.4,75.62],[58.19,76.82],[56.98,76.75],[59,77.32],[59.58,77.05],[60.48,77.56],[60.05,77.91],[61.23,77.96],[59.23,78.04],[60.32,78.52],[58.06,78.87],[56.61,79.68],[59.58,79.95],[59.25,79.78],[59.96,79.69],[59.83,79.41],[62.7,79.97],[64.21,79.56],[64.87,79.8],[63.98,80.04],[65.78,80.63],[72.57,80.73],[74,80.47],[71.34,80.38],[74.69,80.45],[76.16,79.96],[75.85,79.8],[76.57,79.58],[76.09,79.52],[75.78,79.16],[76.32,79.05],[75.9,78.85],[76.44,78.96],[77.16,78.2],[75.36,77.75],[76.64,77.86]]]}},{"type":"Feature","properties":{},"geometry":{"type":"Polygon","coordinates":[[[145.04,65.22],[144.73,65.3],[145.56,65.55],[145.04,65.22]]]}},{"type":"Feature","properties":{},"geometry":{"type":"Polygon","coordinates":[[[55.35,66.07],[54.94,66.7],[52.41,66.81],[51.22,67.88],[50.44,67.87],[50.07,68.27],[50.34,68.95],[49,70.06],[51.85,70.49],[53.25,69.33],[55,69.01],[57.39,67.48],[59.15,67.16],[59.77,66.42],[59.72,65.46],[57.34,64.9],[55.35,66.07]]]}},{"type":"Feature","properties":{},"geometry":{"type":"Polygon","coordinates":[[[83.49,13.67],[88.18,14.01],[92.04,13.24],[93.9,11.69],[96.05,8.3],[90.97,10.67],[83.34,10.54],[80.3,11.2],[76.83,13.04],[73.63,15.91],[72.88,17.34],[78.31,14.44],[83.49,13.67]]]}},{"type":"Feature","properties":{},"geometry":{"type":"Polygon","coordinates":[[[41.53,-39.48],[42.11,-39.34],[41.94,-38.55],[41.61,-39.31],[41.84,-38.37],[41.49,-37.87],[41.55,-38.92],[40.98,-39.35],[38.7,-38.7],[39.12,-38.35],[38.3,-38.31],[38.92,-37.81],[37.32,-37.24],[36.7,-37.63],[35.56,-37.38],[30.43,-34.8],[29.9,-34.96],[28.17,-33.39],[21.76,-34.43],[21.4,-33.85],[20.53,-33.68],[20.35,-34.09],[19.97,-33.3],[19.02,-33.11],[18.55,-32.44],[19.27,-31.53],[26.96,-26.71],[30.32,-25.24],[32.02,-24.77],[32.44,-25.11],[32.21,-24.61],[32.87,-24.64],[32.82,-24.25],[31.6,-24.36],[30.71,-23.27],[31.89,-21.23],[32.48,-22.26],[33.12,-22.39],[32.5,-21.32],[32.9,-20.45],[33.46,-20.66],[33.02,-20.33],[33.4,-20.22],[33.15,-19.51],[34.05,-19.27],[33.9,-18.55],[34.7,-18.24],[34.24,-17.65],[38.02,-16.97],[40.7,-17.36],[46.31,-19.24],[47.56,-20.43],[47.65,-21.38],[46.56,-22.61],[45.03,-26.6],[44.75,-31.34],[45.47,-33.44],[49.91,-40.05],[50.08,-41.28],[41.53,-39.48]]]}},{"type":"Feature","properties":{},"geometry":{"type":"Polygon","coordinates":[[[74.78,27.29],[77,26.18],[78.53,25.96],[79.61,26.11],[80.41,27.05],[86.24,28.58],[92.56,27.34],[96.97,25.35],[98.04,23.01],[98.28,20.55],[95.72,23.5],[93.46,24.6],[90.15,24.85],[85.2,24.16],[79.63,24.45],[73.04,26.89],[71.92,26.81],[70.72,28.6],[72.66,28.53],[74.78,27.29]]]}},{"type":"Feature","properties":{},"geometry":{"type":"Polygon","coordinates":[[[103.6,28.3],[103.39,27.91],[102.17,30.21],[100.25,31.18],[91.62,33.08],[98.11,33.83],[102.88,33.25],[107.13,33.44],[105.48,31.76],[103.6,28.3]]]}},{"type":"Feature","properties":{},"geometry":{"type":"Polygon","coordinates":[[[57.34,64.9],[60.42,62.6],[56.63,63.54],[56.65,65.35],[57.34,64.9]]]}},{"type":"Feature","properties":{},"geometry":{"type":"Polygon","coordinates":[[[58.69,37.34],[57.97,38.21],[57.93,39.19],[56.44,39.32],[55,40.5],[56.2,40.68],[55.47,40.86],[55.81,41.48],[57.2,41.8],[56.35,43.16],[55.05,43.04],[53.86,42.02],[53.4,42.13],[53.29,41.23],[53.02,41.51],[53.03,41.14],[52.33,41.05],[51.83,39.83],[52.99,39.39],[53.03,38.49],[54.93,37.23],[49.37,37.98],[53.82,43.11],[60.23,46.24],[60.63,47.89],[59.72,50.88],[63.25,46.91],[63.25,43.86],[62.85,44.02],[63.02,43.49],[62.27,43.4],[62.18,42.31],[62.75,41.34],[63.73,41.68],[66.11,39.97],[70.44,38.53],[77.53,38.75],[75.34,36.4],[66.46,34.64],[58.7,36.84],[58.69,37.34]]]}},{"type":"Feature","properties":{},"geometry":{"type":"Polygon","coordinates":[[[43.85,-3.02],[43.33,-2.63],[41.9,-2.78],[41.1,-2.22],[39.7,-0.28],[39.59,2.24],[39.09,2.27],[38.95,2.91],[38.59,2.53],[37.84,2.93],[37.82,2.36],[37.36,2.39],[37.51,0.36],[38.17,-1],[37.77,-1.53],[37.87,-2.98],[38.57,-1.91],[39.03,-2.18],[38.14,-3.57],[38.52,-4.11],[40.67,-4.73],[43.28,-3.48],[42.69,-5.26],[44.17,-6.87],[44.58,-8.46],[42.86,-9.69],[42.2,-9.63],[41.74,-10.78],[40.76,-10.65],[39.99,-11.27],[39.13,-11.03],[38.44,-11.63],[35.9,-11.19],[35.33,-11.84],[31.51,-11.82],[28.52,-11.14],[27.68,-11.38],[26.36,-10.74],[26.74,-8.08],[27.55,-6.8],[27.37,-3.31],[26.72,-1.39],[27.44,1.3],[26.92,2.26],[27.07,6.44],[26.61,6.77],[30.88,11.13],[32.34,13.45],[34.57,13.74],[37.43,12.96],[38.99,8.4],[42.49,0.84],[42.9,-1.14],[44.24,-1.8],[43.85,-3.02]]]}},{"type":"Feature","properties":{},"geometry":{"type":"Polygon","coordinates":[[[47.84,-13.95],[46.59,-17.01],[44.73,-17.57],[37.87,-14.79],[35.7,-14.54],[36.69,-11.6],[38.58,-10.29],[40.09,-11.22],[43.1,-10.46],[44.67,-10.73],[48.16,-12.9],[47.84,-13.95]]]}},{"type":"Feature","properties":{},"geometry":{"type":"Polygon","coordinates":[[[79.67,24.67],[68.43,28.1],[70.49,31.52],[76.95,26.68],[80.22,26.69],[79.67,24.67]]]}},{"type":"Feature","properties":{},"geometry":{"type":"Polygon","coordinates":[[[67.74,14.92],[67.36,15.29],[68.36,17.17],[70.25,18.98],[71,19.04],[78.52,13.68],[72.72,14.06],[70.08,13.65],[67.74,14.92]]]}},{"type":"Feature","properties":{},"geometry":{"type":"Polygon","coordinates":[[[50.72,32.77],[51.46,32.36],[54.95,33.2],[58.96,29.96],[63.48,29.7],[63.98,28.91],[62.55,28.12],[60.37,28.78],[45.37,29.79],[44.83,30.54],[44.91,32.1],[47.99,33.55],[50.72,32.77]]]}},{"type":"Feature","properties":{},"geometry":{"type":"Polygon","coordinates":[[[9.27,74.11],[2.59,75.17],[1.08,75.04],[0.84,75.3],[1.35,75.59],[0.13,76.23],[-2.16,76.12],[-2.3,75.59],[-1.7,75.51],[-2.75,75.04],[-14.97,76.49],[-16.03,79.93],[5.05,77.41],[7.45,76.71],[8.77,75.77],[9.27,74.11]]]}},{"type":"Feature","properties":{},"geometry":{"type":"Polygon","coordinates":[[[-121.87,80.63],[-122.54,80.44],[-121.82,80.57],[-120.69,78.91],[-119.11,77.98],[-109.71,75.45],[-126.86,74],[-133.4,74.07],[-134.4,73.58],[-140.33,72.9],[-139.71,73.15],[-140.84,73.15],[-138.84,74.02],[-140.19,73.87],[-139.63,74.6],[-142.31,77.66],[-142.04,78.45],[-140.33,79.35],[-137.47,79.9],[-121.87,80.63]]]}},{"type":"Feature","properties":{},"geometry":{"type":"Polygon","coordinates":[[[179.99,83.4],[179.81,70.56],[177.38,70.55],[177.06,70.82],[178.96,70.9],[176.22,71.22],[176.59,71.3],[176.29,71.33],[176.73,73.58],[174.01,75.24],[171.95,75.89],[159.49,77.84],[139.24,79.12],[138.13,79.35],[137.56,81.43],[134.02,82.67],[135.16,83.05],[135.84,83],[134.45,82.96],[148.88,82.77],[149.27,82.8],[148.17,82.91],[153.77,83.19],[151.17,83.58],[153.33,83.85],[150,83.89],[150.84,84.12],[155.68,84.31],[153.4,84.56],[153.86,84.58],[177.13,84.08],[179.99,83.87],[179.99,83.48],[178.09,83.46],[179.99,83.4]]]}},{"type":"Feature","properties":{},"geometry":{"type":"Polygon","coordinates":[[[-179.99,83.48],[-179.99,83.87],[-178.76,83.56],[-179.99,83.48]]]}},{"type":"Feature","properties":{},"geometry":{"type":"Polygon","coordinates":[[[-179.99,70.72],[-179.99,83.4],[-173.87,82.4],[-162.08,82.25],[-157.72,81.48],[-159.57,80.86],[-157.86,80.53],[-168.57,79.43],[-172.75,78.27],[-173.36,77.32],[-172.91,76.54],[-168.33,73.64],[-168.45,72.89],[-173.34,72.96],[-177.52,71.65],[-178.27,71.02],[-176.62,70.72],[-179.99,70.72]]]}},{"type":"Feature","properties":{},"geometry":{"type":"Polygon","coordinates":[[[136.58,45.41],[135.18,44.58],[134.94,43.62],[132.5,42.31],[133.52,41.55],[134.55,39.44],[131.44,39.07],[131.16,39.83],[132.08,39.91],[131.67,40.08],[131.71,40.76],[130.6,41],[130.33,40.64],[129.96,40.91],[130.26,41.05],[129.63,41.11],[130.61,41.66],[130.16,41.84],[130.53,42.52],[129.43,42.98],[125.99,41.81],[126.86,42.47],[126.14,42.47],[126.39,42.87],[127.27,43.52],[126.79,44.02],[125.91,43.92],[123.76,42.34],[122.53,42.34],[122.34,41.6],[123.56,41.36],[123.81,40.35],[125.53,40.94],[127.56,40.43],[127.34,39.95],[124.81,39.32],[123.78,38.07],[124.84,37.45],[121.62,34.65],[117.02,36.35],[109.99,37.2],[97.53,42.73],[108.44,44.98],[118.58,46.36],[132.67,46.51],[136.58,45.41]]]}},{"type":"Feature","properties":{},"geometry":{"type":"Polygon","coordinates":[[[132.15,42.97],[132.46,41.55],[130.83,40.95],[131.01,40.65],[130.77,40.88],[130.76,40.4],[130.53,40.7],[129.96,40.07],[129.55,40.4],[129.94,40.41],[129.37,40.79],[129.75,41.71],[129.33,41.81],[132.15,42.97]]]}},{"type":"Feature","properties":{},"geometry":{"type":"Polygon","coordinates":[[[123.5,38.63],[124.74,37.13],[126.12,36.49],[124.4,36.35],[126.41,35.77],[124.97,34.74],[127,34.81],[126.41,34.24],[126.95,34.5],[127.06,34.19],[126.53,34.07],[127.03,33.22],[126.09,32.68],[126,31.2],[125.4,31.23],[125.92,30.91],[125.62,30.59],[125.93,29.86],[125.5,30.03],[125.16,28.85],[124.63,28.86],[124.34,27.79],[123.38,27.25],[123.47,26.77],[121.8,26.26],[121.49,25.58],[120.39,26.19],[120.79,25.35],[120.38,25.13],[120.1,25.5],[120.24,24.86],[119.66,24.95],[119.72,24.59],[117.81,23.83],[118.11,22.67],[117.31,23.17],[117.43,23.79],[116.99,23.95],[116.67,23.51],[115.86,23.86],[115.03,22.69],[114.32,22.55],[114.59,22.24],[114.08,21.38],[106.84,25.2],[106.18,26.12],[105.66,28.55],[106.61,31.03],[109.02,34.28],[111.11,35.02],[115.46,35.54],[121.5,35.14],[123.5,38.63]]]}},{"type":"Feature","properties":{},"geometry":{"type":"Polygon","coordinates":[[[111.03,21.37],[111.13,20.32],[111.64,19.93],[116.11,18.71],[117.94,16.73],[118.22,15.39],[116.68,13.5],[116.95,12.63],[116.01,10.94],[115.33,12.33],[113.93,12],[113.53,12.55],[113.31,12.08],[112.17,13],[110.43,12.51],[110.11,13.29],[109.41,13.1],[107.86,16.06],[107.38,19.27],[103.51,22.87],[111.03,21.37]]]}},{"type":"Feature","properties":{},"geometry":{"type":"Polygon","coordinates":[[[108.38,12.67],[109.66,9.54],[110.45,8.77],[110.88,9.21],[113.13,8.07],[114.51,8.38],[117.46,5.44],[115.13,5.7],[111.98,7.6],[110.68,7.74],[110.45,7.36],[107.68,11.1],[105.59,12.03],[104.35,13.13],[104.69,13.14],[103.09,13.17],[99.74,15.79],[97.93,17.77],[96.71,20.42],[99.8,21.29],[103.9,19.22],[104.94,18.37],[106.1,15.33],[108.38,12.67]]]}},{"type":"Feature","properties":{},"geometry":{"type":"Polygon","coordinates":[[[113.59,8.58],[115.7,8.44],[116.98,7.06],[118.66,6.49],[118.16,5.9],[116.63,5.73],[113.59,8.58]]]}},{"type":"Feature","properties":{},"geometry":{"type":"Polygon","coordinates":[[[26.86,-5.22],[29.04,-9.06],[28.93,-9.55],[27.98,-9.73],[28.61,-9.84],[29.31,-11.3],[34.51,-11.9],[36,-11.63],[36.44,-11.9],[35.8,-13.2],[36.19,-13.28],[35.66,-13.28],[35.34,-14.12],[31.04,-18.1],[28.45,-19.45],[23.32,-21.14],[22.34,-22],[20.76,-22.4],[19,-23.86],[18.04,-24.95],[18.42,-26.18],[17.51,-27.68],[17.34,-28.98],[18.01,-29.98],[17.43,-30.47],[16,-34.21],[14.54,-35],[11.29,-35.11],[7.52,-36.11],[9.91,-32],[11.53,-25.84],[14.04,-24.96],[14.84,-22.82],[18.09,-18.15],[19.1,-14.87],[20.29,-13.42],[21.53,-13.78],[22.34,-12.33],[26.55,-9.97],[26.86,-5.22]]]}},{"type":"Feature","properties":{},"geometry":{"type":"Polygon","coordinates":[[[7.46,-35.83],[6.85,-36.47],[6.73,-38.33],[5.37,-39.96],[1.02,-40.03],[0.94,-40.49],[1.44,-40.38],[-0.93,-42.11],[-5.44,-43.15],[-9.43,-43.45],[-11.72,-43.07],[-14.35,-41.45],[-17.24,-40.77],[-17.64,-39.56],[-18.12,-39.61],[-17.43,-38.08],[-16.83,-38.12],[-16.23,-37.35],[-15.5,-34.57],[-15.55,-32.36],[-13.01,-27.83],[-12.57,-22.64],[-11.4,-20.98],[-9.34,-19.35],[-7.34,-18.63],[-6.73,-17.65],[-6.55,-15.89],[-5.82,-15.48],[-5.62,-13],[-4.89,-13.16],[-5.49,-12.72],[-5.22,-11.44],[-5.98,-8.45],[-5.88,-6.48],[-5.3,-6.59],[-4.79,-5.93],[-4.38,-6.37],[-4.74,-5.77],[-2.86,-3.9],[-2.57,-2.9],[-3.08,-2.78],[-3.41,-1.52],[-4.58,-1.37],[-5.78,-0.41],[-2.48,-0.02],[-1.65,0.92],[1.01,1.05],[6.77,-3.29],[9.56,-3.48],[14.71,-4.73],[16.92,-11.32],[17.26,-13.55],[12.66,-16.49],[10.89,-19.32],[10.5,-21.28],[12.44,-26.03],[12.19,-27.28],[10.32,-32.08],[7.46,-35.83]]]}},{"type":"Feature","properties":{},"geometry":{"type":"Polygon","coordinates":[[[-8.62,27.92],[-8.23,28.89],[-7.07,29.64],[-4.17,29.87],[-2.35,30.99],[-1.79,30.81],[-1.55,29.81],[-0.2,29.45],[0.39,28.7],[3.88,28.62],[6.11,27.92],[7.09,27.1],[8.21,27.06],[9.23,26.27],[10.99,25.97],[0.71,26.04],[-4.76,27.8],[-8.62,27.92]]]}},{"type":"Feature","properties":{},"geometry":{"type":"Polygon","coordinates":[[[14.32,30.28],[14.02,29.53],[11.39,29.4],[10.01,28.63],[10.06,27.78],[7.16,26.87],[5.34,27.71],[4,27.55],[3.72,28.49],[4.18,28.66],[3.8,28.54],[3.71,29.15],[1.83,29.74],[2.92,30.8],[2.56,31.28],[3.25,31.46],[2.44,31.47],[4.29,32.82],[5.58,35.14],[6.89,35.09],[10.14,32.95],[11.43,32.66],[14.32,30.28]]]}},{"type":"Feature","properties":{},"geometry":{"type":"Polygon","coordinates":[[[-4.47,-1.76],[-4.57,-0.19],[-5.27,0.65],[-7.61,1.48],[-11.4,1.7],[-12.88,2.98],[-16.51,3.75],[-19.59,8.63],[-19.5,11.42],[-20.51,13.47],[-19.78,13.84],[-20.73,14.03],[-20.96,14.52],[-20.63,14.61],[-21.16,14.99],[-20.75,14.96],[-21.08,15.13],[-20.62,15.9],[-19.59,15.42],[-20.48,15.72],[-20.24,16.17],[-20.75,17.41],[-19.38,17.88],[-17.97,19.42],[-17.61,21.09],[-16.89,21.68],[-16.93,22.9],[-17.38,22.63],[-16.39,23.7],[-13.42,25.07],[-12.2,26.21],[-11.18,26.28],[-9.99,27.05],[-7.3,26.96],[-5.77,27.76],[-1.91,27.68],[3.58,25.99],[13.87,25.95],[13.93,25.32],[14.62,25.17],[13.73,24.77],[13.82,23.69],[12.49,23.24],[10.37,20.52],[6.23,11.47],[5.56,7.99],[6.58,2.89],[3.06,1.72],[2.14,0.38],[-0.49,-0.02],[-1.22,-1.04],[-4.47,-1.76]]]}},{"type":"Feature","properties":{},"geometry":{"type":"Polygon","coordinates":[[[27.41,10],[27.12,9.13],[27.65,3.39],[27.26,2.5],[27.97,0.19],[27.31,-1.27],[13.74,-4.68],[8.56,-3.57],[5.76,-3.45],[-0.11,0.74],[0.91,2.01],[4.51,2.91],[3.89,8.07],[4.83,11.49],[9.69,20.2],[11.86,22.34],[12.95,20.55],[14.95,18.93],[14.85,17.85],[16.8,15.54],[17.95,15.59],[18.64,16.75],[20.46,16.67],[21.14,15.45],[22.34,14.64],[22.3,14.17],[25.03,12.09],[26.37,12.24],[27.34,11.74],[27.41,10]]]}},{"type":"Feature","properties":{},"geometry":{"type":"Polygon","coordinates":[[[27.93,12.23],[27.06,13.13],[25.42,13.58],[24.71,15.42],[24.28,15.12],[23.62,15.45],[23.48,16.68],[22.71,17.14],[23.53,16.87],[22.86,17.43],[23.63,18.11],[23.36,18.81],[26.36,18.12],[27.06,17.56],[27.41,16.21],[28.73,15.85],[31.62,13.74],[32.79,10.78],[30.16,12.1],[27.93,12.23]]]}},{"type":"Feature","properties":{},"geometry":{"type":"Polygon","coordinates":[[[12.56,-25.7],[11.99,-25.99],[9.85,-21.31],[10.16,-19.34],[11.81,-16.45],[16.3,-13.35],[21.13,-13.81],[19.9,-15.23],[18.8,-18.48],[15.4,-23.06],[14.54,-25.18],[12.56,-25.7]]]}},{"type":"Feature","properties":{},"geometry":{"type":"Polygon","coordinates":[[[28.59,8.63],[27.31,7.59],[27.03,11.87],[28.01,10.9],[29.43,10.94],[31.82,12.94],[32.83,14.68],[32.07,12.93],[28.59,8.63]]]}},{"type":"Feature","properties":{},"geometry":{"type":"Polygon","coordinates":[[[27.04,-1.12],[26.99,-1.9],[27.69,-2.92],[27.65,-6.05],[27.99,-5.81],[27.55,-10.55],[23.26,-12.79],[22.42,-14.22],[19.76,-13.54],[16.34,-13.36],[13.86,-5.68],[13.92,-4.53],[27.04,-1.12]]]}},{"type":"Feature","properties":{},"geometry":{"type":"Polygon","coordinates":[[[45.76,37.71],[42.69,38.67],[43.79,39.72],[43.19,40.33],[43.98,40.43],[44.32,41.14],[41.65,39.99],[41.01,39.28],[41.04,39.71],[41.09,38.97],[41.72,38.59],[42.67,38.86],[42.53,38.51],[40.17,37.66],[39.67,38.43],[39.03,38.21],[39.99,38.94],[38.14,38.99],[37.85,39.21],[38.66,39.26],[38.18,39.57],[36.43,38.2],[36.68,37.25],[36.13,37.04],[33.56,38.25],[31.18,40.44],[24.99,43.36],[21.81,44.3],[24.43,45.49],[25.07,45.07],[25.75,45.47],[25.46,45.01],[26.16,45.58],[25.71,45.77],[26.27,46.01],[26.37,46.69],[26.17,45.87],[26.73,45.92],[26.04,47.49],[26.25,48.55],[26.9,48.86],[27.99,48.22],[28.5,48.59],[28.24,49.66],[27.57,49.57],[27.07,50.4],[31.99,51.88],[30.57,52.15],[30.45,52.56],[26.38,50.89],[26.26,51.4],[24.93,51.48],[24.77,52.43],[23.8,53.56],[25.39,55.91],[25.95,56.02],[25.65,56.62],[22.9,56.49],[23.32,56.34],[22.77,56.08],[23.1,55.77],[22.8,55.53],[23.44,55.21],[23.04,54.48],[21.59,53.2],[21.04,53.54],[21.54,53.09],[21.12,52.83],[21.64,51.07],[23.45,50.38],[22.7,49.94],[23.18,49.74],[22.84,49.36],[22.56,49.66],[22.57,49.25],[21.6,48.97],[22.23,48.89],[21.73,48.84],[22.25,48.59],[22.35,47.07],[22.1,46.41],[20.93,46.14],[20.96,45.56],[19.87,45.41],[19.34,46.27],[19.65,46.6],[18.38,47.6],[18.36,48.24],[17.84,48.18],[17.03,49.66],[16.95,49.25],[16.66,49.44],[16.91,48.76],[16.3,48.78],[15.58,47.67],[14.7,47.42],[13.51,47.86],[13.31,48.34],[13.9,48.21],[14.13,48.45],[13.54,48.4],[13.97,48.94],[12.92,48.77],[14.1,49.9],[13.44,49.81],[13.22,49.29],[12.68,49.62],[13.05,50.03],[12.72,49.8],[12.4,50.04],[12.86,50.16],[12.41,50.3],[14.01,50.28],[14.35,50.68],[12.53,50.36],[12.76,50.65],[12.2,50.97],[13.52,51.24],[12.15,51.42],[13.08,51.38],[12.76,51.52],[13.27,51.81],[13.73,51.5],[12.9,51.89],[14.25,52.15],[13.39,52.09],[13.52,52.4],[14.55,52.17],[13.96,52.47],[14.6,52.33],[14.13,52.59],[15.1,53.24],[15.3,52.92],[16.02,53.17],[16.14,53.83],[15.43,53.12],[14.94,53.34],[16.82,55.16],[16.16,54.98],[16.63,55.28],[16.37,55.72],[16.8,55.68],[16.33,55.88],[17.27,56.26],[16.52,56.01],[16.85,56.18],[16.34,56.34],[16.84,56.49],[16.41,56.55],[16.93,56.7],[16.52,56.8],[17.83,57.13],[16.95,57.18],[17.92,57.43],[17.01,57.78],[17.73,57.96],[17.24,58.04],[17.61,58.31],[18.21,57.93],[17.72,58.39],[18.86,58.65],[17.83,58.59],[18.57,58.87],[18.23,58.91],[18.62,58.95],[18.26,59.16],[18.46,59.68],[19.53,59.58],[18.94,60.04],[19.48,59.78],[19.63,60.36],[19.75,59.67],[20.3,59.97],[19.82,60.19],[20.18,60.51],[20.95,60.35],[20.16,60.83],[21.68,60.72],[21.33,60.91],[22.05,61.47],[21.76,61.8],[22.68,61.83],[22.64,60.95],[23.03,61.97],[23.45,61.41],[23.88,61.96],[23.41,62.13],[23.99,62.3],[24.28,61.64],[24.65,62.19],[26.45,61.96],[24.93,61.48],[25.93,61.11],[27.18,61.25],[27.46,61.7],[28.33,61.62],[27.64,61.51],[27.95,61.22],[28.85,61.37],[28.8,60.99],[30.6,61.48],[35.41,60.84],[36.26,60.06],[34.97,58.98],[29.31,59.03],[32.27,58.27],[32.2,57.71],[33.1,56.97],[35.54,56.67],[35.65,57.27],[34.28,57.41],[34.21,57.85],[35.57,57.8],[35.47,57.5],[37.4,57.83],[36.24,58.47],[36.54,59.22],[37.27,59.94],[39.17,59.66],[38.63,60.65],[37.79,60.86],[37.56,61.66],[36.22,62.07],[39.05,62.07],[39.43,61.82],[38.52,61.49],[38.51,61.07],[39.76,60.79],[40.91,61.12],[40.49,61.8],[41.34,62.02],[40.73,62.21],[42.74,63.39],[43.14,63.21],[42.77,63.42],[43.54,64.01],[44.04,64.15],[43.42,63.92],[44.19,63.53],[43.84,63.15],[44.63,63.17],[45.07,63.9],[46.53,64.22],[46.68,64.5],[46.25,64.36],[47.2,64.89],[48,64.42],[49.15,65.13],[47.47,65.61],[47.83,65.78],[47.58,65.99],[50.67,66.29],[55.74,65.97],[56.65,65.35],[56.77,64.75],[55.45,61.23],[59.87,55.56],[60.58,54],[59.67,51.49],[60.63,47.89],[60.5,46.7],[59.28,45.45],[53.82,43.11],[49.37,37.98],[45.76,37.71]]]}},{"type":"Feature","properties":{},"geometry":{"type":"Polygon","coordinates":[[[16.63,44.75],[16.07,45.13],[15.91,46.32],[17.56,47.52],[17.46,46.45],[18.13,46.26],[17.19,45.41],[17.55,44.66],[16.63,44.75]]]}},{"type":"Feature","properties":{},"geometry":{"type":"Polygon","coordinates":[[[35.97,34.2],[35.79,35.18],[35.01,34.92],[34.95,35.45],[38.13,36.93],[37.49,36.87],[42.78,38.39],[45.97,38.23],[41.89,36.89],[40.73,35.97],[39.06,36.33],[38.06,36],[35.97,34.2]]]}},{"type":"Feature","properties":{},"geometry":{"type":"Polygon","coordinates":[[[24.08,23.41],[23.61,22.03],[22.84,22.17],[23.42,21.03],[23.19,20.57],[22.55,21.19],[22.58,20.57],[22.12,21.05],[21.91,20.37],[21.26,20.47],[21.38,20.9],[20.95,20.95],[21.3,22.12],[22.05,22.08],[22.85,21.28],[21.55,22.45],[21.65,23.03],[22.03,22.99],[21.72,23.11],[21.8,24.95],[22.97,25.87],[21.94,28.9],[22.51,30.62],[22.39,31.05],[21.67,30.83],[22.28,31.74],[21.44,32.1],[20.32,31.17],[20.54,30.07],[20.1,29.3],[20.22,28.14],[20.86,27.61],[20.4,27.37],[21.06,25.09],[20.7,25.01],[20.25,26.13],[19.51,25.83],[19.38,24.88],[17.72,24.77],[18.68,25.26],[19.17,26.44],[18.06,30.49],[18.75,32.09],[18.29,33.13],[17.06,33.26],[17.02,33.92],[18.18,35.27],[22.08,34.53],[26.12,32.02],[24,30.88],[24.36,26.93],[24.08,23.41]]]}},{"type":"Feature","properties":{},"geometry":{"type":"Polygon","coordinates":[[[17.94,33.44],[16.8,32.55],[14.93,32.89],[14.18,31.93],[10.18,32.47],[10.24,34.41],[10.79,33.98],[10.14,34.58],[10.16,35.19],[8.66,36.42],[7.26,36.46],[6.92,36.69],[7.35,36.98],[6.84,37.18],[9.65,37.5],[9.03,38.55],[10.5,38.21],[11.18,38.85],[13.53,38.11],[15.74,38.21],[19.22,41.17],[21.94,42.23],[26.49,42.54],[29.43,41.03],[26.76,40.2],[24.81,38.82],[20.22,37.73],[18.05,36.72],[16.64,35.38],[17.28,33.81],[17.94,33.44]]]}},{"type":"Feature","properties":{},"geometry":{"type":"Polygon","coordinates":[[[11.18,38.85],[11.93,39.26],[11.75,39.94],[13.83,40.63],[13.15,40.75],[14.1,41.02],[13.54,41.22],[13.94,42.27],[14.39,41.67],[14.76,42],[14.58,42.69],[15.88,42.76],[15.72,43.1],[16.31,43.29],[16.89,43],[16.91,43.54],[17.93,43.29],[16.75,43.94],[17.09,44.15],[16.41,44.34],[16.63,44.75],[17.55,44.66],[17.99,44.09],[18.78,44.27],[18.61,43.74],[19.87,44.5],[21.75,43.83],[21.81,44.3],[22.66,44.12],[26.49,42.54],[20.68,41.86],[18.46,40.61],[15.74,38.21],[13.53,38.11],[11.18,38.85]]]}},{"type":"Feature","properties":{},"geometry":{"type":"Polygon","coordinates":[[[36.11,36.82],[36.13,35.83],[35.63,35.31],[31.55,34.7],[30.66,35.54],[30.71,36.25],[33.19,37.35],[33.56,38.25],[36.11,36.82]]]}},{"type":"Feature","properties":{},"geometry":{"type":"Polygon","coordinates":[[[-23.59,66.63],[-24.31,66.37],[-23.7,66.92],[-23.59,66.63]]]}},{"type":"Feature","properties":{},"geometry":{"type":"Polygon","coordinates":[[[-19.31,65.5],[-18.53,65.11],[-19.95,65.3],[-19.31,65.5]]]}},{"type":"Feature","properties":{},"geometry":{"type":"Polygon","coordinates":[[[-24.48,67.76],[-25.65,67.38],[-26.86,67.63],[-26.06,68.12],[-24.48,67.76]]]}},{"type":"Feature","properties":{},"geometry":{"type":"Polygon","coordinates":[[[14.31,68.35],[15.64,67.85],[15.23,67.42],[14.75,67.75],[14.05,67.46],[13.35,68.07],[14.31,68.35]]]}},{"type":"Feature","properties":{},"geometry":{"type":"Polygon","coordinates":[[[13.12,68.54],[13.8,68.3],[12.62,68.35],[13.12,68.54]]]}},{"type":"Feature","properties":{},"geometry":{"type":"Polygon","coordinates":[[[-23.37,68.26],[-23.89,67.81],[-25.35,68.35],[-23.37,68.26]]]}},{"type":"Feature","properties":{},"geometry":{"type":"Polygon","coordinates":[[[-18.53,66.41],[-18.22,65.93],[-18.71,65.66],[-19.98,65.74],[-19.38,65.97],[-19.42,66.45],[-18.53,66.41]]]}},{"type":"Feature","properties":{},"geometry":{"type":"Polygon","coordinates":[[[7.8,67.96],[8.88,67.5],[7.46,68.05],[7.8,67.96]]]}},{"type":"Feature","properties":{},"geometry":{"type":"Polygon","coordinates":[[[-19.91,67.8],[-20.35,67.26],[-19.7,67.33],[-19.69,66.65],[-20.59,66.05],[-21.28,66.24],[-21.26,66.91],[-22.11,67.07],[-20.86,67.26],[-21.13,67.41],[-20.71,67.55],[-21.37,67.53],[-20.95,67.86],[-19.91,67.8]]]}},{"type":"Feature","properties":{},"geometry":{"type":"Polygon","coordinates":[[[47.2,80.03],[53.97,80.05],[53.84,79.61],[52.93,79.42],[53.34,78.94],[47.2,80.03]]]}},{"type":"Feature","properties":{},"geometry":{"type":"Polygon","coordinates":[[[9.03,69.51],[12.89,68.78],[12.03,68.24],[12.64,67.33],[9.03,69.51]]]}},{"type":"Feature","properties":{},"geometry":{"type":"Polygon","coordinates":[[[12.44,67.27],[12.82,66.39],[12.49,66.26],[11.77,66.49],[12.18,66.69],[10.38,66.98],[11.66,67.07],[10.69,67.16],[11.6,67.59],[10.23,67.17],[9.75,67.45],[11.14,67.99],[12.44,67.27]]]}},{"type":"Feature","properties":{},"geometry":{"type":"Polygon","coordinates":[[[10.58,68.29],[10.29,67.97],[9.87,68.32],[9.59,68.11],[10.05,67.84],[9.31,67.55],[6.97,68.66],[8.09,69.17],[7.75,68.81],[8.84,68.63],[8.59,69.15],[10.58,68.29]]]}},{"type":"Feature","properties":{},"geometry":{"type":"Polygon","coordinates":[[[40.26,78.5],[42.33,78.55],[39.98,78.34],[40.26,78.5]]]}},{"type":"Feature","properties":{},"geometry":{"type":"Polygon","coordinates":[[[41.49,79.38],[44.33,79.19],[42.44,79.55],[44.31,79.74],[49.09,79.29],[46.24,78.6],[42.88,78.47],[41.07,79],[41.58,79.02],[41.24,79.08],[41.49,79.38]]]}},{"type":"Feature","properties":{},"geometry":{"type":"Polygon","coordinates":[[[16.21,71.07],[16.54,71.01],[15.77,70.76],[16.21,71.07]]]}},{"type":"Feature","properties":{},"geometry":{"type":"Polygon","coordinates":[[[26.19,73.67],[26.95,73.48],[25.88,73.51],[26.19,73.67]]]}},{"type":"Feature","properties":{},"geometry":{"type":"Polygon","coordinates":[[[26.29,73.89],[27.2,73.94],[26.89,73.76],[27.2,73.6],[25.94,73.74],[26.29,73.89]]]}},{"type":"Feature","properties":{},"geometry":{"type":"Polygon","coordinates":[[[11.54,70.33],[13.98,70.34],[14.16,69.67],[12.01,69.2],[11.09,69.33],[11.85,69.65],[9.6,69.67],[10.43,69.82],[10,70.15],[11.91,69.91],[11.54,70.33]]]}},{"type":"Feature","properties":{},"geometry":{"type":"Polygon","coordinates":[[[21.23,72.94],[22.1,72.93],[20.64,72.47],[21.23,72.94]]]}},{"type":"Feature","properties":{},"geometry":{"type":"Polygon","coordinates":[[[26.88,74.62],[27.82,74.2],[26.05,74.28],[26.88,74.62]]]}},{"type":"Feature","properties":{},"geometry":{"type":"Polygon","coordinates":[[[22.29,73.36],[23.18,73.31],[22.74,72.72],[23.22,72.45],[22.05,72.44],[22.6,72.59],[21.99,72.63],[22.58,72.88],[21.9,73.05],[22.29,73.36]]]}},{"type":"Feature","properties":{},"geometry":{"type":"Polygon","coordinates":[[[26.81,75.17],[28.1,74.86],[27.16,74.64],[26.81,75.17]]]}},{"type":"Feature","properties":{},"geometry":{"type":"Polygon","coordinates":[[[35.65,79.48],[40.77,79.46],[41.16,78.78],[39.23,78.49],[35.32,79.36],[35.65,79.48]]]}},{"type":"Feature","properties":{},"geometry":{"type":"Polygon","coordinates":[[[-12.92,68.08],[-13.4,67.19],[-12.96,66.97],[-13.38,66.64],[-12.58,66.75],[-13.74,66.01],[-12.98,65.91],[-13.12,65.54],[-15.01,65.29],[-14.75,65.64],[-16.14,65.01],[-15.97,65.53],[-16.37,65.09],[-17.37,65.43],[-17.36,65.76],[-16.72,65.65],[-17.32,65.88],[-17.1,66.32],[-15.41,66.1],[-16.97,66.66],[-15.98,66.88],[-16.5,67.29],[-15.54,67.13],[-15.14,67.24],[-15.75,67.63],[-14.48,67.46],[-14.54,67.87],[-12.92,68.08]]]}},{"type":"Feature","properties":{},"geometry":{"type":"Polygon","coordinates":[[[22.72,74.9],[23.14,74.84],[22.46,74.74],[22.72,74.9]]]}},{"type":"Feature","properties":{},"geometry":{"type":"Polygon","coordinates":[[[-1.04,65.12],[-0.67,64.57],[-1.55,65.12],[-1.04,65.12]]]}},{"type":"Feature","properties":{},"geometry":{"type":"Polygon","coordinates":[[[-3.41,67.75],[-2.57,67.41],[-3.58,67.25],[-2.14,67.32],[-1.83,67.17],[-2.16,66.81],[-1.55,66.59],[-3.13,66.18],[-4.76,66.46],[-4.07,66.12],[-5.64,65.92],[-3.32,66.03],[-6.45,65.49],[-6.55,65.12],[-7.37,65.29],[-6.78,65.05],[-7.48,64.79],[-10.42,64.97],[-9.15,64.55],[-10.48,64.82],[-9.91,64.58],[-10.82,64.59],[-9.67,64.22],[-11.16,63.85],[-10.69,63.66],[-10.97,63.54],[-12.05,63.74],[-12.59,63.24],[-14.36,63.56],[-12.83,62.9],[-13.49,62.41],[-15.03,62.41],[-14.61,62.63],[-15.09,63.09],[-16.64,62.97],[-18.45,63.78],[-16.4,63.94],[-16.66,64.22],[-16.26,64.7],[-15.54,64.48],[-15.78,64.05],[-15.34,63.8],[-13.55,64.25],[-14.88,63.91],[-15.12,64.48],[-14.25,64.75],[-15.63,64.85],[-14.55,65.3],[-13,64.68],[-13.05,65],[-12.34,64.9],[-13.38,65.32],[-12.92,65.19],[-13.05,66.11],[-12.34,66.56],[-10.77,65.39],[-11.31,65.6],[-11.15,66.27],[-9.03,66.04],[-9.64,66.24],[-8.13,66.17],[-8.96,66.39],[-7.51,66.7],[-11.58,66.6],[-11.99,66.82],[-9.69,66.92],[-12.22,66.92],[-12.41,67.33],[-10.3,67.21],[-12.35,67.44],[-10.81,67.59],[-11.98,67.77],[-11.29,67.9],[-12.01,68.13],[-10.06,68.15],[-9.37,67.68],[-9.55,68.14],[-8.61,68.22],[-8.67,67.71],[-8.2,67.86],[-7.81,67.21],[-8.05,67.96],[-7.08,68.22],[-5.87,68.06],[-6.09,67.54],[-5.62,67.63],[-5.68,68.08],[-4.79,67.94],[-4.68,67.53],[-3.41,67.75]]]}},{"type":"Feature","properties":{},"geometry":{"type":"Polygon","coordinates":[[[-6.33,47.09],[-5.72,47.64],[-6.35,47.45],[-6.15,47.96],[-6.5,48],[-5.21,48.31],[-6.46,48.04],[-6.85,48.43],[-5.9,48.7],[-6.97,48.72],[-4.95,49.41],[-7.01,48.79],[-6.7,48.97],[-7,49.2],[-6.25,49.2],[-6.89,49.33],[-6.1,49.48],[-7.12,49.8],[-4.94,49.75],[-7.05,49.93],[-6.31,50.41],[-4.72,50.08],[-5.45,50.32],[-4.74,50.43],[-5.24,50.58],[-6.91,50.29],[-5.85,50.6],[-6.56,50.86],[-4.72,50.51],[-5.46,50.81],[-5.05,51.1],[-6.59,51.01],[-5.17,51.18],[-5.13,51.74],[-4.64,51.54],[-4.72,51.93],[-5.15,51.81],[-4.53,52.59],[-6.87,53.37],[-4.67,52.91],[-5.09,53.16],[-4.77,53.47],[-5.35,53.64],[-4.79,53.61],[-5.5,53.75],[-5.07,53.91],[-5.65,53.81],[-4.96,54.08],[-5.84,54.07],[-5.07,54.32],[-6.03,54.66],[-6.33,54.12],[-7.2,54.21],[-6.61,54.7],[-7.13,54.74],[-6.68,55.04],[-7.05,55.19],[-6.41,55.52],[-6.95,55.82],[-6.54,56.07],[-6.99,56.4],[-6.86,57],[-7.49,56.89],[-6.81,57.12],[-7.79,58.18],[-7.54,58.54],[-9.59,59.41],[-12.03,59.43],[-12.39,59.78],[-11.46,59.97],[-12.79,60.5],[-10.41,60.42],[-10.22,60.74],[-11.57,60.78],[-12.72,61.71],[-9.12,62.27],[-7.84,63.05],[-9.09,63.44],[-7.27,64.04],[-7.18,63.63],[-7.16,64.04],[-6.41,63.92],[-5.92,64.65],[-4.76,63.99],[-5.45,64.72],[-3.7,64.96],[-3.76,64.14],[-3.32,64.6],[-2.44,64.13],[-2.6,65.05],[-0.7,64.23],[-0.64,64.75],[0.09,64.68],[-0.95,65.25],[0.89,64.97],[-0.84,65.61],[1.21,65.22],[1.66,65.63],[1.07,65.9],[2.18,66.11],[4.82,65.94],[2.17,65.24],[5.01,65.83],[5,65.43],[6.47,65.39],[3.21,64.29],[5.81,64.69],[5.47,64.09],[6.8,64.88],[7.13,64.28],[6.66,63.33],[7.83,64.52],[8.59,64.38],[8.74,64.87],[10.43,64.73],[9.65,63.72],[7.77,63.42],[9.7,63.52],[8.14,63.01],[8.54,62.65],[9.43,63.06],[8.81,62.56],[9.27,62.14],[8.6,61.67],[8.72,60.56],[9.83,60.75],[9.17,60.44],[10.39,60.36],[10.66,59.82],[8.99,59.92],[9.66,59.87],[8.78,59.57],[10.35,59.15],[9.44,58.9],[10.7,58.79],[10.83,58.21],[9.29,58.46],[10.39,58.16],[9.46,58.08],[10.36,58.07],[10.28,57.66],[11.39,57.6],[9.82,57.55],[10.94,57.26],[9.75,57.24],[10.26,56.63],[10.19,57.04],[11.06,56.59],[10.1,56.21],[9.14,56.54],[10.07,56.59],[8.24,56.75],[8.88,56.37],[7.56,56.24],[8.11,56.01],[7.44,55.85],[8.82,55.89],[7.66,55.59],[9.11,55.53],[8.34,55.18],[8.9,55.23],[8.84,54.85],[9.22,55.29],[10.5,54.87],[10.24,54.56],[10.86,54.74],[10.59,54.43],[11.08,54.43],[10.83,54.04],[11.35,53.47],[10.79,53.84],[10.84,53.42],[10.42,53.39],[9.51,54.21],[7.14,54.79],[7.96,54.46],[7.39,54.25],[9.07,54.16],[8.42,53.71],[7.76,53.88],[7.72,53.35],[7.16,53.14],[8.8,53.17],[7.59,52.81],[8.3,52.72],[9.39,53.27],[11.1,52.99],[9.13,51.48],[6.61,50.88],[6.87,50.72],[5.58,51.2],[5.95,50.53],[5.28,50.25],[4.56,48.91],[3.81,48.96],[4.01,48.65],[2.97,48.59],[3.02,48.25],[2.62,48.37],[3.02,48.8],[2.58,48.92],[2.41,48.12],[0.61,47.58],[1.07,46.83],[0.34,46.72],[1.01,46.15],[0.38,46.32],[0.86,46.04],[0.1,45.93],[0.28,45.36],[-0.7,45.21],[-0.05,44.84],[-0.59,44.98],[-0.02,44.47],[-0.67,44.05],[-0.22,43.86],[-0.79,43.8],[-0.39,43.55],[-1.04,43.6],[-0.43,43.52],[-0.98,43.3],[-0.53,43.03],[-1.43,43.1],[-0.72,42.54],[-1.37,42.85],[-2.1,42.56],[-1.62,43.04],[-2.12,42.61],[-1.71,43.22],[-2.65,43.06],[-2.14,43.39],[-2.8,43.24],[-2.09,43.67],[-2.67,43.41],[-2.47,43.82],[-4.14,43.35],[-3.89,43.85],[-4.65,43.96],[-4.1,44.06],[-4.78,44.11],[-4.31,44.18],[-4.68,44.27],[-4.39,44.53],[-4.86,44.39],[-4.45,44.62],[-5.03,44.57],[-4.73,44.83],[-5.39,45.08],[-4.93,45.62],[-5.39,45.37],[-5.14,45.8],[-5.81,45.95],[-5.19,45.97],[-6.06,46.32],[-5.36,46.79],[-6.13,46.81],[-5.1,47.03],[-5.4,47.28],[-4.75,46.91],[-5.03,47.41],[-5.57,47.83],[-5.36,47.34],[-6.33,47.09]]]}}]}
