{"type":"FeatureCollection","features":[{"type":"Feature","properties":{},"geometry":{"type":"Polygon","coordinates":[[[33.4,-65.03],[35.43,-64.96],[36.2,-65.49],[33.96,-65.48],[33.4,-65.03]]]}},{"type":"Feature","properties":{},"geometry":{"type":"Polygon","coordinates":[[[42.38,-63.8],[41.87,-64.12],[41.63,-63.46],[43.06,-63.68],[42.38,-63.8]]]}},{"type":"Feature","properties":{},"geometry":{"type":"Polygon","coordinates":[[[-2.63,-62.94],[-0.76,-62.27],[-0.13,-63.01],[-0.63,-63.37],[-2.63,-62.94]]]}},{"type":"Feature","properties":{},"geometry":{"type":"Polygon","coordinates":[[[18.31,-71.96],[18.73,-72.33],[17.91,-72.17],[18.31,-71.96]]]}},{"type":"Feature","properties":{},"geometry":{"type":"Polygon","coordinates":[[[8.75,-71.66],[10.03,-71.69],[8.18,-71.73],[8.75,-71.66]]]}},{"type":"Feature","properties":{},"geometry":{"type":"Polygon","coordinates":[[[13.41,-72.69],[10.29,-72.13],[14.13,-72.08],[13.41,-72.69]]]}},{"type":"Feature","properties":{},"geometry":{"type":"Polygon","coordinates":[[[16.17,-73.4],[15.4,-73.12],[15.83,-72.72],[14.53,-72.46],[15.55,-72.34],[17.46,-73.18],[16.17,-73.4]]]}},{"type":"Feature","properties":{},"geometry":{"type":"Polygon","coordinates":[[[-12.04,-63.17],[-10.25,-62.9],[-10.91,-63.37],[-12.04,-63.17]]]}},{"type":"Feature","properties":{},"geometry":{"type":"Polygon","coordinates":[[[-7.44,-69.68],[-6.7,-69.54],[-8.41,-69.04],[-7.2,-69.15],[-8.13,-68.83],[-6.67,-68.68],[-4.64,-70.53],[-7.44,-69.68]]]}},{"type":"Feature","properties":{},"geometry":{"type":"Polygon","coordinates":[[[-16.99,-62.85],[-16.34,-63.33],[-17.06,-63.25],[-16.99,-62.85]]]}},{"type":"Feature","properties":{},"geometry":{"type":"Polygon","coordinates":[[[-19.33,-63.2],[-18.33,-63.14],[-19.04,-63.62],[-19.33,-63.2]]]}},{"type":"Feature","properties":{},"geometry":{"type":"Polygon","coordinates":[[[-20.54,-61.48],[-14.65,-61.02],[-12.55,-61.52],[-12.46,-62.21],[-14.34,-62],[-14.9,-62.35],[-13.56,-62.73],[-15.05,-63.43],[-14.68,-63.12],[-15.61,-63.14],[-14.89,-62.73],[-15.57,-62.95],[-15.53,-62.37],[-16.03,-62.66],[-16.53,-62.02],[-16.16,-61.83],[-17.43,-62.08],[-17.7,-61.56],[-18.67,-62.17],[-20.14,-62.23],[-20.54,-61.48]]]}},{"type":"Feature","properties":{},"geometry":{"type":"Polygon","coordinates":[[[-24.78,-60.22],[-22.64,-60.76],[-23.34,-60.91],[-24.78,-60.22]]]}},{"type":"Feature","properties":{},"geometry":{"type":"Polygon","coordinates":[[[57.7,-48.09],[57.03,-48.89],[56.51,-48.55],[57.7,-48.09]]]}},{"type":"Feature","properties":{},"geometry":{"type":"Polygon","coordinates":[[[-28.22,-57.81],[-27.55,-57.7],[-27.27,-58.14],[-27.7,-58.34],[-28.22,-57.81]]]}},{"type":"Feature","properties":{},"geometry":{"type":"Polygon","coordinates":[[[-27.37,-55.38],[-26.28,-55.42],[-26.53,-55.79],[-27.37,-55.38]]]}},{"type":"Feature","properties":{},"geometry":{"type":"Polygon","coordinates":[[[-3.14,-63.09],[-2.25,-63.7],[-1.13,-63.6],[-1.83,-63.86],[-1.44,-64.09],[3.32,-62.52],[2.28,-62.67],[2.87,-62.25],[5.03,-61.9],[8.05,-62.2],[12.72,-60.5],[15.57,-62.15],[15.1,-63.27],[15.43,-63.8],[13.71,-64.46],[2.52,-64.94],[0.9,-65.41],[-1.46,-65.23],[-4.08,-63.77],[-3.14,-63.09]]]}},{"type":"Feature","properties":{},"geometry":{"type":"Polygon","coordinates":[[[-28.11,-54.93],[-27.38,-54.88],[-27.66,-55.47],[-26.49,-56.07],[-27.03,-56.49],[-26.03,-57.69],[-24.95,-57.95],[-24.44,-57.83],[-24.55,-57.27],[-24.07,-57.49],[-24.45,-57.63],[-23.87,-57.86],[-24.56,-58.22],[-23.57,-58.27],[-24.84,-58.47],[-23.53,-58.73],[-23.61,-59.18],[-22.97,-59.53],[-20.41,-59.67],[-19.99,-59.33],[-20.58,-59.13],[-20.42,-58.83],[-19.5,-59.26],[-15.02,-58.7],[-12.23,-59.12],[-11.43,-58.99],[-11.61,-58.64],[-8.88,-59.08],[-7.13,-60.09],[-7.07,-59.76],[-4.68,-61.34],[-3.13,-60.73],[-1.45,-61.86],[-3.71,-62.65],[-3.14,-63.09],[-6.3,-65.2],[-9.09,-65.21],[-8.73,-64.86],[-9.32,-64.59],[-11.12,-64.6],[-9.89,-64],[-10.36,-63.52],[-9.54,-63.52],[-12.16,-60.92],[-19.29,-61.08],[-19.29,-60.55],[-19.83,-60.3],[-22.86,-59.93],[-22.91,-60.35],[-23.89,-60.21],[-23.22,-59.88],[-24.52,-59.77],[-24.29,-59.47],[-25.33,-59.31],[-26.06,-58.32],[-26.96,-58.25],[-26.56,-58],[-27.92,-56.76],[-28.11,-54.93]]]}},{"type":"Feature","properties":{},"geometry":{"type":"Polygon","coordinates":[[[7.04,-57.62],[6.06,-56.75],[4.32,-53.7],[4.52,-53],[5.19,-53],[3.75,-52.25],[2.04,-53.02],[0.79,-52.33],[0.22,-50.26],[0.57,-49.15],[-0.1,-47.99],[0.1,-46.38],[1.33,-44.5],[1.14,-43.77],[0.27,-43.54],[1.04,-43.61],[0.71,-42.8],[2.03,-43.25],[2.31,-42.97],[1.78,-42.04],[2.23,-41.87],[2.66,-42.5],[3.66,-41.91],[3.06,-41.04],[4.1,-41.97],[4.89,-41.89],[5.57,-40.35],[7.37,-39.44],[9.18,-39.43],[10.85,-38.59],[13.86,-38.41],[18.06,-37.17],[18.11,-36.14],[20.4,-37.53],[21.49,-36.04],[24.1,-34.91],[24.98,-35.29],[25.44,-35.03],[25.02,-34.7],[25.49,-34.55],[25.65,-35.03],[26.19,-35.01],[26.08,-34.23],[26.99,-33.88],[28.72,-34.17],[29.37,-34.91],[28.8,-35.04],[29.96,-35.89],[34.67,-37.41],[34.37,-38.31],[33.83,-38.42],[34.23,-38.51],[33.72,-38.56],[34,-38.79],[33.48,-38.68],[33.46,-39.26],[32.79,-39.52],[33.56,-41.02],[35.28,-39.84],[36.28,-40.07],[38.62,-39.21],[41.55,-39.23],[45.14,-40.28],[47.49,-41.76],[48.16,-41.94],[48.62,-41.35],[49.26,-41.61],[48.92,-42.11],[50.34,-42.54],[51.67,-44.96],[54.61,-45.38],[54.32,-46.28],[55,-46.71],[54.88,-47.6],[56.34,-48.53],[55.95,-48.73],[58.74,-49.89],[58.33,-50.88],[58.77,-51.35],[60.31,-50.86],[61.45,-52.62],[63.04,-52.44],[62.07,-52.88],[61.89,-53.53],[62.8,-55.66],[62.57,-55.98],[63.07,-56.24],[62.84,-56.78],[63.85,-57.37],[62.24,-57.17],[62.06,-57.92],[62.5,-58.41],[61.35,-58.34],[62.08,-59.44],[61.32,-59.66],[62.46,-60.46],[61.19,-60.95],[61.5,-61.14],[60.99,-61.66],[61.49,-61.73],[60.92,-62.41],[58.82,-63.18],[58.55,-63.43],[59,-63.49],[58.53,-63.49],[58.86,-63.72],[57.95,-64.02],[58.4,-64.02],[57.44,-65.38],[54.5,-66.23],[51.02,-65.32],[51.03,-64.58],[49.92,-64.41],[50.04,-64.01],[48.77,-64.06],[49.16,-63.8],[48.39,-63.62],[49.36,-63.59],[48.84,-63.33],[47.84,-63.24],[47.21,-63.73],[46.9,-63.68],[47.34,-63.24],[46.84,-63.14],[41.18,-62.68],[40.91,-62.91],[41.47,-63.16],[39.84,-63.27],[40.42,-62.74],[39.64,-61.86],[33.31,-61.37],[33.29,-60.99],[32.54,-61.12],[32.87,-61.41],[30.51,-61.22],[27.43,-61.71],[25.71,-60.82],[27.45,-61.85],[24.81,-62.1],[23.19,-61.68],[21.64,-61.8],[21.24,-62.27],[19.47,-62.19],[22.32,-63.08],[23.72,-64.63],[20.46,-64.98],[19.66,-63.7],[17,-62.11],[13.01,-61.93],[11.44,-60.15],[7.04,-57.62]]]}},{"type":"Feature","properties":{},"geometry":{"type":"Polygon","coordinates":[[[28.14,-63.29],[29.43,-64.1],[29.46,-64.59],[27.15,-65.57],[34.12,-66.23],[36.85,-67.47],[33.78,-68.06],[31.81,-67.92],[32.11,-68.05],[31.4,-68.54],[30.5,-68.59],[31.1,-68.91],[30.46,-68.96],[33.75,-69.23],[31.27,-69.48],[32.22,-69.77],[26.23,-71.56],[26.72,-71.77],[24.38,-72.07],[24.06,-71.75],[10.17,-71.65],[8.17,-71.04],[6.63,-71.5],[7.36,-71.25],[6.39,-71.24],[7.23,-70.99],[6.86,-70.87],[7.44,-70.45],[5.35,-70.81],[4.73,-70.59],[5.16,-70.25],[4.78,-69.91],[3.48,-69.86],[4.47,-69.21],[2.37,-69.35],[1.53,-68.94],[2.01,-68.4],[0.97,-68.2],[0.3,-68.87],[-1.05,-68.84],[-1.37,-69.11],[-0.9,-69.35],[-1.38,-69.59],[-3.06,-69.22],[-3.07,-69.58],[-1.58,-69.79],[-2.67,-70.27],[-3.41,-69.31],[-4.96,-68.97],[-4.78,-68.25],[-6.43,-68.08],[-5.94,-67.74],[-6.66,-67],[-8.86,-66.55],[-7.88,-66.46],[-7.71,-65.87],[-8.7,-65.71],[-7.8,-65.47],[-7.65,-64.75],[2.18,-64.97],[3.78,-64.49],[14.38,-64.12],[16.64,-63.37],[24.02,-64.13],[28.14,-63.29]]]}},{"type":"Feature","properties":{},"geometry":{"type":"Polygon","coordinates":[[[-27.65,-54.17],[-27.24,-54.05],[-27.67,-54.7],[-27.65,-54.17]]]}},{"type":"Feature","properties":{},"geometry":{"type":"Polygon","coordinates":[[[-29.07,-55.86],[-28.83,-56.05],[-29.49,-56.33],[-29.07,-55.86]]]}},{"type":"Feature","properties":{},"geometry":{"type":"Polygon","coordinates":[[[-29.02,-54.69],[-28.72,-54.6],[-29.1,-55.25],[-29.02,-54.69]]]}},{"type":"Feature","properties":{},"geometry":{"type":"Polygon","coordinates":[[[-24.39,-51.66],[-24.84,-51.9],[-23.59,-52.31],[-25.65,-52.13],[-24.39,-51.66]]]}},{"type":"Feature","properties":{},"geometry":{"type":"Polygon","coordinates":[[[-24.05,-51.59],[-23.01,-51.64],[-23.93,-51.89],[-24.05,-51.59]]]}},{"type":"Feature","properties":{},"geometry":{"type":"Polygon","coordinates":[[[-27.93,-51.18],[-27.6,-51.64],[-28.13,-51.45],[-27.93,-51.18]]]}},{"type":"Feature","properties":{},"geometry":{"type":"Polygon","coordinates":[[[-26.77,-50.67],[-26.45,-51.34],[-26.98,-51.09],[-26.77,-50.67]]]}},{"type":"Feature","properties":{},"geometry":{"type":"Polygon","coordinates":[[[-29.18,-50.92],[-28.22,-51.43],[-29.53,-51.36],[-29.18,-50.92]]]}},{"type":"Feature","properties":{},"geometry":{"type":"Polygon","coordinates":[[[-28.66,-50.07],[-27.93,-50.09],[-28.9,-50.54],[-28.52,-50.96],[-29.52,-50.74],[-28.91,-50.78],[-29.38,-50.4],[-28.66,-50.07]]]}},{"type":"Feature","properties":{},"geometry":{"type":"Polygon","coordinates":[[[-27.32,-51.66],[-25.97,-51.56],[-26.92,-51.28],[-25.01,-51.3],[-26.38,-50.89],[-25.87,-50.29],[-26.84,-50.48],[-26.69,-50],[-27.06,-49.9],[-26.27,-49.43],[-23.68,-50.66],[-21.51,-50.88],[-22.58,-51.48],[-27.74,-51.83],[-27.32,-51.66]]]}},{"type":"Feature","properties":{},"geometry":{"type":"Polygon","coordinates":[[[-17.71,-46.8],[-18.28,-47.76],[-18.97,-47.71],[-18.13,-47.28],[-18.83,-46.99],[-17.71,-46.8]]]}},{"type":"Feature","properties":{},"geometry":{"type":"Polygon","coordinates":[[[-17.27,-46.68],[-16.12,-46.89],[-17.56,-47.72],[-17.27,-46.68]]]}},{"type":"Feature","properties":{},"geometry":{"type":"Polygon","coordinates":[[[-31.73,-48.61],[-31.35,-48.93],[-31.92,-48.93],[-31.73,-48.61]]]}},{"type":"Feature","properties":{},"geometry":{"type":"Polygon","coordinates":[[[46.73,-71.98],[46.23,-71.69],[46.87,-71.62],[46.73,-71.98]]]}},{"type":"Feature","properties":{},"geometry":{"type":"Polygon","coordinates":[[[-32.6,-48.04],[-32.08,-48.09],[-32.5,-48.46],[-32.6,-48.04]]]}},{"type":"Feature","properties":{},"geometry":{"type":"Polygon","coordinates":[[[-32.31,-47.4],[-32.44,-47.91],[-33.06,-47.39],[-32.48,-47.37],[-32.68,-46.69],[-31.98,-47.98],[-32.31,-47.4]]]}},{"type":"Feature","properties":{},"geometry":{"type":"Polygon","coordinates":[[[-32.79,-46.14],[-32.45,-46.66],[-32.9,-46.62],[-32.79,-46.14]]]}},{"type":"Feature","properties":{},"geometry":{"type":"Polygon","coordinates":[[[48.56,-77.17],[47.44,-76.78],[49.63,-76.56],[48.56,-77.17]]]}},{"type":"Feature","properties":{},"geometry":{"type":"Polygon","coordinates":[[[-33.01,-42.93],[-32.82,-43.19],[-33.35,-43.17],[-33.01,-42.93]]]}},{"type":"Feature","properties":{},"geometry":{"type":"Polygon","coordinates":[[[-32.45,-42.19],[-32.12,-42.29],[-32.56,-42.77],[-32.45,-42.19]]]}},{"type":"Feature","properties":{},"geometry":{"type":"Polygon","coordinates":[[[0.7,-75.13],[0.12,-74.86],[2.02,-74.89],[0.7,-75.13]]]}},{"type":"Feature","properties":{},"geometry":{"type":"Polygon","coordinates":[[[-34.09,-39.82],[-33.41,-40.2],[-33.78,-40.54],[-33.35,-40.82],[-33.54,-41.42],[-34.15,-41.32],[-34.09,-39.82]]]}},{"type":"Feature","properties":{},"geometry":{"type":"Polygon","coordinates":[[[54.62,-66.32],[53.76,-67.66],[54.29,-67.92],[53.54,-68.24],[54.36,-67.93],[55.62,-68.73],[55.08,-69.08],[48.8,-69.1],[50.01,-68.46],[47.5,-68.3],[47.92,-68.06],[47.57,-67.69],[48.24,-67.81],[48.99,-67.25],[54.62,-66.32]]]}},{"type":"Feature","properties":{},"geometry":{"type":"Polygon","coordinates":[[[51.84,-73.88],[48.55,-73.9],[49.16,-74.51],[48.1,-74.27],[47.98,-74.59],[48.83,-74.6],[48.36,-74.8],[44.43,-73.75],[45.47,-71.71],[44.39,-68.96],[45.5,-69.56],[45.22,-69.86],[46.38,-71.67],[51.84,-73.88]]]}},{"type":"Feature","properties":{},"geometry":{"type":"Polygon","coordinates":[[[24.96,-80.54],[29.95,-79.83],[28.55,-79.55],[35.91,-79.44],[40.08,-77.94],[39.32,-77.94],[43.3,-77.29],[53.64,-77.91],[51.98,-78.06],[53.1,-78.17],[51.51,-78.33],[52.39,-78.64],[51.27,-78.76],[51.93,-78.81],[51.55,-78.91],[42.99,-80.09],[32.34,-80.74],[24.96,-80.54]]]}},{"type":"Feature","properties":{},"geometry":{"type":"Polygon","coordinates":[[[61.7,-59.49],[61.33,-59.93],[60.25,-58.98],[60.75,-58.77],[61.7,-59.49]]]}},{"type":"Feature","properties":{},"geometry":{"type":"Polygon","coordinates":[[[74.27,-75.26],[72.04,-75.45],[72.83,-75.57],[70.43,-76.12],[71.08,-76.32],[63.28,-76.49],[63.74,-76.56],[61.79,-77],[65.03,-77.02],[57.87,-77.65],[56.36,-78.08],[57.63,-78.76],[56.13,-79.13],[50.32,-78.16],[49.89,-78],[51.09,-77.98],[51.46,-77.46],[47.96,-76.93],[44.84,-75.28],[46.97,-74.88],[48.9,-75.65],[50.79,-75.76],[55.12,-75.06],[55.98,-75.8],[61.77,-76.35],[65.73,-76.03],[64.86,-76.24],[66.49,-76.35],[67.28,-75.94],[66.11,-75.96],[74.06,-74.95],[74.27,-75.26]]]}},{"type":"Feature","properties":{},"geometry":{"type":"Polygon","coordinates":[[[106.11,-62.89],[106.28,-64.23],[105.78,-64.81],[105.76,-66.26],[105.06,-66.4],[104.68,-65.99],[105.07,-65.48],[104.82,-64.32],[106.11,-62.89]]]}},{"type":"Feature","properties":{},"geometry":{"type":"Polygon","coordinates":[[[90.93,-46.04],[90.54,-46.67],[89.97,-46.21],[90.93,-46.04]]]}},{"type":"Feature","properties":{},"geometry":{"type":"Polygon","coordinates":[[[21.05,-24.31],[21.95,-22.27],[23.23,-21.38],[25,-21.88],[25.17,-22.33],[25.37,-21.88],[26.05,-22.24],[27.53,-21.64],[27.75,-21.02],[27.94,-21.4],[28.68,-21.32],[29.14,-20.49],[29.85,-20.37],[29.86,-21.62],[28.89,-23.95],[28.38,-24.26],[28.1,-23.58],[27.52,-24.77],[20.02,-29.99],[17.89,-29.49],[17.37,-28.48],[18.43,-25.8],[21.05,-24.31]]]}},{"type":"Feature","properties":{},"geometry":{"type":"Polygon","coordinates":[[[87.09,-40.04],[86.87,-40.57],[86.35,-40.18],[87.09,-40.04]]]}},{"type":"Feature","properties":{},"geometry":{"type":"Polygon","coordinates":[[[87.29,-39.96],[87.32,-40.51],[88.05,-40.57],[88.06,-40.95],[87.07,-40.9],[87.29,-39.96]]]}},{"type":"Feature","properties":{},"geometry":{"type":"Polygon","coordinates":[[[58.71,-63.91],[58.26,-63.28],[58.73,-62.38],[62.49,-60.58],[61.87,-59.86],[63.67,-59.89],[64.57,-59.27],[62.6,-59.41],[61.74,-58.79],[65.52,-58.93],[67.31,-58.26],[66.35,-58.55],[62.48,-57.8],[61.68,-58.02],[61.87,-57.21],[62.08,-57.52],[62.98,-57.07],[64.95,-55.05],[64.09,-53.91],[64.23,-52.86],[59.88,-49.38],[57.82,-48.37],[56.18,-48.25],[54.18,-45.52],[51.72,-44.63],[51.15,-43.63],[51.23,-42.23],[54.57,-41.48],[57.16,-39.46],[59.31,-36.59],[59.07,-37.26],[60.19,-36.51],[59.54,-37.46],[60.16,-37.36],[61.23,-35.82],[63.27,-34.96],[64.3,-34.84],[63.66,-35.32],[67.43,-36.14],[67.83,-36.88],[71.45,-38.75],[73.87,-38.82],[74.56,-38.13],[76,-38.13],[75.28,-39.39],[76.36,-39.19],[76.19,-38.73],[76.71,-38.46],[77,-39.33],[77.6,-39.61],[77.21,-39.18],[78.21,-39.03],[77.63,-39.03],[78.01,-38.68],[78.51,-38.68],[78.66,-39.36],[78.72,-38.73],[79.27,-39.23],[79.37,-38.68],[80.25,-38.67],[80.13,-39.19],[80.88,-38.76],[80.73,-39.14],[81.77,-39.26],[82.05,-39.79],[81.98,-40.9],[80.77,-41.25],[82.2,-41.13],[82.67,-42.2],[83.55,-41.89],[83.35,-41.44],[85.84,-40.98],[86.15,-41.3],[86.3,-40.96],[86.39,-41.42],[87.28,-41.2],[88.56,-42.3],[89.03,-41.88],[88.4,-41.01],[88.78,-41.01],[89.51,-42.59],[90.04,-42.77],[89.92,-43.24],[90.65,-43.49],[90.79,-44.1],[91.8,-44.27],[91.3,-44.27],[91.82,-44.44],[91.39,-44.74],[92.53,-44.65],[92.51,-45.26],[91.54,-45.54],[90.53,-45.23],[89.6,-45.88],[88.08,-45.69],[88.49,-46.38],[87.95,-46.36],[88.5,-46.43],[88.88,-47.51],[88.32,-47.48],[88.98,-47.83],[89.96,-49.95],[89.9,-50.79],[90.71,-51.45],[94.72,-50.52],[95.82,-49.32],[97.76,-48.68],[97.25,-48.4],[100.08,-47.54],[99.21,-49.84],[97.94,-51.17],[99.05,-51.46],[99.25,-52.58],[97.72,-53.75],[97.56,-54.4],[97.9,-54.44],[95.98,-56.11],[97.52,-58.71],[96.83,-59],[96.77,-60.12],[95.5,-60.98],[96.03,-60.94],[95.99,-61.3],[96.71,-60.91],[96.79,-61.67],[97.29,-61.47],[95.91,-62.42],[95.52,-62.05],[96,-62.57],[95.82,-63.22],[96.4,-63.37],[95.72,-64.72],[96.06,-65],[95.02,-65.58],[95.4,-65.65],[92.69,-66.46],[91,-67.76],[81.05,-69.23],[79.21,-68.79],[77.12,-68.95],[76.7,-68.52],[76.98,-68.73],[76.46,-68.84],[76.88,-68.91],[75.78,-69.05],[70.38,-68.91],[65.53,-69.46],[64.46,-69.18],[63.07,-67.81],[60.74,-67.49],[60.11,-66.98],[59.11,-67.23],[60.04,-66.3],[60.82,-66.3],[59.89,-65.96],[60.18,-65.7],[61.5,-65.76],[58.35,-65.02],[58.71,-63.91]]]}},{"type":"Feature","properties":{},"geometry":{"type":"Polygon","coordinates":[[[98.87,-42.66],[99.05,-42.99],[98.28,-43.26],[97.34,-42.54],[98.87,-42.66]]]}},{"type":"Feature","properties":{},"geometry":{"type":"Polygon","coordinates":[[[130.54,5.26],[130.37,4.7],[129.56,4.38],[130.54,5.26]]]}},{"type":"Feature","properties":{},"geometry":{"type":"Polygon","coordinates":[[[95.17,-38.82],[95.22,-39.34],[94.6,-39.39],[95.17,-38.82]]]}},{"type":"Feature","properties":{},"geometry":{"type":"Polygon","coordinates":[[[95.79,-38.9],[95.48,-39.24],[95.34,-38.83],[95.79,-38.9]]]}},{"type":"Feature","properties":{},"geometry":{"type":"Polygon","coordinates":[[[123.45,1.62],[125.5,2.6],[126.16,2.36],[127.61,3.17],[127.73,3.95],[129.34,4.48],[130.12,4.03],[131.42,4.75],[131.96,4.07],[124.61,0.6],[124.46,1],[123.29,0.47],[123.45,1.62]]]}},{"type":"Feature","properties":{},"geometry":{"type":"Polygon","coordinates":[[[96.01,-38.53],[95.93,-39.01],[95.46,-38.77],[96.01,-38.53]]]}},{"type":"Feature","properties":{},"geometry":{"type":"Polygon","coordinates":[[[123.67,5.43],[124.25,5.51],[124.29,5],[123.95,4.79],[123.67,5.43]]]}},{"type":"Feature","properties":{},"geometry":{"type":"Polygon","coordinates":[[[121.54,4.9],[122.46,4.5],[122.98,4.75],[123.24,4.3],[121.38,3.96],[121.54,4.9]]]}},{"type":"Feature","properties":{},"geometry":{"type":"Polygon","coordinates":[[[108.67,-46.83],[108.39,-47.58],[109.1,-48.59],[108.86,-49.7],[109.81,-50.01],[109.33,-50.38],[110.25,-50.97],[109.71,-51.15],[110.9,-51.86],[109.59,-51.92],[109.25,-51.6],[109.74,-51.64],[107.12,-50.07],[106.57,-48.92],[106.87,-48.75],[106.4,-48.54],[106.36,-47.2],[105.21,-46.08],[104.47,-46.16],[104.25,-45.4],[104.04,-46.21],[103.37,-45.73],[103.48,-46.22],[101.83,-45.35],[102.72,-46.1],[102.55,-46.7],[99.8,-45.53],[99.43,-44.01],[99.92,-43.86],[98.3,-43.44],[99.08,-43],[98.9,-42.44],[99.98,-43],[98.98,-42.16],[99.66,-42.61],[99.34,-41.6],[99.87,-41.17],[99.48,-40.9],[99.84,-40.75],[99.41,-40.16],[99.73,-39.98],[99.38,-40.1],[97.37,-37.59],[102.71,-40.82],[108.67,-46.83]]]}},{"type":"Feature","properties":{},"geometry":{"type":"Polygon","coordinates":[[[118.72,6.03],[119.02,5.73],[118.57,5.66],[118.72,6.03]]]}},{"type":"Feature","properties":{},"geometry":{"type":"Polygon","coordinates":[[[-3.68,-2.62],[-3.86,-3],[-4.08,-2.76],[-3.68,-2.62]]]}},{"type":"Feature","properties":{},"geometry":{"type":"Polygon","coordinates":[[[109.86,2.99],[111.59,4.04],[112.84,3.58],[117.65,4.18],[120.44,0.36],[117.74,1.29],[116.11,1.35],[114.88,2.23],[113.77,1.96],[112.14,2.45],[110.3,2.34],[109.67,2.73],[109.86,2.99]]]}},{"type":"Feature","properties":{},"geometry":{"type":"Polygon","coordinates":[[[117.31,4.25],[118.17,4.45],[118.02,4.01],[118.73,4.75],[119.17,3.77],[120.1,4.23],[121.42,3.32],[121.94,4.06],[122.68,3.9],[124.4,1.55],[123.76,1.59],[123.92,1.24],[123.26,1.02],[123.55,0.73],[119.75,0.75],[117.31,4.25]]]}},{"type":"Feature","properties":{},"geometry":{"type":"Polygon","coordinates":[[[124.95,18.31],[125.17,17.95],[125.24,18.53],[126.06,18.39],[126.73,17.86],[128.04,18.35],[127.35,17.32],[128.04,17.25],[127.18,16.62],[127.76,16.1],[127.15,15.65],[127.72,15.9],[127.39,15.67],[128.82,15.17],[128.88,14.64],[130.36,14.52],[129.32,14.07],[130.18,12.34],[129.54,10.73],[129.88,10.75],[129.7,10.25],[130.18,10.45],[130.22,8.83],[129.57,7.85],[129.02,8.5],[128.33,7.9],[127.53,8],[126.93,6.83],[126.35,7.36],[125.29,6.38],[123.97,7.77],[123.24,7.57],[123.4,7.84],[122.24,8.34],[121.63,9.89],[123.65,10.54],[123.24,10.55],[122.94,11.73],[124,13.03],[123.97,14.74],[124.98,15.8],[124.95,18.31]]]}},{"type":"Feature","properties":{},"geometry":{"type":"Polygon","coordinates":[[[21.56,-34.97],[18.63,-36.3],[17.18,-35.95],[16.76,-34.91],[17.27,-34.4],[19.54,-34.3],[19.25,-34.38],[21.56,-34.97]]]}},{"type":"Feature","properties":{},"geometry":{"type":"Polygon","coordinates":[[[-30.53,12.87],[-30.43,12.17],[-31.35,11.96],[-30.91,12.27],[-31.18,12.66],[-30.53,12.87]]]}},{"type":"Feature","properties":{},"geometry":{"type":"Polygon","coordinates":[[[-49.08,-4.8],[-48.16,-5.92],[-49.53,-5.19],[-49.08,-4.8]]]}},{"type":"Feature","properties":{},"geometry":{"type":"Polygon","coordinates":[[[-52.28,-0.22],[-50.44,-2.17],[-50.09,-2.96],[-50.57,-2.84],[-49.94,-3.99],[-50.42,-4.1],[-52.11,-2.54],[-52.83,-2.85],[-52.88,-1.98],[-54.32,-1],[-54.5,-0.39],[-54.12,-0.29],[-52.89,-1.57],[-52.53,-0.66],[-52.91,-0.01],[-52.28,-0.22]]]}},{"type":"Feature","properties":{},"geometry":{"type":"Polygon","coordinates":[[[117.61,21.73],[118.51,22.02],[118.45,20.75],[117.68,19.91],[116.73,20.03],[116.48,20.87],[117.61,21.73]]]}},{"type":"Feature","properties":{},"geometry":{"type":"Polygon","coordinates":[[[-49.61,1.25],[-48.5,-0.51],[-46.99,-6.22],[-49.54,-3.96],[-48.6,-3.72],[-49.1,-3.07],[-48.81,-2.06],[-50.26,0.45],[-49.92,0.83],[-52.36,2.49],[-51.85,2.11],[-51.15,2.37],[-49.61,1.25]]]}},{"type":"Feature","properties":{},"geometry":{"type":"Polygon","coordinates":[[[135.11,41.74],[136.07,41.53],[135.93,41.13],[136.6,40.81],[135.91,39.21],[135.19,38.8],[135.28,39.51],[135.1,38.96],[134.54,39.19],[135,40.58],[134.49,40.97],[134.7,40.47],[134.04,40.32],[133.91,40.84],[134.31,40.61],[133.77,41.07],[135.11,41.74]]]}},{"type":"Feature","properties":{},"geometry":{"type":"Polygon","coordinates":[[[138.78,42.35],[139.48,41.86],[138.89,41.24],[138.01,41.4],[137.24,40.73],[136.92,41.36],[136.49,41.23],[137.39,42.05],[138.78,42.35]]]}},{"type":"Feature","properties":{},"geometry":{"type":"Polygon","coordinates":[[[21.47,19.11],[22.94,17.65],[21.74,18.19],[21.16,19.01],[21.47,19.11]]]}},{"type":"Feature","properties":{},"geometry":{"type":"Polygon","coordinates":[[[25.63,12.4],[24.8,12.7],[24.25,13.46],[24.43,14.04],[25.09,13.69],[25.63,12.4]]]}},{"type":"Feature","properties":{},"geometry":{"type":"Polygon","coordinates":[[[17.73,25.32],[16.24,24.34],[15.27,26.59],[15.75,26.72],[17.73,25.32]]]}},{"type":"Feature","properties":{},"geometry":{"type":"Polygon","coordinates":[[[23.4,22.1],[23.53,20.72],[22.92,22.22],[23.4,22.1]]]}},{"type":"Feature","properties":{},"geometry":{"type":"Polygon","coordinates":[[[35.08,35.03],[35.42,34.73],[34.66,34.75],[35.08,35.03]]]}},{"type":"Feature","properties":{},"geometry":{"type":"Polygon","coordinates":[[[12.22,29.67],[12.05,29],[11.45,29.3],[12.22,29.67]]]}},{"type":"Feature","properties":{},"geometry":{"type":"Polygon","coordinates":[[[16.66,32.64],[16.31,32.17],[14.53,31.81],[13.78,32.43],[16.04,33.33],[16.66,32.64]]]}},{"type":"Feature","properties":{},"geometry":{"type":"Polygon","coordinates":[[[138.86,42.7],[136.77,42.26],[136.58,41.72],[135.16,41.76],[135.23,42.26],[137.47,43.54],[140.83,43.75],[141.47,45.47],[142.13,45.63],[141.6,45.22],[142.04,44.86],[143.49,45.55],[144.85,47.13],[144.78,48.83],[145.28,49.49],[146.22,49.13],[145.93,49.8],[146.58,49.7],[147.37,47.76],[146.82,46.54],[146.12,46.3],[146.27,45.26],[145.84,44.52],[146.22,43.98],[145.69,43.42],[145.01,43.18],[145.22,43.91],[143.9,42.86],[143.87,43.31],[143.31,42.78],[141.96,42.7],[142.32,42.91],[141.58,43.17],[141.41,42.71],[141.85,42.39],[140.38,41.57],[139.82,41.92],[140.2,42.75],[138.86,42.7]]]}},{"type":"Feature","properties":{},"geometry":{"type":"Polygon","coordinates":[[[18.73,32.95],[16.77,32.71],[17.79,33.42],[18.73,32.95]]]}},{"type":"Feature","properties":{},"geometry":{"type":"Polygon","coordinates":[[[152.7,46.89],[153.02,46.9],[151.77,46.2],[152.7,46.89]]]}},{"type":"Feature","properties":{},"geometry":{"type":"Polygon","coordinates":[[[148.24,48.13],[150.65,46.49],[151.72,46.83],[151.39,46.3],[151.74,45.74],[150.13,45.41],[149.42,44.59],[146.67,45.23],[146.43,45.99],[147.56,45.95],[147.83,47.82],[148.24,48.13]]]}},{"type":"Feature","properties":{},"geometry":{"type":"Polygon","coordinates":[[[145.51,50.82],[145.16,50.48],[146.23,50.06],[144.97,49.64],[144.59,50.83],[145.51,50.82]]]}},{"type":"Feature","properties":{},"geometry":{"type":"Polygon","coordinates":[[[-7.79,35.28],[-7.72,34.56],[-8.36,33.98],[-7.67,34.59],[-7.19,34.22],[-8.47,33.82],[-8.68,34.32],[-7.79,35.28]]]}},{"type":"Feature","properties":{},"geometry":{"type":"Polygon","coordinates":[[[-10.7,35.17],[-10.54,34.73],[-9.02,34.73],[-9.68,34.23],[-10.83,34.7],[-10.7,35.17]]]}},{"type":"Feature","properties":{},"geometry":{"type":"Polygon","coordinates":[[[-10.73,38.24],[-8.72,37.4],[-10.29,37.67],[-11.04,38.16],[-10.73,38.24]]]}},{"type":"Feature","properties":{},"geometry":{"type":"Polygon","coordinates":[[[-73.6,20.15],[-71.84,19.59],[-70.53,17.81],[-71.68,18.04],[-71.41,18.51],[-71.91,18.18],[-72.59,18.64],[-72.31,18.96],[-73.52,19.39],[-73.18,19.88],[-73.6,19.73],[-73.6,20.15]]]}},{"type":"Feature","properties":{},"geometry":{"type":"Polygon","coordinates":[[[-3.54,37.43],[-2.81,37.84],[-1.97,37.55],[-2.55,36.67],[-1.57,36.91],[-2.36,36.47],[-2.09,35.81],[-1.43,36.41],[-1.59,34.95],[-2.03,34.94],[-1.98,35.51],[-2.52,35.11],[-2.44,36.17],[-3.81,35.12],[-2.95,35.95],[-6.79,35.88],[-3.54,37.43]]]}},{"type":"Feature","properties":{},"geometry":{"type":"Polygon","coordinates":[[[-4,39.89],[-3.66,39.66],[-4.16,39.6],[-3.86,39.35],[-4.82,38.01],[-3.68,38.28],[-4.22,37.84],[-3.37,37.82],[-3.54,37.43],[-6.75,36.01],[-5.92,36.77],[-6.72,36.79],[-6,37.41],[-5.61,37.23],[-5.91,37.57],[-5.46,37.72],[-5.22,38.96],[-4,39.89]]]}},{"type":"Feature","properties":{},"geometry":{"type":"Polygon","coordinates":[[[-24.42,42.2],[-23.95,41.63],[-25,42.04],[-24.42,42.2]]]}},{"type":"Feature","properties":{},"geometry":{"type":"Polygon","coordinates":[[[-75.96,22.64],[-75.62,21.48],[-76.47,22.5],[-75.96,22.64]]]}},{"type":"Feature","properties":{},"geometry":{"type":"Polygon","coordinates":[[[-76.67,23.61],[-76.14,23.41],[-76.37,22.97],[-75.79,23.55],[-76.23,22.54],[-76.67,23.61]]]}},{"type":"Feature","properties":{},"geometry":{"type":"Polygon","coordinates":[[[149.88,56.9],[150.32,55.39],[149.89,54.29],[151.44,51.16],[150.73,51.79],[149.61,51.69],[149.04,50.37],[150.06,48.91],[149.83,48.58],[149.12,49.33],[148.42,48.49],[148.19,49.19],[148.7,50.58],[148.38,51.37],[149.01,53.73],[148.47,54.46],[148.79,56],[149.69,56.08],[149.33,56.88],[149.88,56.9]]]}},{"type":"Feature","properties":{},"geometry":{"type":"Polygon","coordinates":[[[-93.86,30.07],[-93.78,29.52],[-94.88,30.01],[-93.86,30.07]]]}},{"type":"Feature","properties":{},"geometry":{"type":"Polygon","coordinates":[[[144.17,65.52],[144.84,65.44],[143.61,65.1],[144.17,65.52]]]}},{"type":"Feature","properties":{},"geometry":{"type":"Polygon","coordinates":[[[2.03,41.33],[2.99,41.67],[1.94,41.51],[2.74,42.21],[1.67,42.35],[2.15,42.76],[1.66,43.19],[2.95,43.22],[3.22,43.67],[2.67,43.69],[3.73,44.42],[4.12,44.3],[3.77,43.98],[4.8,44.3],[5.38,43.62],[4.69,43.26],[4.85,42.77],[2.03,41.33]]]}},{"type":"Feature","properties":{},"geometry":{"type":"Polygon","coordinates":[[[3.31,40.9],[2.16,40.41],[2.39,40.7],[1.83,40.56],[2.3,40.85],[1.62,40.78],[2.12,41.11],[1.53,41.11],[4.85,42.77],[4.89,41.28],[3.31,40.9]]]}},{"type":"Feature","properties":{},"geometry":{"type":"Polygon","coordinates":[[[17.89,45.77],[18.25,45.29],[17.3,45.64],[17.89,45.77]]]}},{"type":"Feature","properties":{},"geometry":{"type":"Polygon","coordinates":[[[-74.91,41.24],[-74.89,40.49],[-75.01,40.94],[-75.36,40.74],[-74.91,41.24]]]}},{"type":"Feature","properties":{},"geometry":{"type":"Polygon","coordinates":[[[19.35,46.44],[19.33,45.29],[18.21,45.96],[19.2,45.98],[18.94,46.27],[19.35,46.44]]]}},{"type":"Feature","properties":{},"geometry":{"type":"Polygon","coordinates":[[[-76.84,25.81],[-76.01,24.86],[-76.39,24.77],[-75.94,24.65],[-75.99,24.08],[-76.71,24.72],[-76.84,25.81]]]}},{"type":"Feature","properties":{},"geometry":{"type":"Polygon","coordinates":[[[-22.25,45.47],[-22.3,44.72],[-22.04,45.22],[-22.38,44.7],[-22.21,45.08],[-22.96,44.78],[-22.25,45.47]]]}},{"type":"Feature","properties":{},"geometry":{"type":"Polygon","coordinates":[[[-77.18,26.41],[-76.87,26.05],[-77.2,25.48],[-77.18,26.41]]]}},{"type":"Feature","properties":{},"geometry":{"type":"Polygon","coordinates":[[[4.32,46.79],[4.88,46.37],[4.63,46.11],[3.98,46.48],[4.32,46.79]]]}},{"type":"Feature","properties":{},"geometry":{"type":"Polygon","coordinates":[[[23.96,48.81],[24.21,48.39],[23.72,47.8],[23.52,48.42],[23.96,48.81]]]}},{"type":"Feature","properties":{},"geometry":{"type":"Polygon","coordinates":[[[-77.49,24.38],[-77.39,23.44],[-78.05,24.11],[-77.49,24.38]]]}},{"type":"Feature","properties":{},"geometry":{"type":"Polygon","coordinates":[[[-77.41,27.82],[-76.89,26.92],[-77.39,26.51],[-77.41,27.82]]]}},{"type":"Feature","properties":{},"geometry":{"type":"Polygon","coordinates":[[[26.73,49.96],[27.36,49.89],[26.52,49.2],[26.17,49.76],[26.73,49.96]]]}},{"type":"Feature","properties":{},"geometry":{"type":"Polygon","coordinates":[[[6.49,47.87],[6.72,47.6],[5.77,47.09],[6.27,47.06],[5.43,45.85],[4.5,45.8],[5.11,46.23],[4.69,46.96],[5.27,46.95],[4.94,47.19],[5.21,47.76],[6.49,47.87]]]}},{"type":"Feature","properties":{},"geometry":{"type":"Polygon","coordinates":[[[6.21,46.81],[7.83,46.91],[7.41,45.83],[6.8,45.6],[7.41,45.54],[6.43,45.31],[7.82,45.21],[8.39,44.63],[5.74,43.81],[5.65,45.09],[5.96,45.1],[5.72,45.36],[5.32,44.99],[5.58,45.42],[5,44.41],[4.99,45.41],[6.21,46.81]]]}},{"type":"Feature","properties":{},"geometry":{"type":"Polygon","coordinates":[[[8.39,44.63],[8.72,43.94],[9.72,43.54],[9.98,43.03],[9.28,43.09],[10.01,42.92],[9.96,42.32],[11.35,42.27],[11.36,41.62],[10.44,40.91],[11.34,40.69],[5.64,39.17],[6.71,40.39],[7.71,40.48],[8.19,41.1],[7.43,40.63],[5.75,41.05],[6.8,41.77],[6.66,42.13],[6.1,41.96],[6.41,42.31],[7.67,42.58],[7.53,43.49],[7.18,43.35],[6.92,43.99],[8.39,44.63]]]}},{"type":"Feature","properties":{},"geometry":{"type":"Polygon","coordinates":[[[26.56,50.43],[27.03,50.23],[26.19,50.2],[26.56,50.43]]]}},{"type":"Feature","properties":{},"geometry":{"type":"Polygon","coordinates":[[[-10.9,50],[-10.79,49.62],[-11.25,49.93],[-10.9,50]]]}},{"type":"Feature","properties":{},"geometry":{"type":"Polygon","coordinates":[[[-21.46,51.2],[-21.9,50.42],[-22.13,50.87],[-21.46,51.2]]]}},{"type":"Feature","properties":{},"geometry":{"type":"Polygon","coordinates":[[[-23.39,51.97],[-23.23,51.67],[-24.65,51.21],[-24.38,51.89],[-23.39,51.97]]]}},{"type":"Feature","properties":{},"geometry":{"type":"Polygon","coordinates":[[[-39.77,81.57],[-49.01,81.27],[-47.72,81.45],[-48.22,81.68],[-42.21,81.9],[-39.77,81.57]]]}},{"type":"Feature","properties":{},"geometry":{"type":"Polygon","coordinates":[[[-24.98,55.06],[-24.76,54.34],[-24.38,54.56],[-22.73,53.49],[-22.98,52.92],[-21.69,52.61],[-22.43,52.34],[-23.72,53.19],[-25.69,52.28],[-25.73,52.94],[-26.85,52.89],[-25.97,53.3],[-24.98,55.06]]]}},{"type":"Feature","properties":{},"geometry":{"type":"Polygon","coordinates":[[[60.44,65.18],[60.78,64.98],[59.93,64.84],[60.44,65.18]]]}},{"type":"Feature","properties":{},"geometry":{"type":"Polygon","coordinates":[[[-16.74,56.62],[-16.16,56.35],[-17.1,56.58],[-16.74,56.62]]]}},{"type":"Feature","properties":{},"geometry":{"type":"Polygon","coordinates":[[[-17.8,56.95],[-17.24,56.74],[-17.49,56.03],[-18.77,55.92],[-18.56,56.75],[-17.8,56.95]]]}},{"type":"Feature","properties":{},"geometry":{"type":"Polygon","coordinates":[[[17.57,59.36],[17.75,58.94],[17.94,59.36],[18.28,59.04],[17.35,58.63],[17.57,59.36]]]}},{"type":"Feature","properties":{},"geometry":{"type":"Polygon","coordinates":[[[-14.44,77.53],[-22.97,78.55],[-26.68,79.75],[-28.04,79.64],[-25.02,79.08],[-30.75,78.78],[-36.74,79.25],[-35.56,79.57],[-36.28,79.78],[-33.83,79.75],[-35.72,80],[-31.14,80.13],[-34.57,80.53],[-32.79,81.01],[-36.24,81.16],[-34.08,81.28],[-35.02,81.38],[-34.55,81.48],[-26.96,81.35],[-24.24,80.77],[-17.76,80.91],[-16.56,80.38],[-17.44,80.01],[-14.46,80.53],[-15.54,80.96],[-13.93,80.72],[-13.91,77.44],[-14.44,77.53]]]}},{"type":"Feature","properties":{},"geometry":{"type":"Polygon","coordinates":[[[17.14,59.37],[17.47,59.06],[16.82,58.91],[17.14,59.37]]]}},{"type":"Feature","properties":{},"geometry":{"type":"Polygon","coordinates":[[[41.05,63.78],[41.69,63.49],[40.69,62.99],[40.15,63.42],[41.05,63.78]]]}},{"type":"Feature","properties":{},"geometry":{"type":"Polygon","coordinates":[[[18.61,60.04],[19,59.78],[18.22,59.55],[18.61,60.04]]]}},{"type":"Feature","properties":{},"geometry":{"type":"Polygon","coordinates":[[[19.19,60.51],[19.34,60.22],[18.81,60.14],[19.19,60.51]]]}},{"type":"Feature","properties":{},"geometry":{"type":"Polygon","coordinates":[[[-31.66,59.73],[-30.59,58.68],[-31.71,58.41],[-33.44,59.1],[-31.99,59.93],[-31.66,59.73]]]}},{"type":"Feature","properties":{},"geometry":{"type":"Polygon","coordinates":[[[2.05,75.49],[1.04,75.84],[3.15,75.58],[2.05,75.49]]]}},{"type":"Feature","properties":{},"geometry":{"type":"Polygon","coordinates":[[[19.36,60.75],[19.72,60.69],[19.09,60.55],[19.36,60.75]]]}},{"type":"Feature","properties":{},"geometry":{"type":"Polygon","coordinates":[[[-6.88,53.7],[-5.76,52.97],[-7.22,52.83],[-6.69,52.83],[-7.55,53.16],[-6.88,53.7]]]}},{"type":"Feature","properties":{},"geometry":{"type":"Polygon","coordinates":[[[46.66,66.2],[48.59,65.76],[46.78,65.77],[46.66,66.2]]]}},{"type":"Feature","properties":{},"geometry":{"type":"Polygon","coordinates":[[[21.89,61.68],[21.99,61.36],[21.57,61.41],[21.89,61.68]]]}},{"type":"Feature","properties":{},"geometry":{"type":"Polygon","coordinates":[[[9,54.34],[9.29,53.98],[7.73,53.68],[9,54.34]]]}},{"type":"Feature","properties":{},"geometry":{"type":"Polygon","coordinates":[[[41.1,66.03],[41.88,65.71],[40.84,65.87],[41.1,66.03]]]}},{"type":"Feature","properties":{},"geometry":{"type":"Polygon","coordinates":[[[-13.3,75.52],[-12.13,75.4],[-13.31,75.03],[-13.3,75.52]]]}},{"type":"Feature","properties":{},"geometry":{"type":"Polygon","coordinates":[[[-15.01,74.83],[-17.11,75.16],[-13.91,75.45],[-13.92,74.9],[-15.01,74.83]]]}},{"type":"Feature","properties":{},"geometry":{"type":"Polygon","coordinates":[[[144.33,82.25],[145.64,82.22],[143.28,82.15],[144.33,82.25]]]}},{"type":"Feature","properties":{},"geometry":{"type":"Polygon","coordinates":[[[-11.64,35.36],[-10.82,34.32],[-9.48,33.87],[-8.99,34.16],[-8.19,33.59],[-11.03,32.87],[-12.06,31.78],[-12.6,32.08],[-12.34,32.91],[-12.63,32.77],[-11.17,33.64],[-10.93,33.25],[-10.19,33.66],[-11.55,33.64],[-11.2,34.28],[-14.46,32.62],[-15.06,32.87],[-15.22,32.37],[-16.13,32.18],[-16.89,30.8],[-16.31,30.18],[-16.06,30.51],[-16.02,30.01],[-17.07,29.96],[-17.2,30.31],[-17.32,29.88],[-18.03,29.82],[-15.57,33.06],[-11.64,35.36]]]}},{"type":"Feature","properties":{},"geometry":{"type":"Polygon","coordinates":[[[-13.18,-23.78],[-15.67,-28.27],[-14.58,-26.36],[-15.36,-26],[-15.1,-26.33],[-15.9,-27.85],[-16.02,-29.27],[-17.12,-31.03],[-18.97,-31.58],[-20.68,-31.39],[-21.37,-30.82],[-21.18,-29.88],[-21.52,-30.11],[-21.35,-31.45],[-19.87,-32.1],[-19.69,-32.97],[-27.53,-31.67],[-29.28,-31.09],[-34.78,-24.22],[-35.26,-22.36],[-35.08,-20.49],[-35.83,-18.03],[-29.01,-20.62],[-22.28,-22.53],[-13.18,-23.78]]]}},{"type":"Feature","properties":{},"geometry":{"type":"Polygon","coordinates":[[[-23.54,-35.11],[-24.12,-34.98],[-23.6,-35.54],[-23.91,-35.5],[-23.56,-37.09],[-26.12,-37.45],[-25.7,-38.65],[-25.09,-38.92],[-24.53,-38.44],[-24.22,-39.1],[-25.5,-39.21],[-24.79,-39.41],[-25.53,-40.23],[-25.33,-41.51],[-26.59,-42.11],[-26.91,-42.99],[-25.85,-43.74],[-24.83,-43.76],[-24.61,-44.49],[-26.7,-47.55],[-26.4,-48.67],[-25.37,-49.16],[-27.47,-49.94],[-27.32,-51.12],[-28.64,-50.84],[-27.96,-50.83],[-27.63,-50.13],[-28.17,-49.88],[-29.39,-50.06],[-29.24,-50.56],[-29.7,-50.62],[-29.38,-50.09],[-30.09,-50.41],[-30.39,-49.75],[-29.49,-49.83],[-29.53,-49.5],[-29.2,-49.71],[-29.5,-50.02],[-29.11,-49.96],[-29.31,-49.28],[-30.1,-48.86],[-29.39,-49.26],[-30.16,-49.23],[-29.69,-49.44],[-29.89,-49.72],[-30.23,-49.3],[-29.93,-49.8],[-30.72,-49.37],[-30.63,-48.91],[-31.28,-48.74],[-30.59,-48.37],[-30.89,-48.12],[-31.13,-48.64],[-31.28,-48.18],[-31.99,-48.13],[-31.18,-48.08],[-31.87,-47.51],[-31.22,-47.49],[-31.79,-46.93],[-32.04,-47.3],[-32.29,-46.73],[-31.95,-46.61],[-32.32,-46.53],[-31.91,-46.27],[-32.78,-46],[-31.48,-45.79],[-32.07,-45.41],[-32.94,-45.73],[-32.45,-45.52],[-32.86,-45.4],[-32.5,-45.07],[-32.86,-44.72],[-34.19,-44.98],[-33.61,-43.88],[-33.01,-43.78],[-32.51,-44.49],[-32.18,-43.48],[-32.53,-43.66],[-32.56,-43.31],[-31.93,-43.18],[-32.68,-43.07],[-32.01,-42.24],[-32.79,-42.04],[-32.57,-40.35],[-32.94,-40.15],[-32.46,-40.26],[-33.09,-39.78],[-32.65,-39.28],[-33.97,-39.76],[-34.42,-38.06],[-34.1,-37.36],[-35.12,-35.44],[-34.67,-35.14],[-34.07,-31.38],[-35.04,-26.9],[-34.83,-22.96],[-30.98,-27.29],[-27.76,-32.1],[-23.54,-35.11]]]}},{"type":"Feature","properties":{},"geometry":{"type":"Polygon","coordinates":[[[-37.7,11.67],[-35.72,11.99],[-34.5,11.54],[-33.12,12.18],[-33.76,12.27],[-31.37,12.68],[-32.39,12.31],[-31.73,11.68],[-30.21,11.52],[-30.21,10.63],[-29.28,10.76],[-27.78,9.97],[-27.56,8.8],[-27.3,9.31],[-26.01,8.39],[-23.94,8.84],[-21.77,8.56],[-19.9,7.45],[-19.33,5.86],[-18.23,4.93],[-19.5,2.85],[-18.88,3.42],[-19.14,2.7],[-18.57,3.36],[-16.51,3.4],[-16.84,2.2],[-18.34,1.53],[-17.25,1.9],[-17.3,1.43],[-16.33,2.24],[-16.01,3.2],[-14.93,3.17],[-13.37,2.74],[-13.33,2.31],[-12.9,2.69],[-12.6,2.4],[-12.7,1.87],[-12.29,1.84],[-12.6,0.82],[-12.22,1.7],[-12.08,1.34],[-11.32,1.96],[-10.12,1.6],[-7.87,1.81],[-4.86,0.03],[-2.93,-0.31],[-2.25,-2.78],[-4.89,-7.65],[-5.37,-8.14],[-5.59,-7.77],[-5.45,-12.85],[-6.74,-17.34],[-7.61,-18.43],[-9.92,-18.63],[-13.26,-21.57],[-13.78,-21.53],[-13.38,-21.69],[-13.77,-22.32],[-13.43,-22.35],[-13.31,-24.26],[-22.38,-22.74],[-29.04,-20.62],[-35.76,-17.82],[-37.15,-16.37],[-41.89,-14.37],[-45.8,-8.44],[-47.01,-7.08],[-48.22,-6.56],[-48.03,-6],[-48.6,-4.81],[-47.54,-3.8],[-47.31,-2.91],[-47.58,-2.69],[-47.82,-3.15],[-48.64,-2.71],[-48.13,0.33],[-47.11,0.89],[-46.88,1.84],[-42.71,4.45],[-41.66,8.05],[-38.95,11.2],[-37.7,11.67]]]}},{"type":"Feature","properties":{},"geometry":{"type":"Polygon","coordinates":[[[-47.37,7.57],[-46.51,6.84],[-46.74,7.47],[-45.52,8.45],[-45.3,9.87],[-43.39,10.54],[-41.9,11.87],[-41.31,11.52],[-42.11,10.94],[-41.64,10.13],[-42.1,9.19],[-41.6,8.47],[-40.99,9.2],[-41.66,10.22],[-40.19,11.01],[-40.24,11.77],[-39.76,11.07],[-38.33,10.63],[-39.55,9.92],[-42.37,6.87],[-43.56,3.32],[-47.82,0.87],[-46.35,2.84],[-46.91,3.09],[-46.94,5.44],[-47.79,6.24],[-47.37,7.57]]]}},{"type":"Feature","properties":{},"geometry":{"type":"Polygon","coordinates":[[[-20.06,-32.22],[-19.39,-32.83],[-19.91,-34.15],[-23.68,-35.71],[-27.54,-33.15],[-29.61,-30.48],[-20.06,-32.22]]]}},{"type":"Feature","properties":{},"geometry":{"type":"Polygon","coordinates":[[[-63.82,29.17],[-63.46,29.09],[-63.51,29.65],[-64.2,29.66],[-65.02,32.08],[-63.92,32.64],[-62.46,31.74],[-60.67,28.55],[-60.32,27.12],[-60.69,26.03],[-63.82,29.17]]]}},{"type":"Feature","properties":{},"geometry":{"type":"Polygon","coordinates":[[[-65.02,32.08],[-64.52,33.29],[-64.73,34.63],[-63.6,37.91],[-63.13,37.89],[-63.65,37.96],[-63.56,38.59],[-63.16,38.6],[-63.59,38.62],[-63.76,40.12],[-62.12,39.67],[-62.48,38.56],[-61.77,38.95],[-61.95,40.31],[-61.1,40.61],[-61.09,39.17],[-59.5,38.93],[-58.68,37.71],[-56.74,37.34],[-57.43,35.7],[-61.64,34.09],[-65.02,32.08]]]}},{"type":"Feature","properties":{},"geometry":{"type":"Polygon","coordinates":[[[-69.96,18.07],[-70.26,18.34],[-69.71,18.42],[-69.96,18.07]]]}},{"type":"Feature","properties":{},"geometry":{"type":"Polygon","coordinates":[[[-69.4,18.89],[-70.26,18.47],[-70.41,19.32],[-70.35,18.86],[-70.82,18.77],[-70.71,19.47],[-71.03,19.01],[-71.43,19.32],[-71.08,19.77],[-71.6,19.61],[-71.11,20.24],[-71.52,20.5],[-71.66,19.67],[-72.41,19.78],[-71.94,20.34],[-72.34,19.93],[-72.36,20.49],[-73.15,20.2],[-72.66,20.46],[-73.4,20.59],[-72.65,21.11],[-73.4,20.79],[-73.45,21.18],[-72.96,21.58],[-72.65,21.22],[-72.84,21.58],[-72.41,21.69],[-73.01,21.79],[-72.57,21.84],[-70.11,20.1],[-69.4,18.89]]]}},{"type":"Feature","properties":{},"geometry":{"type":"Polygon","coordinates":[[[-72.86,21.96],[-73.75,21.55],[-73.43,22.03],[-73.86,22.35],[-72.86,21.96]]]}},{"type":"Feature","properties":{},"geometry":{"type":"Polygon","coordinates":[[[-58.13,27.15],[-58.3,26.62],[-60.41,26.48],[-60.39,27.83],[-62.07,31.19],[-63.92,32.64],[-61.64,34.09],[-57.43,35.7],[-56.74,37.34],[-56.15,37.3],[-55.41,37.01],[-58.13,27.15]]]}},{"type":"Feature","properties":{},"geometry":{"type":"Polygon","coordinates":[[[-58.23,27.06],[-58.14,26.39],[-58.69,26.52],[-59.73,27.8],[-60.73,28.13],[-57.67,38.5],[-55.93,37.99],[-56.25,36.67],[-54.45,35.26],[-55.98,31.58],[-57.55,29.91],[-58.23,27.06]]]}},{"type":"Feature","properties":{},"geometry":{"type":"Polygon","coordinates":[[[-54.63,24.14],[-57.25,24.86],[-58.14,26.11],[-59.53,26.95],[-58.7,30.43],[-57,32.02],[-55.42,34.66],[-55.19,35.61],[-56.89,37.11],[-56.46,38.41],[-55.46,38.46],[-53.29,34.32],[-52.58,31.59],[-52.69,28.26],[-54.36,25.98],[-54.63,24.14]]]}},{"type":"Feature","properties":{},"geometry":{"type":"Polygon","coordinates":[[[-45.37,6.37],[-46.3,7.35],[-47.81,7.03],[-49.17,7.77],[-54.69,13.1],[-55,14.36],[-54.53,14.38],[-54.18,15.2],[-54.34,16.54],[-55.52,19.5],[-56.39,20.32],[-56.08,21.23],[-57.54,23.79],[-57.88,26.33],[-55.7,22.91],[-54.34,21.65],[-50.78,18.62],[-48.23,17.67],[-47.62,11.11],[-47.03,9.7],[-44.42,6.42],[-45.37,6.37]]]}},{"type":"Feature","properties":{},"geometry":{"type":"Polygon","coordinates":[[[-42.49,16.78],[-40.68,15.4],[-38.22,16.55],[-37.69,16.4],[-35.47,14.57],[-37.33,13.9],[-37.18,13.62],[-38.43,12.91],[-38.12,13.51],[-38.71,13.38],[-39.56,12.22],[-40.88,11.93],[-40.74,11.65],[-43.26,13.85],[-43.34,16.02],[-42.49,16.78]]]}},{"type":"Feature","properties":{},"geometry":{"type":"Polygon","coordinates":[[[-56.88,24.23],[-57.2,22.41],[-55.49,18.48],[-55.34,16],[-54.42,14.83],[-54.98,14.38],[-56.58,16.85],[-56.23,17.66],[-56.85,19.14],[-57.35,19],[-58.31,20.33],[-57.37,19.98],[-57.21,20.83],[-58.3,22.43],[-58.68,26.1],[-59.44,27.24],[-61.12,28.27],[-61.67,31.59],[-59.88,28.62],[-57.87,26.85],[-56.88,24.23]]]}},{"type":"Feature","properties":{},"geometry":{"type":"Polygon","coordinates":[[[-55.92,23.49],[-55.78,23.92],[-57.31,24.88],[-58.62,27.39],[-60.1,28.38],[-59.78,28.81],[-59.02,29.1],[-57.11,28.67],[-55.7,27.07],[-53.78,26.05],[-52.91,24.79],[-50.3,24.04],[-48.66,22.91],[-48.09,21.86],[-48.03,17.56],[-53.13,20.5],[-55.92,23.49]]]}},{"type":"Feature","properties":{},"geometry":{"type":"Polygon","coordinates":[[[-53.46,77.64],[-53.09,78.04],[-53.77,78.46],[-52.03,78.39],[-53.01,78.55],[-50.28,79.15],[-40.74,79.17],[-43.45,77.49],[-46.01,77.67],[-48.69,76.77],[-53.46,77.64]]]}},{"type":"Feature","properties":{},"geometry":{"type":"Polygon","coordinates":[[[-48.47,76.71],[-44.81,76.79],[-47.49,76.61],[-45.72,76.39],[-42.75,76.91],[-35.3,76.68],[-35.73,76.49],[-34.85,76.1],[-37.38,75.42],[-36.17,74.2],[-37.18,73.79],[-37.4,73.08],[-38.54,72.77],[-38.35,72.07],[-40.23,72.39],[-40.61,72.18],[-39.94,71.91],[-44.38,71.37],[-44.91,70.8],[-48.47,69.7],[-48.72,69.09],[-53.51,67.37],[-56.02,68.05],[-58.09,70.76],[-54.66,71.89],[-51.08,74.47],[-47.14,75.81],[-48.47,76.71]]]}},{"type":"Feature","properties":{},"geometry":{"type":"Polygon","coordinates":[[[-19.56,29.07],[-20.42,27.6],[-21.04,28.3],[-20.62,27.11],[-21.51,25.84],[-21.17,26.68],[-21.75,27.59],[-21.32,28.3],[-21.94,28.01],[-21.77,26.78],[-22.62,27.25],[-21.71,26.62],[-22.29,26.75],[-21.83,25.75],[-22.38,26.01],[-21.57,25.65],[-21.25,24.5],[-21.56,25.44],[-21.45,24.79],[-22.28,24.73],[-21.42,24.34],[-22.51,24.23],[-22.11,24.02],[-22.58,23.79],[-22.01,23.65],[-26.26,21.52],[-26.96,20.2],[-26,15.8],[-26.52,14.2],[-27.16,14.24],[-27.65,15.04],[-27.6,15.85],[-27.89,15.7],[-28.41,16.67],[-28.09,17.12],[-28.52,17.07],[-28.19,18.08],[-29.5,19.51],[-30.64,19.06],[-30.78,19.73],[-31.62,19.89],[-31.32,19.96],[-33.02,19.85],[-32.92,20.44],[-33.11,19.95],[-34.15,20.05],[-36.43,21.17],[-29.03,22.54],[-26.15,24.29],[-22.42,27.73],[-19.56,29.07]]]}},{"type":"Feature","properties":{},"geometry":{"type":"Polygon","coordinates":[[[-51.53,9.27],[-48.83,6.97],[-48.2,4.99],[-51.39,2.46],[-52.89,2.54],[-53.01,3.11],[-53.22,2.53],[-53.35,3.47],[-52.71,3.85],[-52.84,6.54],[-52.5,6.29],[-52.29,6.71],[-53.22,7.25],[-54.67,9.84],[-54.94,12.63],[-54.07,12.22],[-53.47,10.96],[-51.53,9.27]]]}},{"type":"Feature","properties":{},"geometry":{"type":"Polygon","coordinates":[[[-27.31,59],[-27.87,58.87],[-27.39,58.33],[-27.72,57.79],[-26.28,58.58],[-25.77,58],[-26.34,57.3],[-25.88,56.35],[-24.23,57.84],[-23.38,58.05],[-23.93,58.36],[-23.79,58.96],[-21.69,58.55],[-22.38,58.51],[-21.2,58.05],[-21.77,57.79],[-21.3,57.5],[-22.3,57.39],[-21.58,56.33],[-23.36,55.35],[-23.59,55.95],[-24.5,55.99],[-24.05,56.01],[-23.74,55.18],[-25.68,55.76],[-25.17,55.33],[-26.46,54.6],[-29.19,55.54],[-26.25,54.5],[-27.73,53.39],[-28.69,53.7],[-29.43,53.01],[-31.74,53.81],[-29.48,52.73],[-32.23,51.83],[-31.85,51.54],[-32.75,51.31],[-32.37,51.2],[-33.56,49.95],[-33.97,49.07],[-32.63,48.6],[-32.4,47.17],[-32.74,46.76],[-31.01,46.87],[-27.08,44.48],[-24.91,44.2],[-25.21,42],[-23.91,40.27],[-23.42,40.07],[-22.97,40.54],[-22.66,40.01],[-22.19,41.18],[-22.38,42.83],[-22.93,43.51],[-21.27,44.03],[-20.14,45.13],[-20.3,46.74],[-21.44,47.47],[-20.21,48.71],[-20.56,49.13],[-20.29,49.57],[-20.83,49.55],[-20.15,50.25],[-20.56,51.01],[-19.94,51.3],[-17.89,50.69],[-17.21,51.03],[-16.28,50.07],[-15.75,50.09],[-15.85,49.63],[-14.28,49.48],[-14.46,48.49],[-15.5,48.53],[-14.54,48.39],[-14.63,47.73],[-14.15,47.47],[-15.18,47.1],[-13.92,47.32],[-13.5,46.93],[-14.5,46.14],[-13.36,46.96],[-13.18,46.29],[-12.1,47.19],[-11.86,46.64],[-11.81,47.24],[-11.26,47.36],[-11.59,47.59],[-11.05,47.7],[-11.41,48.07],[-10.51,48.55],[-10.77,48.33],[-9.79,47.48],[-10.33,47.32],[-9.42,46.98],[-10.01,46.58],[-9.21,46.75],[-9.83,46.26],[-9.13,46.44],[-8.72,45.9],[-9.23,45.77],[-8.32,45.36],[-8.58,44.88],[-9.28,45.05],[-7.81,43.8],[-7.52,44.03],[-7.82,43.25],[-7.1,43.59],[-6.81,43.42],[-7.22,43],[-6.6,43.49],[-6.59,43.08],[-5.18,42.83],[-7.91,41.5],[-5.27,42.45],[-5.15,41.71],[-4.08,41.81],[-3.94,41.11],[-4.26,41.1],[-3.89,40.89],[-4.53,40.86],[-3.79,40.71],[-4.28,40.71],[-3.84,40.35],[-4.86,39.68],[-6.28,39.71],[-6.51,39],[-7.47,38.45],[-12.61,38.61],[-13.4,37.68],[-14.84,37.19],[-16.73,35.34],[-14.11,37.03],[-12.48,37.53],[-10.79,37.05],[-11.17,37.14],[-10.84,36.8],[-11.71,36.33],[-12.98,36.34],[-11.24,36.04],[-11.64,35.36],[-15.57,33.06],[-18.03,29.82],[-19.22,29.61],[-22.42,27.73],[-25.57,24.75],[-28.42,22.86],[-33.21,21.47],[-39.44,21.37],[-44.81,18.79],[-44.84,16.66],[-47.51,17.15],[-48.2,18.63],[-48.3,22.45],[-50.06,23.78],[-50.34,24.5],[-50.01,25.88],[-48.2,28.67],[-48.53,33.26],[-50.61,37.19],[-53.06,44.92],[-56.55,48.42],[-57.23,49.7],[-58.16,53.75],[-56.87,55.06],[-56.5,57.47],[-60.64,60.47],[-60.27,62.42],[-59.33,63.33],[-59.81,63.93],[-58.73,63.47],[-58.66,64.09],[-57.06,64.31],[-56.7,64.03],[-57.32,63.86],[-53.1,64.05],[-55.75,63.49],[-54.76,63.68],[-55.11,63.18],[-54.14,63.64],[-51.48,63.65],[-51.95,63.83],[-51.64,64.1],[-51.04,62.58],[-49.61,63.26],[-50.28,62.45],[-48.03,62.51],[-46,61.25],[-44.1,60.77],[-43.67,60.19],[-45.31,59.96],[-44.98,59.77],[-41.25,59.36],[-40.21,58.42],[-40.75,58.37],[-40.18,57.44],[-40.37,57.92],[-39.68,58.19],[-39.98,58.91],[-37.82,59.46],[-40.24,59.45],[-38,59.8],[-37.19,58.57],[-36.57,58.78],[-35.92,58.18],[-33.34,57.88],[-33.2,58.55],[-32.6,58.63],[-31.66,58.26],[-32.03,57.99],[-31.33,58.19],[-32.09,57.43],[-31.41,57.04],[-31.14,57.93],[-29.44,58.31],[-29.57,58.78],[-30.27,58.53],[-29.19,59.2],[-30.88,60.03],[-30.09,60.53],[-30.59,60.67],[-30.27,61.13],[-28.74,61.55],[-29.06,61.68],[-28.23,61.38],[-28.25,60.44],[-27.57,59.68],[-28.77,59.31],[-27.31,59]]]}},{"type":"Feature","properties":{},"geometry":{"type":"Polygon","coordinates":[[[-77,24.64],[-77.2,24.17],[-77.52,24.5],[-77.21,24.93],[-77.8,25.37],[-77.55,24.66],[-77.99,24.51],[-78.58,27.66],[-79.79,29.03],[-81.35,30.16],[-82.89,30.33],[-82.49,30.59],[-85.79,30.23],[-86.29,29.89],[-85.96,29.49],[-86.92,29.2],[-90.15,29.23],[-90.49,28.88],[-92.36,29.38],[-92.33,29.7],[-93.81,29.78],[-92.24,29.99],[-91.56,29.34],[-91.23,29.78],[-89.01,29.78],[-87.61,30.72],[-88.49,30.85],[-88.26,31.29],[-88.98,30.91],[-89.24,31.82],[-86.13,32.72],[-81.39,32.16],[-80.18,31.67],[-78.12,29.74],[-77,24.64]]]}},{"type":"Feature","properties":{},"geometry":{"type":"Polygon","coordinates":[[[-67.39,34.68],[-67.1,34.91],[-67.4,34.71],[-68.33,36.27],[-73.08,38.59],[-72.07,38.43],[-73.04,38.9],[-72.85,39.58],[-73.61,38.86],[-74.03,39.42],[-73.64,39.18],[-73.92,39.48],[-73.4,39.63],[-74.34,39.66],[-73.44,40.47],[-73.99,40.31],[-73.85,40.93],[-74.07,40.29],[-73.99,41.23],[-73.98,40.58],[-74.62,40.06],[-74.51,41.05],[-75.14,41.3],[-75.5,40.8],[-75.08,41.53],[-76.59,42.57],[-76.26,42.65],[-76.69,43.01],[-76.14,42.8],[-76.83,43.24],[-76.48,43.43],[-76.97,43.36],[-76.72,43.84],[-77.48,43.68],[-77.89,44.79],[-77.8,44.01],[-82.21,48.22],[-78.12,48.16],[-76.89,47.67],[-76.01,45.76],[-73.94,44.25],[-71.67,43.63],[-66.13,36.92],[-65.51,33.31],[-67.02,33.28],[-67.39,34.68]]]}},{"type":"Feature","properties":{},"geometry":{"type":"Polygon","coordinates":[[[-63.74,51.68],[-62.79,49.99],[-62.68,46.51],[-64.03,47.7],[-64.64,49.76],[-63.74,51.68]]]}},{"type":"Feature","properties":{},"geometry":{"type":"Polygon","coordinates":[[[-65.7,61.74],[-65.58,60.19],[-63.13,58.97],[-61.52,57.5],[-61.81,55.08],[-63.06,53.76],[-62.02,49.72],[-61.3,48.45],[-57.73,44.99],[-55.46,38.46],[-61,39.7],[-61.89,40.3],[-62.16,41.17],[-61.4,44.15],[-61.51,45.43],[-62.54,47.12],[-63.09,49.9],[-65.21,54.64],[-68.4,58.1],[-75.39,62.88],[-73.79,63.32],[-67.05,63.24],[-65.12,63.92],[-64.61,63.33],[-65.7,61.74]]]}},{"type":"Feature","properties":{},"geometry":{"type":"Polygon","coordinates":[[[57.9,71.16],[57.06,70.77],[57.09,71.15],[57.9,71.16]]]}},{"type":"Feature","properties":{},"geometry":{"type":"Polygon","coordinates":[[[9.42,56.23],[10.67,55.95],[10.29,55.85],[10.64,55.56],[9.42,56.23]]]}},{"type":"Feature","properties":{},"geometry":{"type":"Polygon","coordinates":[[[9.89,56.45],[10.68,56.16],[9.19,56.29],[9.89,56.45]]]}},{"type":"Feature","properties":{},"geometry":{"type":"Polygon","coordinates":[[[57.4,71.84],[58.31,71.58],[57.41,71.5],[57.4,71.84]]]}},{"type":"Feature","properties":{},"geometry":{"type":"Polygon","coordinates":[[[54.05,71.02],[54.44,70.81],[53.8,70.83],[54.05,71.02]]]}},{"type":"Feature","properties":{},"geometry":{"type":"Polygon","coordinates":[[[-40.12,64.89],[-40.27,64.32],[-40.9,64.15],[-39.57,64.39],[-38.63,63.92],[-39.3,63.56],[-37.93,63.54],[-38.14,64.09],[-37.49,63.94],[-37.12,63.55],[-37.36,62.51],[-36.79,62.74],[-36.42,64.02],[-35.27,63.89],[-34.91,63.36],[-35.62,61.66],[-33.81,60.5],[-33.93,60.11],[-35.76,60.27],[-35.88,59.66],[-35.05,59.97],[-34.86,59.57],[-35.86,59.34],[-37.33,59.65],[-37.06,59.8],[-38.02,60.06],[-37.96,60.38],[-41.72,59.98],[-43.19,60.17],[-42.78,60.85],[-44.76,61.46],[-44.93,62.11],[-44.5,62.19],[-40.67,61.67],[-41.97,62.35],[-44.56,62.72],[-44.77,63.18],[-42.1,63.26],[-44.61,63.86],[-43.11,64.65],[-40.12,64.89]]]}},{"type":"Feature","properties":{},"geometry":{"type":"Polygon","coordinates":[[[40.25,68.13],[41.48,68.12],[41.05,67.8],[41.52,67.91],[41.18,67.67],[41.65,67.45],[41.23,67.43],[42.12,66.85],[45.31,66.04],[42.32,65.62],[41.96,65.88],[42.46,66],[41.42,66.28],[40.12,66],[39.5,66.46],[40.1,66.57],[40.04,67.14],[39.58,67.11],[40.21,67.27],[39.2,67.29],[40.25,68.13]]]}},{"type":"Feature","properties":{},"geometry":{"type":"Polygon","coordinates":[[[8.98,56.75],[10.04,56.55],[8.54,56.48],[8.98,56.75]]]}},{"type":"Feature","properties":{},"geometry":{"type":"Polygon","coordinates":[[[51.28,70.61],[51.74,70.57],[50.76,70.17],[50.21,70.46],[51.28,70.61]]]}},{"type":"Feature","properties":{},"geometry":{"type":"Polygon","coordinates":[[[-34.07,64.27],[-33.81,63.99],[-34.81,63.42],[-35.43,64.18],[-34.07,64.27]]]}},{"type":"Feature","properties":{},"geometry":{"type":"Polygon","coordinates":[[[-19.21,62.53],[-17.34,62.13],[-16.84,61.45],[-19.03,61.49],[-19.62,62.12],[-19.21,62.53]]]}},{"type":"Feature","properties":{},"geometry":{"type":"Polygon","coordinates":[[[-17.16,53.25],[-17.54,53.48],[-17.5,52.96],[-18.46,53.25],[-19.1,52.86],[-20.18,53.44],[-19.34,54.17],[-16.63,53.98],[-17.21,54.72],[-15.45,55.74],[-15.98,56.89],[-16.48,56.95],[-16.23,57.19],[-17.37,57.62],[-18.21,57.33],[-17.4,57.82],[-18.37,58.3],[-18.14,58.65],[-18.63,58.43],[-18.54,58.88],[-19.25,59.44],[-19.75,59.13],[-19.37,58.62],[-21.22,59],[-20.8,58.56],[-21.99,59.26],[-21.25,58.81],[-23.91,59.12],[-24.09,59.66],[-25.2,59.49],[-25.9,60.43],[-24.3,60.16],[-26.01,60.71],[-25.55,61.75],[-23.79,62.82],[-21.91,62.78],[-23.45,61.82],[-23.53,61.12],[-22.82,60.31],[-24.19,60.15],[-23,59.96],[-22.44,60.65],[-23.3,61.11],[-22.2,61.12],[-22.73,61.95],[-19.89,62.54],[-19.43,61.5],[-20.16,60.7],[-19.24,61.25],[-18.78,60.98],[-19.03,60.69],[-18.18,60.41],[-18.76,60.94],[-17.97,60.87],[-18.44,61.08],[-18.21,61.32],[-16.41,61.06],[-17.16,60.3],[-15.86,60.49],[-16.7,60.26],[-16.24,60.2],[-16.62,59.74],[-15.57,60.28],[-16.1,59.94],[-15.61,60.08],[-15.9,59.57],[-14.96,60.13],[-14.12,59.7],[-15.14,59.09],[-13.82,59.48],[-14.81,58.88],[-14.26,58.98],[-14.59,58.47],[-13.38,59.28],[-13.93,58.88],[-13.12,59.18],[-12.41,58.87],[-13.71,58.44],[-12.69,58.54],[-13.64,58.02],[-12.35,58.68],[-11.79,58.28],[-13.7,57.95],[-11.5,57.6],[-13.05,57.74],[-12.43,57.58],[-13.08,57.36],[-12.28,57.14],[-13.36,57.21],[-11.57,56.78],[-12.41,56.63],[-11.36,56.45],[-11.44,56.1],[-11.12,56.35],[-11.23,55.91],[-10.31,56.28],[-10.67,55.95],[-10.18,56.11],[-9.83,55.63],[-10.4,55.67],[-9.84,55.55],[-10.36,55.31],[-9.24,55.61],[-9.78,55.11],[-9.09,55.24],[-9.15,54.91],[-8.53,55.32],[-8.02,54.88],[-9.15,54.61],[-8.5,54.27],[-9.27,54.39],[-8.76,54.07],[-9.15,54.19],[-9.03,53.85],[-9.62,54.21],[-9.68,53.17],[-11.01,54.05],[-10.16,54.65],[-11.26,54.26],[-10.94,54.7],[-11.32,54.43],[-12.62,54.99],[-12.12,54.37],[-12.98,54.44],[-12.6,54.14],[-12.87,53.8],[-12.28,54.01],[-11.95,53.05],[-11.84,53.37],[-10.79,52.79],[-11.24,52.62],[-10.49,52.28],[-10.46,51.54],[-10.99,52.11],[-10.54,51.2],[-11.02,51.34],[-10.99,50.88],[-11.9,51.75],[-11.94,51.34],[-12.86,52.14],[-12.7,51.76],[-13.64,52.14],[-11.59,50.2],[-15.47,51.52],[-15.94,51.93],[-15.26,52.05],[-16.26,52.35],[-16.62,53.19],[-17.26,52.89],[-17.16,53.25]]]}},{"type":"Feature","properties":{},"geometry":{"type":"Polygon","coordinates":[[[151.77,84.79],[156.83,84.23],[145.84,84.18],[151.77,84.79]]]}},{"type":"Feature","properties":{},"geometry":{"type":"Polygon","coordinates":[[[-30.7,63.95],[-29.2,63.67],[-30.53,62.96],[-29.81,62.82],[-29.51,62.21],[-29.93,61.73],[-31.05,61.89],[-31.13,61.51],[-31.98,61.45],[-33.32,63.11],[-31.53,62.97],[-31.38,63.45],[-32.12,63.69],[-30.7,63.95]]]}},{"type":"Feature","properties":{},"geometry":{"type":"Polygon","coordinates":[[[-26.78,63.69],[-24.96,63.2],[-26.71,62.21],[-28.08,62.4],[-27.73,62.02],[-29.07,61.7],[-28.4,63.39],[-26.78,63.69]]]}},{"type":"Feature","properties":{},"geometry":{"type":"Polygon","coordinates":[[[147.1,84.79],[144.63,84.97],[147.7,84.86],[147.1,84.79]]]}},{"type":"Feature","properties":{},"geometry":{"type":"Polygon","coordinates":[[[80.75,79.17],[82.76,78.93],[80.2,79.09],[80.75,79.17]]]}},{"type":"Feature","properties":{},"geometry":{"type":"Polygon","coordinates":[[[-43.1,66.76],[-42.09,66.18],[-42.32,66],[-41.04,66],[-40.51,65.08],[-47.61,63.83],[-48.16,64.91],[-48.86,65.07],[-45.45,66.35],[-45.38,67.01],[-43.1,66.76]]]}},{"type":"Feature","properties":{},"geometry":{"type":"Polygon","coordinates":[[[11.88,58.9],[12.12,58.54],[11.34,58.87],[11.88,58.9]]]}},{"type":"Feature","properties":{},"geometry":{"type":"Polygon","coordinates":[[[-27.33,65.53],[-27.61,65.74],[-26.73,65.73],[-27.33,65.53]]]}},{"type":"Feature","properties":{},"geometry":{"type":"Polygon","coordinates":[[[179.99,86.17],[173.08,85.83],[162.19,86.3],[162.9,86.68],[179.99,86.17]]]}},{"type":"Feature","properties":{},"geometry":{"type":"Polygon","coordinates":[[[-22.05,64.55],[-21.93,64.08],[-22.62,63.62],[-23.81,64.32],[-22.05,64.55]]]}},{"type":"Feature","properties":{},"geometry":{"type":"Polygon","coordinates":[[[129.85,86.69],[158.58,86.55],[152.53,86.03],[153.54,85.95],[153.13,85.88],[139.48,85.59],[140.45,85.55],[139.78,85.29],[129.85,85.62],[126.5,86.26],[129.85,86.69]]]}},{"type":"Feature","properties":{},"geometry":{"type":"Polygon","coordinates":[[[60.98,77.14],[61.87,77.17],[60.7,77],[60.98,77.14]]]}},{"type":"Feature","properties":{},"geometry":{"type":"Polygon","coordinates":[[[-24.74,66.77],[-24.63,66.43],[-25.43,66.55],[-24.74,66.77]]]}},{"type":"Feature","properties":{},"geometry":{"type":"Polygon","coordinates":[[[-22.26,65.94],[-23.57,64.74],[-24.43,64.55],[-25.58,64.92],[-24.36,65.33],[-25.96,65.65],[-24.93,65.63],[-24.13,66.26],[-24.08,65.53],[-23.46,65.67],[-23.66,66.16],[-22.26,65.94]]]}},{"type":"Feature","properties":{},"geometry":{"type":"Polygon","coordinates":[[[-26.44,67.58],[-27.97,66.75],[-26.7,66.36],[-28.26,65.85],[-32.59,66.54],[-32.93,67.07],[-30.27,66.83],[-32.03,67.24],[-31.35,67.54],[-32.73,67.38],[-32.45,67.54],[-33.03,67.5],[-33.43,68.06],[-31.41,67.89],[-32.57,68.21],[-30.87,67.98],[-31.7,68.33],[-29.67,68.43],[-29.9,68.04],[-29.26,67.77],[-29.92,67.09],[-28.94,66.67],[-28.05,67.55],[-26.44,67.58]]]}},{"type":"Feature","properties":{},"geometry":{"type":"Polygon","coordinates":[[[41.62,72.93],[43.01,72.91],[43.55,72.44],[41.13,70.66],[41.31,70.32],[40.88,70.18],[41.48,70.03],[40.86,69.95],[41.42,69.81],[40.73,69.84],[41.26,69.6],[40.47,69.58],[41.31,69.37],[40.54,69.02],[41.39,68.78],[40.44,68.76],[41.51,68.67],[40.53,68.61],[41.46,68.23],[39.66,67.92],[39.57,68.29],[40.41,68.46],[38.72,68.22],[39.4,68.56],[39.03,68.77],[40.1,68.83],[38.95,68.85],[39.31,69.22],[38.73,69.33],[39.47,69.49],[38.04,69.73],[39.01,70.15],[38.52,70.46],[39.58,71.11],[39.24,71.38],[41.65,72.29],[41.21,72.38],[41.62,72.93]]]}},{"type":"Feature","properties":{},"geometry":{"type":"Polygon","coordinates":[[[-20.43,65.84],[-19.8,65.47],[-20.47,65.04],[-19.11,64.98],[-18.96,64.68],[-19.45,64.84],[-18.64,64.37],[-19.72,64.54],[-19.23,63.92],[-19.54,63.59],[-15.93,63.13],[-15.03,62.39],[-15.82,62.16],[-15.42,61.94],[-17.07,61.84],[-17.48,62.45],[-18.25,62.19],[-21.76,63.3],[-20.31,64.93],[-21.53,65.14],[-21.09,65.47],[-21.51,65.77],[-20.43,65.84]]]}},{"type":"Feature","properties":{},"geometry":{"type":"Polygon","coordinates":[[[58.47,77.66],[58.02,77.47],[57.96,77.81],[58.47,77.66]]]}},{"type":"Feature","properties":{},"geometry":{"type":"Polygon","coordinates":[[[-28.12,69.35],[-30.89,68.66],[-31.24,68.9],[-30.27,69.14],[-33.24,68.88],[-32.87,69.23],[-34.33,69.43],[-29.72,69.68],[-28.12,69.35]]]}},{"type":"Feature","properties":{},"geometry":{"type":"Polygon","coordinates":[[[-17.51,65.68],[-17.43,65.29],[-17.95,65.26],[-17.51,65.68]]]}},{"type":"Feature","properties":{},"geometry":{"type":"Polygon","coordinates":[[[64.44,44.56],[63.38,44.19],[63.3,46.64],[59.92,50.67],[60.87,53.26],[60.71,54.52],[56.16,61.07],[56.45,62.35],[57.49,63.37],[61.19,62.37],[68.69,58.18],[73.85,56.56],[78.23,52.65],[92.71,47.96],[84.5,44.03],[76.73,38.17],[70.24,38.17],[65.97,39.67],[64.11,40.99],[65.41,42.86],[64.32,43.31],[64.44,44.56]]]}},{"type":"Feature","properties":{},"geometry":{"type":"Polygon","coordinates":[[[96.65,43.07],[97.88,42.75],[99.06,41.59],[96.39,39.62],[89.4,37.97],[87.46,36.49],[84.63,37.07],[80.43,40.17],[78.25,40.57],[84.19,43.13],[89.29,44.47],[96.65,43.07]]]}},{"type":"Feature","properties":{},"geometry":{"type":"Polygon","coordinates":[[[98.67,46.46],[94.85,45.27],[86.29,44.86],[92.71,47.96],[96.22,46.75],[98.67,46.46]]]}},{"type":"Feature","properties":{},"geometry":{"type":"Polygon","coordinates":[[[103.01,36.43],[108.5,34.24],[106.37,33.96],[100.59,35.22],[93.8,35.5],[84.86,34.18],[85.47,35.01],[92.43,38.08],[95.05,38.73],[103.01,36.43]]]}},{"type":"Feature","properties":{},"geometry":{"type":"Polygon","coordinates":[[[143.38,56.59],[144.6,56.69],[143.88,56.33],[144.66,56.29],[145.37,56.69],[145.2,56.22],[145.48,56.98],[146.68,56.95],[148.32,55.91],[147.59,55.74],[148.36,54.76],[147.3,53.87],[146.6,51.1],[141,46.32],[139.47,45.65],[138,45.72],[138,46.22],[137.47,46.23],[136.82,45.46],[132.7,46.6],[119.55,46.3],[108.54,44.76],[104.85,45.43],[98.23,45.26],[96,45.94],[94.15,47.32],[100.05,47.09],[105.24,48],[109.85,49.87],[113.87,50.63],[116.89,52.29],[121.81,53.08],[125.17,55.74],[128.3,57.03],[134.99,56.35],[143.38,56.59]]]}},{"type":"Feature","properties":{},"geometry":{"type":"Polygon","coordinates":[[[79.11,77.4],[79.48,77.19],[79.02,77.03],[79.92,76.51],[79.48,77.01],[81.82,77.37],[80.98,77.43],[82.28,78.26],[80.26,78.31],[81.57,78.65],[86.45,78.45],[86.68,78.66],[85.51,78.65],[91.09,79.7],[94.29,79.47],[99.15,80.08],[96.47,80.68],[97.43,80.74],[97.14,80.97],[107.67,81.29],[108.05,81.25],[107.21,81.19],[110.96,80.59],[109.9,80.26],[112.44,80.23],[111.45,80.1],[111.74,80.01],[118.06,79.9],[116.88,80.63],[120.79,79.48],[122.72,77.44],[123.79,77.24],[144.41,76.41],[156.3,74.81],[160.73,73],[161.31,70.91],[158.54,70.57],[158.86,70.33],[155.05,70.44],[148.84,69.79],[140.82,65.03],[143.11,64.94],[143.27,64.14],[133.25,62.87],[125.12,62.6],[122.31,60.89],[119.95,57.82],[115.02,56.3],[112.55,54.22],[108.69,52.84],[104.72,50.28],[99.83,48.54],[93.92,47.79],[84.23,50.42],[78.23,52.65],[73.85,56.56],[68.69,58.18],[61.19,62.37],[58.33,64.7],[61.65,64.71],[62.29,65.71],[62.2,66.46],[60.68,67.33],[62.01,67.94],[65.04,66.7],[65.52,67.06],[67.35,66.98],[64.39,67.04],[63.94,67.36],[64.31,67.61],[62.98,68.07],[59.55,67.59],[57.91,68.9],[55.67,69.34],[55.44,69.77],[55.91,70.33],[54.65,70.8],[58.2,69.69],[60.64,69.89],[57.16,70.27],[58.79,70.63],[57.68,70.8],[58.44,71.06],[58.1,71.12],[63.05,71.45],[63.44,71.16],[63.1,70.89],[64.5,69.95],[67.77,69.97],[65.35,70.24],[65.74,70.53],[63.55,71.46],[59.84,71.6],[57.4,72.41],[61.6,73.87],[58.37,74.35],[59.63,74.36],[58.24,74.72],[59.13,74.98],[58.82,75.44],[60.89,76.61],[59.67,76.56],[61.82,77.09],[62.31,76.82],[63.34,77.31],[62.91,77.3],[63.03,77.68],[64.2,77.71],[62.27,77.81],[63.5,78.27],[61.42,78.66],[60.33,79.49],[63.35,79.71],[62.95,79.55],[63.6,79.45],[63.36,79.17],[66.39,79.69],[67.68,79.26],[68.41,79.48],[67.66,79.74],[69.67,80.31],[76.24,80.32],[77.48,80.04],[74.89,79.98],[78.14,80.01],[79.33,79.5],[78.98,79.34],[79.58,79.12],[78.69,78.39],[79.25,78.5],[79.61,77.88],[79.27,77.86],[79.71,77.73],[77.85,77.3],[79.11,77.4]]]}},{"type":"Feature","properties":{},"geometry":{"type":"Polygon","coordinates":[[[143.95,64.38],[143.64,64.46],[144.44,64.7],[143.95,64.38]]]}},{"type":"Feature","properties":{},"geometry":{"type":"Polygon","coordinates":[[[56.42,65.91],[56.07,66.55],[53.57,66.7],[52.49,67.78],[51.72,67.78],[51.38,68.19],[51.74,68.86],[50.53,69.99],[53.42,70.38],[54.68,69.21],[56.37,68.86],[58.58,67.29],[60.3,66.95],[60.84,66.2],[60.71,65.24],[58.3,64.72],[56.42,65.91]]]}},{"type":"Feature","properties":{},"geometry":{"type":"Polygon","coordinates":[[[83.21,13.2],[87.88,13.53],[91.73,12.75],[93.59,11.19],[95.73,7.8],[90.66,10.18],[83.05,10.07],[80.01,10.74],[76.55,12.6],[73.38,15.48],[72.63,16.91],[78.04,13.99],[83.21,13.2]]]}},{"type":"Feature","properties":{},"geometry":{"type":"Polygon","coordinates":[[[41.42,-39.77],[42,-39.64],[41.83,-38.85],[41.49,-39.61],[41.73,-38.67],[41.38,-38.16],[41.44,-39.21],[40.86,-39.65],[38.58,-38.99],[39,-38.64],[38.17,-38.6],[38.8,-38.1],[37.2,-37.53],[36.57,-37.92],[35.43,-37.66],[30.29,-35.08],[29.76,-35.24],[28.02,-33.66],[21.59,-34.68],[21.23,-34.1],[20.36,-33.93],[20.18,-34.34],[19.8,-33.54],[18.85,-33.36],[18.38,-32.68],[19.11,-31.78],[26.84,-26.97],[30.21,-25.51],[31.91,-25.05],[32.34,-25.39],[32.11,-24.89],[32.76,-24.92],[32.72,-24.53],[31.5,-24.64],[30.61,-23.55],[31.79,-21.51],[32.38,-22.55],[33.02,-22.67],[32.4,-21.6],[32.8,-20.73],[33.37,-20.94],[32.93,-20.61],[33.31,-20.5],[33.06,-19.79],[33.96,-19.56],[33.81,-18.83],[34.61,-18.52],[34.16,-17.93],[37.95,-17.26],[40.63,-17.65],[46.25,-19.54],[47.49,-20.73],[47.59,-21.69],[46.48,-22.92],[44.95,-26.9],[44.67,-31.64],[45.38,-33.74],[49.83,-40.35],[50,-41.58],[41.42,-39.77]]]}},{"type":"Feature","properties":{},"geometry":{"type":"Polygon","coordinates":[[[74.59,26.86],[76.79,25.74],[78.32,25.51],[79.39,25.66],[80.19,26.59],[86,28.11],[92.29,26.85],[96.67,24.85],[97.74,22.5],[97.97,20.04],[95.43,23],[93.19,24.11],[89.89,24.36],[84.95,23.69],[79.4,24],[72.85,26.47],[71.74,26.39],[70.55,28.19],[72.48,28.11],[74.59,26.86]]]}},{"type":"Feature","properties":{},"geometry":{"type":"Polygon","coordinates":[[[103.23,27.82],[103.02,27.43],[101.79,29.72],[99.88,30.68],[91.28,32.54],[97.73,33.32],[102.47,32.77],[106.7,32.99],[105.07,31.3],[103.23,27.82]]]}},{"type":"Feature","properties":{},"geometry":{"type":"Polygon","coordinates":[[[58.3,64.72],[61.19,62.37],[57.49,63.37],[57.66,65.18],[58.3,64.72]]]}},{"type":"Feature","properties":{},"geometry":{"type":"Polygon","coordinates":[[[58.51,37.14],[57.82,38.03],[57.8,39.01],[56.32,39.16],[54.91,40.36],[56.11,40.52],[55.39,40.71],[55.74,41.33],[57.14,41.62],[56.32,43],[55.02,42.89],[53.81,41.89],[53.35,42.01],[53.22,41.11],[52.95,41.4],[52.96,41.03],[52.26,40.95],[51.73,39.74],[52.88,39.28],[52.89,38.38],[54.76,37.09],[49.22,37.92],[53.8,42.98],[60.28,46.02],[60.72,47.67],[59.92,50.67],[63.3,46.64],[63.22,43.6],[62.83,43.76],[62.98,43.24],[62.23,43.15],[62.11,42.06],[62.65,41.09],[63.64,41.41],[65.97,39.67],[70.24,38.17],[77.3,38.29],[75.07,35.98],[66.2,34.33],[58.51,36.64],[58.51,37.14]]]}},{"type":"Feature","properties":{},"geometry":{"type":"Polygon","coordinates":[[[43.75,-3.15],[43.24,-2.76],[41.81,-2.91],[41.01,-2.35],[39.62,-0.4],[39.51,2.12],[39.02,2.15],[38.88,2.79],[38.52,2.41],[37.77,2.82],[37.75,2.25],[37.29,2.29],[37.43,0.25],[38.09,-1.11],[37.68,-1.64],[37.78,-3.1],[38.48,-2.03],[38.94,-2.29],[38.04,-3.68],[38.43,-4.22],[40.58,-4.85],[43.19,-3.62],[42.59,-5.39],[44.06,-7],[44.47,-8.6],[42.74,-9.82],[42.08,-9.76],[41.62,-10.91],[40.64,-10.77],[39.87,-11.39],[39,-11.15],[38.32,-11.75],[35.78,-11.3],[35.2,-11.94],[31.38,-11.91],[28.39,-11.21],[27.56,-11.45],[26.24,-10.8],[26.62,-8.15],[27.44,-6.87],[27.27,-3.37],[26.63,-1.46],[27.36,1.23],[26.85,2.19],[27.02,6.37],[26.55,6.7],[30.84,11.05],[32.32,13.36],[34.55,13.65],[37.4,12.85],[38.95,8.28],[42.41,0.71],[42.82,-1.27],[44.15,-1.93],[43.75,-3.15]]]}},{"type":"Feature","properties":{},"geometry":{"type":"Polygon","coordinates":[[[47.71,-14.1],[46.44,-17.15],[44.59,-17.7],[37.73,-14.9],[35.56,-14.64],[36.56,-11.7],[38.46,-10.4],[39.96,-11.34],[42.98,-10.59],[44.55,-10.86],[48.03,-13.05],[47.71,-14.1]]]}},{"type":"Feature","properties":{},"geometry":{"type":"Polygon","coordinates":[[[79.45,24.21],[68.26,27.7],[70.34,31.11],[76.74,26.24],[80,26.24],[79.45,24.21]]]}},{"type":"Feature","properties":{},"geometry":{"type":"Polygon","coordinates":[[[67.49,14.52],[67.11,14.9],[68.12,16.77],[70.02,18.57],[70.77,18.62],[78.25,13.23],[72.45,13.64],[69.82,13.24],[67.49,14.52]]]}},{"type":"Feature","properties":{},"geometry":{"type":"Polygon","coordinates":[[[50.63,32.64],[51.36,32.22],[54.87,32.98],[58.77,29.65],[63.26,29.3],[63.74,28.5],[62.29,27.74],[60.14,28.45],[45.2,29.79],[44.68,30.55],[44.81,32.1],[47.93,33.49],[50.63,32.64]]]}},{"type":"Feature","properties":{},"geometry":{"type":"Polygon","coordinates":[[[11.43,74.56],[4.81,75.73],[3.2,75.63],[3.02,75.89],[3.63,76.18],[2.49,76.48],[2.55,76.83],[0.12,76.76],[-0.17,76.23],[0.44,76.14],[-0.77,75.69],[-13.27,77.31],[-13.26,80.75],[7.27,78.12],[10.78,76.81],[11.36,76.23],[11.43,74.56]]]}},{"type":"Feature","properties":{},"geometry":{"type":"Polygon","coordinates":[[[-128.94,80.87],[-129.5,80.67],[-127.81,80.31],[-126.77,79.18],[-124.75,78.27],[-114.28,75.91],[-131.4,74.18],[-137.99,74.13],[-138.88,73.63],[-144.66,72.84],[-144.09,73.1],[-145.21,73.08],[-143.41,73.98],[-144.73,73.81],[-144.34,74.55],[-147.93,77.56],[-147.98,78.34],[-146.71,79.27],[-144.18,79.87],[-128.94,80.87]]]}},{"type":"Feature","properties":{},"geometry":{"type":"Polygon","coordinates":[[[179.99,70.5],[179.91,70.12],[174.67,69.91],[174.34,70.18],[176.17,70.28],[173.49,70.57],[173.84,70.65],[173.85,72.18],[173.25,73.35],[170.06,74.87],[165.01,75.95],[156.76,77.05],[136.71,78.47],[136.11,80.55],[132.88,81.79],[133.89,82.17],[134.5,82.12],[133.26,82.08],[146.15,81.92],[146.49,81.96],[145.48,82.06],[150.4,82.36],[147.98,82.74],[149.79,83.02],[146.86,83.04],[147.52,83.28],[151.67,83.49],[149.57,83.73],[149.95,83.75],[170.77,83.42],[174.88,82.95],[172.21,82.78],[178.2,82.37],[179.31,82.04],[178.32,82.02],[179.99,81.86],[179.99,71.18],[178.84,70.43],[179.99,70.5]]]}},{"type":"Feature","properties":{},"geometry":{"type":"Polygon","coordinates":[[[-179.99,71.18],[-179.99,81.86],[-168.68,81.84],[-164.03,81.13],[-165.46,80.49],[-163.65,80.18],[-173.45,78.94],[-177.07,77.73],[-177.41,76.78],[-176.8,76.01],[-171.84,73.17],[-171.69,72.64],[-175.97,72.54],[-179.99,71.18]]]}},{"type":"Feature","properties":{},"geometry":{"type":"Polygon","coordinates":[[[-179.99,70.18],[-179.99,70.5],[-179.44,70.32],[-179.99,70.18]]]}},{"type":"Feature","properties":{},"geometry":{"type":"Polygon","coordinates":[[[135.95,44.94],[134.58,44.1],[134.35,43.14],[131.95,41.81],[132.97,41.06],[134.02,38.96],[130.93,38.56],[130.64,39.32],[131.56,39.41],[131.15,39.58],[131.19,40.26],[130.08,40.49],[129.81,40.13],[129.44,40.39],[129.74,40.54],[129.12,40.6],[130.08,41.15],[129.63,41.33],[129.99,42.01],[128.9,42.47],[125.5,41.27],[126.35,41.94],[125.64,41.93],[125.88,42.34],[126.75,43],[126.27,43.49],[125.4,43.38],[123.28,41.79],[122.06,41.79],[121.88,41.04],[123.09,40.81],[123.35,39.8],[125.04,40.4],[127.07,39.91],[126.85,39.42],[124.35,38.78],[123.34,37.53],[124.39,36.91],[121.21,34.09],[116.64,35.77],[109.65,36.6],[97.29,42.11],[108.09,44.38],[118.11,45.79],[132.07,46.01],[135.95,44.94]]]}},{"type":"Feature","properties":{},"geometry":{"type":"Polygon","coordinates":[[[131.6,42.47],[131.91,41.05],[130.31,40.44],[130.49,40.14],[130.25,40.37],[130.24,39.89],[130.01,40.19],[129.46,39.55],[129.04,39.88],[129.43,39.9],[128.86,40.28],[129.23,41.2],[128.81,41.29],[131.6,42.47]]]}},{"type":"Feature","properties":{},"geometry":{"type":"Polygon","coordinates":[[[123.05,38.08],[124.3,36.59],[125.67,35.96],[123.97,35.81],[125.96,35.24],[124.55,34.2],[126.56,34.28],[125.98,33.71],[126.52,33.97],[126.62,33.67],[126.1,33.53],[126.6,32.69],[125.67,32.15],[125.59,30.66],[125,30.69],[125.52,30.38],[125.22,30.06],[125.53,29.32],[125.11,29.49],[124.77,28.31],[124.25,28.32],[123.96,27.25],[123.01,26.7],[123.1,26.22],[121.45,25.7],[121.14,25.03],[120.05,25.62],[120.45,24.79],[120.04,24.57],[119.76,24.94],[119.9,24.3],[119.33,24.39],[119.38,24.02],[117.49,23.26],[117.79,22.1],[116.99,22.6],[117.11,23.22],[116.67,23.38],[116.36,22.94],[115.54,23.28],[114.72,22.11],[114.02,21.97],[114.29,21.66],[113.78,20.79],[106.57,24.59],[105.9,25.52],[105.39,27.94],[106.32,30.42],[108.7,33.68],[110.78,34.42],[115.09,34.96],[121.1,34.59],[123.05,38.08]]]}},{"type":"Feature","properties":{},"geometry":{"type":"Polygon","coordinates":[[[110.75,20.77],[110.85,19.72],[111.36,19.33],[115.81,18.14],[117.65,16.15],[117.94,14.82],[116.4,12.92],[116.68,12.06],[115.75,10.36],[115.06,11.75],[113.66,11.42],[113.27,11.96],[113.05,11.49],[111.9,12.4],[110.18,11.91],[109.85,12.69],[109.15,12.5],[107.6,15.46],[107.12,18.66],[103.26,22.26],[110.75,20.77]]]}},{"type":"Feature","properties":{},"geometry":{"type":"Polygon","coordinates":[[[108.13,12.07],[109.41,8.94],[110.2,8.17],[110.63,8.61],[112.88,7.48],[114.26,7.8],[117.21,4.86],[114.88,5.12],[111.74,7.01],[110.44,7.15],[110.21,6.77],[107.43,10.49],[105.34,11.42],[104.1,12.52],[104.44,12.53],[102.85,12.56],[99.51,15.17],[97.7,17.16],[96.49,19.8],[99.56,20.67],[103.65,18.61],[104.68,17.76],[105.85,14.72],[108.13,12.07]]]}},{"type":"Feature","properties":{},"geometry":{"type":"Polygon","coordinates":[[[113.34,8],[115.45,7.86],[116.73,6.49],[118.41,5.92],[117.91,5.33],[116.38,5.16],[113.34,8]]]}},{"type":"Feature","properties":{},"geometry":{"type":"Polygon","coordinates":[[[26.76,-5.29],[28.92,-9.14],[28.81,-9.62],[27.86,-9.8],[28.48,-9.91],[29.18,-11.38],[34.38,-12],[35.88,-11.74],[36.31,-12.01],[35.67,-13.3],[36.06,-13.39],[35.52,-13.38],[35.2,-14.22],[30.88,-18.19],[28.28,-19.52],[23.15,-21.19],[18.81,-23.89],[17.84,-24.98],[18.21,-26.21],[17.3,-27.71],[17.12,-29.01],[17.79,-30.01],[17.21,-30.5],[15.75,-34.23],[14.28,-35.01],[11.04,-35.1],[7.25,-36.09],[9.67,-31.99],[11.33,-25.84],[13.85,-24.97],[14.65,-22.83],[17.92,-18.17],[18.95,-14.91],[20.15,-13.45],[21.39,-13.82],[22.2,-12.37],[26.43,-10.04],[26.76,-5.29]]]}},{"type":"Feature","properties":{},"geometry":{"type":"Polygon","coordinates":[[[7.2,-35.81],[6.59,-36.45],[6.45,-38.31],[5.08,-39.94],[0.73,-39.98],[0.65,-40.45],[1.15,-40.33],[-1.23,-42.06],[-5.74,-43.08],[-9.74,-43.35],[-12.02,-42.97],[-14.63,-41.34],[-17.51,-40.65],[-17.9,-39.43],[-18.38,-39.48],[-17.68,-37.96],[-17.08,-38],[-16.48,-37.23],[-15.73,-34.46],[-15.77,-32.24],[-13.21,-27.72],[-12.74,-22.54],[-11.57,-20.88],[-9.51,-19.25],[-7.5,-18.55],[-6.89,-17.57],[-6.7,-15.81],[-5.97,-15.4],[-5.75,-12.92],[-5.02,-13.09],[-5.62,-12.64],[-5.34,-11.36],[-6.09,-8.37],[-5.99,-6.41],[-5.4,-6.52],[-4.9,-5.86],[-4.49,-6.3],[-4.85,-5.7],[-2.96,-3.84],[-2.66,-2.84],[-3.17,-2.71],[-3.5,-1.46],[-4.67,-1.3],[-5.87,-0.33],[-2.56,0.04],[-1.73,0.98],[0.93,1.1],[6.67,-3.27],[9.47,-3.47],[14.6,-4.74],[16.79,-11.34],[17.11,-13.58],[12.5,-16.5],[10.72,-19.32],[10.32,-21.28],[12.24,-26.04],[11.98,-27.28],[10.08,-32.07],[7.2,-35.81]]]}},{"type":"Feature","properties":{},"geometry":{"type":"Polygon","coordinates":[[[-8.57,28.01],[-8.18,28.98],[-7.02,29.72],[-4.11,29.94],[-2.28,31.05],[-1.73,30.87],[-1.49,29.87],[-0.14,29.5],[0.45,28.75],[3.94,28.66],[6.16,27.95],[7.14,27.12],[8.25,27.08],[9.28,26.28],[11.03,25.98],[0.75,26.09],[-4.71,27.87],[-8.57,28.01]]]}},{"type":"Feature","properties":{},"geometry":{"type":"Polygon","coordinates":[[[13.91,30.74],[13.61,30],[10.97,29.87],[9.58,29.1],[9.63,28.25],[6.71,27.35],[4.89,28.2],[3.54,28.03],[3.26,28.97],[3.72,29.14],[3.34,29.03],[3.25,29.64],[1.36,30.23],[2.45,31.29],[2.09,31.77],[2.79,31.94],[1.98,31.95],[3.84,33.3],[5.14,35.62],[6.46,35.57],[9.72,33.42],[11.01,33.13],[13.91,30.74]]]}},{"type":"Feature","properties":{},"geometry":{"type":"Polygon","coordinates":[[[-4.56,-1.69],[-4.65,-0.12],[-5.35,0.72],[-7.68,1.56],[-11.47,1.8],[-12.95,3.09],[-16.58,3.87],[-19.64,8.76],[-19.53,11.56],[-20.54,13.61],[-19.81,13.97],[-20.76,14.16],[-20.98,14.65],[-20.66,14.74],[-21.18,15.13],[-20.77,15.09],[-21.1,15.27],[-20.64,16.04],[-19.61,15.55],[-20.5,15.85],[-20.26,16.3],[-20.76,17.54],[-19.39,18.01],[-17.97,19.55],[-17.6,21.22],[-16.88,21.8],[-16.92,23.02],[-17.37,22.75],[-16.37,23.82],[-13.39,25.17],[-12.17,26.31],[-11.14,26.37],[-9.95,27.14],[-7.26,27.04],[-5.72,27.84],[-1.86,27.74],[3.62,26.03],[13.91,25.94],[13.97,25.31],[14.66,25.16],[13.77,24.76],[13.85,23.68],[12.52,23.23],[10.38,20.52],[6.21,11.49],[5.51,8.02],[6.51,2.92],[2.99,1.76],[2.06,0.42],[-0.57,0.03],[-1.31,-0.98],[-4.56,-1.69]]]}},{"type":"Feature","properties":{},"geometry":{"type":"Polygon","coordinates":[[[27.37,9.93],[27.08,9.06],[27.59,3.32],[27.19,2.43],[27.89,0.11],[27.22,-1.34],[13.63,-4.69],[8.46,-3.55],[5.67,-3.43],[-0.19,0.8],[0.84,2.06],[4.44,2.95],[3.84,8.11],[4.8,11.52],[9.71,20.2],[11.88,22.34],[12.96,20.55],[14.96,18.92],[14.85,17.84],[16.79,15.52],[17.94,15.56],[18.64,16.72],[20.46,16.63],[21.13,15.41],[22.33,14.6],[22.28,14.12],[25,12.03],[26.34,12.18],[27.31,11.67],[27.37,9.93]]]}},{"type":"Feature","properties":{},"geometry":{"type":"Polygon","coordinates":[[[27.9,12.16],[27.04,13.06],[25.4,13.52],[24.7,15.36],[24.27,15.07],[23.61,15.39],[23.48,16.63],[22.7,17.1],[23.53,16.82],[22.86,17.38],[23.63,18.06],[23.37,18.75],[26.36,18.06],[27.06,17.5],[27.41,16.15],[28.72,15.78],[31.6,13.66],[32.75,10.69],[30.13,12.02],[27.9,12.16]]]}},{"type":"Feature","properties":{},"geometry":{"type":"Polygon","coordinates":[[[12.36,-25.7],[11.79,-25.99],[9.67,-21.31],[9.99,-19.33],[11.66,-16.45],[16.16,-13.37],[20.99,-13.85],[19.76,-15.27],[18.63,-18.51],[15.22,-23.08],[14.34,-25.2],[12.36,-25.7]]]}},{"type":"Feature","properties":{},"geometry":{"type":"Polygon","coordinates":[[[28.55,8.55],[27.27,7.52],[27,11.81],[27.98,10.83],[29.4,10.86],[31.79,12.85],[32.81,14.59],[32.05,12.84],[28.55,8.55]]]}},{"type":"Feature","properties":{},"geometry":{"type":"Polygon","coordinates":[[[26.95,-1.18],[26.9,-1.96],[27.6,-2.99],[27.55,-6.12],[27.89,-5.88],[27.42,-10.62],[23.13,-12.84],[22.27,-14.27],[19.62,-13.57],[16.2,-13.38],[13.76,-5.69],[13.82,-4.54],[26.95,-1.18]]]}},{"type":"Feature","properties":{},"geometry":{"type":"Polygon","coordinates":[[[45.61,37.71],[42.56,38.71],[43.69,39.74],[43.1,40.36],[43.89,40.46],[44.25,41.16],[41.55,40.05],[40.9,39.35],[40.94,39.78],[40.97,39.03],[41.59,38.65],[42.55,38.91],[42.4,38.55],[40.01,37.74],[39.54,38.52],[38.89,38.3],[39.87,39.02],[38.01,39.1],[37.73,39.33],[38.54,39.36],[38.07,39.68],[36.29,38.34],[36.51,37.38],[35.96,37.18],[33.41,38.42],[31.08,40.65],[24.94,43.66],[21.76,44.64],[24.44,45.79],[25.06,45.37],[25.76,45.76],[25.46,45.31],[26.17,45.87],[25.73,46.05],[26.3,46.29],[26.42,46.96],[26.19,46.15],[26.76,46.19],[26.11,47.77],[26.36,48.83],[27.02,49.13],[28.1,48.47],[28.63,48.84],[28.39,49.91],[27.72,49.83],[27.24,50.67],[32.25,52.08],[30.83,52.36],[30.72,52.78],[26.57,51.16],[26.47,51.68],[25.13,51.77],[25.01,52.73],[24.08,53.88],[25.77,56.2],[26.35,56.3],[26.06,56.91],[23.29,56.82],[23.7,56.66],[23.14,56.4],[23.46,56.09],[23.15,55.86],[23.77,55.52],[23.34,54.8],[21.83,53.55],[21.29,53.89],[21.77,53.43],[21.34,53.18],[21.8,51.41],[23.6,50.7],[22.83,50.27],[23.31,50.06],[22.96,49.69],[22.68,49.99],[22.68,49.58],[21.69,49.31],[22.33,49.23],[21.82,49.18],[22.34,48.92],[22.39,47.4],[22.12,46.75],[20.93,46.49],[20.95,45.91],[19.85,45.78],[19.34,46.65],[19.66,46.97],[18.41,47.99],[18.41,48.63],[17.88,48.57],[17.11,50.06],[17.02,49.66],[16.73,49.85],[16.96,49.17],[16.35,49.19],[15.59,48.09],[14.7,47.86],[13.51,48.31],[13.32,48.8],[13.91,48.66],[14.15,48.89],[13.55,48.85],[14,49.39],[12.94,49.23],[14.16,50.34],[13.26,49.75],[12.72,50.08],[13.11,50.49],[12.77,50.26],[12.45,50.51],[12.92,50.61],[12.47,50.76],[14.09,50.72],[14.44,51.12],[12.6,50.82],[12.84,51.11],[12.28,51.44],[13.62,51.69],[12.24,51.88],[13.18,51.84],[12.86,51.97],[13.38,52.26],[13.84,51.95],[13.02,52.35],[14.39,52.59],[13.52,52.54],[13.66,52.85],[14.69,52.61],[14.1,52.91],[14.75,52.77],[14.29,53.03],[15.28,53.67],[15.48,53.35],[16.21,53.59],[16.36,54.25],[15.61,53.55],[15.13,53.77],[17.09,55.56],[16.43,55.39],[16.91,55.69],[16.67,56.13],[17.09,56.08],[16.64,56.3],[17.59,56.66],[16.83,56.42],[17.17,56.59],[16.66,56.76],[17.18,56.89],[16.75,56.96],[17.28,57.1],[16.86,57.21],[18.2,57.52],[17.31,57.58],[18.3,57.82],[17.4,58.18],[18.14,58.35],[17.65,58.44],[18.04,58.7],[18.63,58.32],[18.15,58.78],[19.32,59.02],[18.27,58.98],[19.03,59.25],[18.69,59.29],[19.09,59.33],[18.73,59.54],[18.97,60.06],[20.04,59.95],[19.47,60.42],[20.01,60.15],[20.18,60.73],[20.27,60.03],[20.84,60.32],[20.37,60.56],[20.75,60.87],[21.52,60.7],[20.75,61.19],[22.28,61.06],[21.94,61.26],[22.69,61.8],[22.42,62.14],[23.35,62.15],[23.26,61.28],[23.72,62.29],[24.1,61.72],[24.57,62.27],[24.11,62.44],[24.71,62.61],[24.96,61.94],[25.37,62.49],[27.17,62.23],[25.61,61.78],[26.59,61.39],[27.86,61.51],[28.17,61.95],[29.04,61.87],[28.34,61.77],[28.64,61.47],[29.55,61.6],[29.47,61.23],[31.32,61.69],[36.11,60.98],[36.92,60.19],[35.56,59.13],[29.88,59.27],[32.81,58.46],[32.71,57.9],[33.57,57.15],[36.01,56.81],[36.16,57.41],[34.79,57.57],[34.74,58.01],[36.1,57.94],[35.99,57.65],[37.94,57.94],[36.81,58.6],[37.15,59.34],[37.92,60.06],[39.81,59.75],[39.33,60.74],[38.5,60.96],[38.33,61.77],[37,62.2],[39.84,62.16],[40.21,61.9],[39.27,61.59],[39.24,61.17],[40.48,60.87],[41.65,61.18],[41.27,61.86],[42.14,62.08],[41.54,62.28],[43.63,63.42],[44.02,63.24],[43.67,63.46],[44.49,64.03],[44.99,64.16],[44.35,63.94],[45.09,63.54],[44.72,63.17],[45.51,63.17],[46.01,63.9],[47.48,64.19],[47.66,64.48],[47.21,64.33],[48.21,64.86],[48.97,64.38],[50.17,65.07],[48.54,65.57],[48.68,65.95],[51.79,66.21],[56.8,65.8],[57.66,65.18],[57.72,64.58],[56.16,61.07],[60.26,55.35],[60.9,53.77],[59.9,51.28],[60.72,47.67],[60.56,46.48],[59.31,45.24],[53.8,42.98],[49.22,37.92],[45.61,37.71]]]}},{"type":"Feature","properties":{},"geometry":{"type":"Polygon","coordinates":[[[16.57,45.16],[16.01,45.55],[15.88,46.74],[17.58,47.92],[17.45,46.85],[18.12,46.65],[17.15,45.81],[17.49,45.06],[16.57,45.16]]]}},{"type":"Feature","properties":{},"geometry":{"type":"Polygon","coordinates":[[[35.73,34.34],[35.58,35.32],[34.79,35.08],[34.74,35.6],[37.95,37.04],[37.31,36.99],[42.64,38.43],[45.83,38.22],[41.72,36.95],[40.54,36.04],[38.88,36.42],[37.87,36.11],[35.73,34.34]]]}},{"type":"Feature","properties":{},"geometry":{"type":"Polygon","coordinates":[[[23.97,23.63],[23.5,22.25],[22.73,22.38],[23.32,21.24],[23.09,20.79],[22.45,21.41],[22.48,20.79],[22.01,21.26],[21.81,20.58],[21.16,20.67],[21.27,21.11],[20.84,21.16],[21.19,22.33],[21.94,22.29],[22.74,21.49],[21.44,22.66],[21.54,23.24],[21.92,23.2],[21.6,23.32],[21.68,25.15],[22.85,26.08],[21.8,29.11],[22.36,30.84],[22.24,31.26],[21.52,31.04],[22.13,31.96],[21.28,32.3],[20.16,31.38],[20.39,30.28],[19.95,29.5],[20.07,28.35],[20.72,27.82],[20.27,27.57],[20.94,25.3],[20.57,25.22],[20.12,26.33],[19.38,26.03],[19.25,25.08],[17.59,24.96],[18.55,25.46],[19.03,26.64],[17.9,30.68],[18.59,32.29],[18.12,33.32],[16.88,33.45],[16.84,34.11],[17.99,35.46],[21.91,34.74],[25.97,32.25],[23.85,31.1],[24.23,27.15],[23.97,23.63]]]}},{"type":"Feature","properties":{},"geometry":{"type":"Polygon","coordinates":[[[17.64,33.84],[16.47,32.96],[14.6,33.33],[13.82,32.37],[9.82,32.97],[9.91,34.91],[10.46,34.46],[9.81,35.07],[9.84,35.68],[8.36,36.93],[6.95,36.99],[6.61,37.22],[7.05,37.51],[6.54,37.71],[9.38,38],[8.77,39.06],[10.24,38.7],[10.94,39.33],[13.3,38.57],[15.52,38.64],[19.09,41.54],[21.85,42.57],[26.42,42.81],[29.34,41.27],[26.64,40.48],[24.64,39.12],[20.01,38.1],[17.81,37.11],[16.37,35.79],[16.98,34.22],[17.64,33.84]]]}},{"type":"Feature","properties":{},"geometry":{"type":"Polygon","coordinates":[[[10.94,39.33],[11.7,39.74],[11.54,40.42],[13.65,41.08],[12.96,41.2],[13.92,41.46],[13.37,41.67],[13.8,42.71],[14.23,42.11],[14.61,42.43],[14.45,43.13],[15.77,43.18],[15.61,43.52],[16.21,43.7],[16.79,43.41],[16.82,43.94],[17.83,43.69],[16.67,44.35],[17.01,44.55],[16.34,44.76],[16.57,45.16],[17.49,45.06],[17.92,44.49],[18.72,44.65],[18.53,44.12],[19.82,44.87],[21.7,44.17],[21.76,44.64],[22.62,44.45],[26.42,42.81],[20.57,42.22],[18.31,41],[15.52,38.64],[13.3,38.57],[10.94,39.33]]]}},{"type":"Feature","properties":{},"geometry":{"type":"Polygon","coordinates":[[[35.93,36.96],[35.93,35.96],[35.41,35.45],[31.32,34.91],[30.44,35.75],[30.51,36.47],[33.02,37.53],[33.41,38.42],[35.93,36.96]]]}},{"type":"Feature","properties":{},"geometry":{"type":"Polygon","coordinates":[[[-19.24,66.38],[-18.47,65.98],[-19.92,66.18],[-19.24,66.38]]]}},{"type":"Feature","properties":{},"geometry":{"type":"Polygon","coordinates":[[[-24.45,68.69],[-25.69,68.32],[-26.94,68.59],[-26.07,69.07],[-24.45,68.69]]]}},{"type":"Feature","properties":{},"geometry":{"type":"Polygon","coordinates":[[[15.37,68.78],[16.68,68.27],[16.22,67.84],[15.77,68.18],[15.03,67.89],[14.96,68.37],[14.37,68.52],[15.37,68.78]]]}},{"type":"Feature","properties":{},"geometry":{"type":"Polygon","coordinates":[[[14.18,68.99],[14.85,68.74],[13.65,68.8],[14.18,68.99]]]}},{"type":"Feature","properties":{},"geometry":{"type":"Polygon","coordinates":[[[-23.26,69.19],[-23.83,68.74],[-25.32,69.29],[-23.26,69.19]]]}},{"type":"Feature","properties":{},"geometry":{"type":"Polygon","coordinates":[[[-18.37,67.28],[-18.09,66.79],[-18.61,66.53],[-19.92,66.62],[-19.29,66.84],[-19.29,67.33],[-18.37,67.28]]]}},{"type":"Feature","properties":{},"geometry":{"type":"Polygon","coordinates":[[[8.69,68.47],[9.76,68],[8.35,68.57],[8.69,68.47]]]}},{"type":"Feature","properties":{},"geometry":{"type":"Polygon","coordinates":[[[-19.7,68.68],[-20.2,68.15],[-19.51,68.21],[-19.55,67.53],[-20.53,66.95],[-21.24,67.14],[-21.16,67.81],[-22.04,67.98],[-20.73,68.15],[-20.99,68.31],[-20.55,68.44],[-21.23,68.43],[-20.77,68.76],[-19.7,68.68]]]}},{"type":"Feature","properties":{},"geometry":{"type":"Polygon","coordinates":[[[51.23,79.97],[57.91,79.89],[56.61,79.28],[56.81,78.79],[51.23,79.97]]]}},{"type":"Feature","properties":{},"geometry":{"type":"Polygon","coordinates":[[[10.1,70.01],[13.97,69.23],[13.04,68.71],[13.58,67.78],[10.1,70.01]]]}},{"type":"Feature","properties":{},"geometry":{"type":"Polygon","coordinates":[[[13.37,67.73],[13.68,66.85],[13.29,66.72],[12.62,66.96],[13.05,67.15],[11.25,67.47],[12.55,67.53],[11.58,67.64],[12.54,68.06],[11.11,67.65],[10.65,67.95],[12.11,68.46],[13.37,67.73]]]}},{"type":"Feature","properties":{},"geometry":{"type":"Polygon","coordinates":[[[11.56,68.77],[11.24,68.45],[10.84,68.81],[10.53,68.6],[10.99,68.33],[10.2,68.05],[7.91,69.19],[9.11,69.68],[8.71,69.32],[9.82,69.13],[9.61,69.66],[11.56,68.77]]]}},{"type":"Feature","properties":{},"geometry":{"type":"Polygon","coordinates":[[[43.65,78.55],[45.74,78.57],[43.31,78.4],[43.65,78.55]]]}},{"type":"Feature","properties":{},"geometry":{"type":"Polygon","coordinates":[[[45.24,79.41],[47.99,79.17],[46.26,79.57],[48.22,79.73],[52.76,79.21],[46.26,78.48],[46.55,78.53],[46.11,78.85],[44.66,79.04],[45.24,79.41]]]}},{"type":"Feature","properties":{},"geometry":{"type":"Polygon","coordinates":[[[17.61,71.48],[17.95,71.41],[17.13,71.17],[17.61,71.48]]]}},{"type":"Feature","properties":{},"geometry":{"type":"Polygon","coordinates":[[[28.17,73.94],[28.91,73.74],[27.83,73.78],[28.17,73.94]]]}},{"type":"Feature","properties":{},"geometry":{"type":"Polygon","coordinates":[[[26.52,73.55],[27.14,73.37],[26.32,73.32],[26.52,73.55]]]}},{"type":"Feature","properties":{},"geometry":{"type":"Polygon","coordinates":[[[28.32,74.16],[29.25,74.19],[28.9,74.02],[29.19,73.86],[27.93,74.01],[28.32,74.16]]]}},{"type":"Feature","properties":{},"geometry":{"type":"Polygon","coordinates":[[[12.76,70.8],[15.25,70.78],[15.36,70.11],[13.12,69.66],[12.19,69.8],[12.99,70.11],[10.7,70.16],[11.56,70.3],[11.16,70.64],[13.08,70.37],[12.76,70.8]]]}},{"type":"Feature","properties":{},"geometry":{"type":"Polygon","coordinates":[[[23.01,73.28],[23.89,73.26],[22.33,72.81],[23.01,73.28]]]}},{"type":"Feature","properties":{},"geometry":{"type":"Polygon","coordinates":[[[29.06,74.88],[29.93,74.45],[28.15,74.54],[29.06,74.88]]]}},{"type":"Feature","properties":{},"geometry":{"type":"Polygon","coordinates":[[[24.16,73.68],[25.05,73.62],[24.51,73.04],[24.95,72.76],[23.76,72.76],[24.34,72.91],[23.73,72.96],[24.37,73.2],[23.71,73.37],[24.16,73.68]]]}},{"type":"Feature","properties":{},"geometry":{"type":"Polygon","coordinates":[[[29.1,75.42],[30.34,75.09],[29.34,74.89],[29.1,75.42]]]}},{"type":"Feature","properties":{},"geometry":{"type":"Polygon","coordinates":[[[39.43,79.59],[44.89,79.45],[44.33,78.99],[44.66,78.81],[42.62,78.56],[39.04,79.48],[39.43,79.59]]]}},{"type":"Feature","properties":{},"geometry":{"type":"Polygon","coordinates":[[[-12.42,68.88],[-13.03,67.45],[-12.19,67.55],[-13.45,66.82],[-12.67,66.71],[-12.85,66.34],[-14.81,66.12],[-14.51,66.47],[-16,65.85],[-15.79,66.37],[-16.23,65.94],[-17.24,66.28],[-17.2,66.61],[-16.55,66.5],[-17.15,66.74],[-16.9,67.18],[-15.17,66.94],[-16.73,67.52],[-15.69,67.72],[-16.2,68.13],[-15.21,67.96],[-14.79,68.06],[-15.39,68.47],[-14.09,68.28],[-14.12,68.69],[-12.42,68.88]]]}},{"type":"Feature","properties":{},"geometry":{"type":"Polygon","coordinates":[[[24.88,75.21],[25.3,75.15],[24.59,75.05],[24.88,75.21]]]}},{"type":"Feature","properties":{},"geometry":{"type":"Polygon","coordinates":[[[-0.46,65.76],[-0.14,65.2],[-0.99,65.76],[-0.46,65.76]]]}},{"type":"Feature","properties":{},"geometry":{"type":"Polygon","coordinates":[[[-2.64,68.42],[-1.81,68.06],[-2.87,67.92],[-1.38,67.96],[-1.08,67.82],[-1.46,67.46],[-0.84,67.23],[-2.51,66.85],[-4.16,67.15],[-3.48,66.79],[-5.11,66.63],[-2.72,66.7],[-5.98,66.2],[-6.11,65.83],[-6.95,66.02],[-6.36,65.76],[-7.1,65.52],[-10.11,65.74],[-8.83,65.31],[-10.18,65.59],[-9.61,65.34],[-10.54,65.37],[-9.39,64.98],[-10.95,64.63],[-10.48,64.44],[-10.78,64.32],[-11.87,64.53],[-12.46,64.03],[-14.26,64.38],[-13.04,63.99],[-13.23,63.59],[-12.74,63.7],[-13.44,63.22],[-15.02,63.24],[-14.58,63.45],[-15.05,63.92],[-16.65,63.82],[-18.47,64.65],[-16.34,64.78],[-16.59,65.07],[-16.14,65.54],[-15.41,65.32],[-15.69,64.89],[-15.25,64.63],[-13.38,65.06],[-14.77,64.73],[-14.98,65.31],[-14.07,65.56],[-15.48,65.69],[-14.34,66.12],[-13.41,66.07],[-12.78,65.48],[-12.82,65.81],[-12.09,65.69],[-13.13,66.12],[-12.66,66],[-12.73,66.91],[-11.95,67.35],[-11.11,67.07],[-11.13,66.32],[-10.44,66.17],[-10.97,66.38],[-10.75,67.05],[-8.59,66.79],[-9.2,67],[-7.65,66.91],[-8.48,67.14],[-6.96,67.43],[-11.17,67.39],[-11.58,67.61],[-9.19,67.67],[-11.8,67.71],[-11.96,68.13],[-9.79,67.98],[-11.89,68.23],[-10.28,68.37],[-11.47,68.56],[-10.75,68.68],[-11.47,68.92],[-9.45,68.91],[-8.79,68.43],[-8.93,68.89],[-7.95,68.96],[-8.07,68.45],[-7.56,68.6],[-7.23,67.94],[-7.4,68.69],[-6.37,68.94],[-5.13,68.76],[-5.42,68.24],[-4.93,68.33],[-4.94,68.78],[-4.04,68.63],[-3.97,68.22],[-2.64,68.42]]]}},{"type":"Feature","properties":{},"geometry":{"type":"Polygon","coordinates":[[[-6.79,47.81],[-6.16,48.35],[-6.8,48.17],[-6.58,48.68],[-6.94,48.72],[-5.62,49.01],[-6.89,48.76],[-7.28,49.15],[-6.31,49.41],[-7.39,49.45],[-5.32,50.11],[-7.43,49.52],[-7.11,49.69],[-7.41,49.93],[-6.65,49.92],[-7.29,50.05],[-6.48,50.2],[-7.51,50.53],[-5.29,50.45],[-7.43,50.66],[-6.66,51.13],[-5.07,50.78],[-5.79,51.03],[-5.06,51.12],[-5.57,51.28],[-7.28,51.02],[-6.18,51.32],[-6.9,51.59],[-5.04,51.2],[-5.79,51.52],[-5.36,51.8],[-6.92,51.73],[-5.48,51.88],[-5.42,52.44],[-4.92,52.24],[-4.99,52.62],[-5.44,52.51],[-4.77,53.28],[-7.12,54.09],[-4.9,53.6],[-5.32,53.86],[-4.98,54.17],[-5.56,54.35],[-4.99,54.31],[-5.71,54.45],[-5.27,54.61],[-5.86,54.51],[-5.15,54.78],[-6.05,54.78],[-5.25,55.02],[-6.21,55.37],[-6.54,54.84],[-7.42,54.94],[-6.8,55.42],[-7.33,55.47],[-6.86,55.76],[-7.23,55.91],[-6.56,56.24],[-7.1,56.55],[-6.67,56.79],[-7.11,57.12],[-6.95,57.72],[-7.59,57.62],[-6.9,57.84],[-7.84,58.91],[-7.56,59.27],[-9.61,60.17],[-12.11,60.22],[-12.46,60.58],[-11.5,60.75],[-12.83,61.31],[-10.4,61.19],[-10.18,61.51],[-11.56,61.57],[-12.69,62.52],[-8.96,63.03],[-7.6,63.79],[-8.91,63.89],[-8.85,64.19],[-6.94,64.77],[-6.88,64.35],[-6.83,64.76],[-6.07,64.64],[-5.51,65.36],[-4.38,64.68],[-5.02,65.42],[-3.2,65.64],[-3.34,64.82],[-2.85,65.27],[-1.99,64.78],[-2.07,65.71],[-0.2,64.85],[-0.09,65.38],[0.65,65.3],[-0.36,65.88],[1.5,65.57],[-0.21,66.24],[1.85,65.82],[2.34,66.22],[1.77,66.5],[2.92,66.69],[5.6,66.48],[2.83,65.82],[5.78,66.37],[5.74,65.96],[7.23,65.9],[3.8,64.86],[6.49,65.22],[6.09,64.62],[7.51,65.39],[7.8,64.78],[7.24,63.84],[9.5,65.34],[11.19,65.17],[10.31,64.18],[8.38,63.91],[10.34,63.98],[8.71,63.49],[9.1,63.13],[10.03,63.52],[9.36,63.03],[9.79,62.6],[9.07,62.15],[9.11,61.04],[10.25,61.21],[9.56,60.91],[10.79,60.8],[11.03,60.26],[9.35,60.4],[10.02,60.33],[9.11,60.05],[10.66,59.6],[9.72,59.37],[10.99,59.23],[11.09,58.66],[9.55,58.93],[10.65,58.61],[9.69,58.55],[10.61,58.52],[10.5,58.11],[11.62,58.03],[10.03,58.01],[11.14,57.7],[9.94,57.7],[10.42,57.08],[10.37,57.49],[11.22,57.03],[10.23,56.67],[9.28,57.01],[10.22,57.05],[8.38,57.24],[9.01,56.84],[7.66,56.74],[8.21,56.5],[7.52,56.35],[8.92,56.36],[7.73,56.09],[9.2,56],[8.4,55.66],[8.97,55.7],[8.88,55.33],[9.29,55.76],[10.56,55.32],[10.29,55.02],[10.92,55.18],[10.63,54.88],[11.13,54.87],[10.86,54.48],[11.21,54.54],[11.36,53.91],[10.8,54.29],[10.83,53.87],[10.41,53.85],[9.53,54.68],[7.16,55.29],[7.97,54.95],[7.38,54.75],[9.09,54.63],[7.74,54.37],[7.68,53.85],[7.1,53.65],[8.76,53.65],[7.52,53.31],[8.24,53.21],[9.36,53.73],[11.08,53.42],[9.02,51.96],[6.45,51.4],[6.7,51.24],[5.42,51.73],[5.77,51.06],[5.07,50.79],[4.29,49.46],[3.54,49.52],[3.73,49.21],[2.68,49.17],[2.71,48.82],[2.31,48.95],[2.74,49.38],[2.29,49.5],[2.09,48.71],[0.25,48.19],[0.69,47.44],[-0.05,47.34],[0.6,46.76],[-0.03,46.94],[0.45,46.65],[-0.32,46.55],[-0.16,45.98],[-1.15,45.84],[-0.5,45.47],[-1.05,45.61],[-0.49,45.09],[-1.16,44.69],[-0.71,44.49],[-1.28,44.43],[-0.89,44.18],[-1.55,44.24],[-0.93,44.15],[-1.49,43.94],[-1.05,43.66],[-1.96,43.74],[-1.26,43.18],[-1.9,43.5],[-2.64,43.22],[-2.14,43.69],[-2.67,43.27],[-2.24,43.87],[-3.19,43.73],[-2.66,44.05],[-3.33,43.91],[-2.6,44.33],[-3.2,44.07],[-2.99,44.48],[-4.68,44.03],[-4.42,44.54],[-5.19,44.65],[-4.62,44.75],[-5.31,44.81],[-4.83,44.87],[-5.21,44.97],[-4.91,45.22],[-5.38,45.08],[-4.96,45.31],[-5.55,45.27],[-5.24,45.52],[-5.9,45.79],[-5.42,46.32],[-5.89,46.07],[-5.63,46.5],[-6.3,46.66],[-5.68,46.67],[-6.54,47.03],[-5.82,47.5],[-6.6,47.53],[-5.55,47.73],[-5.84,47.98],[-5.19,47.61],[-5.47,48.11],[-5.99,48.54],[-5.81,48.05],[-6.79,47.81]]]}}]}
