{"type":"FeatureCollection","features":[{"type":"Feature","properties":{},"geometry":{"type":"Polygon","coordinates":[[[31.51,-66.11],[33.63,-66.08],[34.39,-66.62],[32.05,-66.57],[31.37,-66.39],[31.51,-66.11]]]}},{"type":"Feature","properties":{},"geometry":{"type":"Polygon","coordinates":[[[41,-65.02],[40.43,-65.33],[40.23,-64.68],[41.71,-64.91],[41,-65.02]]]}},{"type":"Feature","properties":{},"geometry":{"type":"Polygon","coordinates":[[[-4.77,-63.1],[-2.8,-62.49],[-2.27,-63.25],[-2.81,-63.58],[-4.77,-63.1]]]}},{"type":"Feature","properties":{},"geometry":{"type":"Polygon","coordinates":[[[14.69,-72.73],[15.03,-73.11],[14.22,-72.93],[14.69,-72.73]]]}},{"type":"Feature","properties":{},"geometry":{"type":"Polygon","coordinates":[[[4.88,-72.21],[6.19,-72.27],[4.27,-72.26],[4.88,-72.21]]]}},{"type":"Feature","properties":{},"geometry":{"type":"Polygon","coordinates":[[[9.42,-73.34],[6.34,-72.72],[10.32,-72.76],[9.42,-73.34]]]}},{"type":"Feature","properties":{},"geometry":{"type":"Polygon","coordinates":[[[12.08,-74.12],[11.36,-73.82],[11.92,-73.43],[10.63,-73.14],[11.72,-73.04],[13.49,-73.92],[12.08,-74.12]]]}},{"type":"Feature","properties":{},"geometry":{"type":"Polygon","coordinates":[[[-14.2,-63.09],[-12.39,-62.87],[-13.1,-63.32],[-14.2,-63.09]]]}},{"type":"Feature","properties":{},"geometry":{"type":"Polygon","coordinates":[[[-11.1,-69.83],[-10.33,-69.71],[-11.99,-69.23],[-10.76,-69.31],[-11.62,-68.97],[-10.13,-68.86],[-8.38,-70.58],[-10.29,-70.39],[-9.69,-70.35],[-10.42,-70.18],[-10.35,-69.82],[-11.38,-70.01],[-11.1,-69.83]]]}},{"type":"Feature","properties":{},"geometry":{"type":"Polygon","coordinates":[[[-19.09,-62.66],[-18.51,-63.16],[-19.2,-63.05],[-19.09,-62.66]]]}},{"type":"Feature","properties":{},"geometry":{"type":"Polygon","coordinates":[[[-21.45,-62.94],[-20.45,-62.91],[-21.21,-63.37],[-21.45,-62.94]]]}},{"type":"Feature","properties":{},"geometry":{"type":"Polygon","coordinates":[[[-22.45,-61.2],[-16.55,-60.89],[-14.52,-61.44],[-14.51,-62.13],[-16.36,-61.87],[-16.95,-62.21],[-15.66,-62.62],[-17.23,-63.28],[-16.82,-62.98],[-17.75,-62.98],[-16.99,-62.59],[-17.69,-62.79],[-17.58,-62.21],[-18.11,-62.48],[-18.53,-61.84],[-18.15,-61.66],[-19.43,-61.88],[-19.64,-61.35],[-20.67,-61.94],[-22.14,-61.96],[-22.45,-61.2]]]}},{"type":"Feature","properties":{},"geometry":{"type":"Polygon","coordinates":[[[-26.51,-59.84],[-24.45,-60.43],[-25.16,-60.56],[-26.51,-59.84]]]}},{"type":"Feature","properties":{},"geometry":{"type":"Polygon","coordinates":[[[57.48,-49.49],[56.78,-50.28],[56.25,-49.93],[57.48,-49.49]]]}},{"type":"Feature","properties":{},"geometry":{"type":"Polygon","coordinates":[[[-29.69,-57.35],[-29.02,-57.25],[-28.78,-57.7],[-29.22,-57.88],[-29.69,-57.35]]]}},{"type":"Feature","properties":{},"geometry":{"type":"Polygon","coordinates":[[[-28.66,-54.94],[-27.59,-55],[-27.85,-55.37],[-28.66,-54.94]]]}},{"type":"Feature","properties":{},"geometry":{"type":"Polygon","coordinates":[[[-5.3,-63.25],[-4.48,-63.88],[-3.34,-63.8],[-4.08,-64.05],[-3.72,-64.29],[1.28,-62.84],[0.21,-62.96],[0.85,-62.56],[3.07,-62.26],[6.09,-62.64],[11.02,-61.05],[13.74,-62.76],[13.14,-63.87],[13.41,-64.41],[11.57,-65.02],[0.16,-65.23],[-1.54,-65.66],[-3.89,-65.42],[-4.98,-64.39],[-6.33,-63.9],[-5.3,-63.25]]]}},{"type":"Feature","properties":{},"geometry":{"type":"Polygon","coordinates":[[[-29.36,-54.47],[-28.63,-54.44],[-28.96,-55.02],[-27.84,-55.65],[-28.41,-56.06],[-27.51,-57.28],[-26.47,-57.57],[-25.84,-56.94],[-25.39,-57.5],[-26.1,-57.85],[-25.13,-57.92],[-26.41,-58.09],[-25.13,-58.38],[-25.26,-58.83],[-24.41,-59.26],[-22.13,-59.39],[-21.69,-59.06],[-22.25,-58.85],[-22.06,-58.55],[-21.19,-59.01],[-16.69,-58.56],[-13.95,-59.05],[-13.14,-58.95],[-13.29,-58.58],[-10.61,-59.09],[-8.96,-60.15],[-8.86,-59.82],[-6.64,-61.46],[-5.02,-60.89],[-3.45,-62.06],[-5.81,-62.79],[-5.3,-63.25],[-8.74,-65.27],[-11.54,-65.21],[-11.12,-64.87],[-11.68,-64.59],[-13.47,-64.55],[-12.17,-63.98],[-12.58,-63.5],[-11.75,-63.52],[-14.06,-60.85],[-21.17,-60.84],[-21.11,-60.3],[-21.63,-60.04],[-24.58,-59.59],[-24.67,-60.01],[-25.63,-59.85],[-24.94,-59.53],[-26.21,-59.4],[-25.96,-59.1],[-26.96,-58.91],[-27.6,-57.91],[-28.49,-57.82],[-28.07,-57.57],[-29.31,-56.31],[-29.36,-54.47]]]}},{"type":"Feature","properties":{},"geometry":{"type":"Polygon","coordinates":[[[5.14,-58.15],[4.23,-57.26],[2.7,-54.17],[2.94,-53.48],[3.62,-53.49],[2.22,-52.71],[0.44,-53.43],[-0.77,-52.71],[-1.22,-50.64],[-0.8,-49.53],[-1.41,-48.35],[-1.12,-46.76],[0.21,-44.9],[0.06,-44.17],[-0.81,-43.92],[-0.04,-44.01],[-0.33,-43.19],[0.97,-43.67],[1.28,-43.39],[0.78,-42.46],[1.24,-42.29],[1.64,-42.94],[2.68,-42.38],[2.11,-41.49],[3.12,-42.44],[3.91,-42.39],[4.67,-40.86],[6.52,-39.99],[8.34,-40.02],[10.06,-39.22],[13.1,-39.11],[17.39,-37.96],[17.47,-36.93],[19.74,-38.37],[20.89,-36.91],[23.57,-35.83],[24.45,-36.23],[24.91,-35.98],[24.51,-35.63],[24.98,-35.5],[25.13,-35.98],[25.68,-35.97],[25.58,-35.19],[26.52,-34.85],[28.26,-35.18],[28.9,-35.93],[28.32,-36.05],[29.47,-36.92],[34.21,-38.52],[33.88,-39.41],[33.32,-39.52],[33.73,-39.61],[33.21,-39.66],[33.49,-39.89],[32.96,-39.78],[32.92,-40.36],[32.23,-40.6],[32.98,-42.11],[34.75,-40.96],[35.77,-41.2],[38.17,-40.39],[41.15,-40.44],[44.79,-41.55],[47.14,-43.05],[47.83,-43.24],[48.31,-42.66],[48.95,-42.93],[48.59,-43.42],[50.04,-43.86],[51.36,-46.3],[54.36,-46.75],[54.04,-47.64],[54.73,-48.08],[54.59,-48.97],[56.07,-49.91],[55.67,-50.11],[58.51,-51.29],[58.08,-52.28],[58.52,-52.75],[60.12,-52.27],[61.27,-54.04],[62.91,-53.86],[61.9,-54.31],[61.7,-54.95],[62.61,-57.09],[62.37,-57.41],[62.88,-57.66],[62.63,-58.21],[63.67,-58.8],[62.01,-58.59],[61.8,-59.34],[62.25,-59.83],[61.05,-59.76],[61.79,-60.86],[60.99,-61.08],[62.16,-61.88],[60.82,-62.37],[61.13,-62.56],[60.59,-63.07],[61.11,-63.15],[60.49,-63.82],[58.26,-64.58],[57.97,-64.83],[58.44,-64.89],[57.95,-64.88],[58.29,-65.12],[57.31,-65.41],[57.78,-65.42],[56.71,-66.77],[53.56,-67.59],[49.94,-66.64],[50,-65.91],[48.84,-65.73],[48.99,-65.33],[47.66,-65.36],[48.09,-65.11],[47.29,-64.92],[48.32,-64.9],[47.78,-64.63],[46.73,-64.54],[46.05,-65.02],[45.72,-64.96],[46.22,-64.52],[45.7,-64.42],[40.81,-64.28],[39.82,-63.89],[39.52,-64.11],[40.08,-64.37],[38.37,-64.46],[39.02,-63.93],[38.28,-63.04],[31.74,-62.45],[31.75,-62.07],[30.97,-62.18],[31.28,-62.48],[28.86,-62.25],[25.64,-62.68],[23.95,-61.76],[25.65,-62.82],[22.9,-63.02],[21.28,-62.57],[19.66,-62.66],[19.21,-63.12],[17.4,-63],[20.24,-63.94],[21.52,-65.52],[18.1,-65.81],[17.43,-64.52],[14.88,-62.86],[10.81,-62.6],[9.39,-60.78],[5.14,-58.15]]]}},{"type":"Feature","properties":{},"geometry":{"type":"Polygon","coordinates":[[[26.23,-64.28],[27.49,-65.11],[27.46,-65.59],[24.96,-66.53],[32.14,-67.33],[34.85,-68.61],[31.55,-69.14],[29.51,-68.97],[29.81,-69.1],[29,-69.58],[28.05,-69.61],[28.63,-69.95],[27.95,-69.98],[31.36,-70.31],[28.72,-70.51],[29.67,-70.83],[23.05,-72.5],[23.53,-72.72],[21,-72.96],[20.73,-72.64],[6.34,-72.23],[4.44,-71.58],[2.75,-72],[3.55,-71.76],[2.56,-71.73],[3.81,-70.97],[1.6,-71.28],[1.02,-71.05],[1.54,-70.71],[1.22,-70.37],[-0.1,-70.29],[1.04,-69.67],[-1.12,-69.75],[-1.9,-69.32],[-1.3,-68.79],[-2.32,-68.57],[-3.12,-69.22],[-4.49,-69.16],[-4.86,-69.42],[-4.44,-69.67],[-4.98,-69.89],[-6.59,-69.48],[-6.68,-69.84],[-5.22,-70.09],[-6.43,-70.54],[-6.97,-69.56],[-8.46,-69.19],[-8.15,-68.47],[-9.77,-68.27],[-9.22,-67.93],[-9.82,-67.18],[-11.95,-66.9],[-10.95,-66.61],[-10.69,-66.03],[-11.66,-65.84],[-10.72,-65.62],[-10.47,-64.91],[-0.58,-65.37],[1.1,-64.94],[11.97,-64.82],[14.38,-64.12],[21.88,-65.03],[26.23,-64.28]]]}},{"type":"Feature","properties":{},"geometry":{"type":"Polygon","coordinates":[[[-28.85,-53.72],[-28.44,-53.61],[-28.91,-54.26],[-28.85,-53.72]]]}},{"type":"Feature","properties":{},"geometry":{"type":"Polygon","coordinates":[[[-30.24,-54.21],[-29.94,-54.13],[-30.35,-54.77],[-30.24,-54.21]]]}},{"type":"Feature","properties":{},"geometry":{"type":"Polygon","coordinates":[[[-24.8,-51.48],[-25.25,-51.71],[-24.01,-52.13],[-26.06,-51.94],[-24.8,-51.48]]]}},{"type":"Feature","properties":{},"geometry":{"type":"Polygon","coordinates":[[[-24.46,-51.41],[-23.42,-51.47],[-24.35,-51.71],[-24.46,-51.41]]]}},{"type":"Feature","properties":{},"geometry":{"type":"Polygon","coordinates":[[[-28.32,-50.99],[-27.99,-51.44],[-28.52,-51.25],[-28.32,-50.99]]]}},{"type":"Feature","properties":{},"geometry":{"type":"Polygon","coordinates":[[[-27.16,-50.48],[-26.85,-51.15],[-27.37,-50.9],[-27.16,-50.48]]]}},{"type":"Feature","properties":{},"geometry":{"type":"Polygon","coordinates":[[[-29.56,-50.71],[-28.61,-51.23],[-29.91,-51.16],[-29.56,-50.71]]]}},{"type":"Feature","properties":{},"geometry":{"type":"Polygon","coordinates":[[[-29.04,-49.87],[-28.3,-49.89],[-29.28,-50.34],[-28.9,-50.77],[-29.9,-50.54],[-29.29,-50.58],[-29.75,-50.19],[-29.04,-49.87]]]}},{"type":"Feature","properties":{},"geometry":{"type":"Polygon","coordinates":[[[-27.71,-51.47],[-26.37,-51.37],[-27.31,-51.09],[-25.42,-51.12],[-26.77,-50.7],[-26.25,-50.1],[-27.22,-50.28],[-27.07,-49.81],[-27.44,-49.71],[-26.65,-49.24],[-24.08,-50.48],[-21.92,-50.71],[-22.99,-51.31],[-28.14,-51.64],[-27.71,-51.47]]]}},{"type":"Feature","properties":{},"geometry":{"type":"Polygon","coordinates":[[[-18.09,-46.65],[-18.67,-47.6],[-19.35,-47.55],[-18.52,-47.13],[-19.21,-46.84],[-18.09,-46.65]]]}},{"type":"Feature","properties":{},"geometry":{"type":"Polygon","coordinates":[[[-17.65,-46.53],[-16.5,-46.75],[-17.95,-47.57],[-17.65,-46.53]]]}},{"type":"Feature","properties":{},"geometry":{"type":"Polygon","coordinates":[[[-32.08,-48.39],[-31.7,-48.72],[-32.27,-48.72],[-32.08,-48.39]]]}},{"type":"Feature","properties":{},"geometry":{"type":"Polygon","coordinates":[[[44.74,-73.26],[44.25,-72.96],[45.03,-72.96],[44.74,-73.26]]]}},{"type":"Feature","properties":{},"geometry":{"type":"Polygon","coordinates":[[[-32.94,-47.82],[-32.42,-47.88],[-32.84,-48.25],[-32.94,-47.82]]]}},{"type":"Feature","properties":{},"geometry":{"type":"Polygon","coordinates":[[[-32.65,-47.19],[-32.78,-47.69],[-33.4,-47.17],[-32.81,-47.15],[-33.01,-46.47],[-32.33,-47.77],[-32.65,-47.19]]]}},{"type":"Feature","properties":{},"geometry":{"type":"Polygon","coordinates":[[[-33.12,-45.92],[-32.77,-46.44],[-33.22,-46.41],[-33.12,-45.92]]]}},{"type":"Feature","properties":{},"geometry":{"type":"Polygon","coordinates":[[[45.71,-78.46],[44.54,-78.13],[47.04,-77.86],[45.71,-78.46]]]}},{"type":"Feature","properties":{},"geometry":{"type":"Polygon","coordinates":[[[-33.31,-42.71],[-33.12,-42.97],[-33.64,-42.95],[-33.31,-42.71]]]}},{"type":"Feature","properties":{},"geometry":{"type":"Polygon","coordinates":[[[-32.75,-41.98],[-32.42,-42.08],[-32.86,-42.56],[-32.75,-41.98]]]}},{"type":"Feature","properties":{},"geometry":{"type":"Polygon","coordinates":[[[-4.43,-75.47],[-4.93,-75.19],[-3,-75.26],[-4.43,-75.47]]]}},{"type":"Feature","properties":{},"geometry":{"type":"Polygon","coordinates":[[[-34.37,-39.6],[-33.69,-39.98],[-34.06,-40.33],[-33.63,-40.6],[-33.83,-41.2],[-34.43,-41.1],[-34.37,-39.6]]]}},{"type":"Feature","properties":{},"geometry":{"type":"Polygon","coordinates":[[[53.68,-67.69],[52.69,-69.02],[53.23,-69.28],[52.41,-69.59],[53.3,-69.29],[54.58,-70.1],[53.98,-70.45],[47.29,-70.4],[48.64,-69.78],[46,-69.59],[46.46,-69.36],[46.12,-68.98],[46.83,-69.11],[47.66,-68.55],[53.68,-67.69]]]}},{"type":"Feature","properties":{},"geometry":{"type":"Polygon","coordinates":[[[49.98,-75.21],[46.41,-75.19],[46.96,-75.81],[45.85,-75.56],[45.66,-75.88],[46.59,-75.9],[46.03,-76.09],[45.6,-75.69],[43.4,-75.7],[41.98,-75],[43.43,-72.97],[42.63,-70.21],[43.74,-70.82],[43.41,-71.12],[44.41,-72.94],[49.98,-75.21]]]}},{"type":"Feature","properties":{},"geometry":{"type":"Polygon","coordinates":[[[17.86,-81.42],[23.89,-80.81],[22.3,-80.68],[22.55,-80.5],[30.72,-80.54],[36.07,-79.11],[35.23,-79.1],[39.85,-78.52],[51.17,-79.26],[49.26,-79.39],[50.49,-79.51],[48.66,-79.66],[49.55,-79.98],[48.25,-80.08],[48.98,-80.14],[48.51,-80.23],[38.27,-81.3],[25.83,-81.76],[17.5,-81.51],[17.86,-81.42]]]}},{"type":"Feature","properties":{},"geometry":{"type":"Polygon","coordinates":[[[55.95,-70.35],[55.48,-70.41],[55.57,-70.08],[55.95,-70.35]]]}},{"type":"Feature","properties":{},"geometry":{"type":"Polygon","coordinates":[[[61.39,-60.91],[60.99,-61.34],[59.89,-60.39],[60.41,-60.19],[61.39,-60.91]]]}},{"type":"Feature","properties":{},"geometry":{"type":"Polygon","coordinates":[[[74.51,-76.71],[72.03,-76.9],[72.91,-77.03],[70.22,-77.58],[70.94,-77.77],[62.22,-77.92],[62.72,-77.99],[60.49,-78.42],[64.12,-78.46],[55.98,-79.03],[54.19,-79.46],[55.46,-80.15],[53.65,-80.5],[47.37,-79.47],[46.94,-79.31],[48.29,-79.3],[48.85,-78.78],[45.1,-78.21],[42.38,-77.04],[42.09,-76.53],[44.51,-76.15],[46.46,-76.95],[48.51,-77.08],[53.39,-76.42],[54.22,-77.17],[60.55,-77.77],[65,-77.47],[64.01,-77.67],[65.81,-77.79],[66.72,-77.39],[65.42,-77.4],[74.28,-76.41],[74.51,-76.71]]]}},{"type":"Feature","properties":{},"geometry":{"type":"Polygon","coordinates":[[[107.94,-64.12],[108.22,-65.46],[107.74,-66.04],[107.84,-67.5],[107.12,-67.64],[106.68,-67.24],[107.05,-66.73],[106.7,-65.57],[107.94,-64.12]]]}},{"type":"Feature","properties":{},"geometry":{"type":"Polygon","coordinates":[[[91.64,-47.43],[91.25,-48.07],[90.66,-47.61],[91.64,-47.43]]]}},{"type":"Feature","properties":{},"geometry":{"type":"Polygon","coordinates":[[[20.68,-25.12],[21.61,-23.09],[22.91,-22.22],[24.69,-22.73],[24.85,-23.19],[25.06,-22.73],[25.74,-23.1],[27.24,-22.51],[27.46,-21.9],[27.65,-22.28],[28.4,-22.2],[28.86,-21.38],[29.58,-21.26],[29.58,-22.52],[28.58,-24.84],[28.06,-25.14],[27.79,-24.46],[27.19,-25.64],[19.57,-30.8],[17.43,-30.27],[16.92,-29.25],[18.02,-26.59],[20.68,-25.12]]]}},{"type":"Feature","properties":{},"geometry":{"type":"Polygon","coordinates":[[[87.63,-41.46],[87.41,-42],[86.88,-41.61],[87.63,-41.46]]]}},{"type":"Feature","properties":{},"geometry":{"type":"Polygon","coordinates":[[[87.84,-41.38],[87.88,-41.93],[88.62,-41.98],[88.63,-42.37],[87.63,-42.32],[87.84,-41.38]]]}},{"type":"Feature","properties":{},"geometry":{"type":"Polygon","coordinates":[[[58.12,-65.31],[57.67,-64.68],[58.2,-63.78],[62.19,-62],[61.56,-61.29],[63.44,-61.32],[64.4,-60.71],[62.34,-60.83],[61.45,-60.21],[65.38,-60.37],[67.26,-59.71],[66.26,-59.99],[62.24,-59.23],[61.4,-59.43],[61.61,-58.63],[61.83,-58.94],[62.77,-58.49],[64.86,-56.48],[63.98,-55.34],[64.14,-54.29],[59.7,-50.79],[55.61,-49.39],[53.91,-46.89],[51.41,-45.97],[50.85,-44.96],[50.95,-43.57],[54.38,-42.85],[57.05,-40.85],[59.29,-38],[59.03,-38.66],[60.18,-37.92],[59.51,-38.87],[60.14,-38.77],[61.25,-37.24],[63.33,-36.39],[64.39,-36.27],[63.73,-36.75],[67.56,-37.58],[67.97,-38.32],[71.66,-40.2],[74.12,-40.27],[74.83,-39.59],[76.3,-39.59],[75.57,-40.85],[76.67,-40.64],[76.49,-40.19],[77.02,-39.91],[77.32,-40.78],[77.93,-41.07],[77.54,-40.63],[78.55,-40.49],[77.96,-40.49],[78.35,-40.13],[78.86,-40.13],[79.02,-40.81],[79.08,-40.19],[79.64,-40.68],[79.74,-40.13],[80.63,-40.12],[80.51,-40.64],[81.28,-40.21],[81.13,-40.59],[82.19,-40.71],[82.49,-41.24],[82.42,-42.35],[81.18,-42.7],[82.64,-42.57],[83.02,-43.07],[82.66,-43.35],[83.24,-43.18],[83.13,-43.64],[84.03,-43.32],[83.83,-42.88],[86.36,-42.41],[86.69,-42.73],[86.83,-42.38],[86.94,-42.84],[87.84,-42.62],[89.16,-43.72],[89.64,-43.29],[88.98,-42.43],[89.37,-42.42],[90.13,-44],[90.68,-44.18],[90.57,-44.64],[91.32,-44.89],[91.46,-45.5],[92.51,-45.66],[92,-45.67],[92.53,-45.83],[92.09,-46.13],[93.26,-46.03],[93.24,-46.65],[92.26,-46.93],[91.21,-46.63],[90.27,-47.29],[88.71,-47.11],[89.14,-47.8],[88.59,-47.78],[89.16,-47.85],[89.56,-48.92],[88.98,-48.89],[89.66,-49.24],[90.71,-51.35],[90.66,-52.2],[91.51,-52.85],[95.62,-51.88],[96.72,-50.67],[98.71,-50.02],[98.17,-49.74],[101.06,-48.85],[100.23,-51.16],[98.95,-52.5],[100.1,-52.79],[100.34,-53.9],[98.8,-55.08],[98.66,-55.74],[99.01,-55.78],[97.08,-57.46],[97.51,-58.44],[98.06,-58.49],[97.75,-59.05],[98.76,-60.04],[98.06,-60.34],[98.05,-61.46],[96.76,-62.34],[97.31,-62.3],[97.28,-62.65],[98.02,-62.25],[98.13,-63.01],[98.64,-62.81],[97.25,-63.77],[96.83,-63.4],[97.35,-63.92],[97.19,-64.57],[97.81,-64.72],[97.17,-66.07],[97.54,-66.35],[96.48,-66.94],[96.88,-67],[94.06,-67.84],[92.35,-69.15],[81.79,-70.67],[79.81,-70.24],[77.57,-70.41],[77.12,-69.98],[77.42,-70.19],[76.87,-70.3],[77.32,-70.37],[76.14,-70.51],[70.35,-70.37],[65.14,-70.9],[64.01,-70.61],[62.57,-69.24],[60.12,-68.9],[59.46,-68.38],[58.39,-68.63],[59.42,-67.71],[60.25,-67.72],[59.28,-67.36],[59.6,-67.1],[60.99,-67.17],[57.69,-66.42],[58.12,-65.31]]]}},{"type":"Feature","properties":{},"geometry":{"type":"Polygon","coordinates":[[[99.71,-43.98],[99.9,-44.32],[99.12,-44.59],[98.14,-43.88],[99.71,-43.98]]]}},{"type":"Feature","properties":{},"geometry":{"type":"Polygon","coordinates":[[[130.23,4.64],[130.06,4.08],[129.25,3.76],[130.23,4.64]]]}},{"type":"Feature","properties":{},"geometry":{"type":"Polygon","coordinates":[[[95.87,-40.19],[95.92,-40.7],[95.29,-40.76],[95.87,-40.19]]]}},{"type":"Feature","properties":{},"geometry":{"type":"Polygon","coordinates":[[[96.5,-40.26],[96.19,-40.6],[96.04,-40.19],[96.5,-40.26]]]}},{"type":"Feature","properties":{},"geometry":{"type":"Polygon","coordinates":[[[123.17,0.95],[125.21,1.95],[125.87,1.71],[127.32,2.53],[127.43,3.31],[129.04,3.85],[129.82,3.41],[131.12,4.14],[131.66,3.47],[124.34,-0.06],[124.19,0.34],[123.02,-0.2],[123.17,0.95]]]}},{"type":"Feature","properties":{},"geometry":{"type":"Polygon","coordinates":[[[96.72,-39.88],[96.64,-40.37],[96.16,-40.13],[96.72,-39.88]]]}},{"type":"Feature","properties":{},"geometry":{"type":"Polygon","coordinates":[[[123.36,4.77],[123.94,4.85],[123.99,4.34],[123.65,4.12],[123.36,4.77]]]}},{"type":"Feature","properties":{},"geometry":{"type":"Polygon","coordinates":[[[121.24,4.23],[122.16,3.82],[122.68,4.08],[122.95,3.64],[121.09,3.28],[121.24,4.23]]]}},{"type":"Feature","properties":{},"geometry":{"type":"Polygon","coordinates":[[[109.84,-48.04],[109.58,-48.78],[110.33,-49.79],[110.13,-50.9],[111.12,-51.2],[110.63,-51.57],[111.61,-52.15],[111.06,-52.34],[112.31,-53.02],[110.97,-53.1],[110.6,-52.79],[111.1,-52.82],[108.36,-51.29],[107.75,-50.15],[108.05,-49.98],[107.57,-49.77],[107.49,-48.43],[106.28,-47.33],[105.52,-47.42],[105.27,-46.67],[105.09,-47.47],[104.38,-47],[104.51,-47.49],[102.79,-46.64],[103.72,-47.38],[103.57,-47.99],[100.72,-46.84],[100.32,-45.33],[100.81,-45.17],[99.14,-44.77],[99.93,-44.33],[99.74,-43.76],[100.85,-44.32],[99.81,-43.49],[100.52,-43.93],[100.17,-42.92],[100.7,-42.49],[100.3,-42.22],[100.66,-42.06],[100.21,-41.48],[100.53,-41.3],[100.18,-41.42],[98.09,-38.93],[103.6,-42.1],[109.84,-48.04]]]}},{"type":"Feature","properties":{},"geometry":{"type":"Polygon","coordinates":[[[118.42,5.33],[118.72,5.03],[118.27,4.97],[118.42,5.33]]]}},{"type":"Feature","properties":{},"geometry":{"type":"Polygon","coordinates":[[[-3.79,-2.54],[-3.97,-2.92],[-4.19,-2.68],[-3.79,-2.54]]]}},{"type":"Feature","properties":{},"geometry":{"type":"Polygon","coordinates":[[[109.58,2.26],[111.31,3.32],[112.55,2.86],[117.36,3.48],[120.17,-0.33],[117.46,0.59],[115.83,0.65],[114.6,1.52],[113.49,1.24],[111.86,1.73],[110.02,1.61],[109.39,2],[109.58,2.26]]]}},{"type":"Feature","properties":{},"geometry":{"type":"Polygon","coordinates":[[[117.02,3.55],[117.88,3.76],[117.73,3.31],[118.43,4.06],[118.88,3.08],[119.81,3.54],[121.13,2.64],[121.65,3.38],[122.39,3.23],[124.12,0.89],[123.48,0.92],[123.64,0.57],[122.98,0.35],[123.28,0.07],[119.47,0.06],[117.02,3.55]]]}},{"type":"Feature","properties":{},"geometry":{"type":"Polygon","coordinates":[[[124.56,17.65],[124.78,17.29],[124.84,17.87],[125.67,17.74],[126.33,17.22],[127.64,17.72],[126.95,16.68],[127.65,16.61],[126.79,15.98],[127.38,15.46],[126.77,15],[127.34,15.26],[127.01,15.03],[128.44,14.54],[128.5,14.01],[129.98,13.9],[128.95,13.45],[129.81,11.72],[129.19,10.1],[129.53,10.13],[129.35,9.62],[129.83,9.83],[129.88,8.21],[129.24,7.23],[128.69,7.87],[128,7.26],[127.2,7.36],[126.61,6.18],[126.03,6.71],[124.98,5.72],[123.65,7.1],[122.92,6.91],[123.08,7.18],[121.92,7.66],[121.31,9.21],[123.32,9.88],[122.9,9.88],[122.6,11.06],[123.65,12.37],[123.6,14.07],[124.6,15.15],[124.56,17.65]]]}},{"type":"Feature","properties":{},"geometry":{"type":"Polygon","coordinates":[[[21.06,-35.8],[18.08,-37.1],[16.62,-36.73],[16.22,-35.69],[16.74,-35.19],[19.04,-35.11],[18.74,-35.19],[21.06,-35.8]]]}},{"type":"Feature","properties":{},"geometry":{"type":"Polygon","coordinates":[[[-30.57,13.07],[-30.48,12.38],[-31.4,12.17],[-30.96,12.48],[-31.22,12.87],[-30.57,13.07]]]}},{"type":"Feature","properties":{},"geometry":{"type":"Polygon","coordinates":[[[-48.58,-3.86],[-47.61,-4.93],[-49.01,-4.27],[-48.58,-3.86]]]}},{"type":"Feature","properties":{},"geometry":{"type":"Polygon","coordinates":[[[-52,0.55],[-50.06,-1.3],[-49.68,-2.07],[-50.17,-1.97],[-49.47,-3.1],[-49.95,-3.23],[-51.71,-1.75],[-52.42,-2.1],[-52.51,-1.23],[-54,-0.32],[-54.21,0.28],[-53.84,0.4],[-52.54,-0.82],[-52.23,0.11],[-52.64,0.74],[-52,0.55]]]}},{"type":"Feature","properties":{},"geometry":{"type":"Polygon","coordinates":[[[117.22,21.03],[118.12,21.32],[118.07,20.06],[117.31,19.22],[116.37,19.32],[116.1,20.16],[117.22,21.03]]]}},{"type":"Feature","properties":{},"geometry":{"type":"Polygon","coordinates":[[[-49.4,2.15],[-48.21,0.46],[-46.42,-5.18],[-49.08,-3.04],[-48.16,-2.76],[-48.68,-2.13],[-48.45,-1.1],[-50.01,1.32],[-49.69,1.72],[-52.22,3.26],[-51.69,2.9],[-51,3.2],[-49.4,2.15]]]}},{"type":"Feature","properties":{},"geometry":{"type":"Polygon","coordinates":[[[-25.86,15.23],[-25.49,14.49],[-25.79,14.3],[-26.17,14.66],[-25.86,15.23]]]}},{"type":"Feature","properties":{},"geometry":{"type":"Polygon","coordinates":[[[134.42,41.16],[135.37,40.95],[135.24,40.55],[135.91,40.24],[135.25,38.63],[134.54,38.22],[134.62,38.93],[134.44,38.38],[133.89,38.6],[134.32,39.99],[133.82,40.38],[134.03,39.88],[133.37,39.73],[133.24,40.24],[133.64,40.02],[133.1,40.47],[134.42,41.16]]]}},{"type":"Feature","properties":{},"geometry":{"type":"Polygon","coordinates":[[[138.05,41.8],[138.74,41.32],[138.17,40.68],[137.29,40.84],[136.55,40.17],[136.22,40.8],[135.79,40.65],[136.68,41.48],[138.05,41.8]]]}},{"type":"Feature","properties":{},"geometry":{"type":"Polygon","coordinates":[[[21.36,19.37],[22.83,17.91],[21.63,18.44],[21.04,19.26],[21.36,19.37]]]}},{"type":"Feature","properties":{},"geometry":{"type":"Polygon","coordinates":[[[25.6,12.33],[24.77,12.63],[24.23,13.39],[24.41,13.97],[25.06,13.62],[25.6,12.33]]]}},{"type":"Feature","properties":{},"geometry":{"type":"Polygon","coordinates":[[[17.58,25.55],[16.08,24.57],[15.1,26.81],[15.58,26.95],[17.58,25.55]]]}},{"type":"Feature","properties":{},"geometry":{"type":"Polygon","coordinates":[[[23.28,22.36],[23.41,20.98],[22.79,22.48],[23.28,22.36]]]}},{"type":"Feature","properties":{},"geometry":{"type":"Polygon","coordinates":[[[34.83,35.22],[35.16,34.91],[34.4,34.95],[34.83,35.22]]]}},{"type":"Feature","properties":{},"geometry":{"type":"Polygon","coordinates":[[[11.73,30.25],[11.55,29.58],[10.95,29.88],[11.73,30.25]]]}},{"type":"Feature","properties":{},"geometry":{"type":"Polygon","coordinates":[[[16.27,33.14],[15.91,32.68],[14.12,32.35],[13.38,32.98],[15.67,33.84],[16.27,33.14]]]}},{"type":"Feature","properties":{},"geometry":{"type":"Polygon","coordinates":[[[138.12,42.15],[136.05,41.69],[135.88,41.15],[134.47,41.18],[134.53,41.68],[136.73,42.97],[140.05,43.21],[140.65,44.94],[141.31,45.11],[140.79,44.69],[141.23,44.34],[142.66,45.04],[143.98,46.64],[143.86,48.34],[144.35,49],[145.28,48.64],[144.98,49.31],[145.63,49.22],[146.46,47.28],[145.94,46.07],[145.24,45.81],[145.42,44.78],[145.01,44.03],[145.4,43.5],[144.88,42.93],[144.21,42.69],[144.41,43.42],[143.12,42.36],[143.07,42.81],[142.53,42.27],[141.19,42.17],[141.54,42.39],[140.81,42.64],[140.64,42.18],[141.09,41.87],[139.65,41.03],[139.09,41.37],[139.45,42.21],[138.12,42.15]]]}},{"type":"Feature","properties":{},"geometry":{"type":"Polygon","coordinates":[[[18.36,33.42],[16.39,33.21],[17.43,33.9],[18.36,33.42]]]}},{"type":"Feature","properties":{},"geometry":{"type":"Polygon","coordinates":[[[151.77,46.48],[152.07,46.49],[150.85,45.78],[151.77,46.48]]]}},{"type":"Feature","properties":{},"geometry":{"type":"Polygon","coordinates":[[[147.31,47.67],[149.74,46.05],[150.79,46.4],[150.47,45.87],[150.83,45.32],[149.25,44.97],[148.55,44.15],[145.82,44.75],[145.56,45.51],[146.68,45.48],[147.31,47.67]]]}},{"type":"Feature","properties":{},"geometry":{"type":"Polygon","coordinates":[[[144.55,50.33],[144.2,49.99],[145.28,49.58],[144.04,49.15],[143.63,50.33],[144.55,50.33]]]}},{"type":"Feature","properties":{},"geometry":{"type":"Polygon","coordinates":[[[-8.73,36.18],[-8.68,35.47],[-9.34,34.9],[-8.63,35.5],[-8.16,35.11],[-9.45,34.74],[-9.65,35.25],[-8.73,36.18]]]}},{"type":"Feature","properties":{},"geometry":{"type":"Polygon","coordinates":[[[-11.68,36.12],[-11.53,35.68],[-10,35.66],[-10.67,35.17],[-11.82,35.66],[-11.68,36.12]]]}},{"type":"Feature","properties":{},"geometry":{"type":"Polygon","coordinates":[[[-11.64,39.2],[-9.62,38.32],[-11.2,38.62],[-11.95,39.12],[-11.64,39.2]]]}},{"type":"Feature","properties":{},"geometry":{"type":"Polygon","coordinates":[[[-75.4,22.44],[-73.62,21.86],[-72.32,20.06],[-73.48,20.31],[-73.2,20.78],[-73.71,20.45],[-74.39,20.92],[-74.1,21.23],[-75.33,21.68],[-74.97,22.16],[-75.41,22.01],[-75.4,22.44]]]}},{"type":"Feature","properties":{},"geometry":{"type":"Polygon","coordinates":[[[-4.38,38.26],[-3.62,38.66],[-2.78,38.35],[-3.4,37.48],[-2.4,37.7],[-3.21,37.28],[-2.96,36.62],[-2.27,37.2],[-2.48,35.75],[-2.92,35.74],[-2.86,36.32],[-3.41,35.93],[-3.3,36.98],[-4.72,35.96],[-3.83,36.78],[-7.71,36.77],[-4.38,38.26]]]}},{"type":"Feature","properties":{},"geometry":{"type":"Polygon","coordinates":[[[-4.77,40.73],[-4.43,40.5],[-4.94,40.44],[-4.64,40.19],[-5.66,38.87],[-4.5,39.11],[-5.05,38.69],[-4.19,38.65],[-4.38,38.26],[-7.66,36.9],[-6.8,37.65],[-7.61,37.68],[-6.87,38.28],[-6.47,38.1],[-6.77,38.45],[-6.31,38.58],[-6.04,39.82],[-4.77,40.73]]]}},{"type":"Feature","properties":{},"geometry":{"type":"Polygon","coordinates":[[[-25.44,43.35],[-24.98,42.77],[-26.04,43.19],[-25.44,43.35]]]}},{"type":"Feature","properties":{},"geometry":{"type":"Polygon","coordinates":[[[-77.77,24.95],[-77.44,23.79],[-78.29,24.82],[-77.77,24.95]]]}},{"type":"Feature","properties":{},"geometry":{"type":"Polygon","coordinates":[[[-78.48,25.93],[-77.94,25.73],[-78.18,25.29],[-77.59,25.86],[-78.04,24.86],[-78.48,25.93]]]}},{"type":"Feature","properties":{},"geometry":{"type":"Polygon","coordinates":[[[148.68,56.45],[149.17,54.95],[148.78,53.84],[150.4,50.73],[149.69,51.35],[148.58,51.24],[148.04,49.92],[149.1,48.47],[148.87,48.13],[148.15,48.88],[147.48,48.03],[147.23,48.73],[147.71,50.12],[147.37,50.91],[147.93,53.28],[147.36,53.89],[147.45,54.58],[147.64,55.54],[148.66,55.82],[148.14,56.42],[148.68,56.45]]]}},{"type":"Feature","properties":{},"geometry":{"type":"Polygon","coordinates":[[[-96.03,32.43],[-95.95,31.88],[-97.07,32.37],[-96.03,32.43]]]}},{"type":"Feature","properties":{},"geometry":{"type":"Polygon","coordinates":[[[142.87,64.48],[143.52,64.41],[142.34,64.06],[142.87,64.48]]]}},{"type":"Feature","properties":{},"geometry":{"type":"Polygon","coordinates":[[[1.73,42.05],[2.71,42.37],[1.64,42.23],[2.47,42.92],[1.39,43.07],[1.89,43.48],[1.4,43.91],[2.71,43.92],[2.99,44.37],[2.44,44.4],[2.82,44.87],[4.61,44.98],[5.18,44.29],[3.38,42.59],[1.73,42.05]]]}},{"type":"Feature","properties":{},"geometry":{"type":"Polygon","coordinates":[[[3.02,41.6],[1.83,41.12],[2.08,41.41],[1.51,41.28],[1.99,41.56],[1.3,41.5],[1.81,41.83],[1.22,41.84],[4.61,43.45],[4.61,41.96],[3.02,41.6]]]}},{"type":"Feature","properties":{},"geometry":{"type":"Polygon","coordinates":[[[17.87,46.25],[18.23,45.76],[17.28,46.13],[17.87,46.25]]]}},{"type":"Feature","properties":{},"geometry":{"type":"Polygon","coordinates":[[[-75.7,43.58],[-75.78,42.83],[-75.84,43.29],[-76.22,43.11],[-75.7,43.58]]]}},{"type":"Feature","properties":{},"geometry":{"type":"Polygon","coordinates":[[[19.36,46.9],[19.31,45.75],[18.21,46.44],[19.2,46.44],[18.95,46.73],[19.36,46.9]]]}},{"type":"Feature","properties":{},"geometry":{"type":"Polygon","coordinates":[[[-78.63,28.13],[-77.8,27.17],[-78.18,27.08],[-77.72,26.96],[-77.78,26.39],[-78.51,27.04],[-78.63,28.13]]]}},{"type":"Feature","properties":{},"geometry":{"type":"Polygon","coordinates":[[[-23.16,46.59],[-23.23,45.84],[-22.95,46.33],[-23.31,45.82],[-23.13,46.2],[-23.9,45.91],[-23.16,46.59]]]}},{"type":"Feature","properties":{},"geometry":{"type":"Polygon","coordinates":[[[-78.97,28.74],[-78.66,28.37],[-79,27.8],[-78.97,28.74]]]}},{"type":"Feature","properties":{},"geometry":{"type":"Polygon","coordinates":[[[-78.72,28.87],[-78.26,28.64],[-78.37,28.2],[-78.72,28.87]]]}},{"type":"Feature","properties":{},"geometry":{"type":"Polygon","coordinates":[[[4.19,47.47],[4.75,47.05],[4.48,46.8],[3.84,47.17],[4.19,47.47]]]}},{"type":"Feature","properties":{},"geometry":{"type":"Polygon","coordinates":[[[24.11,49.19],[24.34,48.77],[23.82,48.19],[23.64,48.8],[24.11,49.19]]]}},{"type":"Feature","properties":{},"geometry":{"type":"Polygon","coordinates":[[[-79.31,26.7],[-79.21,25.76],[-79.88,26.44],[-79.31,26.7]]]}},{"type":"Feature","properties":{},"geometry":{"type":"Polygon","coordinates":[[[-79.19,30.15],[-78.67,29.24],[-79.18,28.84],[-79.19,30.15]]]}},{"type":"Feature","properties":{},"geometry":{"type":"Polygon","coordinates":[[[26.94,50.29],[27.57,50.21],[26.7,49.54],[26.37,50.1],[26.94,50.29]]]}},{"type":"Feature","properties":{},"geometry":{"type":"Polygon","coordinates":[[[6.43,48.52],[6.65,48.25],[5.67,47.75],[6.18,47.72],[5.29,46.52],[4.34,46.48],[4.98,46.9],[4.57,47.64],[5.16,47.62],[4.83,47.87],[5.13,48.43],[6.43,48.52]]]}},{"type":"Feature","properties":{},"geometry":{"type":"Polygon","coordinates":[[[6.1,47.47],[7.75,47.55],[7.29,46.48],[6.67,46.25],[7.28,46.18],[6.28,45.96],[7.69,45.84],[8.24,45.26],[5.54,44.48],[5.49,45.76],[5.8,45.76],[5.57,46.03],[5.15,45.66],[5.43,46.09],[4.81,45.09],[4.83,46.08],[6.1,47.47]]]}},{"type":"Feature","properties":{},"geometry":{"type":"Polygon","coordinates":[[[8.24,45.26],[8.56,44.56],[9.56,44.15],[9.81,43.64],[9.1,43.7],[9.83,43.52],[9.77,42.93],[11.17,42.85],[11.16,42.21],[10.21,41.5],[11.11,41.27],[5.33,39.83],[6.44,41.04],[7.45,41.12],[7.94,41.73],[7.16,41.27],[5.48,41.72],[6.56,42.42],[6.43,42.78],[5.86,42.62],[6.18,42.96],[7.46,43.22],[7.34,44.13],[6.99,43.99],[6.74,44.64],[8.24,45.26]]]}},{"type":"Feature","properties":{},"geometry":{"type":"Polygon","coordinates":[[[26.79,50.76],[27.25,50.56],[26.4,50.54],[26.79,50.76]]]}},{"type":"Feature","properties":{},"geometry":{"type":"Polygon","coordinates":[[[-11.43,50.95],[-11.34,50.57],[-11.79,50.89],[-11.43,50.95]]]}},{"type":"Feature","properties":{},"geometry":{"type":"Polygon","coordinates":[[[-22.19,52.3],[-22.66,51.53],[-22.88,51.99],[-22.19,52.3]]]}},{"type":"Feature","properties":{},"geometry":{"type":"Polygon","coordinates":[[[-24.14,53.1],[-23.99,52.8],[-25.46,52.36],[-25.16,53.03],[-24.14,53.1]]]}},{"type":"Feature","properties":{},"geometry":{"type":"Polygon","coordinates":[[[-38.85,82.83],[-49.79,82.58],[-48.24,82.76],[-48.8,82.99],[-41.61,83.19],[-38.85,82.83]]]}},{"type":"Feature","properties":{},"geometry":{"type":"Polygon","coordinates":[[[-25.66,56.21],[-25.47,55.48],[-25.07,55.7],[-23.41,54.61],[-23.68,54.05],[-22.38,53.71],[-23.14,53.45],[-24.44,54.32],[-26.49,53.43],[-26.51,54.1],[-27.66,54.06],[-26.74,54.46],[-26.24,55.85],[-25.66,56.21]]]}},{"type":"Feature","properties":{},"geometry":{"type":"Polygon","coordinates":[[[61.62,64.89],[61.94,64.69],[61.09,64.57],[61.62,64.89]]]}},{"type":"Feature","properties":{},"geometry":{"type":"Polygon","coordinates":[[[-17.13,57.66],[-16.54,57.39],[-17.5,57.63],[-17.13,57.66]]]}},{"type":"Feature","properties":{},"geometry":{"type":"Polygon","coordinates":[[[-18.19,58.01],[-17.62,57.79],[-17.92,57.08],[-19.24,56.99],[-18.99,57.82],[-18.19,58.01]]]}},{"type":"Feature","properties":{},"geometry":{"type":"Polygon","coordinates":[[[18.17,59.84],[18.33,59.42],[18.55,59.84],[18.88,59.51],[17.91,59.11],[18.17,59.84]]]}},{"type":"Feature","properties":{},"geometry":{"type":"Polygon","coordinates":[[[-11.96,78.51],[-20.89,79.66],[-23.2,80.54],[-22.68,80.63],[-24.55,80.9],[-26.13,80.8],[-22.97,80.21],[-29.46,79.98],[-36.05,80.5],[-34.63,80.81],[-35.39,81.02],[-32.63,80.97],[-34.69,81.24],[-29.43,81.33],[-33.19,81.76],[-30.95,82.23],[-34.88,82.4],[-32.32,82.5],[-33.37,82.61],[-32.78,82.71],[-24.06,82.5],[-21.31,81.89],[-13.92,81.93],[-14.28,81.71],[-12.92,81.39],[-14.11,81.03],[-10.5,81.5],[-11.78,81.79],[-11.39,81.95],[-9.77,81.69],[-11.42,78.42],[-11.96,78.51]]]}},{"type":"Feature","properties":{},"geometry":{"type":"Polygon","coordinates":[[[17.74,59.86],[18.05,59.54],[17.39,59.4],[17.74,59.86]]]}},{"type":"Feature","properties":{},"geometry":{"type":"Polygon","coordinates":[[[42.19,63.84],[42.85,63.66],[41.97,63.08],[41.26,63.51],[42.19,63.84]]]}},{"type":"Feature","properties":{},"geometry":{"type":"Polygon","coordinates":[[[19.27,60.5],[19.65,60.24],[18.85,60.02],[19.27,60.5]]]}},{"type":"Feature","properties":{},"geometry":{"type":"Polygon","coordinates":[[[19.89,60.97],[20.02,60.67],[19.48,60.6],[19.89,60.97]]]}},{"type":"Feature","properties":{},"geometry":{"type":"Polygon","coordinates":[[[-32.4,60.94],[-31.32,59.89],[-32.5,59.62],[-34.27,60.33],[-32.74,61.15],[-32.4,60.94]]]}},{"type":"Feature","properties":{},"geometry":{"type":"Polygon","coordinates":[[[4.85,76.19],[3.92,76.55],[4.83,76.73],[6.03,76.25],[4.85,76.19]]]}},{"type":"Feature","properties":{},"geometry":{"type":"Polygon","coordinates":[[[20.08,61.2],[20.45,61.13],[19.8,61.01],[20.08,61.2]]]}},{"type":"Feature","properties":{},"geometry":{"type":"Polygon","coordinates":[[[-7.16,54.58],[-6.06,53.83],[-7.55,53.73],[-7.01,53.72],[-7.88,54.06],[-7.16,54.58]]]}},{"type":"Feature","properties":{},"geometry":{"type":"Polygon","coordinates":[[[48.05,66.16],[49.92,65.69],[48.12,65.73],[48.05,66.16]]]}},{"type":"Feature","properties":{},"geometry":{"type":"Polygon","coordinates":[[[9.03,54.92],[9.31,54.55],[7.7,54.29],[9.03,54.92]]]}},{"type":"Feature","properties":{},"geometry":{"type":"Polygon","coordinates":[[[42.47,66.09],[43.22,65.76],[42.2,65.94],[42.47,66.09]]]}},{"type":"Feature","properties":{},"geometry":{"type":"Polygon","coordinates":[[[-11.37,76.49],[-10.15,76.35],[-11.51,76.01],[-11.37,76.49]]]}},{"type":"Feature","properties":{},"geometry":{"type":"Polygon","coordinates":[[[-13.37,75.83],[-15.54,76.19],[-12.05,76.43],[-12.19,75.88],[-13.37,75.83]]]}},{"type":"Feature","properties":{},"geometry":{"type":"Polygon","coordinates":[[[141.74,81.19],[142.9,81.17],[140.83,81.09],[141.74,81.19]]]}},{"type":"Feature","properties":{},"geometry":{"type":"Polygon","coordinates":[[[-12.63,36.33],[-11.82,35.27],[-10.48,34.8],[-9.97,35.09],[-9.18,34.5],[-12.06,33.83],[-13.13,32.76],[-13.67,33.07],[-13.39,33.89],[-13.68,33.76],[-12.19,34.6],[-11.96,34.21],[-11.2,34.6],[-12.57,34.61],[-12.2,35.25],[-15.54,33.64],[-16.15,33.89],[-16.32,33.39],[-17.24,33.22],[-18.03,31.85],[-17.46,31.22],[-17.2,31.54],[-17.17,31.05],[-18.23,31.01],[-18.36,31.37],[-18.49,30.93],[-19.21,30.89],[-16.65,34.08],[-12.63,36.33]]]}},{"type":"Feature","properties":{},"geometry":{"type":"Polygon","coordinates":[[[-13.4,-23.65],[-15.92,-28.12],[-14.81,-26.22],[-15.59,-25.86],[-15.33,-26.19],[-16.14,-27.71],[-16.27,-29.13],[-17.38,-30.88],[-19.23,-31.42],[-20.93,-31.23],[-21.62,-30.66],[-21.43,-29.71],[-21.77,-29.94],[-21.6,-31.28],[-20.13,-31.94],[-19.95,-32.81],[-27.77,-31.48],[-29.51,-30.89],[-31.13,-28.36],[-34.97,-24],[-35.45,-22.14],[-35.25,-20.27],[-35.99,-17.8],[-29.2,-20.42],[-22.48,-22.36],[-13.4,-23.65]]]}},{"type":"Feature","properties":{},"geometry":{"type":"Polygon","coordinates":[[[-23.81,-34.94],[-24.39,-34.8],[-23.88,-35.36],[-24.18,-35.32],[-23.85,-36.91],[-26.4,-37.26],[-25.99,-38.47],[-25.38,-38.73],[-24.82,-38.26],[-24.52,-38.92],[-25.79,-39.02],[-25.09,-39.23],[-25.84,-40.04],[-25.65,-41.33],[-26.91,-41.92],[-27.23,-42.8],[-26.18,-43.55],[-25.16,-43.58],[-24.95,-44.31],[-27.06,-47.36],[-26.77,-48.48],[-25.75,-48.98],[-27.85,-49.74],[-27.72,-50.92],[-29.03,-50.64],[-28.35,-50.64],[-28.01,-49.94],[-28.54,-49.68],[-29.76,-49.86],[-29.62,-50.35],[-30.07,-50.42],[-29.75,-49.89],[-30.46,-50.2],[-30.75,-49.54],[-29.86,-49.63],[-29.89,-49.3],[-29.57,-49.51],[-29.87,-49.81],[-29.48,-49.76],[-29.68,-49.08],[-30.46,-48.65],[-29.76,-49.05],[-30.52,-49.02],[-30.06,-49.23],[-30.26,-49.52],[-30.59,-49.1],[-30.3,-49.6],[-31.08,-49.16],[-30.99,-48.7],[-31.64,-48.53],[-30.94,-48.17],[-31.23,-47.91],[-31.48,-48.43],[-31.63,-47.97],[-32.34,-47.92],[-31.52,-47.87],[-32.2,-47.3],[-31.56,-47.28],[-32.12,-46.72],[-32.38,-47.08],[-32.62,-46.51],[-32.28,-46.4],[-32.65,-46.32],[-32.23,-46.06],[-33.1,-45.79],[-31.8,-45.58],[-32.39,-45.2],[-33.26,-45.52],[-32.77,-45.3],[-33.18,-45.19],[-32.81,-44.86],[-33.17,-44.5],[-34.49,-44.76],[-33.91,-43.66],[-33.31,-43.56],[-32.82,-44.27],[-32.48,-43.27],[-32.84,-43.44],[-32.86,-43.1],[-32.23,-42.97],[-32.98,-42.86],[-32.31,-42.03],[-33.09,-41.82],[-32.85,-40.13],[-33.22,-39.93],[-32.74,-40.04],[-33.37,-39.56],[-32.92,-39.07],[-34.24,-39.54],[-34.69,-37.84],[-34.36,-37.14],[-35.36,-35.22],[-34.92,-34.92],[-34.3,-31.16],[-35.24,-26.68],[-35.01,-22.74],[-31.19,-27.08],[-28.01,-31.91],[-23.81,-34.94]]]}},{"type":"Feature","properties":{},"geometry":{"type":"Polygon","coordinates":[[[-37.76,11.91],[-35.77,12.22],[-34.56,11.77],[-33.17,12.39],[-33.81,12.49],[-31.42,12.89],[-32.44,12.52],[-31.78,11.89],[-30.26,11.72],[-30.26,10.83],[-29.33,10.96],[-27.83,10.17],[-27.62,8.99],[-27.36,9.5],[-26.08,8.58],[-24,9.02],[-21.83,8.73],[-19.97,7.61],[-19.4,6.02],[-18.3,5.08],[-19.59,3],[-18.96,3.58],[-19.22,2.86],[-18.65,3.51],[-16.59,3.54],[-16.93,2.35],[-18.43,1.69],[-17.34,2.04],[-17.39,1.58],[-16.41,2.38],[-16.09,3.35],[-15.01,3.31],[-13.45,2.87],[-13.42,2.44],[-12.98,2.82],[-12.69,2.52],[-12.79,1.99],[-12.38,1.97],[-12.69,0.95],[-12.31,1.82],[-12.17,1.47],[-11.41,2.08],[-10.21,1.72],[-7.96,1.92],[-4.95,0.12],[-3.02,-0.23],[-2.36,-2.7],[-5.03,-7.56],[-5.51,-8.05],[-5.73,-7.68],[-5.61,-12.76],[-6.93,-17.24],[-7.81,-18.33],[-10.12,-18.52],[-13.47,-21.44],[-13.99,-21.4],[-13.58,-21.56],[-13.98,-22.19],[-13.64,-22.22],[-13.53,-24.13],[-22.58,-22.56],[-29.23,-20.42],[-35.92,-17.59],[-37.31,-16.14],[-42.04,-14.12],[-45.92,-8.19],[-47.12,-6.82],[-48.33,-6.29],[-48.14,-5.74],[-48.71,-4.54],[-47.64,-3.53],[-47.41,-2.65],[-47.69,-2.43],[-47.92,-2.89],[-48.74,-2.44],[-48.22,0.6],[-47.2,1.15],[-46.97,2.11],[-42.79,4.7],[-41.73,8.29],[-39,11.44],[-37.76,11.91]]]}},{"type":"Feature","properties":{},"geometry":{"type":"Polygon","coordinates":[[[-47.45,7.83],[-46.59,7.1],[-46.82,7.73],[-45.6,8.7],[-45.37,10.13],[-43.45,10.8],[-41.96,12.12],[-41.37,11.76],[-42.17,11.19],[-41.7,10.38],[-42.16,9.44],[-41.67,8.72],[-41.05,9.44],[-41.72,10.47],[-40.25,11.25],[-40.3,12.01],[-39.82,11.31],[-38.39,10.87],[-39.62,10.16],[-42.45,7.12],[-43.64,3.57],[-47.91,1.13],[-46.44,3.1],[-46.99,3.35],[-47.02,5.7],[-47.87,6.5],[-47.45,7.83]]]}},{"type":"Feature","properties":{},"geometry":{"type":"Polygon","coordinates":[[[-20.32,-32.06],[-19.65,-32.67],[-20.18,-33.99],[-23.96,-35.53],[-27.79,-32.95],[-29.84,-30.27],[-20.32,-32.06]]]}},{"type":"Feature","properties":{},"geometry":{"type":"Polygon","coordinates":[[[-65.58,30.47],[-65.22,30.39],[-65.27,30.95],[-65.97,30.96],[-66.81,33.37],[-65.7,33.94],[-64.22,33.05],[-62.38,29.86],[-62.03,28.42],[-62.4,27.34],[-65.58,30.47]]]}},{"type":"Feature","properties":{},"geometry":{"type":"Polygon","coordinates":[[[-66.81,33.37],[-66.31,34.58],[-66.54,35.92],[-65.41,39.21],[-64.93,39.19],[-65.46,39.25],[-65.37,39.89],[-64.97,39.9],[-65.4,39.92],[-65.58,41.41],[-63.91,40.97],[-64.27,39.86],[-63.55,40.25],[-63.74,41.61],[-62.87,41.91],[-62.85,40.48],[-61.23,40.24],[-60.4,39.02],[-58.42,38.66],[-59.12,37.02],[-63.4,35.4],[-66.81,33.37]]]}},{"type":"Feature","properties":{},"geometry":{"type":"Polygon","coordinates":[[[-71.73,20.32],[-72.04,20.59],[-71.47,20.66],[-71.73,20.32]]]}},{"type":"Feature","properties":{},"geometry":{"type":"Polygon","coordinates":[[[-71.15,21.12],[-72.03,20.72],[-72.18,21.57],[-72.12,21.11],[-72.6,21.02],[-72.47,21.72],[-72.81,21.27],[-73.21,21.59],[-72.85,22.03],[-73.38,21.87],[-72.86,22.5],[-73.28,22.76],[-73.43,21.93],[-74.2,22.06],[-73.71,22.61],[-74.12,22.21],[-74.13,22.76],[-74.94,22.48],[-74.44,22.74],[-75.19,22.88],[-74.42,23.38],[-75.18,23.08],[-75.23,23.47],[-74.73,23.86],[-74.42,23.5],[-74.6,23.86],[-74.16,23.97],[-74.78,24.08],[-74.33,24.12],[-71.86,22.34],[-71.15,21.12]]]}},{"type":"Feature","properties":{},"geometry":{"type":"Polygon","coordinates":[[[-74.62,24.24],[-75.54,23.84],[-75.2,24.32],[-75.63,24.64],[-74.62,24.24]]]}},{"type":"Feature","properties":{},"geometry":{"type":"Polygon","coordinates":[[[-59.81,28.46],[-59.98,27.93],[-62.12,27.78],[-62.11,29.14],[-63.81,32.49],[-65.7,33.94],[-63.4,35.4],[-59.12,37.02],[-58.42,38.66],[-57.82,38.61],[-57.07,38.33],[-59.81,28.46]]]}},{"type":"Feature","properties":{},"geometry":{"type":"Polygon","coordinates":[[[-59.92,28.37],[-59.82,27.7],[-60.37,27.83],[-61.44,29.11],[-62.44,29.44],[-59.38,39.81],[-57.6,39.3],[-57.93,37.99],[-56.09,36.58],[-57.64,32.9],[-59.23,31.22],[-59.92,28.37]]]}},{"type":"Feature","properties":{},"geometry":{"type":"Polygon","coordinates":[[[-56.27,25.45],[-58.91,26.17],[-59.82,27.43],[-61.22,28.26],[-60.39,31.74],[-58.68,33.33],[-57.07,35.98],[-56.84,36.93],[-58.57,38.43],[-58.14,39.72],[-57.12,39.77],[-54.91,35.64],[-54.19,32.91],[-54.3,29.58],[-55.99,27.3],[-56.27,25.45]]]}},{"type":"Feature","properties":{},"geometry":{"type":"Polygon","coordinates":[[[-45.42,7.48],[-46.39,8.42],[-47.89,8.02],[-49.28,8.69],[-55.08,13.74],[-55.46,14.98],[-55,15.03],[-54.68,15.86],[-54.92,17.2],[-56.26,20.09],[-57.18,20.87],[-56.93,21.79],[-58.54,24.27],[-59.04,26.79],[-56.65,23.49],[-55.21,22.29],[-51.47,19.45],[-48.86,18.63],[-47.9,12.1],[-47.24,10.73],[-44.47,7.57],[-45.42,7.48]]]}},{"type":"Feature","properties":{},"geometry":{"type":"Polygon","coordinates":[[[-43.96,16.78],[-42.03,15.56],[-39.68,16.92],[-39.14,16.82],[-36.76,15.19],[-38.56,14.36],[-38.38,14.1],[-39.56,13.28],[-39.3,13.9],[-39.88,13.72],[-40.63,12.5],[-41.91,12.09],[-41.75,11.82],[-44.46,13.8],[-44.74,15.95],[-43.96,16.78]]]}},{"type":"Feature","properties":{},"geometry":{"type":"Polygon","coordinates":[[[-57.91,24.75],[-58.13,22.92],[-56.18,19.08],[-55.89,16.6],[-54.91,15.48],[-55.44,15.01],[-57.18,17.39],[-56.88,18.22],[-57.58,19.67],[-58.07,19.5],[-59.11,20.78],[-58.15,20.48],[-58.04,21.33],[-59.23,22.87],[-59.83,26.52],[-60.66,27.62],[-62.41,28.57],[-63.19,31.85],[-61.2,28.97],[-59.07,27.31],[-57.91,24.75]]]}},{"type":"Feature","properties":{},"geometry":{"type":"Polygon","coordinates":[[[-57.57,24.8],[-57.43,25.24],[-58.98,26.2],[-60.31,28.71],[-61.81,29.69],[-61.49,30.12],[-60.72,30.41],[-58.78,29.98],[-57.35,28.38],[-55.41,27.37],[-54.53,26.11],[-51.89,25.36],[-50.24,24.22],[-49.66,23.17],[-49.61,18.87],[-54.75,21.82],[-57.57,24.8]]]}},{"type":"Feature","properties":{},"geometry":{"type":"Polygon","coordinates":[[[-55.04,78.96],[-54.62,79.36],[-55.38,79.78],[-53.42,79.7],[-54.52,79.86],[-51.42,80.47],[-40.59,80.45],[-43.88,78.78],[-46.72,78.98],[-49.76,78.08],[-55.04,78.96]]]}},{"type":"Feature","properties":{},"geometry":{"type":"Polygon","coordinates":[[[-49.52,78.02],[-45.46,78.09],[-48.44,77.92],[-46.49,77.69],[-43.16,78.2],[-34.97,77.92],[-35.48,77.73],[-34.58,77.34],[-37.44,76.67],[-36.27,75.45],[-37.4,75.04],[-37.7,74.34],[-38.96,74.04],[-38.81,73.33],[-40.8,73.67],[-41.22,73.46],[-40.53,73.19],[-45.32,72.67],[-45.91,72.1],[-49.74,71.01],[-50.02,70.4],[-55.12,68.68],[-57.78,69.36],[-59.9,71.62],[-60.02,72.08],[-56.35,73.21],[-52.46,75.79],[-48.1,77.12],[-49.52,78.02]]]}},{"type":"Feature","properties":{},"geometry":{"type":"Polygon","coordinates":[[[-20.77,30.15],[-21.66,28.7],[-22.27,29.41],[-21.87,28.21],[-22.79,26.95],[-22.44,27.79],[-23.01,28.71],[-22.55,29.41],[-23.19,29.13],[-23.03,27.9],[-23.88,28.37],[-22.98,27.73],[-23.56,27.87],[-23.12,26.86],[-23.67,27.13],[-22.85,26.77],[-22.54,25.61],[-22.85,26.55],[-22.75,25.9],[-23.59,25.85],[-22.73,25.45],[-23.82,25.35],[-23.42,25.14],[-23.9,24.91],[-23.33,24.76],[-27.64,22.68],[-28.36,21.37],[-27.45,16.97],[-27.99,15.37],[-28.64,15.42],[-29.12,16.22],[-29.06,17.03],[-29.35,16.88],[-29.86,17.86],[-29.53,18.3],[-29.97,18.26],[-29.62,19.27],[-30.93,20.71],[-32.08,20.27],[-32.21,20.94],[-33.06,21.11],[-32.76,21.18],[-34.47,21.08],[-34.37,21.66],[-34.56,21.18],[-35.61,21.29],[-37.9,22.43],[-30.43,23.73],[-27.49,25.46],[-23.68,28.85],[-20.77,30.15]]]}},{"type":"Feature","properties":{},"geometry":{"type":"Polygon","coordinates":[[[-51.72,10.07],[-48.9,7.91],[-48.18,5.96],[-51.24,3.28],[-52.75,3.28],[-52.89,3.85],[-53.07,3.25],[-53.25,4.2],[-52.63,4.6],[-52.9,7.28],[-52.54,7.05],[-52.36,7.48],[-53.31,7.97],[-54.9,10.48],[-55.31,13.25],[-54.42,12.89],[-53.76,11.67],[-51.72,10.07]]]}},{"type":"Feature","properties":{},"geometry":{"type":"Polygon","coordinates":[[[-27.92,60.17],[-28.51,60.05],[-28.03,59.5],[-28.39,58.96],[-26.87,59.74],[-26.36,59.16],[-26.98,58.46],[-26.54,57.51],[-24.79,58.98],[-23.9,59.18],[-24.45,59.49],[-24.28,60.09],[-22.13,59.66],[-22.85,59.62],[-21.64,59.15],[-22.24,58.9],[-21.77,58.61],[-22.81,58.5],[-22.12,57.44],[-23.99,56.48],[-24.2,57.08],[-25.14,57.13],[-24.67,57.15],[-24.38,56.32],[-26.36,56.92],[-25.85,56.48],[-27.21,55.76],[-29.99,56.73],[-26.99,55.66],[-28.55,54.57],[-29.53,54.89],[-30.31,54.21],[-32.67,55.02],[-31.01,54.56],[-30.37,53.92],[-33.22,53.05],[-32.84,52.76],[-33.77,52.54],[-33.38,52.42],[-34.63,51.19],[-35.06,50.31],[-33.69,49.83],[-33.49,48.39],[-33.85,47.99],[-32.07,48.08],[-28.11,45.66],[-25.9,45.34],[-26.25,43.15],[-24.96,41.41],[-24.47,41.2],[-24,41.67],[-23.7,41.13],[-23.2,42.3],[-23.35,43.95],[-23.9,44.64],[-22.19,45.14],[-21.02,46.22],[-21.14,47.83],[-22.28,48.58],[-20.99,49.8],[-21.32,50.22],[-21.03,50.66],[-21.59,50.65],[-20.88,51.34],[-21.27,52.11],[-20.62,52.38],[-18.54,51.75],[-17.84,52.08],[-16.92,51.1],[-16.37,51.12],[-16.5,50.66],[-14.9,50.49],[-15.12,49.5],[-16.17,49.56],[-15.2,49.4],[-15.32,48.75],[-14.84,48.47],[-15.9,48.12],[-14.6,48.32],[-14.19,47.92],[-15.23,47.15],[-14.05,47.95],[-13.89,47.28],[-12.75,48.17],[-12.53,47.61],[-12.46,48.21],[-11.89,48.32],[-12.23,48.56],[-11.67,48.66],[-12.02,49.03],[-11.09,49.5],[-11.36,49.28],[-10.39,48.42],[-10.95,48.26],[-10.04,47.91],[-10.65,47.52],[-9.83,47.68],[-10.47,47.19],[-9.76,47.37],[-9.36,46.82],[-9.88,46.7],[-8.98,46.27],[-9.26,45.8],[-9.96,45.98],[-8.51,44.71],[-8.21,44.93],[-8.54,44.15],[-7.79,44.49],[-7.51,44.31],[-7.94,43.89],[-7.29,44.37],[-7.29,43.96],[-5.87,43.69],[-8.68,42.41],[-5.98,43.32],[-5.87,42.57],[-4.79,42.65],[-4.67,41.95],[-5,41.95],[-4.63,41.73],[-5.27,41.71],[-4.53,41.55],[-5.03,41.56],[-4.59,41.19],[-5.65,40.53],[-7.09,40.59],[-7.34,39.88],[-8.32,39.35],[-13.52,39.59],[-14.35,38.68],[-15.82,38.2],[-17.78,36.38],[-15.09,38.03],[-13.43,38.51],[-11.72,38],[-12.1,38.1],[-11.78,37.75],[-12.67,37.3],[-13.96,37.33],[-12.21,37],[-12.63,36.33],[-16.65,34.08],[-19.21,30.89],[-20.41,30.69],[-23.68,28.85],[-27.49,25.46],[-30.43,23.73],[-35.47,22.6],[-40.94,22.65],[-46.37,20.09],[-46.41,17.96],[-49.1,18.45],[-49.78,19.94],[-49.87,23.76],[-51.65,25.09],[-51.93,25.81],[-51.59,27.2],[-49.76,29.98],[-50.08,34.57],[-52.18,38.51],[-54.67,46.24],[-58.25,49.74],[-58.96,51.01],[-59.93,55.06],[-58.6,56.37],[-58.23,58.79],[-59.85,60.28],[-62.56,61.78],[-62.19,63.72],[-61.22,64.64],[-61.73,65.24],[-60.59,64.79],[-60.53,65.41],[-58.85,65.62],[-58.47,65.35],[-59.12,65.17],[-54.69,65.37],[-57.47,64.81],[-56.43,64.99],[-56.8,64.5],[-55.78,64.96],[-52.99,64.97],[-53.48,65.14],[-53.16,65.41],[-52.54,63.89],[-51.03,64.58],[-51.75,63.77],[-49.39,63.82],[-47.28,62.55],[-45.31,62.06],[-44.88,61.49],[-46.59,61.27],[-46.24,61.07],[-42.37,60.64],[-41.31,59.7],[-41.87,59.65],[-41.3,58.72],[-41.49,59.19],[-40.76,59.47],[-41.06,60.18],[-38.8,60.72],[-41.32,60.73],[-38.98,61.07],[-38.17,59.83],[-37.53,60.04],[-36.87,59.43],[-34.2,59.11],[-34.03,59.78],[-33.41,59.86],[-32.45,59.48],[-32.84,59.21],[-32.11,59.4],[-32.92,58.65],[-32.24,58.26],[-31.93,59.14],[-30.15,59.51],[-30.27,59.97],[-31,59.73],[-29.86,60.39],[-31.58,61.24],[-30.74,61.73],[-31.25,61.88],[-30.9,62.33],[-29.29,62.73],[-29.62,62.87],[-28.77,62.57],[-28.83,61.62],[-28.16,60.86],[-29.42,60.49],[-27.92,60.17]]]}},{"type":"Feature","properties":{},"geometry":{"type":"Polygon","coordinates":[[[-78.81,26.96],[-79.01,26.5],[-79.34,26.83],[-79.01,27.25],[-79.61,27.7],[-79.37,26.98],[-79.82,26.84],[-80.39,29.99],[-81.62,31.37],[-83.2,32.51],[-84.78,32.69],[-84.37,32.95],[-87.76,32.6],[-88.27,32.27],[-87.93,31.86],[-88.91,31.57],[-92.23,31.61],[-92.57,31.25],[-94.49,31.75],[-94.46,32.07],[-95.98,32.15],[-94.37,32.36],[-93.67,31.71],[-93.34,32.15],[-91.05,32.15],[-89.62,33.09],[-90.52,33.22],[-90.29,33.67],[-91.03,33.28],[-91.29,34.19],[-88.09,35.09],[-83.23,34.51],[-81.99,34.02],[-79.9,32.07],[-78.81,26.96]]]}},{"type":"Feature","properties":{},"geometry":{"type":"Polygon","coordinates":[[[-68.79,36.5],[-68.46,36.7],[-68.79,36.53],[-69.56,38.15],[-74.14,40.81],[-73.12,40.58],[-74.06,41.12],[-73.78,41.78],[-74.45,40.97],[-75.06,41.54],[-74.35,41.87],[-75.31,41.97],[-74.27,42.71],[-74.86,42.59],[-74.64,43.2],[-74.95,42.58],[-74.75,43.51],[-74.82,42.86],[-75.54,42.39],[-75.31,43.36],[-75.93,43.66],[-76.36,43.19],[-75.84,43.88],[-77.26,45.02],[-76.9,45.08],[-77.3,45.47],[-76.76,45.22],[-77.42,45.71],[-77.03,45.88],[-77.55,45.84],[-77.22,46.3],[-78.04,46.2],[-78.3,47.33],[-78.32,46.55],[-79.31,48.13],[-82.31,51.04],[-78.02,50.69],[-76.81,50.12],[-76.19,48.16],[-74.28,46.51],[-72.02,45.72],[-67.23,38.63],[-67.03,34.99],[-68.56,35.08],[-68.79,36.5]]]}},{"type":"Feature","properties":{},"geometry":{"type":"Polygon","coordinates":[[[-65.67,52.97],[-64.67,51.29],[-64.53,47.81],[-65.92,48.99],[-66.58,51.05],[-65.67,52.97]]]}},{"type":"Feature","properties":{},"geometry":{"type":"Polygon","coordinates":[[[-67.85,63.03],[-67.7,61.48],[-65.13,60.27],[-63.44,58.8],[-63.71,56.38],[-64.99,55.06],[-63.87,51.02],[-63.13,49.76],[-59.45,46.3],[-57.12,39.77],[-62.77,41.01],[-63.68,41.6],[-63.97,42.47],[-63.2,45.45],[-63.32,46.73],[-64.39,48.42],[-64.98,51.2],[-67.21,55.93],[-70.58,59.37],[-78.01,64.1],[-76.36,64.55],[-69.3,64.52],[-67.31,65.21],[-66.76,64.62],[-67.85,63.03]]]}},{"type":"Feature","properties":{},"geometry":{"type":"Polygon","coordinates":[[[59.87,70.91],[58.99,70.54],[59.08,70.91],[59.87,70.91]]]}},{"type":"Feature","properties":{},"geometry":{"type":"Polygon","coordinates":[[[10.07,57.01],[10.85,56.71],[9.35,56.87],[10.07,57.01]]]}},{"type":"Feature","properties":{},"geometry":{"type":"Polygon","coordinates":[[[59.5,71.6],[60.35,71.32],[59.45,71.26],[59.5,71.6]]]}},{"type":"Feature","properties":{},"geometry":{"type":"Polygon","coordinates":[[[-41.04,66.17],[-41.22,65.6],[-41.89,65.43],[-40.48,65.67],[-39.52,65.18],[-40.23,64.83],[-38.79,64.8],[-38.99,65.35],[-38.32,65.2],[-37.95,64.81],[-38.24,63.77],[-37.63,64],[-37.2,65.28],[-36,65.13],[-35.65,64.6],[-36.45,62.91],[-34.61,61.74],[-34.74,61.34],[-36.64,61.52],[-36.78,60.91],[-35.92,61.21],[-35.72,60.81],[-36.77,60.59],[-38.29,60.91],[-38,61.06],[-39,61.32],[-38.92,61.65],[-42.85,61.26],[-44.37,61.46],[-43.93,62.14],[-46.03,62.83],[-46.15,63.41],[-45.71,63.49],[-41.71,62.95],[-43.05,63.64],[-45.76,64.02],[-45.96,64.48],[-43.16,64.54],[-45.74,65.07],[-44.55,65.86],[-41.04,66.17]]]}},{"type":"Feature","properties":{},"geometry":{"type":"Polygon","coordinates":[[[41.87,68.2],[43.11,68.18],[42.63,67.86],[43.12,67.97],[42.75,67.73],[43.19,67.5],[42.76,67.48],[43.59,66.89],[46.68,66.02],[43.65,65.66],[43.32,65.93],[43.83,66.04],[42.82,66.34],[41.49,66.08],[40.91,66.55],[41.54,66.65],[41.54,67.22],[41.07,67.2],[41.73,67.35],[40.72,67.38],[41.87,68.2]]]}},{"type":"Feature","properties":{},"geometry":{"type":"Polygon","coordinates":[[[9.17,57.33],[10.23,57.11],[8.7,57.07],[9.17,57.33]]]}},{"type":"Feature","properties":{},"geometry":{"type":"Polygon","coordinates":[[[53.24,70.48],[53.69,70.43],[52.65,70.05],[52.15,70.35],[53.24,70.48]]]}},{"type":"Feature","properties":{},"geometry":{"type":"Polygon","coordinates":[[[-34.73,65.5],[-34.47,65.23],[-35.54,64.66],[-36.15,65.42],[-34.73,65.5]]]}},{"type":"Feature","properties":{},"geometry":{"type":"Polygon","coordinates":[[[-19.34,63.6],[-17.43,63.18],[-16.95,62.49],[-19.22,62.56],[-19.79,63.2],[-19.34,63.6]]]}},{"type":"Feature","properties":{},"geometry":{"type":"Polygon","coordinates":[[[-17.7,54.3],[-19.71,53.93],[-20.79,54.53],[-19.9,55.25],[-17.13,55.02],[-17.69,55.77],[-15.83,56.77],[-16.32,57.92],[-16.84,57.99],[-16.57,58.22],[-17.72,58.67],[-18.6,58.39],[-17.75,58.87],[-18.71,59.36],[-18.46,59.71],[-18.98,59.49],[-18.87,59.94],[-19.57,60.51],[-20.1,60.21],[-19.73,59.69],[-21.62,60.1],[-21.21,59.65],[-22.4,60.37],[-21.66,59.92],[-24.39,60.25],[-24.8,60.53],[-24.55,60.8],[-25.72,60.64],[-26.4,61.58],[-24.75,61.3],[-26.5,61.87],[-25.96,62.9],[-24.08,63.95],[-22.12,63.89],[-23.78,62.95],[-23.9,62.25],[-23.21,61.43],[-24.63,61.28],[-23.41,61.08],[-22.8,61.76],[-23.66,62.24],[-22.53,62.23],[-23.12,62.63],[-23.02,63.07],[-20.04,63.62],[-19.63,62.58],[-20.43,61.79],[-19.45,62.32],[-18.99,62.05],[-19.26,61.76],[-18.4,61.47],[-18.97,62.01],[-18.16,61.93],[-18.66,62.25],[-17.95,62.46],[-16.54,62.09],[-17.36,61.34],[-16,61.52],[-16.88,61.3],[-16.41,61.23],[-16.83,60.78],[-15.72,61.3],[-16.29,60.97],[-15.77,61.1],[-16.1,60.59],[-15.09,61.14],[-14.26,60.7],[-15.35,60.11],[-13.96,60.48],[-15.01,59.89],[-14.45,59.99],[-14.82,59.48],[-13.52,60.27],[-14.11,59.88],[-13.25,60.17],[-12.54,59.85],[-13.91,59.43],[-14.15,59.26],[-12.85,59.52],[-13.86,59.01],[-12.5,59.65],[-11.94,59.25],[-13.92,58.94],[-11.68,58.56],[-13.27,58.72],[-12.64,58.56],[-13.32,58.35],[-12.74,58.49],[-12.43,58.35],[-13,58.25],[-12.51,58.11],[-13.62,58.2],[-11.81,57.74],[-12.67,57.6],[-11.61,57.41],[-11.71,57.06],[-11.36,57.31],[-11.5,56.87],[-10.53,57.23],[-10.93,56.9],[-10.41,57.05],[-10.08,56.57],[-10.66,56.61],[-10.09,56.49],[-10.64,56.25],[-9.48,56.53],[-10.06,56.04],[-8.76,56.24],[-8.27,55.79],[-9.44,55.53],[-8.79,55.19],[-9.58,55.31],[-9.06,54.99],[-9.45,55.11],[-9.35,54.77],[-9.93,55.14],[-10.05,54.1],[-11.36,55.01],[-10.47,55.59],[-11.61,55.22],[-11.26,55.65],[-11.66,55.38],[-12.97,55.97],[-12.42,55.76],[-13.02,55.85],[-12.49,55.34],[-13.36,55.43],[-12.99,55.12],[-13.28,54.79],[-12.67,54.99],[-12.37,54.02],[-12.25,54.33],[-11.2,53.74],[-11.67,53.58],[-10.91,53.23],[-10.92,52.49],[-11.44,53.06],[-11.02,52.15],[-11.5,52.3],[-11.48,51.83],[-12.38,52.72],[-12.44,52.31],[-13.35,53.12],[-13.2,52.74],[-14.15,53.14],[-12.13,51.16],[-16.04,52.54],[-16.51,52.96],[-15.8,53.07],[-16.82,53.38],[-17.15,54.23],[-17.82,53.94],[-17.7,54.3]]]}},{"type":"Feature","properties":{},"geometry":{"type":"Polygon","coordinates":[[[147.38,83.76],[151.94,83.23],[142.63,83.12],[147.38,83.76]]]}},{"type":"Feature","properties":{},"geometry":{"type":"Polygon","coordinates":[[[-31.22,65.15],[-29.59,64.73],[-31.09,64.16],[-30,63.75],[-30.52,62.93],[-31.68,63.1],[-32.37,62.55],[-33.98,64.21],[-33.41,64.59],[-32.94,64.1],[-32.13,64.18],[-31.95,64.66],[-32.71,64.91],[-31.22,65.15]]]}},{"type":"Feature","properties":{},"geometry":{"type":"Polygon","coordinates":[[[-27.14,64.86],[-25.27,64.34],[-27.15,63.38],[-28.56,63.58],[-28.22,63.2],[-29.62,62.89],[-28.85,64.57],[-27.14,64.86]]]}},{"type":"Feature","properties":{},"geometry":{"type":"Polygon","coordinates":[[[143.48,83.74],[141.37,83.91],[143.96,83.82],[143.48,83.74]]]}},{"type":"Feature","properties":{},"geometry":{"type":"Polygon","coordinates":[[[84,78.54],[85.81,78.27],[83.45,78.47],[84,78.54]]]}},{"type":"Feature","properties":{},"geometry":{"type":"Polygon","coordinates":[[[-44.12,68.05],[-43.07,67.47],[-43.33,67.29],[-41.98,67.28],[-41.44,66.36],[-48.93,65.13],[-49.49,66.22],[-50.23,66.38],[-46.62,67.65],[-46.53,68.31],[-44.12,68.05]]]}},{"type":"Feature","properties":{},"geometry":{"type":"Polygon","coordinates":[[[12.28,59.42],[12.49,59.05],[11.82,59.1],[12.28,59.42]]]}},{"type":"Feature","properties":{},"geometry":{"type":"Polygon","coordinates":[[[-27.6,66.7],[-27.88,66.91],[-26.96,66.9],[-27.6,66.7]]]}},{"type":"Feature","properties":{},"geometry":{"type":"Polygon","coordinates":[[[156.93,85.47],[169.81,85.38],[163.98,84.96],[154.29,85.5],[156.93,85.47]]]}},{"type":"Feature","properties":{},"geometry":{"type":"Polygon","coordinates":[[[-22.16,65.66],[-22.06,65.19],[-22.81,64.73],[-24,65.45],[-22.16,65.66]]]}},{"type":"Feature","properties":{},"geometry":{"type":"Polygon","coordinates":[[[-32.21,69.75],[-33.88,69.86],[-31.91,69.8],[-32.21,69.75]]]}},{"type":"Feature","properties":{},"geometry":{"type":"Polygon","coordinates":[[[129.41,85.62],[151.37,85.56],[147.19,85],[147.79,84.86],[137,84.52],[137.78,84.48],[137.31,84.22],[129.25,84.54],[126.74,85.19],[129.41,85.62]]]}},{"type":"Feature","properties":{},"geometry":{"type":"Polygon","coordinates":[[[64.31,76.82],[65.19,76.84],[64,76.7],[64.31,76.82]]]}},{"type":"Feature","properties":{},"geometry":{"type":"Polygon","coordinates":[[[-24.79,67.91],[-24.71,67.56],[-25.54,67.69],[-24.79,67.91]]]}},{"type":"Feature","properties":{},"geometry":{"type":"Polygon","coordinates":[[[-22.26,67.05],[-24.63,65.69],[-25.81,66.07],[-24.5,66.47],[-26.16,66.8],[-25.08,66.77],[-24.19,67.39],[-24.2,66.67],[-23.54,66.79],[-23.93,67],[-23.71,67.29],[-22.26,67.05]]]}},{"type":"Feature","properties":{},"geometry":{"type":"Polygon","coordinates":[[[-26.52,68.74],[-28.19,67.93],[-26.89,67.52],[-28.55,67.03],[-33.06,67.77],[-33.38,68.3],[-30.6,68.03],[-32.42,68.45],[-31.69,68.75],[-33.15,68.6],[-32.84,68.76],[-33.46,68.72],[-33.85,69.29],[-31.73,69.1],[-32.93,69.43],[-31.15,69.18],[-32,69.55],[-29.85,69.62],[-30.13,69.23],[-29.47,68.96],[-30.21,68.28],[-29.21,67.86],[-28.21,68.73],[-26.52,68.74]]]}},{"type":"Feature","properties":{},"geometry":{"type":"Polygon","coordinates":[[[44.05,72.98],[45.44,72.93],[45.88,72.45],[43.13,70.72],[42.8,70.25],[43.38,70.08],[42.75,70.01],[43.28,69.87],[42.59,69.91],[43.09,69.65],[42.3,69.65],[43.11,69.42],[42.28,69.09],[43.11,68.84],[42.15,68.84],[43.21,68.73],[42.22,68.68],[43.1,68.29],[41.26,68.01],[41.21,68.37],[42.08,68.53],[40.35,68.32],[41.08,68.65],[40.74,68.87],[41.82,68.91],[40.67,68.95],[41.08,69.31],[40.52,69.43],[41.28,69.58],[39.88,69.84],[40.93,70.25],[40.48,70.57],[41.65,71.2],[41.36,71.47],[43.95,72.34],[43.53,72.43],[44.05,72.98]]]}},{"type":"Feature","properties":{},"geometry":{"type":"Polygon","coordinates":[[[-20.37,66.93],[-19.74,66.55],[-20.46,66.13],[-19.05,66.05],[-18.93,65.75],[-19.42,65.92],[-18.62,65.44],[-19.72,65.62],[-19.26,65],[-19.61,64.67],[-15.9,64.15],[-15.02,63.41],[-15.85,63.19],[-15.45,62.96],[-17.16,62.88],[-17.55,63.5],[-18.37,63.25],[-21.94,64.4],[-20.31,66.02],[-21.57,66.24],[-21.08,66.57],[-21.5,66.87],[-20.37,66.93]]]}},{"type":"Feature","properties":{},"geometry":{"type":"Polygon","coordinates":[[[-28.13,70.53],[-31.13,69.87],[-31.47,70.11],[-30.43,70.34],[-33.59,70.11],[-33.17,70.46],[-34.71,70.67],[-29.8,70.87],[-28.13,70.53]]]}},{"type":"Feature","properties":{},"geometry":{"type":"Polygon","coordinates":[[[-17.34,66.73],[-17.28,66.34],[-17.82,66.31],[-17.34,66.73]]]}},{"type":"Feature","properties":{},"geometry":{"type":"Polygon","coordinates":[[[64.43,44.22],[63.37,43.87],[63.37,46.32],[60.17,50.4],[61.24,52.97],[61.14,54.24],[57.03,60.87],[57.42,62.14],[58.54,63.14],[62.11,62.08],[69.24,57.76],[74.24,56.06],[78.38,52.08],[92.5,47.19],[84.3,43.37],[76.45,37.63],[70,37.73],[65.79,39.3],[63.98,40.66],[65.34,42.5],[64.26,42.97],[64.43,44.22]]]}},{"type":"Feature","properties":{},"geometry":{"type":"Polygon","coordinates":[[[96,42.48],[97.23,42.17],[98.41,41.02],[96.58,39.4],[88.87,37.34],[86.96,35.85],[84.15,36.42],[79.97,39.5],[77.81,39.89],[83.67,42.47],[88.7,43.83],[96,42.48]]]}},{"type":"Feature","properties":{},"geometry":{"type":"Polygon","coordinates":[[[98.34,45.63],[94.55,44.48],[86.09,44.18],[92.5,47.19],[95.94,45.94],[98.34,45.63]]]}},{"type":"Feature","properties":{},"geometry":{"type":"Polygon","coordinates":[[[102.43,35.87],[107.91,33.73],[105.8,33.43],[100.04,34.64],[93.3,34.88],[84.44,33.51],[85.04,34.34],[91.92,37.45],[94.51,38.12],[102.43,35.87]]]}},{"type":"Feature","properties":{},"geometry":{"type":"Polygon","coordinates":[[[142.28,56.08],[143.48,56.19],[142.78,55.82],[143.56,55.79],[144.23,56.2],[144.08,55.73],[144.34,56.49],[145.53,56.47],[147.18,55.45],[146.46,55.27],[147.25,54.3],[146.23,53.4],[145.61,50.63],[140.17,45.78],[138.68,45.11],[137.21,45.16],[137.21,45.66],[136.68,45.67],[136.05,44.89],[131.95,45.99],[118.96,45.61],[108.1,44.02],[104.46,44.69],[97.93,44.51],[95.72,45.18],[93.9,46.57],[99.71,46.34],[104.84,47.26],[109.36,49.14],[113.32,49.91],[116.28,51.58],[121.11,52.4],[124.37,55.08],[127.42,56.39],[134.01,55.76],[142.28,56.08]]]}},{"type":"Feature","properties":{},"geometry":{"type":"Polygon","coordinates":[[[81.86,76.8],[82.15,76.59],[81.66,76.43],[82.39,75.9],[82.1,76.4],[84.43,76.72],[83.65,76.8],[85.13,77.61],[83.23,77.69],[84.59,78.01],[89.13,77.75],[89.4,77.95],[88.31,77.96],[93.88,78.93],[96.77,78.67],[101.45,79.22],[99.19,79.85],[99.92,80.13],[109.59,80.35],[109.92,80.31],[109.15,80.26],[112.38,79.63],[111.34,79.31],[113.64,79.26],[112.96,79.05],[118.7,78.9],[117.75,79.64],[121.14,78.47],[122.72,76.42],[123.7,76.21],[142.83,75.38],[154.06,73.83],[158.39,72.05],[159.09,69.96],[156.47,69.6],[156.79,69.37],[153.15,69.45],[147.25,68.77],[139.65,63.99],[141.86,63.91],[142.02,63.1],[132.36,61.83],[124.5,61.57],[121.75,59.88],[119.41,56.81],[114.58,55.32],[112.13,53.25],[108.32,51.91],[104.37,49.38],[99.53,47.69],[93.69,47],[84.22,49.76],[78.38,52.08],[74.24,56.06],[69.24,57.76],[62.11,62.08],[59.49,64.45],[62.78,64.4],[63.49,66.15],[62.09,67.04],[63.47,67.63],[66.31,66.34],[66.83,66.69],[68.62,66.57],[65.71,66.69],[65.3,67.01],[65.7,67.26],[64.45,67.74],[61,67.31],[59.55,68.66],[57.39,69.14],[57.23,69.56],[57.78,70.12],[56.61,70.61],[59.95,69.44],[62.39,69.6],[59,70.04],[60.67,70.37],[59.6,70.56],[60.39,70.8],[60.06,70.87],[64.99,71.11],[65.33,70.81],[64.96,70.56],[66.19,69.6],[69.39,69.55],[67.06,69.86],[67.48,70.14],[65.49,71.12],[61.87,71.32],[59.61,72.17],[64.03,73.56],[60.98,74.09],[62.21,74.08],[61.47,74.42],[61.85,74.52],[60.94,74.46],[64.05,76.3],[62.85,76.27],[65.12,76.77],[65.51,76.49],[66.67,76.96],[66.25,76.95],[66.5,77.33],[67.64,77.34],[65.81,77.47],[67.18,77.92],[65.32,78.33],[64.65,79.18],[67.68,79.35],[67.21,79.2],[67.79,79.08],[67.42,78.81],[70.58,79.28],[71.62,78.83],[72.42,79.04],[71.82,79.31],[74.04,79.84],[80.25,79.75],[81.28,79.45],[78.82,79.43],[81.89,79.41],[82.8,78.89],[82.4,78.74],[82.88,78.51],[81.78,77.79],[82.34,77.89],[82.48,77.27],[82.16,77.26],[82.53,77.12],[80.63,76.72],[81.86,76.8]]]}},{"type":"Feature","properties":{},"geometry":{"type":"Polygon","coordinates":[[[142.67,63.34],[142.38,63.42],[143.14,63.67],[142.67,63.34]]]}},{"type":"Feature","properties":{},"geometry":{"type":"Polygon","coordinates":[[[57.72,65.7],[57.44,66.34],[54.98,66.53],[54.04,67.64],[53.27,67.65],[52.99,68.06],[53.43,68.73],[52.4,69.88],[55.33,70.21],[56.39,69.02],[58.03,68.65],[60.01,67.04],[61.67,66.66],[62.12,65.91],[61.89,64.95],[59.46,64.47],[57.72,65.7]]]}},{"type":"Feature","properties":{},"geometry":{"type":"Polygon","coordinates":[[[83.02,13.62],[87.7,13.92],[91.55,13.12],[93.4,11.55],[95.52,8.14],[90.46,10.56],[82.84,10.5],[79.8,11.18],[76.34,13.05],[73.17,15.95],[72.44,17.39],[77.84,14.44],[83.02,13.62]]]}},{"type":"Feature","properties":{},"geometry":{"type":"Polygon","coordinates":[[[41.11,-40.77],[41.7,-40.63],[41.54,-39.84],[41.19,-40.6],[41.44,-39.66],[41.09,-39.16],[41.14,-40.21],[40.55,-40.64],[38.24,-39.97],[38.67,-39.62],[37.83,-39.58],[38.48,-39.08],[36.85,-38.5],[36.21,-38.88],[35.06,-38.62],[29.88,-36],[29.35,-36.15],[27.61,-34.55],[21.1,-35.51],[20.74,-34.93],[19.87,-34.75],[19.68,-35.15],[19.31,-34.36],[18.35,-34.16],[17.89,-33.48],[18.64,-32.58],[26.5,-27.86],[29.91,-26.43],[31.63,-25.98],[32.06,-26.32],[31.84,-25.83],[32.5,-25.86],[32.45,-25.47],[31.22,-25.57],[30.34,-24.47],[31.54,-22.44],[32.13,-23.48],[32.77,-23.61],[32.16,-22.54],[32.57,-21.67],[33.14,-21.89],[32.7,-21.55],[33.08,-21.44],[32.84,-20.73],[33.74,-20.5],[33.6,-19.78],[34.41,-19.47],[33.96,-18.88],[37.77,-18.23],[40.47,-18.64],[46.11,-20.56],[47.36,-21.75],[47.45,-22.7],[46.34,-23.93],[44.77,-27.91],[44.46,-32.65],[45.17,-34.75],[49.65,-41.37],[49.82,-42.61],[41.11,-40.77]]]}},{"type":"Feature","properties":{},"geometry":{"type":"Polygon","coordinates":[[[74.35,26.33],[76.53,25.2],[78.05,24.97],[79.12,25.1],[79.92,26.03],[85.71,27.52],[91.96,26.24],[96.32,24.23],[97.37,21.88],[97.6,19.42],[95.07,22.39],[92.84,23.5],[89.56,23.77],[84.64,23.11],[79.12,23.45],[72.62,25.95],[71.51,25.88],[70.34,27.69],[72.26,27.6],[74.35,26.33]]]}},{"type":"Feature","properties":{},"geometry":{"type":"Polygon","coordinates":[[[102.78,27.24],[102.58,26.84],[101.33,29.13],[99.42,30.08],[90.87,31.88],[97.26,32.69],[101.98,32.18],[106.17,32.43],[104.58,30.73],[102.78,27.24]]]}},{"type":"Feature","properties":{},"geometry":{"type":"Polygon","coordinates":[[[59.46,64.47],[62.11,62.08],[58.54,63.14],[58.87,64.94],[59.46,64.47]]]}},{"type":"Feature","properties":{},"geometry":{"type":"Polygon","coordinates":[[[58.3,36.9],[57.63,37.8],[57.64,38.78],[56.17,38.96],[54.81,40.18],[56,40.33],[55.29,40.52],[55.66,41.14],[57.06,41.41],[56.84,42.43],[56.29,42.8],[55,42.72],[53.76,41.73],[53.3,41.86],[53.15,40.97],[52.89,41.26],[52.88,40.89],[52.18,40.82],[51.61,39.62],[52.74,39.14],[52.73,38.24],[54.56,36.92],[49.06,37.85],[53.78,42.83],[60.34,45.75],[60.85,47.39],[60.17,50.4],[63.37,46.32],[63.19,43.28],[62.8,43.45],[62.93,42.92],[62.18,42.85],[62.03,41.76],[62.54,40.78],[63.53,41.08],[65.79,39.3],[70,37.73],[77.02,37.74],[74.75,35.46],[65.88,33.96],[58.29,36.41],[58.3,36.9]]]}},{"type":"Feature","properties":{},"geometry":{"type":"Polygon","coordinates":[[[43.64,-3.32],[43.13,-2.92],[41.7,-3.06],[40.9,-2.49],[39.52,-0.54],[39.43,1.98],[38.93,2.01],[38.8,2.65],[38.43,2.27],[37.69,2.69],[37.66,2.12],[37.2,2.15],[37.34,0.12],[37.98,-1.25],[37.58,-1.78],[37.67,-3.23],[38.38,-2.16],[38.83,-2.43],[37.93,-3.82],[38.31,-4.36],[40.45,-5],[43.07,-3.77],[42.46,-5.55],[43.93,-7.17],[44.34,-8.76],[42.6,-9.98],[41.94,-9.91],[41.47,-11.06],[40.49,-10.92],[39.72,-11.53],[38.85,-11.29],[38.16,-11.88],[35.62,-11.42],[35.05,-12.06],[31.23,-12.01],[28.24,-11.3],[27.4,-11.54],[26.08,-10.88],[26.48,-8.23],[27.31,-6.95],[27.16,-3.46],[26.53,-1.53],[27.27,1.15],[26.76,2.11],[26.96,6.29],[26.49,6.63],[30.8,10.95],[32.29,13.25],[34.52,13.53],[37.37,12.71],[38.89,8.14],[42.32,0.55],[42.71,-1.43],[44.04,-2.1],[43.64,-3.32]]]}},{"type":"Feature","properties":{},"geometry":{"type":"Polygon","coordinates":[[[47.59,-14.34],[46.3,-17.39],[44.44,-17.93],[37.59,-15.1],[35.42,-14.83],[36.43,-11.89],[38.34,-10.6],[39.84,-11.55],[42.87,-10.81],[44.44,-11.09],[47.91,-13.29],[47.59,-14.34]]]}},{"type":"Feature","properties":{},"geometry":{"type":"Polygon","coordinates":[[[79.17,23.66],[68.06,27.22],[70.15,30.61],[76.49,25.7],[79.73,25.68],[79.17,23.66]]]}},{"type":"Feature","properties":{},"geometry":{"type":"Polygon","coordinates":[[[67.28,15.01],[66.89,15.39],[67.91,17.26],[69.83,19.05],[70.57,19.1],[78.05,13.68],[72.24,14.11],[69.61,13.72],[67.28,15.01]]]}},{"type":"Feature","properties":{},"geometry":{"type":"Polygon","coordinates":[[[50.53,32.49],[51.24,32.04],[54.76,32.71],[58.53,29.28],[62.99,28.81],[63.44,28],[61.97,27.28],[59.86,28.04],[45,29.78],[44.51,30.55],[44.69,32.1],[47.87,33.4],[50.53,32.49]]]}},{"type":"Feature","properties":{},"geometry":{"type":"Polygon","coordinates":[[[14.29,75.07],[10.42,75.53],[7.82,76.37],[6.1,76.3],[6.75,76.84],[5.67,77.16],[5.87,77.51],[3.29,77.49],[2.78,76.97],[3.39,76.87],[1.96,76.44],[-10.78,78.28],[-9.01,81.71],[-4.4,81.23],[12.13,78.48],[14.44,77.32],[14.8,76.73],[14.29,75.07]]]}},{"type":"Feature","properties":{},"geometry":{"type":"Polygon","coordinates":[[[-137.89,80.99],[-138.29,80.79],[-136.3,80.46],[-131.91,78.51],[-120.19,76.37],[-137.03,74.29],[-143.6,74.09],[-144.34,73.57],[-149.87,72.67],[-149.37,72.94],[-150.47,72.89],[-150.02,73.05],[-150.3,73.2],[-148.93,73.83],[-150.18,73.63],[-150.01,74.38],[-154.61,77.3],[-155.02,78.08],[-154.28,79.03],[-149.65,80.17],[-137.89,80.99]]]}},{"type":"Feature","properties":{},"geometry":{"type":"Polygon","coordinates":[[[179.99,74.68],[179.99,71.73],[176.09,70.31],[175.52,69.66],[177.13,69.41],[171.56,69.09],[171.22,69.36],[172.97,69.48],[170.36,69.74],[170.69,69.82],[170.31,72.1],[166.56,74],[155.79,75.85],[136.13,77.17],[135.18,77.4],[134.57,79.48],[131.67,80.71],[132.56,81.09],[133.1,81.04],[132.01,81.01],[135.97,80.65],[147.07,81.32],[144.85,81.69],[146.36,81.98],[143.8,81.99],[147.84,82.46],[145.95,82.69],[146.28,82.71],[164.49,82.54],[168.46,82.11],[166.18,81.92],[173.91,81.08],[179.99,81.24],[179.99,77.91],[178.12,77.01],[178.06,76.06],[179.99,74.68]]]}},{"type":"Feature","properties":{},"geometry":{"type":"Polygon","coordinates":[[[-179.99,77.91],[-179.99,81.24],[-173.12,81.02],[-170.87,80.3],[-172.04,79.93],[-170.16,79.65],[-179.99,77.91]]]}},{"type":"Feature","properties":{},"geometry":{"type":"Polygon","coordinates":[[[-179.99,71.73],[-179.99,74.68],[-175.89,72.53],[-175.65,72],[-179.99,71.73]]]}},{"type":"Feature","properties":{},"geometry":{"type":"Polygon","coordinates":[[[135.2,44.36],[133.86,43.51],[133.65,42.55],[131.28,41.2],[132.31,40.46],[133.37,38.36],[130.32,37.95],[130.02,38.7],[130.93,38.79],[130.52,38.96],[130.55,39.64],[129.45,39.87],[129.19,39.51],[128.49,39.97],[129.44,40.53],[129,40.7],[129.35,41.39],[128.25,41.83],[124.9,40.62],[125.74,41.29],[125.03,41.28],[125.27,41.69],[126.12,42.35],[125.64,42.84],[124.78,42.72],[122.7,41.12],[121.49,41.11],[121.32,40.37],[122.53,40.14],[122.79,39.13],[124.46,39.75],[126.47,39.26],[126.27,38.78],[123.79,38.12],[122.8,36.86],[123.86,36.25],[120.72,33.41],[116.18,35.07],[109.25,35.87],[97,41.36],[107.66,43.64],[117.55,45.1],[131.34,45.4],[135.2,44.36]]]}},{"type":"Feature","properties":{},"geometry":{"type":"Polygon","coordinates":[[[130.93,41.86],[131.26,40.44],[129.68,39.82],[129.86,39.52],[129.62,39.75],[129.62,39.27],[129.39,39.57],[128.84,38.93],[128.43,39.25],[128.82,39.27],[128.25,39.65],[128.6,40.57],[128.18,40.66],[130.93,41.86]]]}},{"type":"Feature","properties":{},"geometry":{"type":"Polygon","coordinates":[[[122.51,37.41],[123.76,35.92],[125.13,35.3],[123.44,35.14],[125.43,34.59],[124.03,33.54],[126.03,33.63],[125.46,33.06],[125.99,33.33],[126.1,33.02],[125.58,32.88],[126.08,32.04],[125.16,31.49],[125.1,30.01],[124.51,30.03],[125.03,29.72],[124.73,29.4],[125.05,28.67],[124.63,28.83],[124.31,27.65],[123.69,27.56],[123.89,27.25],[122.57,26.03],[122.66,25.55],[121.02,25.03],[120.72,24.35],[119.63,24.94],[120.03,24.1],[119.62,23.88],[119.35,24.25],[119.5,23.61],[118.92,23.7],[118.98,23.33],[117.1,22.56],[117.41,21.4],[116.61,21.89],[116.72,22.51],[116.28,22.67],[115.98,22.23],[115.16,22.58],[114.35,21.4],[113.65,21.25],[113.92,20.94],[113.42,20.08],[106.23,23.85],[105.57,24.78],[105.05,27.2],[105.97,29.68],[108.32,32.94],[110.38,33.7],[114.65,34.25],[120.6,33.91],[122.51,37.41]]]}},{"type":"Feature","properties":{},"geometry":{"type":"Polygon","coordinates":[[[110.4,20.04],[110.51,19],[111.02,18.61],[115.46,17.43],[117.3,15.46],[117.59,14.13],[116.07,12.22],[116.35,11.35],[115.43,9.65],[114.74,11.04],[113.35,10.7],[112.95,11.24],[112.73,10.77],[111.59,11.68],[109.87,11.18],[109.54,11.96],[108.84,11.77],[107.28,14.72],[106.8,17.93],[102.94,21.52],[110.4,20.04]]]}},{"type":"Feature","properties":{},"geometry":{"type":"Polygon","coordinates":[[[107.82,11.33],[109.11,8.21],[109.91,7.44],[110.33,7.88],[112.58,6.77],[113.95,7.08],[116.92,4.16],[114.59,4.41],[111.44,6.28],[110.14,6.42],[109.91,6.04],[107.13,9.76],[105.05,10.68],[103.81,11.77],[104.14,11.79],[102.56,11.81],[99.22,14.42],[97.42,16.41],[96.21,19.05],[99.27,19.92],[103.35,17.86],[104.38,17.01],[105.55,13.98],[107.82,11.33]]]}},{"type":"Feature","properties":{},"geometry":{"type":"Polygon","coordinates":[[[113.03,7.28],[115.14,7.15],[116.43,5.79],[118.11,5.23],[117.61,4.63],[116.09,4.45],[113.03,7.28]]]}},{"type":"Feature","properties":{},"geometry":{"type":"Polygon","coordinates":[[[26.64,-5.36],[28.77,-9.23],[28.66,-9.71],[27.71,-9.88],[28.34,-10],[29.03,-11.47],[34.22,-12.12],[35.72,-11.86],[36.15,-12.14],[35.5,-13.43],[35.89,-13.51],[35.36,-13.5],[35.04,-14.34],[30.69,-18.29],[28.08,-19.61],[22.93,-21.25],[18.57,-23.93],[17.61,-25.01],[17.97,-26.24],[17.04,-27.74],[16.85,-29.04],[17.51,-30.04],[16.93,-30.53],[15.44,-34.25],[13.97,-35.02],[10.72,-35.1],[6.93,-36.06],[9.38,-31.98],[11.08,-25.83],[13.61,-24.98],[14.43,-22.85],[17.73,-18.21],[18.77,-14.94],[19.98,-13.5],[21.22,-13.87],[22.04,-12.43],[26.28,-10.12],[26.64,-5.36]]]}},{"type":"Feature","properties":{},"geometry":{"type":"Polygon","coordinates":[[[6.89,-35.78],[6.26,-36.42],[6.11,-38.28],[4.73,-39.9],[0.39,-39.92],[0.3,-40.39],[0.8,-40.27],[-1.59,-41.99],[-6.11,-42.99],[-10.1,-43.24],[-12.38,-42.85],[-14.97,-41.2],[-17.83,-40.5],[-18.21,-39.28],[-18.7,-39.33],[-17.98,-37.81],[-17.39,-37.85],[-16.78,-37.09],[-16.02,-34.32],[-16.04,-32.1],[-13.45,-27.59],[-12.96,-22.41],[-11.78,-20.76],[-9.7,-19.14],[-7.7,-18.45],[-7.08,-17.47],[-6.88,-15.71],[-6.15,-15.31],[-5.92,-12.83],[-5.19,-13],[-5.78,-12.55],[-5.5,-11.27],[-6.23,-8.28],[-6.12,-6.31],[-5.53,-6.43],[-5.03,-5.77],[-4.62,-6.21],[-4.98,-5.61],[-3.07,-3.76],[-2.78,-2.76],[-3.28,-2.63],[-3.6,-1.37],[-4.77,-1.21],[-5.96,-0.24],[-2.66,0.12],[-1.82,1.05],[0.84,1.16],[6.56,-3.24],[9.35,-3.46],[14.48,-4.76],[16.63,-11.37],[16.94,-13.61],[12.31,-16.5],[10.51,-19.31],[10.1,-21.27],[11.99,-26.04],[11.73,-27.28],[9.79,-32.06],[6.89,-35.78]]]}},{"type":"Feature","properties":{},"geometry":{"type":"Polygon","coordinates":[[[-8.31,28.1],[-7.91,29.07],[-6.74,29.8],[-3.83,30.01],[-2,31.11],[-1.44,30.93],[-1.21,29.93],[0.14,29.55],[0.72,28.81],[4.21,28.7],[6.43,27.97],[7.41,27.15],[8.52,27.1],[9.54,26.3],[11.29,25.98],[1.01,26.14],[-4.44,27.95],[-8.31,28.1]]]}},{"type":"Feature","properties":{},"geometry":{"type":"Polygon","coordinates":[[[13.44,31.32],[13.13,30.57],[10.47,30.46],[9.08,29.69],[9.12,28.84],[6.18,27.94],[4.35,28.79],[2.99,28.63],[2.71,29.58],[3.18,29.74],[2.8,29.63],[2.7,30.24],[0.81,30.83],[1.91,31.89],[1.55,32.37],[2.25,32.54],[1.43,32.56],[3.31,33.9],[4.62,36.22],[5.95,36.17],[9.23,34.01],[10.53,33.71],[13.44,31.32]]]}},{"type":"Feature","properties":{},"geometry":{"type":"Polygon","coordinates":[[[-4.67,-1.6],[-4.75,-0.03],[-5.44,0.81],[-7.77,1.67],[-11.56,1.92],[-13.03,3.21],[-16.66,4.02],[-19.69,8.92],[-19.58,11.71],[-20.57,13.77],[-19.84,14.13],[-20.79,14.33],[-21.01,14.82],[-20.69,14.91],[-21.21,15.3],[-20.8,15.26],[-21.12,15.44],[-20.66,16.2],[-19.63,15.71],[-20.52,16.02],[-20.28,16.47],[-20.78,17.71],[-19.4,18.17],[-17.97,19.7],[-17.59,21.37],[-16.87,21.95],[-16.9,23.17],[-17.35,22.9],[-16.35,23.96],[-13.36,25.3],[-12.12,26.43],[-11.1,26.49],[-9.9,27.25],[-7.21,27.14],[-5.67,27.93],[-1.8,27.81],[3.67,26.07],[13.97,25.93],[14.02,25.3],[14.7,25.14],[13.81,24.75],[13.89,23.67],[12.55,23.23],[10.4,20.53],[6.17,11.52],[5.46,8.05],[6.43,2.94],[2.9,1.81],[1.97,0.47],[-0.67,0.1],[-1.41,-0.91],[-4.67,-1.6]]]}},{"type":"Feature","properties":{},"geometry":{"type":"Polygon","coordinates":[[[27.32,9.85],[27.03,8.98],[27.51,3.24],[27.11,2.35],[27.79,0.03],[27.12,-1.42],[13.51,-4.7],[8.35,-3.54],[5.55,-3.39],[-0.28,0.86],[0.75,2.12],[4.36,2.98],[3.79,8.15],[4.77,11.56],[9.72,20.22],[11.91,22.34],[12.98,20.54],[14.96,18.9],[14.85,17.82],[16.78,15.49],[17.92,15.53],[18.63,16.68],[20.45,16.58],[21.12,15.36],[22.31,14.54],[22.26,14.06],[24.97,11.96],[26.31,12.1],[27.28,11.59],[27.32,9.85]]]}},{"type":"Feature","properties":{},"geometry":{"type":"Polygon","coordinates":[[[27.87,12.07],[27.01,12.98],[25.37,13.45],[24.68,15.29],[24.25,15],[23.6,15.33],[23.47,16.57],[22.7,17.04],[23.52,16.76],[22.85,17.32],[23.63,18],[23.37,18.69],[26.36,17.98],[27.06,17.41],[27.39,16.06],[28.71,15.69],[31.57,13.55],[32.71,10.58],[30.1,11.92],[27.87,12.07]]]}},{"type":"Feature","properties":{},"geometry":{"type":"Polygon","coordinates":[[[12.11,-25.7],[11.54,-25.99],[9.45,-21.29],[9.79,-19.32],[11.47,-16.45],[15.99,-13.39],[20.82,-13.9],[19.58,-15.31],[18.43,-18.55],[14.99,-23.1],[14.1,-25.21],[12.11,-25.7]]]}},{"type":"Feature","properties":{},"geometry":{"type":"Polygon","coordinates":[[[28.5,8.47],[27.21,7.44],[26.96,11.73],[27.94,10.75],[29.36,10.77],[31.76,12.74],[32.79,14.48],[32.02,12.74],[28.5,8.47]]]}},{"type":"Feature","properties":{},"geometry":{"type":"Polygon","coordinates":[[[26.85,-1.26],[26.8,-2.04],[27.48,-3.07],[27.42,-6.2],[27.76,-5.97],[27.27,-10.71],[22.96,-12.9],[22.1,-14.32],[19.45,-13.61],[16.03,-13.4],[13.63,-5.7],[13.7,-4.55],[26.85,-1.26]]]}},{"type":"Feature","properties":{},"geometry":{"type":"Polygon","coordinates":[[[45.44,37.7],[42.42,38.76],[43.59,39.77],[43.01,40.4],[43.81,40.48],[44.19,41.17],[41.45,40.11],[40.77,39.43],[40.83,39.86],[40.84,39.11],[41.45,38.71],[42.42,38.96],[42.25,38.61],[39.84,37.84],[39.39,38.62],[38.73,38.42],[39.73,39.12],[37.88,39.23],[37.6,39.46],[38.42,39.49],[37.95,39.81],[36.13,38.5],[36.32,37.54],[35.77,37.35],[33.24,38.64],[30.98,40.91],[24.9,44.02],[21.74,45.06],[24.47,46.16],[25.09,45.73],[25.8,46.11],[25.48,45.66],[26.22,46.21],[25.78,46.4],[26.36,46.63],[26.51,47.3],[26.25,46.49],[26.82,46.52],[26.23,48.11],[26.52,49.17],[27.2,49.45],[28.26,48.78],[28.8,49.14],[28.61,50.21],[27.93,50.15],[27.48,50.99],[32.58,52.31],[31.17,52.62],[31.08,53.04],[26.83,51.5],[26.75,52.02],[25.41,52.13],[25.33,53.09],[24.45,54.25],[26.28,56.55],[26.86,56.64],[26.61,57.25],[23.8,57.2],[24.22,57.04],[23.63,56.79],[23.94,56.48],[23.61,56.25],[24.23,55.9],[23.75,55.19],[22.16,53.96],[21.64,54.31],[22.1,53.84],[21.65,53.6],[22.04,51.82],[23.82,51.08],[23.02,50.67],[23.5,50.45],[23.13,50.08],[22.86,50.39],[22.84,49.98],[21.83,49.73],[22.47,49.64],[21.96,49.59],[22.47,49.33],[22.47,47.81],[22.17,47.16],[20.97,46.92],[20.96,46.34],[19.85,46.23],[19.36,47.1],[19.7,47.42],[18.48,48.46],[18.5,49.1],[17.97,49.05],[17.24,50.55],[17.14,50.15],[16.86,50.35],[17.06,49.66],[16.44,49.69],[15.64,48.61],[14.72,48.39],[13.54,48.86],[13.37,49.35],[13.96,49.2],[14.2,49.43],[13.6,49.4],[14.07,49.93],[13,49.79],[14.28,50.88],[13.34,50.3],[12.81,50.65],[13.22,51.04],[12.86,50.83],[12.55,51.07],[13.03,51.17],[12.58,51.33],[14.22,51.26],[14.58,51.66],[12.71,51.38],[12.96,51.67],[12.41,52],[13.78,52.24],[12.39,52.45],[13.34,52.39],[13.02,52.53],[13.57,52.81],[14.02,52.49],[13.2,52.91],[14.6,53.13],[13.71,53.09],[13.87,53.4],[14.9,53.14],[14.32,53.45],[14.97,53.29],[14.51,53.57],[15.55,54.19],[15.73,53.86],[16.49,54.09],[16.67,54.75],[15.88,54.06],[15.4,54.3],[17.48,56.05],[16.79,55.9],[17.29,56.19],[17.07,56.63],[17.5,56.57],[17.05,56.79],[18.04,57.14],[17.25,56.91],[17.6,57.07],[17.1,57.25],[17.63,57.38],[17.2,57.46],[17.74,57.59],[17.33,57.71],[18.71,57.99],[17.81,58.07],[18.82,58.29],[17.93,58.67],[18.69,58.82],[18.2,58.92],[18.61,59.18],[19.18,58.78],[18.73,59.25],[19.92,59.48],[18.86,59.45],[19.65,59.71],[19.3,59.75],[19.71,59.79],[19.37,60],[19.63,60.52],[20.72,60.39],[20.17,60.87],[20.7,60.59],[20.91,61.17],[20.96,60.47],[21.55,60.75],[21.09,60.99],[21.5,61.3],[22.26,61.11],[21.52,61.62],[23.06,61.46],[22.73,61.66],[23.54,62.19],[23.29,62.54],[24.23,62.53],[24.07,61.66],[24.62,62.67],[24.96,62.09],[25.47,62.63],[25.02,62.81],[25.64,62.97],[25.84,62.3],[26.3,62.83],[28.09,62.54],[26.48,62.12],[27.44,61.71],[28.74,61.82],[29.09,62.25],[29.96,62.15],[29.24,62.06],[29.52,61.76],[30.45,61.88],[30.34,61.51],[32.24,61.94],[37,61.14],[37.75,60.34],[36.32,59.3],[30.61,59.54],[32.38,59.05],[31.94,58.82],[33.51,58.67],[33.37,58.12],[34.19,57.35],[36.62,56.97],[36.8,57.57],[35.43,57.75],[35.42,58.19],[36.78,58.1],[36.64,57.81],[38.62,58.07],[37.53,58.74],[37.93,59.48],[38.75,60.18],[40.62,59.84],[40.21,60.84],[39.4,61.08],[39.29,61.88],[38,62.34],[40.84,62.25],[41.18,61.98],[40.22,61.69],[40.16,61.27],[41.37,60.95],[42.57,61.24],[42.24,61.93],[43.13,62.12],[42.55,62.34],[44.74,63.44],[45.11,63.25],[44.78,63.47],[45.65,64.04],[46.17,64.15],[45.51,63.94],[46.21,63.53],[45.81,63.17],[46.59,63.16],[47.16,63.87],[48.66,64.14],[49.45,64.79],[50.16,64.3],[51.43,64.97],[49.85,65.5],[50.04,65.88],[53.15,66.08],[58.09,65.58],[58.87,64.94],[58.88,64.34],[57.03,60.87],[61.14,54.24],[61.24,52.97],[60.18,51.01],[60.85,47.39],[60.64,46.2],[59.35,44.99],[53.78,42.83],[49.06,37.85],[45.44,37.7]]]}},{"type":"Feature","properties":{},"geometry":{"type":"Polygon","coordinates":[[[16.52,45.66],[15.97,46.06],[15.88,47.26],[17.63,48.4],[17.46,47.34],[18.14,47.13],[17.13,46.31],[17.45,45.55],[16.52,45.66]]]}},{"type":"Feature","properties":{},"geometry":{"type":"Polygon","coordinates":[[[35.46,34.52],[35.33,35.5],[34.54,35.27],[34.5,35.8],[37.76,37.18],[37.12,37.13],[42.49,38.48],[45.68,38.21],[41.53,37.01],[40.32,36.13],[38.67,36.54],[37.65,36.25],[35.46,34.52]]]}},{"type":"Feature","properties":{},"geometry":{"type":"Polygon","coordinates":[[[23.83,23.89],[23.37,22.52],[22.6,22.64],[23.2,21.5],[22.97,21.05],[22.32,21.66],[22.36,21.05],[21.89,21.52],[21.69,20.84],[21.04,20.93],[21.15,21.36],[20.71,21.41],[21.06,22.58],[21.81,22.55],[22.62,21.75],[21.31,22.91],[21.4,23.49],[21.78,23.45],[21.46,23.57],[21.53,25.41],[22.7,26.34],[21.62,29.36],[22.18,31.09],[22.06,31.52],[21.33,31.29],[21.94,32.21],[21.09,32.56],[19.97,31.63],[20.2,30.52],[19.77,29.75],[19.9,28.59],[20.55,28.07],[20.1,27.82],[20.79,25.55],[20.42,25.47],[19.96,26.58],[19.22,26.27],[19.1,25.32],[17.43,25.19],[18.39,25.7],[18.87,26.88],[17.71,30.92],[18.38,32.53],[17.91,33.56],[16.67,33.68],[16.62,34.34],[17.76,35.7],[21.7,35],[25.79,32.52],[23.67,31.36],[24.07,27.41],[23.83,23.89]]]}},{"type":"Feature","properties":{},"geometry":{"type":"Polygon","coordinates":[[[17.28,34.32],[16.09,33.46],[14.22,33.86],[13.42,32.92],[9.4,33.57],[9.54,35.51],[10.07,35.06],[9.43,35.68],[9.48,36.29],[8.02,37.56],[6.6,37.64],[6.26,37.88],[6.71,38.16],[6.2,38.37],[9.07,38.62],[8.48,39.68],[9.96,39.3],[10.68,39.92],[13.03,39.12],[15.27,39.16],[18.94,42],[21.76,42.98],[26.37,43.15],[29.25,41.56],[26.51,40.81],[24.47,39.49],[19.78,38.55],[17.54,37.6],[16.06,36.3],[16.63,34.71],[17.28,34.32]]]}},{"type":"Feature","properties":{},"geometry":{"type":"Polygon","coordinates":[[[10.68,39.92],[11.46,40.32],[11.31,41],[13.46,41.63],[12.77,41.76],[13.74,42.01],[13.19,42.22],[13.65,43.26],[14.07,42.65],[14.46,42.97],[14.32,43.66],[15.65,43.69],[15.5,44.04],[16.11,44.21],[16.68,43.9],[16.73,44.44],[17.75,44.17],[16.59,44.85],[16.95,45.05],[16.28,45.26],[16.52,45.66],[17.45,45.55],[17.86,44.97],[18.67,45.12],[18.47,44.59],[19.79,45.32],[21.66,44.59],[21.74,45.06],[22.59,44.85],[26.37,43.15],[20.46,42.66],[18.15,41.47],[15.27,39.16],[13.03,39.12],[10.68,39.92]]]}},{"type":"Feature","properties":{},"geometry":{"type":"Polygon","coordinates":[[[35.73,37.13],[35.7,36.14],[35.17,35.63],[31.05,35.16],[30.2,36.02],[30.28,36.73],[32.83,37.76],[33.24,38.64],[35.73,37.13]]]}},{"type":"Feature","properties":{},"geometry":{"type":"Polygon","coordinates":[[[-19.08,67.45],[-18.3,67.04],[-19.8,67.26],[-19.08,67.45]]]}},{"type":"Feature","properties":{},"geometry":{"type":"Polygon","coordinates":[[[-24.33,69.83],[-25.67,69.47],[-26.96,69.75],[-26,70.22],[-24.33,69.83]]]}},{"type":"Feature","properties":{},"geometry":{"type":"Polygon","coordinates":[[[16.77,69.29],[18.05,68.76],[17.53,68.34],[17.11,68.68],[16.32,68.41],[16.3,68.89],[15.72,69.04],[16.77,69.29]]]}},{"type":"Feature","properties":{},"geometry":{"type":"Polygon","coordinates":[[[15.58,69.52],[16.24,69.26],[15.02,69.34],[15.58,69.52]]]}},{"type":"Feature","properties":{},"geometry":{"type":"Polygon","coordinates":[[[-23.02,70.31],[-23.67,69.87],[-25.18,70.43],[-23.02,70.31]]]}},{"type":"Feature","properties":{},"geometry":{"type":"Polygon","coordinates":[[[-18.08,68.34],[-17.83,67.85],[-18.4,67.59],[-19.76,67.7],[-19.08,67.92],[-19.04,68.4],[-18.08,68.34]]]}},{"type":"Feature","properties":{},"geometry":{"type":"Polygon","coordinates":[[[9.89,69.09],[10.93,68.6],[9.56,69.18],[9.89,69.09]]]}},{"type":"Feature","properties":{},"geometry":{"type":"Polygon","coordinates":[[[-19.33,69.76],[-19.91,69.23],[-19.18,69.28],[-19.29,68.61],[-20.37,68.04],[-21.09,68.24],[-20.74,68.43],[-20.95,68.91],[-21.85,69.08],[-20.47,69.24],[-20.72,69.4],[-20.25,69.53],[-20.96,69.52],[-20.44,69.85],[-19.33,69.76]]]}},{"type":"Feature","properties":{},"geometry":{"type":"Polygon","coordinates":[[[56.06,79.82],[62.52,79.62],[60.93,79.04],[60.91,78.55],[56.06,79.82]]]}},{"type":"Feature","properties":{},"geometry":{"type":"Polygon","coordinates":[[[11.53,70.6],[15.49,69.6],[14.38,69.25],[14.61,68.27],[11.53,70.6]]]}},{"type":"Feature","properties":{},"geometry":{"type":"Polygon","coordinates":[[[14.61,68.27],[14.83,67.38],[14.41,67.27],[13.75,67.51],[14.22,67.7],[12.4,68.04],[13.75,68.09],[12.76,68.21],[13.8,68.61],[12.28,68.23],[11.84,68.53],[13.4,69.02],[14.61,68.27]]]}},{"type":"Feature","properties":{},"geometry":{"type":"Polygon","coordinates":[[[12.87,69.34],[12.5,69.03],[12.14,69.39],[11.8,69.19],[12.23,68.91],[11.4,68.64],[9.17,69.81],[10.47,70.29],[10.02,69.94],[11.13,69.72],[10.98,70.26],[12.87,69.34]]]}},{"type":"Feature","properties":{},"geometry":{"type":"Polygon","coordinates":[[[47.83,78.54],[49.92,78.52],[47.42,78.4],[47.83,78.54]]]}},{"type":"Feature","properties":{},"geometry":{"type":"Polygon","coordinates":[[[49.84,79.37],[52.44,79.08],[50.93,79.51],[52.96,79.63],[57.14,79.03],[50.39,78.43],[50.71,78.47],[50.41,78.8],[49.07,79.01],[49.84,79.37]]]}},{"type":"Feature","properties":{},"geometry":{"type":"Polygon","coordinates":[[[19.46,71.95],[19.79,71.88],[18.91,71.65],[19.46,71.95]]]}},{"type":"Feature","properties":{},"geometry":{"type":"Polygon","coordinates":[[[30.72,74.23],[31.42,74.01],[30.34,74.07],[30.72,74.23]]]}},{"type":"Feature","properties":{},"geometry":{"type":"Polygon","coordinates":[[[28.96,73.86],[29.54,73.68],[28.7,73.64],[28.96,73.86]]]}},{"type":"Feature","properties":{},"geometry":{"type":"Polygon","coordinates":[[[30.92,74.44],[31.88,74.46],[31.74,74.12],[30.49,74.3],[30.92,74.44]]]}},{"type":"Feature","properties":{},"geometry":{"type":"Polygon","coordinates":[[[14.37,71.35],[17.07,71.14],[16.94,70.62],[16.1,70.26],[12.16,70.74],[13.07,70.87],[12.71,71.21],[14.64,70.92],[14.37,71.35]]]}},{"type":"Feature","properties":{},"geometry":{"type":"Polygon","coordinates":[[[25.31,73.66],[26.21,73.62],[24.52,73.2],[25.31,73.66]]]}},{"type":"Feature","properties":{},"geometry":{"type":"Polygon","coordinates":[[[31.85,75.14],[32.62,74.7],[30.85,74.83],[31.85,75.14]]]}},{"type":"Feature","properties":{},"geometry":{"type":"Polygon","coordinates":[[[26.58,74.04],[27.47,73.96],[26.8,73.39],[27.19,73.11],[25.98,73.13],[26.6,73.26],[25.98,73.33],[26.69,73.55],[26.05,73.74],[26.58,74.04]]]}},{"type":"Feature","properties":{},"geometry":{"type":"Polygon","coordinates":[[[32.05,75.69],[33.22,75.34],[32.15,75.15],[32.05,75.69]]]}},{"type":"Feature","properties":{},"geometry":{"type":"Polygon","coordinates":[[[44.15,79.66],[49.51,79.41],[48.71,78.96],[48.96,78.78],[46.81,78.57],[47.05,78.79],[43.7,79.55],[44.15,79.66]]]}},{"type":"Feature","properties":{},"geometry":{"type":"Polygon","coordinates":[[[-11.68,69.85],[-12.49,68.43],[-11.6,68.52],[-12.99,67.81],[-12.19,67.68],[-12.42,67.32],[-14.48,67.12],[-14.14,67.47],[-15.74,66.88],[-15.47,67.39],[-15.97,66.96],[-16.99,67.33],[-16.26,67.54],[-16.86,67.78],[-16.55,68.21],[-14.77,67.95],[-16.34,68.55],[-15.24,68.74],[-15.91,68.9],[-15.72,69.16],[-14.71,68.98],[-14.26,69.07],[-14.84,69.48],[-13.5,69.28],[-13.48,69.69],[-11.68,69.85]]]}},{"type":"Feature","properties":{},"geometry":{"type":"Polygon","coordinates":[[[27.69,75.55],[28.1,75.48],[27.35,75.4],[27.69,75.55]]]}},{"type":"Feature","properties":{},"geometry":{"type":"Polygon","coordinates":[[[0.33,66.52],[0.6,65.95],[-0.21,66.53],[0.33,66.52]]]}},{"type":"Feature","properties":{},"geometry":{"type":"Polygon","coordinates":[[[-1.57,69.22],[-0.77,68.85],[-1.88,68.72],[-0.33,68.74],[-0.04,68.59],[-0.48,68.24],[0.12,68],[-1.64,67.65],[-3.31,67.98],[-2.65,67.61],[-4.36,67.47],[-1.88,67.51],[-5.31,67.07],[-5.49,66.7],[-6.33,66.9],[-5.74,66.63],[-6.54,66.4],[-9.63,66.68],[-8.35,66.22],[-9.72,66.53],[-9.15,66.27],[-10.12,66.31],[-8.97,65.91],[-10.61,65.58],[-10.14,65.38],[-10.46,65.26],[-11.57,65.49],[-12.23,65.01],[-14.07,65.38],[-12.83,64.97],[-13.06,64.57],[-12.54,64.67],[-13.31,64.21],[-14.94,64.25],[-14.47,64.46],[-14.92,64.93],[-16.59,64.85],[-18.06,65.38],[-17.7,65.72],[-18.41,65.71],[-16.19,65.81],[-16.43,66.1],[-15.92,66.57],[-15.18,66.34],[-15.5,65.91],[-15.08,65.64],[-13.09,66.05],[-14.56,65.74],[-14.73,66.32],[-13.76,66.56],[-15.22,66.7],[-13.99,67.12],[-13.03,67.06],[-12.43,66.46],[-12.44,66.78],[-11.69,66.66],[-12.73,67.11],[-12.26,66.97],[-12.23,67.88],[-11.38,68.31],[-10.53,68.02],[-10.63,67.27],[-9.93,67.11],[-10.46,67.32],[-10.16,68],[-7.95,67.7],[-8.56,67.92],[-6.96,67.8],[-7.79,68.05],[-6.18,68.31],[-10.55,68.34],[-10.96,68.57],[-8.47,68.59],[-11.18,68.67],[-11.29,69.09],[-9.05,68.9],[-11.21,69.19],[-9.51,69.3],[-10.73,69.52],[-9.96,69.63],[-10.69,69.87],[-8.58,69.83],[-7.95,69.34],[-8.03,69.8],[-7.01,69.85],[-7.2,69.35],[-6.65,69.48],[-6.39,68.82],[-6.47,69.58],[-5.37,69.8],[-4.11,69.61],[-4.47,69.09],[-3.91,69.63],[-2.99,69.45],[-2.97,69.04],[-1.57,69.22]]]}},{"type":"Feature","properties":{},"geometry":{"type":"Polygon","coordinates":[[[-7.33,48.69],[-6.66,49.22],[-7.33,49.05],[-7.08,49.56],[-7.45,49.61],[-6.09,49.87],[-7.4,49.65],[-7.77,50.05],[-6.77,50.29],[-7.88,50.34],[-5.74,50.97],[-7.91,50.41],[-7.58,50.58],[-7.87,50.82],[-7.1,50.8],[-7.74,50.95],[-6.92,51.08],[-7.95,51.43],[-5.7,51.31],[-7.86,51.55],[-7.06,52.01],[-5.45,51.64],[-6.18,51.9],[-5.43,51.98],[-5.94,52.15],[-7.69,51.91],[-6.57,52.19],[-7.28,52.47],[-5.41,52.06],[-6.15,52.38],[-5.7,52.66],[-7.3,52.62],[-5.82,52.75],[-5.73,53.3],[-5.24,53.09],[-5.29,53.48],[-5.75,53.37],[-5.03,54.13],[-7.39,54.98],[-5.15,54.45],[-5.56,54.72],[-5.2,55.02],[-5.79,55.21],[-5.2,55.16],[-5.93,55.32],[-5.47,55.46],[-6.08,55.38],[-5.34,55.63],[-6.26,55.65],[-5.43,55.88],[-6.39,56.25],[-6.75,55.72],[-7.65,55.83],[-6.99,56.31],[-7.53,56.36],[-7.03,56.65],[-7.4,56.81],[-6.7,57.12],[-7.23,57.44],[-6.78,57.67],[-7.21,58.01],[-7.02,58.6],[-7.68,58.52],[-6.95,58.73],[-7.85,59.81],[-7.54,60.16],[-9.58,61.1],[-12.15,61.19],[-12.48,61.55],[-11.49,61.71],[-12.82,62.29],[-10.33,62.13],[-10.08,62.45],[-11.5,62.53],[-12.59,63.49],[-8.7,63.94],[-7.22,64.68],[-8.56,64.8],[-8.48,65.1],[-6.45,65.65],[-6.43,65.23],[-4.91,66.22],[-3.81,65.52],[-4.4,66.27],[-2.5,66.45],[-2.73,65.63],[-2.18,66.08],[-1.34,65.57],[-1.32,66.5],[0.51,65.61],[0.67,66.13],[1.43,66.04],[0.45,66.64],[2.33,66.29],[0.65,66.99],[2.72,66.54],[3.28,66.93],[2.72,67.22],[3.93,67.38],[6.66,67.12],[3.72,66.52],[6.83,67],[6.73,66.6],[8.25,66.51],[4.61,65.54],[7.41,65.84],[6.93,65.26],[8.47,65.99],[8.7,65.38],[8.01,64.45],[10.49,65.91],[12.2,65.7],[11.19,64.73],[9.19,64.5],[11.2,64.53],[9.48,64.08],[9.83,63.7],[10.83,64.08],[10.09,63.6],[10.48,63.16],[9.71,62.72],[9.65,61.61],[10.82,61.76],[10.09,61.48],[11.33,61.34],[11.53,60.8],[9.83,60.97],[10.5,60.89],[9.56,60.62],[11.1,60.14],[10.13,59.93],[11.4,59.77],[11.46,59.19],[9.92,59.5],[11,59.15],[10.03,59.11],[10.96,59.06],[10.81,58.66],[11.94,58.56],[10.33,58.57],[11.43,58.24],[10.22,58.26],[10.65,57.63],[10.63,58.04],[11.47,57.57],[10.44,57.22],[9.49,57.58],[10.45,57.6],[8.6,57.83],[9.21,57.42],[7.83,57.35],[8.37,57.1],[7.67,56.97],[9.08,56.95],[7.86,56.7],[9.34,56.58],[8.51,56.26],[9.09,56.28],[8.98,55.91],[9.42,56.33],[10.68,55.87],[10.38,55.57],[11.03,55.72],[10.72,55.43],[11.23,55.41],[10.93,55.02],[11.29,55.08],[11.39,54.44],[10.86,54.83],[10.44,54.4],[9.6,55.25],[7.23,55.91],[8.03,55.55],[7.42,55.37],[9.14,55.21],[7.76,54.98],[7.07,54.27],[8.75,54.23],[7.48,53.93],[8.19,53.81],[9.36,54.31],[11.08,53.96],[8.92,52.54],[6.28,52.04],[6.53,51.87],[5.25,52.39],[5.57,51.71],[4.85,51.46],[4,50.14],[3.24,50.22],[3.41,49.9],[2.34,49.88],[2.37,49.54],[1.97,49.67],[2.41,50.09],[1.97,50.22],[1.72,49.43],[-0.17,48.95],[0.26,48.19],[-0.5,48.11],[0.11,47.95],[0.14,47.51],[-0.5,47.7],[-0.02,47.41],[-0.81,47.33],[-0.5,46.95],[-1.03,46.95],[-0.67,46.75],[-1.68,46.63],[-1.04,46.24],[-1.59,46.4],[-1.04,45.87],[-1.73,45.48],[-1.28,45.27],[-1.87,45.22],[-1.47,44.97],[-2.14,45.03],[-1.52,44.94],[-2.1,44.74],[-1.65,44.44],[-2.57,44.55],[-1.88,43.97],[-2.52,44.3],[-3.29,44.03],[-2.76,44.49],[-3.31,44.08],[-2.85,44.68],[-3.82,44.55],[-3.28,44.86],[-3.96,44.74],[-3.21,45.15],[-3.82,44.9],[-3.59,45.3],[-5.33,44.89],[-5.05,45.39],[-5.82,45.51],[-5.24,45.6],[-5.94,45.67],[-5.45,45.72],[-5.83,45.83],[-5.52,46.08],[-6,45.95],[-5.57,46.17],[-6.17,46.14],[-5.84,46.38],[-6.5,46.66],[-5.99,47.19],[-6.48,46.94],[-6.2,47.37],[-6.88,47.54],[-6.24,47.54],[-7.11,47.92],[-6.35,48.37],[-7.15,48.41],[-6.07,48.59],[-6.36,48.85],[-5.71,48.47],[-5.97,48.98],[-6.49,49.41],[-6.32,48.92],[-7.33,48.69]]]}}]}
