{"type":"FeatureCollection","features":[{"type":"Feature","properties":{},"geometry":{"type":"Polygon","coordinates":[[[75.82,-72.07],[77.66,-71.43],[79.55,-71.59],[77.38,-72.23],[75.82,-72.07]]]}},{"type":"Feature","properties":{},"geometry":{"type":"Polygon","coordinates":[[[81.9,-68.55],[82.02,-68.94],[80.62,-68.52],[82.31,-68.27],[81.9,-68.55]]]}},{"type":"Feature","properties":{},"geometry":{"type":"Polygon","coordinates":[[[5.53,-81.03],[9.76,-80.19],[12.63,-80.83],[11.88,-81.23],[5.53,-81.03]]]}},{"type":"Feature","properties":{},"geometry":{"type":"Polygon","coordinates":[[[90.43,-79.75],[89.48,-79.71],[91.39,-79.61],[90.43,-79.75]]]}},{"type":"Feature","properties":{},"geometry":{"type":"Polygon","coordinates":[[[76.59,-83.2],[76.17,-83.12],[78.38,-82.97],[76.59,-83.2]]]}},{"type":"Feature","properties":{},"geometry":{"type":"Polygon","coordinates":[[[87.92,-82.19],[82.49,-82.91],[81.15,-82.79],[80.92,-82.27],[84.29,-81.79],[87.92,-82.19]]]}},{"type":"Feature","properties":{},"geometry":{"type":"Polygon","coordinates":[[[94.27,-81.59],[85.92,-81.65],[92.35,-81.33],[91.74,-81.18],[92.09,-81.15],[94.6,-81.29],[94.27,-81.59]]]}},{"type":"Feature","properties":{},"geometry":{"type":"Polygon","coordinates":[[[-22.6,-81.42],[-17.06,-81.23],[-19.32,-81.68],[-22.6,-81.42]]]}},{"type":"Feature","properties":{},"geometry":{"type":"Polygon","coordinates":[[[7.24,-83.35],[9.54,-83.43],[6.81,-83.4],[7.24,-83.35]]]}},{"type":"Feature","properties":{},"geometry":{"type":"Polygon","coordinates":[[[-23.5,-82.09],[-20.05,-82.34],[-23.88,-82.29],[-23.5,-82.09]]]}},{"type":"Feature","properties":{},"geometry":{"type":"Polygon","coordinates":[[[30.86,-85.7],[28.05,-85.52],[31.72,-85.68],[30.86,-85.7]]]}},{"type":"Feature","properties":{},"geometry":{"type":"Polygon","coordinates":[[[13.78,-84.7],[16.47,-84.8],[13.14,-84.77],[13.78,-84.7]]]}},{"type":"Feature","properties":{},"geometry":{"type":"Polygon","coordinates":[[[19.79,-86.05],[18.46,-86.02],[22.18,-85.81],[12.09,-85.59],[17.81,-85.54],[12.45,-85.36],[18,-85.19],[16.71,-85.09],[17.69,-85.03],[38.65,-86.23],[18.85,-86.08],[19.79,-86.05]]]}},{"type":"Feature","properties":{},"geometry":{"type":"Polygon","coordinates":[[[-36.28,-80.63],[-35.22,-81.05],[-37.21,-81.01],[-36.28,-80.63]]]}},{"type":"Feature","properties":{},"geometry":{"type":"Polygon","coordinates":[[[-43.15,-80.61],[-40.42,-80.72],[-43.36,-81.06],[-43.15,-80.61]]]}},{"type":"Feature","properties":{},"geometry":{"type":"Polygon","coordinates":[[[-42.7,-78.81],[-27.75,-79.12],[-22.74,-79.76],[-23.02,-80.45],[-24.6,-80.64],[-25.78,-80.45],[-25.44,-79.98],[-29.22,-80.24],[-29.87,-80.39],[-26.6,-80.88],[-31.85,-81.43],[-32.45,-81.33],[-30.3,-81.16],[-32.98,-81.09],[-30.35,-80.76],[-32.57,-80.9],[-32.88,-80.69],[-31.4,-80.55],[-33.66,-80.41],[-33.12,-80.1],[-33.75,-79.89],[-32.54,-79.75],[-36.59,-79.71],[-36.02,-79.3],[-39.44,-79.76],[-43.68,-79.3],[-42.7,-78.81]]]}},{"type":"Feature","properties":{},"geometry":{"type":"Polygon","coordinates":[[[-45.48,-77.25],[-44.95,-77.44],[-45.81,-77.36],[-45.48,-77.25]]]}},{"type":"Feature","properties":{},"geometry":{"type":"Polygon","coordinates":[[[-49.64,-76.88],[-46.13,-77.78],[-47.88,-77.79],[-49.64,-76.88]]]}},{"type":"Feature","properties":{},"geometry":{"type":"Polygon","coordinates":[[[79.17,-50.82],[79.09,-51.73],[78.36,-51.57],[79.17,-50.82]]]}},{"type":"Feature","properties":{},"geometry":{"type":"Polygon","coordinates":[[[-52.4,-73.97],[-51.06,-74.31],[-52.23,-74.56],[-52.4,-73.97]]]}},{"type":"Feature","properties":{},"geometry":{"type":"Polygon","coordinates":[[[-47.96,-71.87],[-46.1,-72.1],[-46.92,-72.41],[-47.97,-72.26],[-47.96,-71.87]]]}},{"type":"Feature","properties":{},"geometry":{"type":"Polygon","coordinates":[[[4.25,-81.23],[7.75,-81.74],[10.9,-81.51],[9.3,-81.85],[10.91,-82.03],[19.23,-80.4],[20.58,-79.84],[18.78,-80.16],[18.23,-79.83],[21.26,-79.64],[20.79,-79.33],[21.79,-79.12],[30.62,-78.65],[33.58,-76.91],[36.74,-76.04],[44.73,-76.81],[46.89,-77.84],[49,-78.17],[48.9,-78.69],[47.65,-79.33],[44.38,-79.62],[41.02,-80.66],[24.74,-82.2],[21.58,-82.92],[13.48,-83.11],[2.27,-81.98],[4.25,-81.23]]]}},{"type":"Feature","properties":{},"geometry":{"type":"Polygon","coordinates":[[[-48.75,-71.3],[-47.45,-71.39],[-48.55,-71.89],[-47.16,-72.69],[-48.59,-72.98],[-48,-73.73],[-48.26,-74.29],[-47.17,-74.26],[-46.58,-74.74],[-44.69,-74.23],[-44.3,-74.57],[-45.23,-74.52],[-44.4,-74.84],[-46.18,-75.06],[-44.33,-75.28],[-47.06,-75.25],[-44.86,-75.72],[-45.65,-76.13],[-43.06,-76.92],[-39.64,-77.11],[-38.31,-76.84],[-39.32,-76.57],[-38.62,-76.3],[-38.57,-76.7],[-37.16,-76.85],[-26.74,-76.8],[-24.25,-76.93],[-23.85,-77.34],[-23.12,-76.96],[-18.66,-77.3],[-18.96,-76.94],[-6.85,-78.33],[-1.6,-79.61],[1.94,-78.9],[7.38,-79.86],[4.9,-80.64],[2.13,-80.84],[4.25,-81.23],[-1.54,-83.1],[-4.9,-83.67],[-14.11,-83.57],[-12.69,-83.23],[-20.97,-82.89],[-16.43,-82.35],[-17.7,-81.86],[-15.11,-81.88],[-17.01,-81.41],[-16.34,-81.23],[-18.24,-80.83],[-21.31,-79.19],[-39.13,-78.63],[-38.88,-78.45],[-39.34,-78.39],[-38.34,-78.12],[-44.14,-77.47],[-45.22,-76.96],[-45.99,-77.34],[-47.81,-77.04],[-45.89,-76.85],[-48.37,-76.52],[-47.44,-76.27],[-49.23,-75.93],[-48.51,-75.47],[-49.51,-75.35],[-49.02,-75.29],[-49.61,-75.21],[-49.18,-74.88],[-50.75,-74.64],[-49.66,-74.47],[-50.39,-74.4],[-49.73,-74.06],[-50.67,-73.93],[-49.54,-73.64],[-50.49,-73.06],[-49.36,-72.49],[-49.69,-72.07],[-48.75,-71.3]]]}},{"type":"Feature","properties":{},"geometry":{"type":"Polygon","coordinates":[[[26.81,-72.51],[24.26,-71.85],[18.62,-68.95],[18.68,-68.49],[19.75,-68.39],[16.99,-67.87],[14.71,-68.85],[12.29,-68.33],[10.41,-66.36],[10.49,-65.23],[9.03,-64.15],[8.8,-62.54],[9.92,-60.21],[8.22,-59.71],[9.33,-59.7],[8.59,-59.03],[8.99,-58.79],[10.38,-59.23],[10.95,-58.93],[9.79,-58.35],[9.93,-58.07],[10.51,-57.85],[11.29,-58.43],[12.5,-57.74],[11.97,-57.74],[11.44,-56.95],[13.12,-57.73],[13.49,-57.37],[14.18,-57.57],[15.1,-55.49],[17.6,-54.55],[19.12,-54.55],[19.17,-54.18],[21.01,-53.48],[25.33,-52.62],[29.55,-50.83],[29.13,-49.96],[29.48,-49.73],[32.54,-50.73],[32.98,-50.21],[32.74,-49.56],[34.09,-48.45],[35.66,-47.94],[35.92,-47.43],[36.97,-47.67],[37.52,-47.25],[36.91,-47.02],[37.4,-46.78],[37.78,-47.21],[38.39,-47.07],[38.09,-46.2],[39.85,-45.6],[40.96,-45.69],[41.99,-46.24],[41.41,-46.51],[43.08,-47.04],[49.06,-47.34],[49.16,-48.26],[48.6,-48.51],[49.1,-48.49],[48.55,-48.67],[48.98,-48.82],[48.34,-48.85],[48.6,-49.4],[47.97,-49.81],[49.63,-51.03],[50.93,-49.48],[52.16,-49.44],[54.29,-48.02],[57.46,-47.25],[61.81,-47.25],[65.06,-47.96],[65.86,-47.94],[66,-47.26],[66.91,-47.36],[66.66,-47.76],[67.09,-48.01],[68.42,-47.88],[69.53,-48.38],[71.22,-49.71],[74.4,-49.26],[74.69,-50.15],[75.64,-50.35],[76.12,-51.19],[78.17,-51.6],[77.94,-51.89],[81.42,-52.13],[81.79,-53.13],[82.56,-53.42],[83.6,-52.54],[86.01,-53.77],[87.3,-53.15],[86.79,-53.82],[87.15,-54.44],[90.87,-56.99],[92.29,-57.2],[90.73,-57.48],[92.19,-58.47],[91.14,-58.73],[92.92,-59.44],[92.53,-59.85],[94.37,-60.19],[93.91,-60.95],[95.09,-61.5],[94.87,-61.74],[95.48,-62.2],[94.83,-63.4],[95.62,-63.81],[95.33,-64.29],[95.69,-64.17],[97.03,-65.48],[96.26,-66.62],[97.06,-66.42],[96.23,-66.91],[91.94,-67.21],[88.94,-66.51],[87.95,-66.91],[86.9,-66.69],[87.69,-66.38],[86.82,-66.34],[85.82,-66.56],[86.35,-66.92],[86.08,-67.11],[84.78,-66.77],[81.78,-67.29],[80.4,-68.06],[78.84,-68.05],[79.93,-68.33],[78.59,-68.89],[78.21,-68.32],[75.98,-67.85],[68.61,-69.28],[67.96,-68.99],[67.35,-69.3],[67.96,-69.54],[65.24,-69.96],[65.58,-70.11],[62.53,-71.22],[58.96,-70.97],[62.81,-71.33],[60.07,-72.26],[57.23,-72.36],[55.43,-72.88],[55.81,-73.37],[53.27,-73.77],[58.91,-73.73],[64.24,-74.54],[61.05,-75.72],[49.6,-74.34],[43.17,-75.17],[26.81,-72.51]]]}},{"type":"Feature","properties":{},"geometry":{"type":"Polygon","coordinates":[[[66.45,-72.28],[70.72,-72.88],[70.92,-73.34],[70.26,-74.09],[70.57,-74.26],[79.32,-72.72],[84.84,-72.77],[83.85,-73.02],[84.84,-73.22],[84.35,-73.63],[83.16,-73.93],[83.76,-74.03],[81.64,-74.52],[83.26,-75.17],[82.48,-75.31],[84.02,-75.33],[83.61,-75.54],[86.12,-75.32],[87.17,-74.76],[87.84,-75.06],[85.98,-75.61],[88.25,-75.63],[88.22,-76.09],[89.3,-76.53],[88.34,-76.67],[88.85,-76.78],[88.64,-77.02],[90.04,-77.28],[89.49,-77.9],[91.36,-78.07],[91.24,-78.37],[91.89,-78.55],[89.48,-78.82],[89.49,-79.18],[87.06,-79.85],[86.12,-80.62],[77.66,-82.4],[77.91,-82.78],[71.2,-83.1],[73.56,-83.4],[72.89,-83.74],[65.95,-83.01],[63.43,-83.32],[66.03,-83.71],[62.79,-83.85],[57.84,-83.44],[54.99,-83.76],[52.84,-83.56],[52.71,-83.07],[49.7,-83.24],[49.14,-83.7],[39.12,-83.18],[41.1,-83.85],[37.32,-84.14],[41.25,-84.79],[33.6,-84.87],[42.17,-84.98],[44.6,-85.43],[44.16,-85.54],[25.6,-85.02],[22.58,-84.35],[16.16,-84.44],[16.89,-84.13],[11.96,-83.45],[4.29,-83.45],[3.76,-83.23],[6.82,-83.06],[5.9,-82.76],[6.3,-82.47],[3.04,-82.39],[5.39,-82.08],[4.14,-81.53],[4.84,-81.36],[30.06,-80.17],[32.24,-79.44],[43.07,-78.2],[47.55,-76.92],[50.23,-76.67],[51.8,-75.48],[63.42,-74.08],[66.45,-72.28]]]}},{"type":"Feature","properties":{},"geometry":{"type":"Polygon","coordinates":[[[-47.21,-70.67],[-46.42,-70.63],[-47.78,-71.17],[-47.21,-70.67]]]}},{"type":"Feature","properties":{},"geometry":{"type":"Polygon","coordinates":[[[-51.38,-71.99],[-50.93,-71.96],[-52.66,-72.34],[-51.38,-71.99]]]}},{"type":"Feature","properties":{},"geometry":{"type":"Polygon","coordinates":[[[-50.02,-70.9],[-49.44,-70.88],[-50.75,-71.41],[-50.02,-70.9]]]}},{"type":"Feature","properties":{},"geometry":{"type":"Polygon","coordinates":[[[-34.15,-70.81],[-32.98,-71.31],[-36.62,-70.83],[-33.7,-70.71],[-34.15,-70.81]]]}},{"type":"Feature","properties":{},"geometry":{"type":"Polygon","coordinates":[[[-33.32,-70.54],[-31.46,-70.74],[-33.79,-70.59],[-33.32,-70.54]]]}},{"type":"Feature","properties":{},"geometry":{"type":"Polygon","coordinates":[[[-36.03,-70.53],[-35.11,-70.63],[-36.49,-70.63],[-36.03,-70.53]]]}},{"type":"Feature","properties":{},"geometry":{"type":"Polygon","coordinates":[[[-26.93,-70.22],[-26.04,-70.16],[-27.62,-70.33],[-26.93,-70.22]]]}},{"type":"Feature","properties":{},"geometry":{"type":"Polygon","coordinates":[[[-39.3,-69.63],[-38.3,-70],[-39.47,-69.91],[-39.3,-69.63]]]}},{"type":"Feature","properties":{},"geometry":{"type":"Polygon","coordinates":[[[-39.89,-69.54],[-39.39,-69.78],[-40.46,-69.76],[-39.89,-69.54]]]}},{"type":"Feature","properties":{},"geometry":{"type":"Polygon","coordinates":[[[-37.51,-69.24],[-37.25,-69.72],[-37.83,-69.61],[-37.44,-69.94],[-38.16,-69.75],[-37.51,-69.24]]]}},{"type":"Feature","properties":{},"geometry":{"type":"Polygon","coordinates":[[[-41.81,-69.06],[-40.27,-69.5],[-41.49,-69.81],[-41.86,-69.76],[-41.16,-69.55],[-42.77,-69.42],[-41.81,-69.06]]]}},{"type":"Feature","properties":{},"geometry":{"type":"Polygon","coordinates":[[[-40.29,-68.34],[-39.06,-68.49],[-41.04,-68.76],[-40.39,-68.87],[-41.18,-69],[-40.73,-69.23],[-42.25,-68.83],[-41.25,-68.98],[-41.73,-68.53],[-40.29,-68.34]]]}},{"type":"Feature","properties":{},"geometry":{"type":"Polygon","coordinates":[[[-39.22,-70.11],[-36.76,-70.23],[-38.22,-69.81],[-35.28,-70.11],[-35.52,-70.38],[-34.87,-70.13],[-36.98,-69.52],[-35.68,-69.02],[-37.48,-69.04],[-36.9,-68.61],[-37.46,-68.45],[-35.82,-68.12],[-34.48,-68.31],[-33.74,-68.77],[-34.26,-68.91],[-32.07,-69.69],[-28.26,-70.18],[-30.56,-70.64],[-40.1,-70.2],[-39.22,-70.11]]]}},{"type":"Feature","properties":{},"geometry":{"type":"Polygon","coordinates":[[[-20.06,-66.47],[-19.73,-66.55],[-21.28,-67.38],[-22.46,-67.28],[-20.89,-66.91],[-22.02,-66.58],[-20.06,-66.47]]]}},{"type":"Feature","properties":{},"geometry":{"type":"Polygon","coordinates":[[[-19.28,-66.37],[-17.34,-66.65],[-19.2,-66.87],[-18.55,-67.05],[-19.61,-67.1],[-19.12,-67.34],[-19.79,-67.24],[-19.56,-67.46],[-20.3,-67.28],[-19.27,-66.9],[-19.64,-66.69],[-19.28,-66.37]]]}},{"type":"Feature","properties":{},"geometry":{"type":"Polygon","coordinates":[[[-44.18,-66.37],[-43.82,-66.76],[-44.72,-66.64],[-44.18,-66.37]]]}},{"type":"Feature","properties":{},"geometry":{"type":"Polygon","coordinates":[[[-43.95,-66.11],[-43.45,-66.52],[-44.25,-66.15],[-43.95,-66.11]]]}},{"type":"Feature","properties":{},"geometry":{"type":"Polygon","coordinates":[[[-45.12,-65.65],[-44.35,-65.81],[-45.46,-66.01],[-45.12,-65.65]]]}},{"type":"Feature","properties":{},"geometry":{"type":"Polygon","coordinates":[[[-44.23,-65.1],[-44.78,-65.56],[-45.37,-64.94],[-44.46,-65.04],[-44.22,-64.7],[-44.7,-64.49],[-43.85,-64.37],[-43.76,-65.56],[-44.51,-65.65],[-44.09,-65.61],[-44.55,-65.6],[-44.09,-65.46],[-44.51,-65.45],[-44.23,-65.1]]]}},{"type":"Feature","properties":{},"geometry":{"type":"Polygon","coordinates":[[[-44.12,-63.8],[-43.78,-64.3],[-44.59,-64.24],[-44.12,-63.8]]]}},{"type":"Feature","properties":{},"geometry":{"type":"Polygon","coordinates":[[[-44.9,-63.73],[-44.23,-63.84],[-44.61,-64.12],[-44.9,-63.73]]]}},{"type":"Feature","properties":{},"geometry":{"type":"Polygon","coordinates":[[[-45.05,-63.72],[-44.65,-64.26],[-45.43,-64.03],[-45.05,-63.72]]]}},{"type":"Feature","properties":{},"geometry":{"type":"Polygon","coordinates":[[[-43.3,-63.47],[-42.69,-63.54],[-43.77,-63.56],[-43.3,-63.47]]]}},{"type":"Feature","properties":{},"geometry":{"type":"Polygon","coordinates":[[[121.39,-74.46],[119.71,-74.59],[119.48,-74.16],[121.39,-74.46]]]}},{"type":"Feature","properties":{},"geometry":{"type":"Polygon","coordinates":[[[-42.58,-60.67],[-42.44,-60.96],[-43.19,-60.83],[-42.58,-60.67]]]}},{"type":"Feature","properties":{},"geometry":{"type":"Polygon","coordinates":[[[-41.4,-60.05],[-40.98,-60.22],[-42,-60.5],[-41.4,-60.05]]]}},{"type":"Feature","properties":{},"geometry":{"type":"Polygon","coordinates":[[[-42.6,-57.45],[-41.83,-57.95],[-42.49,-58.21],[-42.06,-58.83],[-42.94,-59.09],[-43.38,-58.89],[-42.6,-57.45]]]}},{"type":"Feature","properties":{},"geometry":{"type":"Polygon","coordinates":[[[96.48,-66.95],[98.31,-68.14],[99.18,-68.17],[99.28,-68.59],[99.26,-68.16],[102.03,-68.75],[97.86,-70.46],[97.45,-70.16],[98.07,-70.11],[97.12,-70.06],[97.28,-69.71],[95.14,-70.29],[93.86,-69.86],[94.63,-69.76],[94,-69.58],[94.24,-68.78],[94.8,-68.39],[94.75,-68.79],[95.17,-68.69],[94.86,-68.43],[95.36,-67.58],[96.48,-66.95]]]}},{"type":"Feature","properties":{},"geometry":{"type":"Polygon","coordinates":[[[111.95,-72.4],[112.32,-72.62],[111.48,-72.47],[111.59,-72.84],[110.52,-73.21],[113.29,-73.66],[108.23,-74.17],[94.44,-71.59],[102.85,-72.64],[111.95,-72.4]]]}},{"type":"Feature","properties":{},"geometry":{"type":"Polygon","coordinates":[[[136.35,-78.94],[133.92,-78.37],[130.55,-78.61],[131.05,-78.5],[130.3,-78.49],[130.94,-78.39],[130.8,-78.09],[129.26,-77.3],[122.75,-76.57],[120.63,-75.46],[121.67,-74.81],[121.35,-74.78],[123.51,-74.44],[123.27,-74.17],[123.94,-73.71],[126.87,-73.96],[126.08,-74.11],[128.24,-74.33],[127.83,-74.4],[134.69,-77.2],[136.97,-78.65],[136.35,-78.94]]]}},{"type":"Feature","properties":{},"geometry":{"type":"Polygon","coordinates":[[[103.13,-67.51],[103.41,-67.85],[102.62,-68.03],[102.58,-67.56],[103.13,-67.51]]]}},{"type":"Feature","properties":{},"geometry":{"type":"Polygon","coordinates":[[[92.66,-59.6],[93.03,-60.05],[90.87,-59.35],[92.66,-59.6]]]}},{"type":"Feature","properties":{},"geometry":{"type":"Polygon","coordinates":[[[125.17,-68.22],[124.63,-68.78],[125.23,-68.7],[124.94,-68.87],[125.87,-69.31],[125.53,-69.5],[126.23,-69.48],[125.02,-70.18],[125.02,-70.68],[123.79,-71.13],[124.7,-71.67],[125.83,-71.04],[125.66,-71.36],[126.14,-71.45],[125.54,-71.48],[125.88,-71.55],[124.92,-72.31],[126.43,-73.17],[129.85,-73.55],[124.68,-74.43],[125.15,-74.28],[123.13,-73.95],[118.91,-74.64],[113.15,-74.59],[113.62,-74.15],[112.99,-74.02],[117.27,-73.48],[116.44,-72.49],[116.74,-72.2],[119.22,-72.34],[122.88,-71.37],[123.5,-70.39],[124.57,-70.4],[123.44,-70.27],[124.44,-68.07],[125.17,-68.22]]]}},{"type":"Feature","properties":{},"geometry":{"type":"Polygon","coordinates":[[[132.24,-53.99],[132.22,-54.37],[131.75,-54.23],[132.24,-53.99]]]}},{"type":"Feature","properties":{},"geometry":{"type":"Polygon","coordinates":[[[128.41,-51.9],[130.48,-55.26],[129.7,-54.97],[128.54,-53.44],[128.41,-51.9]]]}},{"type":"Feature","properties":{},"geometry":{"type":"Polygon","coordinates":[[[107.41,-39.73],[107.38,-40.42],[106.68,-40.14],[107.41,-39.73]]]}},{"type":"Feature","properties":{},"geometry":{"type":"Polygon","coordinates":[[[30.37,-38.25],[30.96,-36.09],[32.21,-35.01],[34.3,-35.21],[34.59,-35.63],[34.71,-35.14],[35.55,-35.38],[35.57,-35.02],[37.06,-34.53],[37.15,-33.89],[37.45,-34.22],[38.25,-34],[38.55,-33.1],[39.36,-32.93],[39.62,-34.08],[39.14,-36.54],[38.64,-36.94],[38.51,-36.28],[38.17,-36.32],[37.81,-37.6],[36.74,-38.68],[30.49,-44.01],[27.84,-43.83],[27,-42.9],[27.67,-40.11],[30.37,-38.25]]]}},{"type":"Feature","properties":{},"geometry":{"type":"Polygon","coordinates":[[[101.41,-35.13],[101.44,-35.69],[100.82,-35.46],[101.41,-35.13]]]}},{"type":"Feature","properties":{},"geometry":{"type":"Polygon","coordinates":[[[101.55,-35],[102.65,-35.73],[101.76,-35.94],[101.55,-35]]]}},{"type":"Feature","properties":{},"geometry":{"type":"Polygon","coordinates":[[[95.78,-64],[94.54,-63.63],[93.69,-62.79],[93.67,-61.88],[94.68,-61.01],[94.37,-60.16],[94.7,-61.13],[94.78,-60.78],[94.31,-60.09],[93.21,-59.86],[94.73,-59.38],[94.81,-58.61],[93.33,-59.28],[91.94,-59],[95.23,-58.06],[96.05,-57],[95.53,-57.51],[91.55,-57.96],[91.08,-58.37],[90.44,-57.63],[90.93,-57.83],[91.26,-57.19],[91.38,-56.27],[90.83,-55.89],[91.42,-55.56],[90.93,-55.34],[91.13,-54.89],[89.42,-54.14],[88.69,-53.18],[82.12,-51.34],[79.48,-51.04],[77.83,-51.4],[74.06,-49.51],[71.07,-49.4],[69.5,-48.15],[69.27,-47.05],[69.81,-46.62],[70.66,-46.79],[71.77,-45.98],[73.35,-43.44],[74.24,-39.78],[74.32,-40.47],[75.05,-39.45],[74.87,-40.52],[75.43,-40.25],[75.74,-38.51],[77.32,-37.11],[78.26,-36.7],[77.86,-37.33],[81.81,-37],[82.53,-37.58],[86.77,-38.28],[89.02,-37.65],[89.34,-36.82],[90.66,-36.41],[90.58,-37.79],[91.47,-37.29],[91.1,-36.91],[91.45,-36.51],[92.78,-37.34],[92.23,-37.04],[93.07,-36.63],[92.54,-36.78],[92.73,-36.35],[93.18,-36.21],[93.62,-36.8],[93.39,-36.2],[94.11,-36.51],[93.96,-35.97],[94.74,-35.72],[94.86,-36.23],[95.35,-35.62],[95.38,-36.02],[96.36,-35.85],[96.85,-36.26],[97.29,-37.32],[96.37,-37.98],[97.58,-37.47],[98.49,-38.34],[99.12,-37.81],[98.74,-37.44],[100.72,-36.35],[101.13,-36.56],[101.11,-36.2],[101.4,-36.61],[102.08,-36.16],[103.67,-36.86],[103.89,-36.34],[102.97,-35.69],[103.3,-35.6],[105.26,-37.38],[106.39,-37.96],[107.32,-37.86],[106.9,-37.99],[107.42,-38.01],[107.19,-38.4],[108.11,-38.03],[108.37,-38.61],[107.69,-39.11],[106.68,-39.08],[106.21,-39.93],[104.83,-40.14],[105.52,-40.68],[105.06,-40.8],[105.55,-40.72],[106.41,-41.62],[105.92,-41.74],[106.65,-41.89],[108.99,-44.39],[110.01,-44.79],[112.74,-42.96],[113.02,-41.58],[114.29,-40.53],[113.75,-40.39],[114.65,-40.06],[115.07,-39.05],[115.72,-39],[116.01,-41.27],[115.64,-42.8],[116.67,-42.83],[117.39,-43.82],[116.82,-45.25],[117.34,-45.85],[116.84,-47.81],[119.62,-49.83],[119.31,-50.25],[120.03,-51.27],[119.74,-52.32],[120.33,-52.5],[120.55,-51.99],[121.15,-52.66],[121.35,-52.37],[121.11,-53.51],[120.56,-53.27],[122.19,-54.25],[123.32,-55.76],[123.08,-56.14],[123.46,-56.46],[122.48,-57.71],[122.75,-59.16],[118.46,-62.49],[116.76,-62.56],[115.7,-63.17],[114.84,-62.93],[115.5,-63.19],[113.15,-64.15],[113.38,-64.4],[111.5,-64.73],[109.4,-66.32],[104.99,-65.77],[104.38,-65.9],[105.42,-65.92],[101.56,-65.93],[101.87,-66.13],[101.3,-66.39],[100.41,-65.46],[100.97,-65.25],[99.55,-64.96],[100.48,-65.02],[100.61,-64.66],[97.15,-64.96],[95.78,-64]]]}},{"type":"Feature","properties":{},"geometry":{"type":"Polygon","coordinates":[[[112.62,-34.6],[112.91,-34.88],[112.37,-35.31],[111.28,-34.86],[112.62,-34.6]]]}},{"type":"Feature","properties":{},"geometry":{"type":"Polygon","coordinates":[[[107.97,-31.89],[108.2,-32.36],[107.69,-32.57],[107.97,-31.89]]]}},{"type":"Feature","properties":{},"geometry":{"type":"Polygon","coordinates":[[[108.53,-31.81],[108.39,-32.2],[108.11,-31.85],[108.53,-31.81]]]}},{"type":"Feature","properties":{},"geometry":{"type":"Polygon","coordinates":[[[108.59,-31.39],[108.7,-31.87],[108.2,-31.76],[108.59,-31.39]]]}},{"type":"Feature","properties":{},"geometry":{"type":"Polygon","coordinates":[[[105.5,1.46],[106.04,1.68],[106.21,1.2],[105.94,0.91],[105.5,1.46]]]}},{"type":"Feature","properties":{},"geometry":{"type":"Polygon","coordinates":[[[103.59,0.41],[104.57,0.25],[105.01,0.63],[105.38,0.26],[103.67,-0.54],[103.59,0.41]]]}},{"type":"Feature","properties":{},"geometry":{"type":"Polygon","coordinates":[[[122.35,-36.36],[123.63,-39.05],[124.5,-39.15],[124.27,-39.6],[125.24,-39.98],[124.9,-40.25],[126.11,-40.68],[125.41,-40.67],[125.75,-40.99],[122.41,-39.75],[120.63,-37.19],[119.25,-36.39],[118.67,-36.62],[118.19,-35.96],[118.34,-36.76],[117.59,-36.46],[117.89,-36.9],[116.17,-36.46],[117.21,-36.96],[117.32,-37.57],[114.57,-37.09],[113.64,-35.74],[113.99,-35.48],[112.45,-35.47],[112.94,-34.88],[112.57,-34.39],[113.7,-34.67],[112.53,-34.11],[113.28,-34.37],[112.61,-33.49],[112.9,-32.96],[112.47,-32.79],[112.33,-31.86],[109.42,-30.16],[115.18,-31.95],[122.35,-36.36]]]}},{"type":"Feature","properties":{},"geometry":{"type":"Polygon","coordinates":[[[100.59,0.8],[100.95,0.58],[100.53,0.41],[100.59,0.8]]]}},{"type":"Feature","properties":{},"geometry":{"type":"Polygon","coordinates":[[[-0.79,-22.31],[-0.97,-22.7],[-1.22,-22.46],[-0.79,-22.31]]]}},{"type":"Feature","properties":{},"geometry":{"type":"Polygon","coordinates":[[[92.73,-4.27],[94.17,-2.84],[95.49,-3],[97.16,-2.2],[98.9,-2],[98.62,-1.64],[100.01,-1.26],[103.66,-4.26],[100.8,-4.03],[99.2,-4.37],[97.8,-3.81],[96.78,-4.35],[95.08,-4.26],[93.31,-4.8],[92.6,-4.57],[92.73,-4.27]]]}},{"type":"Feature","properties":{},"geometry":{"type":"Polygon","coordinates":[[[99.66,-1.26],[100.44,-0.86],[100.41,-1.33],[100.91,-0.43],[101.58,-1.27],[102.36,-0.6],[103.86,-1.15],[104.19,-0.3],[104.94,-0.27],[107.19,-2.11],[106.57,-2.23],[106.81,-2.53],[106.23,-2.91],[106.58,-3.11],[102.89,-4.05],[99.66,-1.26]]]}},{"type":"Feature","properties":{},"geometry":{"type":"Polygon","coordinates":[[[32.94,-48.01],[29.92,-49.88],[28.03,-49.82],[27.16,-48.88],[27.61,-48.29],[30.3,-47.76],[30.66,-47.81],[29.98,-47.9],[32.94,-48.01]]]}},{"type":"Feature","properties":{},"geometry":{"type":"Polygon","coordinates":[[[-27.86,-5.94],[-27.84,-6.64],[-28.76,-6.75],[-28.3,-6.49],[-28.52,-6.07],[-27.86,-5.94]]]}},{"type":"Feature","properties":{},"geometry":{"type":"Polygon","coordinates":[[[-49.88,-24.55],[-49.25,-25.88],[-50.47,-24.79],[-49.88,-24.55]]]}},{"type":"Feature","properties":{},"geometry":{"type":"Polygon","coordinates":[[[-51.73,-19.24],[-50.45,-21.63],[-50.35,-22.49],[-50.81,-22.24],[-50.51,-23.53],[-51.05,-23.49],[-52.29,-21.5],[-53.13,-21.58],[-52.9,-20.73],[-54.04,-19.35],[-54.03,-18.72],[-53.61,-18.74],[-52.78,-20.34],[-52.12,-19.58],[-52.29,-18.84],[-51.73,-19.24]]]}},{"type":"Feature","properties":{},"geometry":{"type":"Polygon","coordinates":[[[99.68,17.62],[100.54,17.96],[100.56,16.69],[99.86,15.81],[98.93,15.88],[98.63,16.7],[99.68,17.62]]]}},{"type":"Feature","properties":{},"geometry":{"type":"Polygon","coordinates":[[[-48.58,-18.59],[-47.96,-20.59],[-48.1,-26.49],[-50.08,-23.61],[-49.03,-23.64],[-49.35,-22.88],[-48.75,-21.99],[-49.47,-19.18],[-49.02,-18.91],[-50.97,-16.61],[-50.58,-17.13],[-49.8,-17.08],[-48.58,-18.59]]]}},{"type":"Feature","properties":{},"geometry":{"type":"Polygon","coordinates":[[[114.8,42.52],[115.69,42.17],[115.44,41.8],[116.02,41.4],[114.93,39.92],[114.11,39.63],[114.38,40.31],[114.06,39.8],[113.57,40.11],[114.37,41.4],[113.98,41.86],[114.06,41.34],[113.35,41.29],[113.37,41.82],[113.7,41.54],[113.28,42.07],[114.8,42.52]]]}},{"type":"Feature","properties":{},"geometry":{"type":"Polygon","coordinates":[[[118.59,42.58],[119.14,41.99],[118.4,41.47],[117.57,41.76],[116.64,41.22],[116.49,41.89],[116.03,41.81],[117.14,42.49],[118.59,42.58]]]}},{"type":"Feature","properties":{},"geometry":{"type":"Polygon","coordinates":[[[21.4,0.61],[23,-0.62],[21.8,-0.26],[21.12,0.47],[21.4,0.61]]]}},{"type":"Feature","properties":{},"geometry":{"type":"Polygon","coordinates":[[[26.98,-3.63],[26.13,-3.51],[25.46,-2.87],[25.51,-2.26],[26.21,-2.48],[26.98,-3.63]]]}},{"type":"Feature","properties":{},"geometry":{"type":"Polygon","coordinates":[[[17.1,6.27],[15.87,5.13],[14.72,7.25],[15.14,7.44],[17.1,6.27]]]}},{"type":"Feature","properties":{},"geometry":{"type":"Polygon","coordinates":[[[22.72,3.84],[23.06,2.5],[22.26,3.89],[22.72,3.84]]]}},{"type":"Feature","properties":{},"geometry":{"type":"Polygon","coordinates":[[[29.6,22.82],[29.97,22.57],[29.36,22.43],[29.6,22.82]]]}},{"type":"Feature","properties":{},"geometry":{"type":"Polygon","coordinates":[[[12.2,11.69],[12.2,11],[11.61,11.18],[12.2,11.69]]]}},{"type":"Feature","properties":{},"geometry":{"type":"Polygon","coordinates":[[[15.12,15.55],[14.96,15.02],[13.57,14.26],[12.77,14.69],[14.41,16.06],[15.12,15.55]]]}},{"type":"Feature","properties":{},"geometry":{"type":"Polygon","coordinates":[[[118.76,42.9],[116.58,42.78],[116.25,42.28],[114.85,42.54],[115.06,43.02],[117.63,43.93],[120.99,43.64],[122.11,45.23],[122.8,45.29],[122.17,44.96],[122.49,44.55],[124.1,45],[125.9,46.35],[126.37,48.02],[127.08,48.59],[127.85,48.1],[127.8,48.8],[128.39,48.61],[128.51,46.59],[127.61,45.49],[126.85,45.35],[126.07,43.65],[126.29,43.07],[125.61,42.6],[124.89,42.47],[125.3,43.15],[123.73,42.32],[123.82,42.77],[123.13,42.32],[121.79,42.45],[122.2,42.6],[121.56,42.96],[121.26,42.54],[121.61,42.16],[119.95,41.57],[119.5,42],[120.1,42.76],[118.76,42.9]]]}},{"type":"Feature","properties":{},"geometry":{"type":"Polygon","coordinates":[[[16.76,16.35],[15.2,15.64],[15.84,16.57],[16.76,16.35]]]}},{"type":"Feature","properties":{},"geometry":{"type":"Polygon","coordinates":[[[129.46,46.83],[131.24,44.88],[132.36,45.06],[131.89,44.59],[132.06,43.99],[130.44,43.9],[129.52,43.21],[127.07,44.23],[127.06,45],[128.13,44.8],[129.46,46.83]]]}},{"type":"Feature","properties":{},"geometry":{"type":"Polygon","coordinates":[[[127.77,49.86],[127.3,49.57],[128.18,49.01],[126.83,48.79],[126.88,49.99],[127.77,49.86]]]}},{"type":"Feature","properties":{},"geometry":{"type":"Polygon","coordinates":[[[-5.05,13.8],[-4.88,13.11],[-5.32,12.45],[-4.84,13.15],[-4.38,12.84],[-5.38,12.28],[-5.63,12.75],[-5.05,13.8]]]}},{"type":"Feature","properties":{},"geometry":{"type":"Polygon","coordinates":[[[-7.45,13.34],[-7.25,12.92],[-5.99,13.11],[-6.46,12.53],[-7.49,12.86],[-7.45,13.34]]]}},{"type":"Feature","properties":{},"geometry":{"type":"Polygon","coordinates":[[[-7.93,16.38],[-6.16,15.78],[-7.48,15.86],[-7.93,16.38]]]}},{"type":"Feature","properties":{},"geometry":{"type":"Polygon","coordinates":[[[-65.46,-5.93],[-63.85,-6.65],[-62.75,-8.53],[-63.84,-8.2],[-63.54,-7.76],[-64.04,-8.05],[-64.65,-7.53],[-64.35,-7.24],[-65.46,-6.7],[-65.09,-6.25],[-65.51,-6.36],[-65.46,-5.93]]]}},{"type":"Feature","properties":{},"geometry":{"type":"Polygon","coordinates":[[[-1.95,16.52],[-1.44,17.04],[-0.69,16.88],[-0.99,15.93],[-0.23,16.32],[-0.79,15.76],[-0.44,15.16],[-0.01,15.85],[0.15,14.39],[-0.21,14.31],[-0.29,14.88],[-0.65,14.4],[-0.8,15.45],[-1.72,14.21],[-1.37,15.28],[-1.73,14.77],[-2.16,14.79],[-1.98,15.3],[-2.61,14.73],[-4.32,14.53],[-1.95,16.52]]]}},{"type":"Feature","properties":{},"geometry":{"type":"Polygon","coordinates":[[[-2.81,18.87],[-2.49,18.7],[-2.88,18.56],[-2.59,18.36],[-3.1,16.91],[-2.23,17.33],[-2.58,16.82],[-1.88,16.93],[-1.95,16.52],[-4.31,14.66],[-3.77,15.53],[-4.42,15.44],[-3.95,16.14],[-3.59,16.02],[-3.9,16.32],[-3.6,17.78],[-2.81,18.87]]]}},{"type":"Feature","properties":{},"geometry":{"type":"Polygon","coordinates":[[[-19.24,19.3],[-18.85,18.75],[-19.69,19.12],[-19.24,19.3]]]}},{"type":"Feature","properties":{},"geometry":{"type":"Polygon","coordinates":[[[-67.38,-3.22],[-67.2,-4.41],[-67.86,-3.31],[-67.38,-3.22]]]}},{"type":"Feature","properties":{},"geometry":{"type":"Polygon","coordinates":[[[-67.91,-2.18],[-67.45,-2.43],[-67.71,-2.85],[-67.12,-2.34],[-67.63,-3.29],[-67.91,-2.18]]]}},{"type":"Feature","properties":{},"geometry":{"type":"Polygon","coordinates":[[[134.31,55.12],[134.05,53.59],[133.2,52.59],[133.48,49.33],[133.04,50.04],[131.96,50.11],[130.95,48.9],[131.44,47.34],[131.1,47.04],[130.68,47.88],[129.74,47.16],[130.68,49.97],[132.17,52.18],[131.89,52.86],[132.9,54.4],[133.77,54.35],[133.79,55.17],[134.31,55.12]]]}},{"type":"Feature","properties":{},"geometry":{"type":"Polygon","coordinates":[[[-81.78,7],[-81.86,6.45],[-82.66,7.17],[-81.78,7]]]}},{"type":"Feature","properties":{},"geometry":{"type":"Polygon","coordinates":[[[94.96,86.35],[98.6,86.53],[101.77,86.07],[93.6,86.26],[94.96,86.35]]]}},{"type":"Feature","properties":{},"geometry":{"type":"Polygon","coordinates":[[[0.98,21.12],[1.66,21.59],[0.86,21.27],[1.33,22.09],[0.46,22.05],[0.75,22.53],[0.27,22.87],[1.26,23.1],[1.37,23.58],[0.94,23.52],[1.58,24.4],[1.71,23.97],[2.42,24.45],[3.04,23.88],[2.6,23.42],[2.84,22.97],[0.98,21.12]]]}},{"type":"Feature","properties":{},"geometry":{"type":"Polygon","coordinates":[[[2.08,20.89],[1.28,20.23],[1.29,20.68],[0.77,20.51],[1.09,20.91],[0.63,20.82],[2.84,22.97],[3.23,21.52],[2.08,20.89]]]}},{"type":"Feature","properties":{},"geometry":{"type":"Polygon","coordinates":[[[11.91,28.37],[12.36,28],[11.52,28.12],[11.91,28.37]]]}},{"type":"Feature","properties":{},"geometry":{"type":"Polygon","coordinates":[[[-61.78,20.84],[-61.81,20.09],[-61.87,20.55],[-62.17,20.36],[-61.78,20.84]]]}},{"type":"Feature","properties":{},"geometry":{"type":"Polygon","coordinates":[[[12.76,29.34],[13.17,28.24],[12.09,28.63],[12.47,29.07],[12.82,28.86],[12.76,29.34]]]}},{"type":"Feature","properties":{},"geometry":{"type":"Polygon","coordinates":[[[-67.8,0.02],[-67.24,-1.79],[-67.81,-1.08],[-67.8,0.02]]]}},{"type":"Feature","properties":{},"geometry":{"type":"Polygon","coordinates":[[[-17.77,22.66],[-17.56,22.33],[-18.12,21.82],[-17.77,22.66]]]}},{"type":"Feature","properties":{},"geometry":{"type":"Polygon","coordinates":[[[1.43,26.8],[1.83,26.19],[1.25,26.44],[1.43,26.8]]]}},{"type":"Feature","properties":{},"geometry":{"type":"Polygon","coordinates":[[[-68.56,-1.32],[-68.58,-2.27],[-69.1,-1.52],[-68.56,-1.32]]]}},{"type":"Feature","properties":{},"geometry":{"type":"Polygon","coordinates":[[[-68.04,2.08],[-67.7,1.13],[-68.19,0.78],[-68.04,2.08]]]}},{"type":"Feature","properties":{},"geometry":{"type":"Polygon","coordinates":[[[16.72,34.36],[17.21,34.45],[16.92,33.6],[16.41,34.04],[16.72,34.36]]]}},{"type":"Feature","properties":{},"geometry":{"type":"Polygon","coordinates":[[[2.75,28.19],[2.51,26.07],[1.81,25.86],[2.17,26.38],[1.66,27.02],[2.09,27.11],[1.84,27.88],[2.75,28.19]]]}},{"type":"Feature","properties":{},"geometry":{"type":"Polygon","coordinates":[[[2.83,27.12],[4.01,27.5],[3.6,26.05],[4.08,26.09],[3.4,25.7],[4.48,25.84],[5.08,25.39],[3.34,24.13],[3.11,25.42],[2.85,25.64],[2.65,25.2],[2.66,25.62],[2.55,24.59],[2.29,25.56],[2.83,27.12]]]}},{"type":"Feature","properties":{},"geometry":{"type":"Polygon","coordinates":[[[5.08,25.39],[6.41,24.58],[6.75,24.14],[6.19,24.06],[6.8,24.03],[6.93,23.45],[8.04,23.67],[8.22,23.04],[7.7,22.17],[8.48,22.14],[4.34,19.59],[5.88,21.93],[5.4,21.33],[3.97,21.45],[4.61,22.33],[4.42,22.65],[4.02,22.4],[4.17,22.79],[5.08,23.28],[4.13,24.51],[5.08,25.39]]]}},{"type":"Feature","properties":{},"geometry":{"type":"Polygon","coordinates":[[[16.39,34.75],[16.66,34.41],[16.22,34.45],[16.39,34.75]]]}},{"type":"Feature","properties":{},"geometry":{"type":"Polygon","coordinates":[[[-17.64,28.4],[-17.89,27.61],[-18.1,28.05],[-17.64,28.4]]]}},{"type":"Feature","properties":{},"geometry":{"type":"Polygon","coordinates":[[[-19.07,29.09],[-18.94,28.8],[-19.91,28.29],[-19.76,28.98],[-19.07,29.09]]]}},{"type":"Feature","properties":{},"geometry":{"type":"Polygon","coordinates":[[[-26.99,58.61],[-29.69,58.56],[-27.3,59],[-26.99,58.61]]]}},{"type":"Feature","properties":{},"geometry":{"type":"Polygon","coordinates":[[[-20.36,32.13],[-20.17,31.41],[-19.93,31.65],[-18.72,30.63],[-18.85,30.06],[-17.93,29.8],[-18.42,29.5],[-19.38,30.3],[-20.7,29.32],[-20.76,29.99],[-21.54,29.92],[-20.95,30.34],[-20.36,32.13]]]}},{"type":"Feature","properties":{},"geometry":{"type":"Polygon","coordinates":[[[-15.76,34.33],[-15.37,34.16],[-15.44,33.43],[-16.28,33.25],[-16.24,34.09],[-15.76,34.33]]]}},{"type":"Feature","properties":{},"geometry":{"type":"Polygon","coordinates":[[[6.1,41.11],[6.7,40.95],[6.31,40.38],[6.1,41.11]]]}},{"type":"Feature","properties":{},"geometry":{"type":"Polygon","coordinates":[[[-18.37,54.86],[-21.7,55.61],[-23.12,56.75],[-23.55,56.62],[-22.48,56.1],[-24.43,55.76],[-26.43,56.18],[-26.22,56.78],[-25.44,56.73],[-26.02,56.99],[-24.56,57.11],[-25.61,57.52],[-25.05,57.99],[-26.05,58.16],[-25.06,58.48],[-22.49,57.79],[-20.6,58.07],[-20.21,57.19],[-19.44,57.53],[-19.97,58.18],[-19.4,58.01],[-18.37,54.86]]]}},{"type":"Feature","properties":{},"geometry":{"type":"Polygon","coordinates":[[[17.3,50.15],[17.83,50.17],[17.87,49.47],[17.08,49.63],[17.3,50.15]]]}},{"type":"Feature","properties":{},"geometry":{"type":"Polygon","coordinates":[[[6.41,41.93],[6.78,41.77],[6.58,41.43],[6.41,41.93]]]}},{"type":"Feature","properties":{},"geometry":{"type":"Polygon","coordinates":[[[-24.86,36.7],[-24.18,35.66],[-24.77,35.38],[-26.01,36.23],[-24.86,36.7]]]}},{"type":"Feature","properties":{},"geometry":{"type":"Polygon","coordinates":[[[-11.06,54],[-11.67,54.24],[-10.68,54.19],[-11.06,54]]]}},{"type":"Feature","properties":{},"geometry":{"type":"Polygon","coordinates":[[[-7.85,32.05],[-7.05,31.28],[-7.58,31.01],[-7.89,31.17],[-7.52,31.37],[-8.19,31.45],[-7.85,32.05]]]}},{"type":"Feature","properties":{},"geometry":{"type":"Polygon","coordinates":[[[18.07,53.5],[19.56,53.65],[18.58,53.19],[18.07,53.5]]]}},{"type":"Feature","properties":{},"geometry":{"type":"Polygon","coordinates":[[[2.78,35.01],[3.12,34.72],[2.16,34.15],[2.78,35.01]]]}},{"type":"Feature","properties":{},"geometry":{"type":"Polygon","coordinates":[[[-17.25,52.94],[-16.73,52.88],[-17.1,52.47],[-17.25,52.94]]]}},{"type":"Feature","properties":{},"geometry":{"type":"Polygon","coordinates":[[[-17.74,52.19],[-18.69,52.54],[-17.48,52.84],[-17.3,52.3],[-17.74,52.19]]]}},{"type":"Feature","properties":{},"geometry":{"type":"Polygon","coordinates":[[[-19.68,75.06],[-20.34,75.11],[-19.07,75.13],[-19.68,75.06]]]}},{"type":"Feature","properties":{},"geometry":{"type":"Polygon","coordinates":[[[-8.26,13.42],[-7.42,12.48],[-6.24,12.2],[-5.87,12.55],[-5.11,12.08],[-7.4,11.03],[-8.12,9.83],[-8.74,10.75],[-7.62,11.77],[-7.37,11.41],[-6.8,11.9],[-7.94,11.73],[-7.74,12.41],[-10.28,10.42],[-10.82,10.6],[-10.9,10.09],[-11.65,9.82],[-12.17,8.38],[-11.6,7.81],[-11.42,8.16],[-11.33,7.68],[-12.24,7.53],[-12.39,7.87],[-12.45,7.43],[-13.07,7.31],[-11.27,10.74],[-8.26,13.42]]]}},{"type":"Feature","properties":{},"geometry":{"type":"Polygon","coordinates":[[[-11.4,-43.64],[-13.47,-46.95],[-14.79,-48.06],[-13.27,-46.19],[-14.26,-45.81],[-13.94,-46.15],[-15.06,-47.64],[-14.81,-48.06],[-15.31,-49.06],[-16.92,-50.76],[-19.48,-51.22],[-21.77,-50.91],[-22.62,-50.29],[-22.24,-49.37],[-22.72,-49.57],[-22.68,-50.91],[-20.77,-51.68],[-20.63,-52.56],[-30.98,-50.49],[-33.14,-49.69],[-34.62,-46.97],[-38.34,-42.08],[-38.47,-40.17],[-37.82,-38.36],[-38.15,-35.81],[-30.64,-39.36],[-24.27,-41.51],[-17.52,-42.99],[-11.4,-43.64]]]}},{"type":"Feature","properties":{},"geometry":{"type":"Polygon","coordinates":[[[-26.34,-54.36],[-27.12,-54.17],[-26.51,-54.77],[-26.93,-54.71],[-26.54,-54.84],[-27.03,-55.73],[-26.56,-56],[-26.81,-56.32],[-30.53,-56.38],[-30.29,-57.62],[-29.48,-57.96],[-28.54,-57.55],[-28.27,-58.24],[-30.16,-58.2],[-29.18,-58.48],[-30.53,-59.2],[-30.28,-59.91],[-30.91,-60.28],[-30.65,-60.49],[-32.75,-60.91],[-33.58,-61.74],[-32.26,-62.61],[-30.69,-62.77],[-30.63,-63.51],[-33.21,-64.66],[-33.62,-65.63],[-34.73,-65.51],[-34.32,-65.81],[-35.41,-66.22],[-35.61,-66.64],[-35.12,-67.21],[-35.56,-67.36],[-34.12,-67.99],[-38.19,-68.42],[-38.22,-69.31],[-38.8,-69.58],[-40.84,-69.08],[-39.68,-69.2],[-38.59,-68.58],[-39.32,-68.25],[-41.48,-68.2],[-41.71,-68.42],[-41.16,-68.35],[-41.94,-68.78],[-42.65,-68.48],[-41.54,-68.19],[-42.91,-68.41],[-42.49,-68.17],[-42.89,-67.72],[-41.48,-67.97],[-41.29,-67.65],[-40.92,-67.9],[-41.64,-68.14],[-40.95,-68.16],[-40.78,-67.47],[-41.76,-66.92],[-42.07,-67.18],[-40.9,-67.43],[-42.12,-67.26],[-41.52,-67.55],[-42.06,-67.79],[-42.29,-67.32],[-42.18,-67.86],[-42.7,-67.53],[-42.29,-67.73],[-42.38,-67.36],[-43.13,-67.3],[-42.59,-67.3],[-42.65,-66.87],[-43.57,-66.58],[-42.21,-66.36],[-42.77,-66.24],[-42.5,-66.07],[-43.25,-66.52],[-43.64,-66.14],[-43.16,-66.05],[-44.24,-65.86],[-42.93,-65.97],[-43.69,-65.66],[-42.88,-65.5],[-43.61,-65.3],[-42.59,-65.4],[-43.26,-65.17],[-42.8,-65.07],[-43.1,-64.75],[-43.74,-65.05],[-43.74,-64.46],[-43.15,-64.42],[-43.66,-64.27],[-42.86,-64.1],[-44.01,-63.67],[-41.91,-63.71],[-42.48,-63.69],[-42.58,-63.24],[-44.08,-63.38],[-43.21,-63.27],[-43.76,-63.08],[-43.02,-62.83],[-43.35,-62.42],[-45.46,-62.41],[-43.97,-61.47],[-43.04,-61.49],[-42.7,-62.27],[-41.66,-61.35],[-42.28,-61.46],[-42.13,-61.12],[-41.14,-61.11],[-42.18,-60.87],[-40.8,-60.19],[-41.82,-59.84],[-41.22,-59.3],[-41.52,-59.13],[-40.96,-58.63],[-41.12,-58.21],[-40.71,-58.25],[-41.14,-57.98],[-40.52,-58.18],[-40.56,-57.66],[-41.19,-57.6],[-40.36,-57.19],[-42.4,-57.42],[-42.62,-56.78],[-41.56,-55.07],[-42.17,-53.01],[-41.47,-52.8],[-39.42,-49.23],[-39.57,-46.29],[-39.02,-45.58],[-39.34,-44.67],[-38.58,-43.31],[-38.09,-40.84],[-34.39,-45.7],[-31.39,-50.89],[-26.34,-54.36]]]}},{"type":"Feature","properties":{},"geometry":{"type":"Polygon","coordinates":[[[-35.01,-6.2],[-33.03,-6.17],[-31.9,-6.77],[-30.47,-6.32],[-31.08,-6.15],[-28.71,-6.03],[-29.74,-6.28],[-29.17,-6.99],[-27.7,-7.31],[-27.8,-8.2],[-26.86,-8.16],[-25.46,-9.1],[-25.36,-10.29],[-25.05,-9.81],[-23.85,-10.84],[-20.7,-10.68],[-18.37,-11.76],[-17.58,-12.44],[-17.05,-14.14],[-16.17,-14.8],[-17.59,-16.82],[-16.91,-16.28],[-17.21,-16.98],[-16.59,-16.35],[-14.45,-16.39],[-14.84,-17.58],[-16.44,-18.18],[-15.28,-17.87],[-15.35,-18.33],[-14.61,-17.41],[-14.3,-17.56],[-14.09,-16.73],[-13.45,-16.58],[-11.19,-17.12],[-11.16,-17.55],[-10.7,-17.17],[-10.22,-17.72],[-10.5,-18],[-10.07,-18.02],[-10.4,-19.04],[-10,-18.17],[-9.71,-18.06],[-9.85,-18.53],[-9.05,-17.91],[-7.79,-18.26],[-5.42,-18.02],[-2.18,-19.71],[-0.11,-19.96],[0.65,-21.55],[0.58,-23.32],[-2.16,-27.78],[-2.65,-27.54],[-2.25,-32.6],[-2.76,-33.48],[-2.65,-34.64],[-3.75,-36.64],[-3.56,-37.14],[-4.59,-37.79],[-4.57,-38.25],[-7.36,-38.5],[-11.46,-41.43],[-12.1,-41.38],[-11.6,-41.55],[-12.1,-42.17],[-11.68,-42.2],[-11.57,-44.12],[-22.86,-42.16],[-30.67,-39.36],[-38.03,-35.62],[-37.97,-35.18],[-39.31,-33.96],[-43.35,-31.94],[-44.56,-30.63],[-44.4,-29.86],[-45.86,-27.67],[-47.04,-24.53],[-48,-22.95],[-49.15,-22.17],[-48.82,-21.67],[-49.13,-20.38],[-47.8,-19.63],[-47.36,-18.81],[-48.58,-18.49],[-48.48,-17.21],[-47.82,-16.85],[-47.48,-15.46],[-46.33,-15.14],[-45.9,-14.25],[-41.18,-12.49],[-39.48,-9.14],[-36.29,-6.47],[-35.01,-6.2]]]}},{"type":"Feature","properties":{},"geometry":{"type":"Polygon","coordinates":[[[-45.2,-8.54],[-44.5,-9.42],[-44.6,-8.77],[-43.21,-8.04],[-42.72,-6.69],[-40.73,-6.38],[-39.05,-5.33],[-38.54,-5.78],[-39.41,-6.21],[-39.1,-7.09],[-39.71,-7.94],[-39.35,-8.73],[-38.62,-8.12],[-39.1,-6.99],[-37.54,-6.46],[-37.46,-5.7],[-37.11,-6.47],[-35.78,-7.13],[-37.09,-7.64],[-40.4,-10.17],[-42.25,-13.45],[-47.05,-15.01],[-45.16,-13.38],[-45.66,-13.03],[-45.21,-10.71],[-45.88,-9.76],[-45.2,-8.54]]]}},{"type":"Feature","properties":{},"geometry":{"type":"Polygon","coordinates":[[[-21.04,-51.78],[-20.2,-52.43],[-21.11,-53.72],[-26.67,-54.94],[-31.35,-51.95],[-33.42,-49.03],[-30.24,-50.08],[-21.04,-51.78]]]}},{"type":"Feature","properties":{},"geometry":{"type":"Polygon","coordinates":[[[-53.05,9.25],[-52.75,9.11],[-52.67,9.67],[-53.27,9.81],[-53.42,12.32],[-52.37,12.66],[-51.33,11.52],[-50.43,8.08],[-50.41,6.62],[-50.95,5.61],[-53.05,9.25]]]}},{"type":"Feature","properties":{},"geometry":{"type":"Polygon","coordinates":[[[-53.42,12.32],[-52.73,13.4],[-52.6,14.74],[-50.91,17.75],[-50.54,17.65],[-50.94,17.8],[-50.4,18.34],[-50.74,18.44],[-50.52,19.92],[-49.33,19.21],[-49.86,18.19],[-49.21,18.45],[-49.05,19.81],[-48.31,19.97],[-48.61,18.56],[-47.39,18.08],[-46.97,16.76],[-45.46,16.12],[-45.88,14.98],[-53.42,12.32]]]}},{"type":"Feature","properties":{},"geometry":{"type":"Polygon","coordinates":[[[-61.59,-7.53],[-62.44,-7.88],[-62.53,-7.02],[-62.5,-7.49],[-62.96,-7.55],[-62.79,-6.86],[-63.14,-7.29],[-63.49,-6.95],[-63.12,-6.53],[-63.63,-6.65],[-63.11,-6.06],[-63.47,-5.77],[-63.68,-6.59],[-64.38,-6.41],[-63.88,-5.89],[-64.3,-6.27],[-64.26,-5.71],[-65.04,-5.93],[-64.54,-5.71],[-65.23,-5.51],[-64.48,-5.07],[-65.2,-5.31],[-65.22,-4.93],[-64.72,-4.57],[-64.47,-4.95],[-64.61,-4.58],[-64.2,-4.51],[-64.75,-4.35],[-62.18,-6.27],[-61.59,-7.53]]]}},{"type":"Feature","properties":{},"geometry":{"type":"Polygon","coordinates":[[[-64.59,-4.2],[-65.46,-4.53],[-65.12,-4.08],[-65.47,-3.72],[-64.59,-4.2]]]}},{"type":"Feature","properties":{},"geometry":{"type":"Polygon","coordinates":[[[-48.48,6.29],[-48.72,5.79],[-50.61,6],[-50.34,7.33],[-51.11,10.91],[-52.37,12.66],[-46.33,14.6],[-45.46,16.12],[-44.99,15.99],[-44.44,15.61],[-48.48,6.29]]]}},{"type":"Feature","properties":{},"geometry":{"type":"Polygon","coordinates":[[[-48.58,6.22],[-48.62,5.54],[-50.57,7.68],[-46.01,17.38],[-44.69,16.64],[-45.19,15.39],[-43.94,13.76],[-45.84,10.33],[-47.48,8.92],[-48.58,6.22]]]}},{"type":"Feature","properties":{},"geometry":{"type":"Polygon","coordinates":[[[-45.86,2.79],[-48.09,3.89],[-49.74,6.32],[-48.37,9.61],[-46.63,10.91],[-44.85,13.29],[-44.5,14.2],[-45.63,15.91],[-45.04,17.13],[-44.23,17.04],[-43.12,12.68],[-42.93,9.89],[-43.51,6.61],[-45.33,4.58],[-45.86,2.79]]]}},{"type":"Feature","properties":{},"geometry":{"type":"Polygon","coordinates":[[[-42.92,-14.76],[-43.58,-13.58],[-45.16,-13.5],[-46.29,-12.44],[-49.49,-7.43],[-50.05,-5.8],[-49.96,-4.51],[-49.53,-4.62],[-48.96,-3.94],[-48.72,-2.6],[-48.91,0.55],[-49.45,1.58],[-48.9,2.36],[-49.4,5.2],[-48.91,7.72],[-48.06,3.86],[-47.23,2.28],[-44.88,-1.56],[-42.79,-3.12],[-43.9,-9.61],[-43.69,-11.12],[-41.96,-14.94],[-42.92,-14.76]]]}},{"type":"Feature","properties":{},"geometry":{"type":"Polygon","coordinates":[[[-34.61,-1.05],[-33.49,-2.97],[-30.87,-2.73],[-30.44,-3.04],[-29.04,-5.49],[-30.98,-5.51],[-30.93,-5.82],[-32.33,-6.07],[-31.83,-5.61],[-32.42,-5.54],[-33.61,-6.33],[-34.92,-6.14],[-34.9,-6.44],[-36.39,-3.5],[-35.65,-1.45],[-34.61,-1.05]]]}},{"type":"Feature","properties":{},"geometry":{"type":"Polygon","coordinates":[[[-48.69,5.45],[-49.54,3.81],[-49.2,-0.64],[-49.8,-2.84],[-49.29,-4.21],[-49.94,-4.49],[-50.68,-1.67],[-50.11,-1],[-50.23,0.59],[-50.71,0.6],[-51.17,2.14],[-50.43,1.54],[-50.03,2.3],[-50.5,4.13],[-49.67,7.73],[-49.95,9.02],[-51.03,10.49],[-50.36,13.77],[-49.87,10.45],[-48.73,8.22],[-48.69,5.45]]]}},{"type":"Feature","properties":{},"geometry":{"type":"Polygon","coordinates":[[[-47.13,2.34],[-46.93,2.75],[-48.15,3.93],[-48.87,6.61],[-49.98,7.82],[-49.61,8.19],[-48.9,8.35],[-47.31,7.62],[-44.21,3.2],[-41.96,2.14],[-40.61,0.83],[-40.2,-0.27],[-40.63,-4.55],[-45.04,-1.01],[-47.13,2.34]]]}},{"type":"Feature","properties":{},"geometry":{"type":"Polygon","coordinates":[[[-32.76,55.24],[-32.48,56.04],[-31.91,55.88],[-32.18,56.09],[-30.99,56.55],[-27.79,56.25],[-29.44,54.51],[-30.03,54.92],[-31.32,54.15],[-32.76,55.24]]]}},{"type":"Feature","properties":{},"geometry":{"type":"Polygon","coordinates":[[[-31.26,54.08],[-29.83,54.01],[-30.86,54.07],[-30.29,53.64],[-29.01,54.06],[-26.17,53.68],[-26.04,53.09],[-27.13,52.44],[-26.74,51.21],[-27.94,49.83],[-27.93,49.13],[-28.77,49.5],[-28.7,49.01],[-30.9,48.63],[-35.34,45.66],[-36.55,45.25],[-37.42,45.69],[-37.69,48.94],[-35.62,49.74],[-33.09,52.02],[-31.25,52.92],[-31.26,54.08]]]}},{"type":"Feature","properties":{},"geometry":{"type":"Polygon","coordinates":[[[-14.34,6.45],[-14.98,4.93],[-15.58,5.59],[-15.12,4.43],[-15.83,3.11],[-15.59,3.97],[-16.16,4.84],[-15.82,5.57],[-16.35,5.25],[-16.12,4.03],[-16.91,4.45],[-16.06,3.87],[-16.58,3.97],[-16.11,2.99],[-16.63,3.22],[-15.87,2.92],[-15.5,1.79],[-15.85,2.71],[-15.71,2.07],[-16.46,1.95],[-15.65,1.62],[-16.63,1.44],[-16.26,1.25],[-16.67,0.99],[-16.14,0.89],[-19.96,-1.43],[-20.57,-2.77],[-19.51,-7.13],[-19.97,-8.75],[-20.6,-8.73],[-21.09,-7.94],[-21.06,-7.13],[-21.35,-7.29],[-21.86,-6.32],[-21.56,-5.88],[-21.98,-5.93],[-21.68,-4.91],[-22.95,-3.5],[-24.02,-3.96],[-24.67,-3.06],[-26.27,-3.17],[-26.17,-2.58],[-26.35,-3.06],[-27.33,-2.95],[-29.43,-1.77],[-26.43,-1.55],[-22.55,-0.47],[-19.95,1.35],[-16.77,4.94],[-14.34,6.45]]]}},{"type":"Feature","properties":{},"geometry":{"type":"Polygon","coordinates":[[[-48.16,-10.36],[-46.18,-13.3],[-46.1,-15.37],[-50.01,-16.93],[-51.49,-16.41],[-51.43,-15.84],[-51.82,-16.33],[-51.65,-15.39],[-50.91,-15.22],[-50.23,-12.6],[-49.97,-12.94],[-49.64,-12.59],[-50.38,-11.81],[-51.01,-8.92],[-50.43,-6.18],[-49.73,-6.82],[-49.53,-8.19],[-48.16,-10.36]]]}},{"type":"Feature","properties":{},"geometry":{"type":"Polygon","coordinates":[[[-22.09,36.01],[-22.45,35.87],[-22.31,34.79],[-21.41,35.61],[-21.04,33.39],[-19.52,35.17],[-19.85,36.05],[-18.47,35.72],[-18.91,35.65],[-18.08,35.14],[-18.45,34.96],[-18.11,34.7],[-18.76,34.54],[-18.35,33.07],[-19.39,32.48],[-19.95,33.24],[-19.54,32.29],[-20.87,32.81],[-20.51,32.39],[-21.34,31.63],[-23.22,32.52],[-21.16,31.43],[-21.87,30.53],[-22.84,30.69],[-23.33,30],[-24.94,30.78],[-23.82,30.34],[-23.39,29.59],[-24.34,29.53],[-24.26,29.09],[-25.29,28.8],[-25.03,28.52],[-25.67,28.29],[-26.58,26.07],[-25.61,25.58],[-25.72,23.74],[-24.42,23.85],[-21.4,21.5],[-19.67,21.22],[-19.86,19.07],[-18.74,17.39],[-18.34,17.21],[-18,17.7],[-17.73,17.19],[-17.42,18.27],[-18.17,20.67],[-16.92,21.27],[-16.15,22.42],[-16.41,24.02],[-17.32,24.69],[-16.55,25.8],[-16.66,26.84],[-17.05,26.79],[-16.62,27.53],[-16.99,28.26],[-16.57,28.58],[-15.67,28.08],[-14.61,28.49],[-13.44,27.65],[-13.45,27.19],[-12.29,27.16],[-12.29,26.17],[-13.05,26.13],[-12.33,26.06],[-11.91,25.18],[-12.63,24.73],[-11.72,25.05],[-11.35,24.7],[-11.99,23.84],[-11.25,24.74],[-11.02,24.1],[-10.35,25.09],[-10.09,24.57],[-10.04,25.54],[-9.65,25.7],[-9.98,26.03],[-9.41,26.59],[-8.68,25.61],[-9.05,25.39],[-8.33,25.16],[-8.69,24.7],[-8.13,24.96],[-8.5,24.4],[-8.01,24.66],[-7.6,24.17],[-7.97,23.99],[-7.21,23.68],[-7.32,23.18],[-7.88,23.27],[-6.53,22.21],[-6.36,22.47],[-6.45,21.66],[-5.95,22.09],[-5.94,21.49],[-5.55,22.05],[-5.46,21.65],[-4.32,21.59],[-6.2,19.93],[-4.32,21.21],[-4.07,20.5],[-3.25,20.74],[-2.92,19.87],[-3.42,19.75],[-2.77,19.35],[-3.45,18.54],[-4.59,18.38],[-5.32,16.97],[-9.5,16.54],[-10.02,15.54],[-11.13,14.91],[-12.49,12.91],[-9.25,15.48],[-8.38,15.58],[-7.78,15.06],[-8.45,14.37],[-9.5,14.25],[-8.03,14.14],[-8.26,13.42],[-11.27,10.74],[-13.07,7.31],[-16.77,4.94],[-21.44,0.21],[-26.43,-1.55],[-32.79,-1.59],[-37.46,-3.64],[-37.68,-5.76],[-39.58,-5.28],[-40.63,-4.55],[-40.32,0.33],[-41.96,2.14],[-41.46,3.93],[-39.68,6],[-39.15,9.29],[-39.39,12.07],[-40.48,15.21],[-41.22,23.13],[-43.32,27.67],[-43.23,31.89],[-41.88,33.53],[-41.04,35.86],[-42.77,38.98],[-42.57,39.89],[-41.08,41.88],[-41.16,42.51],[-40.6,41.94],[-40.44,42.55],[-39.45,42.59],[-39.69,42.14],[-37.25,41.97],[-38.71,41.88],[-38.95,41.64],[-38.31,41.75],[-38.66,41.3],[-37.97,41.66],[-36.41,41.44],[-36.4,41.89],[-36.41,40.35],[-35.41,40.91],[-35.98,40.16],[-34.63,40.06],[-33.63,38.68],[-32.53,38.09],[-32.35,37.5],[-33.22,37.15],[-30.92,36.55],[-30.35,35.58],[-30.7,35.55],[-30.43,34.59],[-30.16,36.05],[-28.75,36.53],[-30.28,36.6],[-28.84,36.88],[-28.41,35.63],[-28,35.82],[-27.61,35.2],[-25.95,34.86],[-25.46,35.61],[-24.86,35.24],[-25.1,34.97],[-24.65,35.17],[-25.15,34.41],[-24.71,34.02],[-24.53,34.91],[-23.43,35.3],[-23.53,35.76],[-23.97,35.51],[-23.29,36.18],[-24.37,37],[-23.27,38.67],[-22.76,38.38],[-22.29,36.69],[-23.03,36.29],[-22.09,36.01]]]}},{"type":"Feature","properties":{},"geometry":{"type":"Polygon","coordinates":[[[-68.08,-1.12],[-68.32,-1.56],[-68.23,-0.81],[-68.71,-0.3],[-68.58,-1.04],[-68.99,-1.14],[-69.09,2.06],[-69.95,3.57],[-71.12,4.89],[-72.41,5.27],[-72.03,5.48],[-74.91,5.63],[-75.4,5.38],[-75.19,4.93],[-76.07,4.81],[-78.83,5.44],[-79.2,5.15],[-81.82,6.72],[-80.44,6.59],[-80.01,5.82],[-79.63,6.18],[-77.74,5.75],[-76.35,6.42],[-77.07,6.7],[-76.79,7.1],[-77.47,6.85],[-77.49,7.79],[-74.71,8.13],[-70.84,6.87],[-68.41,4.07],[-68.08,-1.12]]]}},{"type":"Feature","properties":{},"geometry":{"type":"Polygon","coordinates":[[[-55.82,14.08],[-55.56,14.31],[-55.82,14.11],[-56.58,15.68],[-60.44,18.12],[-59.62,17.92],[-60.39,18.43],[-60.2,19.1],[-60.69,18.27],[-61.2,18.82],[-60.65,19.17],[-61.41,19.24],[-60.74,20.32],[-61.16,19.86],[-61.04,20.8],[-61.53,19.65],[-61.54,20.78],[-62.15,20.86],[-62.28,20.44],[-61.89,21.14],[-63.02,22.25],[-63.07,22.7],[-62.65,22.46],[-63.16,22.93],[-62.87,23.11],[-63.26,23.06],[-63.03,23.53],[-63.64,23.41],[-63.85,24.54],[-63.86,23.76],[-66.78,28.25],[-63.72,27.91],[-62.83,27.35],[-62.32,25.4],[-60.82,23.8],[-59.07,23.11],[-54.74,16.31],[-54.22,12.7],[-55.51,12.68],[-55.82,14.08]]]}},{"type":"Feature","properties":{},"geometry":{"type":"Polygon","coordinates":[[[-47.51,31.16],[-47.3,29.38],[-48.13,25.98],[-48.82,27.34],[-48.7,29.44],[-47.51,31.16]]]}},{"type":"Feature","properties":{},"geometry":{"type":"Polygon","coordinates":[[[-45.43,41.15],[-45.95,39.65],[-44.29,36.49],[-45.2,34.18],[-46.43,33.08],[-46.82,29],[-46.62,27.66],[-44.76,23.77],[-44.23,17.04],[-48.43,19.06],[-49.1,20.17],[-47.57,24.08],[-47.62,34.26],[-47.75,35.7],[-50.66,43.73],[-49.5,43.86],[-45.62,42.76],[-44.22,43.14],[-44.17,42.51],[-45.43,41.15]]]}},{"type":"Feature","properties":{},"geometry":{"type":"Polygon","coordinates":[[[17.15,59.89],[17.39,59.42],[16.83,59.68],[17.15,59.89]]]}},{"type":"Feature","properties":{},"geometry":{"type":"Polygon","coordinates":[[[2.55,37.17],[3.19,37.04],[2.15,36.89],[2.55,37.17]]]}},{"type":"Feature","properties":{},"geometry":{"type":"Polygon","coordinates":[[[-29.65,42.02],[-30.18,41.31],[-29.39,41.5],[-28.89,41],[-29.32,40.66],[-28.23,41],[-28.26,39.56],[-27.49,41.16],[-26.8,40.64],[-27.25,38.67],[-26.19,37.49],[-26.36,36.97],[-27.41,37.29],[-27.52,36.68],[-26.98,36.97],[-26.98,36.42],[-28.43,36.71],[-28.77,37.45],[-30.13,37.06],[-32.05,37.45],[-31.71,38.1],[-32.84,38.81],[-32.57,39.52],[-30.32,38.83],[-32.53,40.05],[-32.57,40.52],[-30.99,40.47],[-32.23,40.81],[-31.86,40.99],[-32.31,41.32],[-31.39,41.9],[-29.65,42.02]]]}},{"type":"Feature","properties":{},"geometry":{"type":"Polygon","coordinates":[[[12.79,53.5],[13.41,53.78],[15.03,52.91],[17.56,52.98],[16.33,51.97],[15.21,52.29],[14.78,51.75],[14.02,51.98],[13.62,52.81],[13.08,52.59],[12.79,53.5]]]}},{"type":"Feature","properties":{},"geometry":{"type":"Polygon","coordinates":[[[1.83,37.29],[2.61,37.29],[1.65,36.96],[1.83,37.29]]]}},{"type":"Feature","properties":{},"geometry":{"type":"Polygon","coordinates":[[[15.1,57.92],[15.45,57.48],[14.73,57.66],[15.1,57.92]]]}},{"type":"Feature","properties":{},"geometry":{"type":"Polygon","coordinates":[[[-26.23,41.26],[-26.69,40.42],[-27.02,41.19],[-26.23,41.26]]]}},{"type":"Feature","properties":{},"geometry":{"type":"Polygon","coordinates":[[[-17.41,39.8],[-16.23,39.51],[-15.81,38.86],[-17.15,38.77],[-17.41,39.8]]]}},{"type":"Feature","properties":{},"geometry":{"type":"Polygon","coordinates":[[[-14.85,30.69],[-16.15,30.18],[-16.96,30.71],[-16.45,31.48],[-14.58,31.45],[-15.08,32.15],[-14.03,33.29],[-14.77,34.67],[-15.58,35.02],[-16.08,34.68],[-15.63,35.22],[-17.02,36.72],[-16.99,35.9],[-18.22,36.19],[-17.9,35.77],[-18.35,36.3],[-18.73,36.42],[-18.41,35.87],[-21.12,36.88],[-21.28,37.46],[-20.26,37.24],[-21.37,37.99],[-20.17,39.91],[-19,39.88],[-19.87,38.92],[-19.35,37.43],[-20.19,37.23],[-19.35,37.15],[-19.15,37.79],[-19.72,38.22],[-19.05,38.26],[-19.49,38.82],[-19,39.01],[-19.3,39.3],[-18.84,39.16],[-19.17,39.47],[-17.81,39.77],[-17.4,38.77],[-17.74,37.93],[-17.25,38.53],[-16.48,37.75],[-16.91,38.24],[-16.42,38.22],[-16.63,38.65],[-15.49,38.5],[-15.83,37.69],[-15.05,37.97],[-15.54,37.69],[-15.41,37.17],[-14.84,37.78],[-14.93,37.05],[-14.43,37.67],[-13.83,37.3],[-14.37,36.63],[-13.6,37.11],[-14.12,36.44],[-13.79,36.58],[-13.92,36.05],[-13.29,36.94],[-13.56,36.51],[-13.1,36.86],[-12.6,36.62],[-13.34,36.08],[-12.71,36.26],[-13.23,35.67],[-12.52,36.43],[-12.08,36.09],[-13.25,35.6],[-11.76,35.43],[-12.79,35.44],[-12.18,34.92],[-12.9,34.89],[-11.65,34.62],[-12.17,34.4],[-11.44,34.32],[-11.43,33.96],[-11.26,34.24],[-11.25,33.8],[-10.71,34.25],[-10.89,33.89],[-10.26,33.65],[-10.55,33.28],[-9.86,33.68],[-10.12,33.14],[-9.68,33.34],[-9.66,33],[-9.32,33.47],[-8.88,33.09],[-9.59,32.71],[-9.08,32.45],[-9.63,32.48],[-9.36,31.97],[-9.83,32.27],[-9.67,31.24],[-10.75,31.98],[-10.28,32.65],[-10.95,32.16],[-10.82,32.62],[-11.03,32.32],[-12.01,32.77],[-11.57,32.19],[-12.16,32.19],[-11.97,31.56],[-11.61,31.83],[-11.21,30.91],[-11.2,31.22],[-10.36,30.75],[-10.64,30.54],[-10.06,30.28],[-9.9,29.55],[-10.38,30.06],[-9.9,29.21],[-10.26,29.3],[-10.15,28.84],[-10.95,29.62],[-10.91,29.21],[-12.24,29.86],[-10.47,28.12],[-13.43,29.09],[-13.82,29.47],[-13.36,29.64],[-14.11,29.86],[-14.46,30.67],[-14.87,30.33],[-14.85,30.69]]]}},{"type":"Feature","properties":{},"geometry":{"type":"Polygon","coordinates":[[[-23.4,72.59],[-25.19,73.12],[-21.36,73.18],[-23.4,72.59]]]}},{"type":"Feature","properties":{},"geometry":{"type":"Polygon","coordinates":[[[-24.28,40.92],[-23.4,40.65],[-24.17,39.93],[-23.55,39.19],[-24.87,38.31],[-25.82,40.09],[-24.76,39.95],[-25.11,40.67],[-24.28,40.92]]]}},{"type":"Feature","properties":{},"geometry":{"type":"Polygon","coordinates":[[[-21.99,40.71],[-20.89,40.25],[-21.87,39.23],[-22.7,39.39],[-22.48,39.02],[-23.27,38.68],[-22.93,40.38],[-21.99,40.71]]]}},{"type":"Feature","properties":{},"geometry":{"type":"Polygon","coordinates":[[[6.17,68.45],[5.91,68.68],[6.97,68.8],[7.12,68.38],[6.17,68.45]]]}},{"type":"Feature","properties":{},"geometry":{"type":"Polygon","coordinates":[[[-31.07,43.99],[-30.75,43.2],[-30.04,43.16],[-29.85,42.22],[-32.38,41.86],[-33,41.32],[-34.26,41.43],[-34.12,42.07],[-34.58,42.64],[-32.43,43.71],[-32.27,44.35],[-31.07,43.99]]]}},{"type":"Feature","properties":{},"geometry":{"type":"Polygon","coordinates":[[[2.78,39.84],[3.1,39.54],[2.66,39.46],[2.78,39.84]]]}},{"type":"Feature","properties":{},"geometry":{"type":"Polygon","coordinates":[[[-25.9,70.83],[-29.07,70.88],[-27.4,71.23],[-25.38,71],[-25.24,70.62],[-25.9,70.83]]]}},{"type":"Feature","properties":{},"geometry":{"type":"Polygon","coordinates":[[[-19.32,41.69],[-19.41,40.9],[-19.98,40.84],[-20.31,41.4],[-19.32,41.69]]]}},{"type":"Feature","properties":{},"geometry":{"type":"Polygon","coordinates":[[[-17.43,71.23],[-17.07,71.31],[-17.18,70.81],[-17.43,71.23]]]}},{"type":"Feature","properties":{},"geometry":{"type":"Polygon","coordinates":[[[-20.93,71.77],[-19.34,71.89],[-18.19,71.08],[-19.61,70.43],[-20.85,70.91],[-21.53,70.53],[-21.21,70.37],[-24.56,70.8],[-23.66,71.5],[-20.93,71.77]]]}},{"type":"Feature","properties":{},"geometry":{"type":"Polygon","coordinates":[[[-21.04,43.83],[-20.96,43.48],[-21.41,43.58],[-21.04,43.83]]]}},{"type":"Feature","properties":{},"geometry":{"type":"Polygon","coordinates":[[[-19.6,43.07],[-20.48,41.66],[-21.37,41.95],[-20.71,42.4],[-21.6,42.81],[-21.06,42.68],[-20.66,43.33],[-20.57,42.6],[-20.4,43.25],[-19.6,43.07]]]}},{"type":"Feature","properties":{},"geometry":{"type":"Polygon","coordinates":[[[-22.03,44.6],[-22.81,43.75],[-22.09,43.37],[-22.93,42.85],[-25.34,43.52],[-25.51,44.05],[-24.06,43.81],[-25.02,44.21],[-24.66,44.52],[-25.39,44.35],[-25.75,45.04],[-24.68,44.86],[-25.29,45.18],[-24.4,44.95],[-24.84,45.31],[-23.77,45.41],[-23.88,44.07],[-23.34,43.66],[-22.88,44.54],[-22.03,44.6]]]}},{"type":"Feature","properties":{},"geometry":{"type":"Polygon","coordinates":[[[8.02,57.51],[9.43,57.53],[10.5,55.69],[11.74,54.89],[11.38,54.71],[13.28,53.86],[12.67,53.7],[13.03,53.68],[12.69,53.21],[12.28,53.48],[12.52,53.81],[11.93,53.24],[11.53,53.75],[11.99,54.03],[11.41,53.8],[10.82,54.13],[11,54.42],[10.08,54.3],[10.09,54.85],[8.85,55.85],[9.02,56.72],[8.02,57.51]]]}},{"type":"Feature","properties":{},"geometry":{"type":"Polygon","coordinates":[[[-18.57,43.04],[-18.16,42.69],[-18.48,42.24],[-17.7,42.24],[-17.34,41.66],[-17.98,41.77],[-17.75,40.84],[-15.33,40.48],[-15.04,39.43],[-16.01,39.23],[-16.36,39.81],[-16.78,39.51],[-19.02,40.45],[-18.37,42.14],[-19.1,42.3],[-19.16,42.92],[-18.57,43.04]]]}},{"type":"Feature","properties":{},"geometry":{"type":"Polygon","coordinates":[[[-23,46.34],[-24.41,45.64],[-24.1,46.11],[-25.63,45.87],[-25.43,46.21],[-26.17,46.43],[-23,46.34]]]}},{"type":"Feature","properties":{},"geometry":{"type":"Polygon","coordinates":[[[48.48,41.27],[48.62,40.91],[47.87,40.57],[46.12,42.64],[40.54,44.86],[39.18,47.34],[37.98,48.33],[28.8,52.12],[27.15,54.28],[32.24,54.64],[39.98,53.92],[45.39,54.49],[52.9,53.05],[70.26,54.79],[66.39,48.95],[63.26,40.35],[57.5,37.87],[52.9,37.59],[50.52,38.05],[50.42,40.16],[49.22,40.14],[48.48,41.27]]]}},{"type":"Feature","properties":{},"geometry":{"type":"Polygon","coordinates":[[[81.15,44.74],[82.21,44.16],[82.85,42.78],[80.36,41.68],[71.82,41.58],[69.3,40.6],[66.62,41.81],[63.51,45.72],[61.38,46.58],[68.71,47.69],[74.53,47.78],[81.15,44.74]]]}},{"type":"Feature","properties":{},"geometry":{"type":"Polygon","coordinates":[[[77.63,55.83],[77.48,55.28],[74.9,53.39],[73.64,53.15],[67.08,49.76],[70.26,54.79],[77.63,55.83]]]}},{"type":"Feature","properties":{},"geometry":{"type":"Polygon","coordinates":[[[128.11,55.75],[129.3,55.67],[128.45,55.43],[129.18,55.28],[130.02,55.56],[129.65,55.14],[130.26,55.83],[131.37,55.62],[132.42,54.38],[131.66,54.32],[131.97,53.27],[130.61,52.56],[128.9,49.97],[121.91,46.13],[120.22,45.7],[118.79,45.99],[118.95,46.48],[117.56,45.91],[113.83,47.63],[109.7,48.21],[99.4,49.38],[88.33,49.28],[84.54,50.42],[77.83,50.91],[74.96,51.98],[73.25,53.55],[79.77,52.65],[85.75,52.9],[91.36,54.12],[95.93,54.31],[99.78,55.49],[105.23,55.55],[109.89,57.63],[113.69,58.41],[119.95,56.76],[128.11,55.75]]]}},{"type":"Feature","properties":{},"geometry":{"type":"Polygon","coordinates":[[[10.67,67.79],[13.06,67.74],[11.72,67.77],[11.11,68.35],[8.75,68.61],[9.3,68.36],[8.25,68.28],[7.65,68.53],[8.04,68.93],[7.16,68.86],[8.5,69.47],[6.23,69.7],[4.91,70.37],[5.79,70.54],[4.67,71.29],[3.17,71.72],[0.65,71.19],[0.29,71.73],[-1.69,72.16],[-2.02,72.68],[-0.68,72.94],[-1.11,73.11],[-0.74,73.39],[0.57,73.39],[-0.1,73.44],[-0.04,73.78],[0.8,73.71],[0.79,74.35],[-0.05,74.62],[0.18,74.88],[-2.71,74.19],[-2.47,74.39],[-0.74,75.42],[5.4,77.24],[-2.18,79.32],[-20.81,81.69],[-63.33,85.3],[-56.45,85.84],[-60.02,86.18],[-41.42,86.79],[-40.84,86.89],[-42.89,87.05],[-40.41,87.18],[37.19,87.84],[74.86,86.96],[84.78,86.02],[90,84.91],[94.98,85.05],[97.75,85.65],[105.73,85.15],[82.83,79.86],[77.89,78.19],[77.6,77.79],[78.49,76.64],[83.71,73.98],[85.23,72.72],[82.29,69.78],[83.07,67.29],[80.76,64.78],[80.33,62.25],[79.07,60.24],[73.91,56.1],[70.26,54.79],[52.9,53.05],[45.39,54.49],[37.51,54.01],[26.09,55.52],[27.93,56.5],[25.92,57.9],[23.97,58.06],[23.75,58.85],[27.05,58.89],[26.77,59.27],[27.83,59.75],[26.23,58.92],[24.05,59.21],[23.17,58.7],[23.05,57.93],[20.44,58.39],[18.79,58.11],[17.52,58.85],[16.18,58.91],[19.46,59],[20.25,59.77],[18.16,59.12],[17.87,59.41],[18.32,59.77],[17.3,59.91],[18.82,60.87],[18.78,61.36],[21.84,60.83],[21.36,60.97],[23.34,61.64],[21.74,61.23],[18.96,61.49],[17.26,60.65],[15.01,60.56],[14.12,62.38],[13.12,61.99],[12.84,62.36],[12.51,61.91],[12.1,61.99],[12.53,62.24],[11.45,62.14],[8.72,63.71],[9.05,63.42],[8.5,63.44],[7.99,64.13],[8.66,64.1],[7.08,64.63],[7.26,64.87],[6.63,64.55],[5.91,64.98],[2.7,64.93],[2.74,65.52],[3.94,65.32],[3.26,66.02],[4.44,66.1],[2.15,66.92],[2.98,67.25],[2.35,67.17],[3.03,67.48],[2.35,67.47],[2.8,67.83],[3.63,68],[3.56,67.55],[3.94,67.85],[3.62,68.05],[4.29,68.21],[9.89,67.99],[10.73,67.49],[10.67,67.79]]]}},{"type":"Feature","properties":{},"geometry":{"type":"Polygon","coordinates":[[[23.59,55.87],[22.63,56.23],[21.14,55.67],[18.9,55.99],[15.58,57.3],[16.36,58.27],[18.52,57.76],[24.29,57.69],[26.73,56.6],[26.05,55.52],[23.59,55.87]]]}},{"type":"Feature","properties":{},"geometry":{"type":"Polygon","coordinates":[[[63.68,8.52],[68.22,9.35],[72.09,9.01],[74.1,7.68],[76.62,4.57],[71.34,6.33],[63.86,5.39],[60.81,5.75],[57.23,7.26],[53.85,9.84],[53,11.2],[58.55,8.79],[63.68,8.52]]]}},{"type":"Feature","properties":{},"geometry":{"type":"Polygon","coordinates":[[[57.6,-47.8],[58.15,-47.51],[57.56,-46.82],[57.59,-47.62],[57.36,-46.68],[56.74,-46.3],[57.33,-47.27],[56.94,-47.83],[54.1,-47.82],[54.41,-47.38],[53.49,-47.56],[53.93,-46.93],[51.9,-46.81],[51.4,-47.34],[50.02,-47.39],[43.11,-46.19],[42.57,-46.47],[39.96,-45.35],[37.06,-46.66],[34.71,-46.95],[32.88,-47.73],[32.24,-47.24],[31.15,-47.24],[31.07,-47.67],[30.35,-46.98],[29.15,-46.98],[28.38,-46.4],[28.95,-45.39],[31.59,-43.62],[36.31,-39.16],[41.02,-36.27],[41.85,-36.39],[41.45,-35.96],[42.16,-35.83],[41.99,-35.47],[40.71,-35.86],[39.41,-35],[40.08,-32.76],[41.02,-33.63],[41.74,-33.6],[40.77,-32.71],[40.94,-31.77],[41.6,-31.85],[41.04,-31.63],[41.41,-31.43],[40.94,-30.8],[41.83,-30.37],[41.46,-29.7],[42.22,-29.21],[41.58,-28.75],[45.35,-27.19],[48.24,-26.91],[54.57,-27.28],[56.22,-28.09],[56.63,-28.98],[55.92,-30.45],[55.74,-34.67],[57.27,-39.25],[58.91,-41.05],[66.69,-46],[67.54,-47.09],[57.6,-47.8]]]}},{"type":"Feature","properties":{},"geometry":{"type":"Polygon","coordinates":[[[55.36,14.37],[57.49,13.43],[58.92,13.34],[59.9,13.58],[60.53,14.59],[65.67,16.7],[71.61,16.23],[75.98,14.87],[77.37,12.72],[78,10.33],[75.86,12.34],[73.71,13.48],[70.6,13.57],[65.28,12.19],[60.08,11.93],[53.8,13.85],[52.78,13.7],[51.56,15.42],[53.33,15.47],[55.36,14.37]]]}},{"type":"Feature","properties":{},"geometry":{"type":"Polygon","coordinates":[[[26.05,55.52],[30.46,54.65],[27.15,54.28],[25.14,55.68],[26.05,55.52]]]}},{"type":"Feature","properties":{},"geometry":{"type":"Polygon","coordinates":[[[48.05,32.61],[46.43,34.01],[45.12,33.62],[43.29,34.19],[44.18,34.76],[43.49,34.66],[43.42,35.34],[44.39,36.09],[42.91,37.01],[41.93,36.47],[41.54,35.16],[41.1,35.11],[41.5,34.27],[41.12,34.43],[41.33,34.1],[40.81,33.79],[41.03,32.53],[42.21,32.52],[42.71,31.71],[44.93,31.22],[39.92,30.03],[40.9,36.12],[43.9,40.02],[44.15,41.03],[43.36,42.6],[40.54,44.86],[46.12,42.64],[47.84,40.64],[48.13,39.95],[47.7,39.9],[48.17,39.6],[47.6,39.25],[48.2,38.26],[49.25,37.6],[49.87,38.25],[52.9,37.59],[57.5,37.87],[63.69,40.68],[63.12,37.79],[56.18,32.96],[48.32,32.17],[48.05,32.61]]]}},{"type":"Feature","properties":{},"geometry":{"type":"Polygon","coordinates":[[[48.58,-14.25],[47.96,-14.02],[46.59,-14.56],[45.64,-14.24],[43.71,-12.76],[42.92,-10.36],[42.42,-10.46],[42.11,-9.88],[41.86,-10.34],[41.02,-10.14],[41.15,-10.69],[40.69,-10.78],[41.37,-12.71],[42.39,-13.86],[42.13,-14.47],[42.63,-15.84],[43.04,-14.63],[43.56,-14.76],[43.06,-16.34],[43.59,-16.76],[45.93,-16.77],[48.16,-14.85],[48.09,-16.72],[50.05,-17.84],[50.96,-19.24],[49.61,-20.92],[48.93,-21.05],[48.82,-22.28],[47.77,-22.43],[47.19,-23.24],[46.22,-23.25],[45.71,-24.02],[42.95,-24.28],[42.55,-25.05],[38.55,-26.01],[33.2,-26.39],[32.62,-25.57],[32.53,-23.5],[33.07,-22.07],[32.05,-18.7],[30.95,-16.97],[31.08,-14.19],[30.35,-13.36],[29.61,-9.24],[29.08,-9.02],[32.27,-3.85],[33.36,-1.04],[35.18,-0.47],[38.07,-0.55],[47.11,-12.71],[48.61,-12.96],[48.9,-13.43],[48.58,-14.25]]]}},{"type":"Feature","properties":{},"geometry":{"type":"Polygon","coordinates":[[[56.02,-23.5],[55.82,-26.79],[54.13,-27.87],[46.1,-27.2],[43.76,-27.55],[43.59,-27.02],[43.88,-24.46],[45.44,-22.69],[47.27,-23.17],[50.1,-21.58],[51.76,-21.38],[55.98,-22.41],[56.02,-23.5]]]}},{"type":"Feature","properties":{},"geometry":{"type":"Polygon","coordinates":[[[60.1,12.15],[49.51,14.8],[51.16,18.32],[57.4,13.93],[60.4,14.22],[60.1,12.15]]]}},{"type":"Feature","properties":{},"geometry":{"type":"Polygon","coordinates":[[[48.2,8.38],[47.8,8.73],[48.63,10.67],[50.32,12.62],[51.03,12.74],[58.83,8.05],[53.12,7.92],[50.59,7.3],[48.2,8.38]]]}},{"type":"Feature","properties":{},"geometry":{"type":"Polygon","coordinates":[[[34.83,17.83],[35.53,17.51],[38.47,18.75],[42.53,16.07],[46.6,16.49],[47.2,15.8],[46.06,14.79],[43.99,15.11],[30.45,14.36],[29.9,15.05],[29.81,16.61],[32.34,18.33],[34.83,17.83]]]}},{"type":"Feature","properties":{},"geometry":{"type":"Polygon","coordinates":[[[-6.65,54.15],[-10.69,54.24],[-11.74,55.29],[-12.59,55.02],[-12.1,54.47],[-12.3,53.94],[-17.3,54.48],[-17.86,54.7],[-19.22,58.06],[-9.62,56.5],[-8.02,55.63],[-6.65,54.15]]]}},{"type":"Feature","properties":{},"geometry":{"type":"Polygon","coordinates":[[[-49.4,64.46],[-54.17,62.79],[-55.29,61.45],[-55.75,59.56],[-63.64,62.33],[-65.25,63.25],[-64.98,63.41],[-65.47,63.93],[-66.75,63.96],[-69.91,65.2],[-67.06,65.26],[-67.75,65.55],[-57.1,67.3],[-51.79,66.3],[-49.08,64.55],[-49.4,64.46]]]}},{"type":"Feature","properties":{},"geometry":{"type":"Polygon","coordinates":[[[-13.3,74.98],[-14.43,74.7],[-13.92,74.86],[-15.68,75.32],[-17.71,75.05],[-20.46,75.42],[-20.47,75.05],[-22.86,75.03],[-21.73,74.63],[-22.62,74.37],[-21.31,74.32],[-23.44,73.9],[-22.76,73.64],[-32.01,73.41],[-33.31,73.6],[-32.61,73.91],[-37.72,74.03],[-41.29,72.82],[-44.5,72.56],[-46.12,73.04],[-47.5,72.88],[-48.72,75.01],[-51.39,76.26],[-58.14,77.01],[-74.83,76.55],[-73.49,76.81],[-73.89,77.3],[-73.33,77.54],[-81.12,79.5],[-83.58,79.64],[-82.95,79.45],[-85.18,79.1],[-84.78,79.46],[-85.61,79.69],[-84.3,80],[-86.1,80.28],[-85.01,80.55],[-86.01,81.09],[-84.21,81.18],[-83.93,81.01],[-84.36,80.68],[-83.99,80.55],[-81.19,80.94],[-81.86,81.21],[-81.35,81.4],[-64.41,80.54],[-36.36,80.35],[-21.57,79.79],[-9.17,78.22],[-12.9,76.31],[-13.3,74.98]]]}},{"type":"Feature","properties":{},"geometry":{"type":"Polygon","coordinates":[[[116.54,45.53],[114.94,44.91],[114.43,44.01],[111.67,43.07],[112.49,42.18],[112.99,39.96],[109.81,40.03],[109.71,40.82],[110.64,40.76],[110.28,40.99],[110.49,41.65],[109.44,42.05],[109.08,41.73],[109.32,41.92],[108.78,42.05],[109.12,42.15],[108.5,42.3],[109.62,42.69],[109.22,42.94],[109.77,43.55],[108.91,43.73],[108.78,44.16],[105.02,43.49],[106.06,44.01],[105.34,44.12],[105.7,44.48],[106.76,45],[106.42,45.55],[105.51,45.57],[102.9,44.32],[101.65,44.49],[101.26,43.79],[102.45,43.39],[102.23,42.48],[103.05,42.19],[104.33,42.7],[106.26,41.92],[105.91,41.48],[103.21,41.21],[101.87,40.12],[102.81,39.36],[98.93,37.04],[94.6,39.34],[87.49,41.1],[75.46,48.06],[87.74,48.97],[98.73,48.99],[113.02,47.16],[116.54,45.53]]]}},{"type":"Feature","properties":{},"geometry":{"type":"Polygon","coordinates":[[[111.39,39.15],[111.85,37.75],[110.39,37.04],[110.59,36.76],[110.34,36.97],[110.38,36.49],[110.14,36.77],[109.67,36.1],[109.04,36.79],[109.28,37.73],[108.87,37.79],[111.39,39.15]]]}},{"type":"Feature","properties":{},"geometry":{"type":"Polygon","coordinates":[[[103.73,34.24],[105.05,32.82],[106.41,32.28],[104.8,32.03],[106.75,31.58],[105.49,30.46],[107.41,30.66],[106.91,30.06],[107.4,30.35],[107.52,30.05],[107.04,29.89],[107.59,29.08],[106.74,28.48],[106.78,27],[106.21,26.99],[106.73,26.7],[106.83,25.65],[106.41,25.79],[106.18,24.6],[105.59,24.47],[105.8,24.17],[104.59,22.89],[104.72,22.42],[103.15,21.8],[102.9,21.11],[101.8,21.64],[102.24,20.83],[101.86,20.58],[101.57,20.95],[101.75,20.31],[101.18,20.37],[101.26,20.01],[99.47,19.14],[99.84,18],[99.03,18.45],[99.11,19.08],[98.67,19.22],[98.39,18.76],[97.58,19.07],[96.85,17.85],[96.17,17.68],[96.45,17.38],[96.01,16.49],[88.82,19.98],[88.14,20.87],[87.53,23.28],[88.31,25.79],[90.41,29.14],[92.34,29.97],[96.41,30.7],[102.16,30.65],[103.73,34.24]]]}},{"type":"Feature","properties":{},"geometry":{"type":"Polygon","coordinates":[[[93.05,16.33],[93.2,15.29],[93.72,14.92],[98.13,13.94],[100.04,12.06],[100.4,10.74],[99,8.77],[99.31,7.91],[98.49,6.17],[97.74,7.52],[96.38,7.12],[95.96,7.65],[95.77,7.17],[94.59,8.03],[92.91,7.46],[92.56,8.22],[91.87,8],[90.22,10.89],[89.61,14.07],[85.71,17.53],[93.05,16.33]]]}},{"type":"Feature","properties":{},"geometry":{"type":"Polygon","coordinates":[[[88.98,4.17],[90.93,1.42],[91.87,0.85],[92.17,1.38],[94.6,0.81],[95.86,1.44],[99.42,-0.7],[97.1,-1.01],[93.62,0.07],[92.33,-0.09],[92.19,-0.51],[88.67,2.48],[86.46,2.93],[85.03,3.73],[85.35,3.82],[83.83,3.51],[80.09,5.38],[77.98,6.97],[76.31,9.33],[78.99,10.77],[83.27,9.58],[84.43,8.97],[86.21,6.26],[88.98,4.17]]]}},{"type":"Feature","properties":{},"geometry":{"type":"Polygon","coordinates":[[[94.92,1.41],[96.98,1.78],[98.55,0.76],[100.31,0.62],[99.97,-0.08],[98.54,-0.61],[94.92,1.41]]]}},{"type":"Feature","properties":{},"geometry":{"type":"Polygon","coordinates":[[[31.98,-20.68],[35.2,-23.93],[35.21,-24.42],[34.26,-24.82],[34.94,-24.78],[36.08,-26.04],[41.71,-25.33],[43.18,-24.67],[43.72,-24.82],[43.45,-26.24],[43.88,-26.21],[43.32,-26.35],[43.25,-27.24],[39.9,-32.19],[37.49,-34.13],[29.71,-38.73],[27.61,-41.21],[27.24,-42.19],[28.08,-42.9],[27.43,-44.14],[27.67,-45.85],[28.83,-46.68],[28.29,-47.28],[27.88,-50.1],[28.26,-50.38],[27.84,-51.2],[26.27,-52.25],[22.04,-52.94],[17.28,-54.52],[19.23,-50.12],[19.76,-47.01],[19.65,-43.81],[22.49,-42.53],[22.9,-40.28],[25.52,-35.11],[26.17,-31.17],[26.86,-30.05],[28.32,-30.16],[28.85,-28.58],[32.8,-25.38],[31.98,-20.68]]]}},{"type":"Feature","properties":{},"geometry":{"type":"Polygon","coordinates":[[[17.12,-54.25],[16.47,-54.98],[16.95,-55.31],[16.58,-56.77],[16.91,-56.83],[15.52,-58.62],[9.16,-59.21],[9.16,-59.67],[9.88,-59.51],[6.75,-61.46],[-0.12,-62.8],[-6.49,-63.21],[-10.17,-62.84],[-14.21,-61.16],[-18.57,-60.35],[-19.13,-59.79],[-18.87,-59.47],[-19.34,-59.35],[-18.98,-59.11],[-19.71,-59.13],[-18.86,-58.6],[-18.44,-57.65],[-17.57,-57.72],[-16.6,-56.99],[-15.28,-54.25],[-15.17,-52.03],[-11.53,-47.58],[-10.83,-42.4],[-9.36,-40.75],[-6.84,-39.11],[-4.43,-38.37],[-3.73,-37.37],[-3.58,-35.61],[-2.74,-35.18],[-2.6,-32.69],[-1.75,-32.83],[-2.46,-32.4],[-2.2,-31.11],[-3.18,-28.15],[-3.14,-26.18],[-2.49,-26.28],[-1.96,-25.6],[-1.49,-26.02],[-1.92,-25.44],[-1.62,-25.58],[-1.54,-24.88],[0.05,-23.48],[0.31,-22.47],[-0.24,-22.37],[-0.66,-21.13],[-1.92,-21.03],[-3.24,-20.11],[0.25,-19.59],[1.08,-18.61],[3.87,-18.3],[10.4,-22.11],[19.09,-22.49],[23.54,-30.75],[18.95,-34.42],[17.45,-37.48],[17.38,-39.47],[20.82,-43.85],[20.83,-45.12],[19.79,-50.13],[17.12,-54.25]]]}},{"type":"Feature","properties":{},"geometry":{"type":"Polygon","coordinates":[[[-6.6,8.16],[-6.26,9.13],[-5.26,9.9],[-2.7,10.2],[-1.16,11.39],[-0.66,11.23],[-0.4,10.25],[0.82,9.95],[1.39,9.25],[4.49,9.4],[9.5,7.54],[11.12,7.43],[1.85,6.61],[-3.15,8.12],[-6.6,8.16]]]}},{"type":"Feature","properties":{},"geometry":{"type":"Polygon","coordinates":[[[13.41,13.07],[13.32,12.28],[11.07,11.65],[10.04,10.64],[10.25,9.82],[7.87,8.43],[6.11,8.96],[4.95,8.59],[4.54,9.48],[4.92,9.71],[4.61,9.54],[4.42,10.13],[2.69,10.44],[3.45,11.64],[3.06,12.06],[3.63,12.33],[2.93,12.23],[4.28,13.82],[4.94,16.3],[6.05,16.46],[9.23,14.9],[10.39,14.84],[13.41,13.07]]]}},{"type":"Feature","properties":{},"geometry":{"type":"Polygon","coordinates":[[[-1.79,-21.41],[-1.96,-19.85],[-2.73,-19.04],[-5.22,-18.27],[-9.21,-18.07],[-10.74,-16.78],[-14.51,-15.91],[-14.98,-15.42],[-17.42,-10.91],[-17.17,-8.12],[-18.06,-6.02],[-17.32,-5.69],[-18.24,-5.45],[-18.11,-4.88],[-18.59,-4.46],[-18.2,-4.52],[-18.5,-4.33],[-18.02,-3.58],[-17.05,-4.12],[-17.89,-3.78],[-18.05,-2.08],[-16.72,-1.68],[-15.31,-0.2],[-14.9,1.46],[-14.21,2.01],[-14.21,3.23],[-14.63,2.98],[-14.01,3.77],[-7.82,7.27],[-6.52,7],[-4.05,8.05],[-1.39,8.16],[4.44,6.75],[13.72,7.75],[13.86,7.14],[14.5,7.31],[13.76,6.57],[13.99,5.51],[12.84,4.89],[11.78,3.26],[8.27,-7.49],[7.94,-11.01],[9.5,-15.98],[5.96,-17.48],[5.11,-18.89],[2.36,-19.48],[1.65,-20.54],[-1.79,-21.41]]]}},{"type":"Feature","properties":{},"geometry":{"type":"Polygon","coordinates":[[[29.18,-5.69],[29.09,-6.6],[30.84,-12.1],[30.64,-13.05],[31.87,-15.16],[31.53,-16.72],[18.04,-22.58],[9.34,-22.38],[2.71,-18.69],[3.69,-17.35],[7.36,-16.16],[6.32,-12.16],[6.28,-9.92],[8.33,-3.51],[11.31,2.81],[12.38,3.92],[13.62,2.29],[15.71,0.95],[15.78,-0.13],[17.97,-2.13],[19.06,-1.91],[19.52,-0.66],[21.26,-0.45],[22.12,-1.53],[23.4,-2.11],[23.45,-2.59],[26.46,-4.12],[27.72,-3.71],[28.75,-4],[29.18,-5.69]]]}},{"type":"Feature","properties":{},"geometry":{"type":"Polygon","coordinates":[[[29.21,-3.4],[28.2,-2.7],[26.54,-2.58],[25.5,-0.92],[25.15,-1.29],[24.47,-1.09],[24.1,0.09],[23.29,0.41],[24.11,0.29],[23.37,0.72],[23.96,1.53],[23.59,2.16],[26.51,2.05],[27.28,1.64],[27.89,0.39],[29.2,0.3],[32.39,-1.14],[34.19,-3.76],[31.38,-3.06],[29.21,-3.4]]]}},{"type":"Feature","properties":{},"geometry":{"type":"Polygon","coordinates":[[[20.87,-43.5],[20.26,-43.88],[16.62,-39.6],[16.6,-37.6],[17.97,-34.5],[22.43,-30.72],[27.89,-30.27],[26.87,-31.91],[26.41,-35.3],[23.63,-40.42],[23.15,-42.66],[20.87,-43.5]]]}},{"type":"Feature","properties":{},"geometry":{"type":"Polygon","coordinates":[[[30.63,-6.78],[29.6,-8.07],[28.42,-3.94],[29.57,-4.68],[30.93,-4.35],[32.76,-1.88],[33.32,0.04],[32.77,-2.43],[30.63,-6.78]]]}},{"type":"Feature","properties":{},"geometry":{"type":"Polygon","coordinates":[[[31.21,-16.63],[31.35,-17.4],[32.29,-18.25],[33,-21.31],[33.29,-21],[34.01,-25.72],[29.97,-28.84],[29.4,-30.41],[22.48,-30.72],[18.35,-23.55],[18.21,-22.41],[31.21,-16.63]]]}},{"type":"Feature","properties":{},"geometry":{"type":"Polygon","coordinates":[[[6.61,31.74],[6.18,32.04],[7.35,32.3],[7.45,32.75],[6.25,32.11],[5.81,32.64],[6.67,33.14],[5.63,33.06],[6.3,33.19],[6.29,33.63],[6.73,33.42],[6,33.65],[6.87,34.14],[6.13,34.08],[7.08,34.21],[6.55,34.39],[7.06,34.37],[6.71,34.9],[7.53,35.17],[7.82,35.84],[7.54,36.08],[7.35,35.28],[6.94,35.34],[7.52,37.47],[7.14,37.18],[7.29,37.96],[6.9,38.07],[7.37,38.59],[6.97,38.22],[6.64,38.97],[7.37,39.52],[6.77,39.4],[6.84,39.84],[7.3,39.81],[6.55,39.98],[6.94,40.28],[6.71,40.58],[7.27,40.34],[6.75,40.68],[7.37,41.13],[6.72,40.89],[7.07,41.28],[6.62,42.02],[7.35,42.12],[6.75,42.45],[7.22,42.3],[7.03,42.87],[7.45,42.24],[7.3,43.11],[7.86,43.1],[7.13,43.4],[8.13,43.57],[7.6,44.59],[8.14,44.78],[8.6,43.97],[8.28,44.98],[8.85,44.54],[8.67,45.46],[9.23,44.92],[9.14,45.49],[10.37,45.63],[9.72,44.9],[10.55,44.75],[11.25,45.14],[11.15,45.6],[12.4,45.24],[13.21,46.06],[16.61,46.56],[17.68,46.08],[17.58,44.82],[13.9,43.58],[16.27,43.55],[17.59,42.58],[19.41,42.9],[19.11,43.46],[18.12,43.25],[17.8,43.63],[18.85,43.62],[19.92,44.39],[18.74,44.67],[18.44,45.41],[18.4,46.22],[19.82,46.43],[17.36,47.78],[16.23,47.83],[17.95,48.49],[18.38,48.37],[18.07,47.87],[18.38,47.5],[19.36,47.56],[19.83,48.13],[19.04,48.61],[19.39,49.01],[18.86,49.02],[19.09,50.51],[19.48,50.45],[19.02,51.22],[19.95,50.58],[20.4,50.79],[20.02,51.5],[20.56,52.13],[20.3,52.84],[21.46,52.87],[20.98,53.07],[21.17,53.53],[19.41,53.83],[20.78,54.83],[23.59,55.87],[25.9,55.25],[29.43,51.79],[37.98,48.33],[39.18,47.34],[40.06,45.37],[44.06,41.52],[43.9,40.02],[40.9,36.12],[39.92,30.03],[37.35,28.66],[34.1,28.55],[34.53,29.85],[33.75,30.21],[34.34,30.56],[34.28,31.31],[32.66,29.44],[32.46,28.59],[32.3,29],[32.67,28.33],[33.35,28.17],[34,28.72],[34.04,28.35],[32.48,26.84],[31.75,27.41],[31.32,27.01],[31.79,27.97],[30.26,27.47],[29.93,27.59],[30.57,27.87],[30.05,28.02],[29.21,26.24],[29.79,25.43],[29.52,25.09],[26.85,25.46],[24.07,26.87],[15.26,28.19],[16.83,29.91],[17.48,29.68],[17.85,30.21],[17.8,29.71],[17.83,31.5],[18,30.69],[18.41,30.87],[17.25,32.17],[16.97,33.22],[17.31,33.66],[18.4,33.32],[18.62,33.79],[17.95,34.72],[17.5,34.48],[16.76,35.13],[19.61,37.69],[18.17,37.93],[16.05,35.43],[15.73,35.88],[14.74,35.65],[13.02,37.35],[12.99,39.88],[13.32,40.1],[12.81,40.59],[11.04,39.89],[11.39,39.84],[11.43,38.98],[12.01,38.81],[12.08,38.05],[11.63,36.55],[11.11,36.76],[12.56,34.55],[14.15,34.3],[13.78,33.72],[14.22,33.64],[14.12,33.21],[13.8,33.42],[13.97,33.04],[13.36,32.57],[13.86,32.63],[13.51,32.47],[14,32.35],[14.65,30.93],[14.71,30.26],[13.93,29.74],[14.16,29.19],[13.38,28.82],[12.8,29.9],[9.76,32.28],[9.99,31.4],[9.53,31.3],[9.38,30.1],[8.8,29.69],[7.56,30.04],[8.04,30.57],[7.62,30.42],[7.76,31.02],[7.05,30.66],[7.54,31.96],[7.1,31.21],[6.61,31.74]]]}},{"type":"Feature","properties":{},"geometry":{"type":"Polygon","coordinates":[[[11.13,27.51],[10.06,28.87],[10.9,30.34],[11.19,29.3],[11.77,29.26],[11.34,28.26],[11.86,27.61],[11.13,27.51]]]}},{"type":"Feature","properties":{},"geometry":{"type":"Polygon","coordinates":[[[30.41,22.37],[29.89,23.23],[29.34,22.77],[29.08,23.24],[31.11,25.56],[30.62,25.31],[34.3,28.31],[37,29.17],[34.23,26.66],[33.66,25.45],[32.14,25.27],[31.44,24.67],[30.41,22.37]]]}},{"type":"Feature","properties":{},"geometry":{"type":"Polygon","coordinates":[[[22.99,5.43],[22.79,4.01],[22.07,4.02],[22.79,2.98],[22.64,2.5],[21.96,3.02],[22.09,2.41],[21.58,2.81],[21.5,2.11],[20.88,2.11],[20.92,2.55],[20.51,2.55],[20.66,3.75],[21.35,3.82],[22.21,3.15],[20.84,4.11],[21.2,4.71],[20.68,6.61],[21.58,7.69],[20.17,10.53],[20.38,12.32],[20.21,12.72],[19.62,12.4],[20,13.39],[19.22,13.62],[18.39,12.57],[18.76,11.5],[18.48,10.69],[18.77,9.56],[19.42,9.12],[19.05,8.82],[19.99,6.65],[19.67,6.53],[19.1,7.57],[18.48,7.18],[18.5,6.21],[17.01,5.9],[17.82,6.5],[18.09,7.74],[16.53,11.6],[16.9,13.28],[16.36,14.25],[15.28,14.23],[15.16,14.89],[15.94,16.35],[19.36,16.11],[23.25,14.23],[21.63,12.79],[22.99,5.43]]]}},{"type":"Feature","properties":{},"geometry":{"type":"Polygon","coordinates":[[[15.59,16.93],[14.87,15.81],[13.2,15.74],[12.82,14.64],[9.29,14.36],[8.91,16.33],[9.44,15.94],[8.62,17],[7.09,17.92],[5.92,17.71],[5.42,18.34],[7.64,19.15],[6.87,20.06],[8.15,20],[8.54,20.75],[10.65,20.49],[12.41,21.04],[14.3,24.63],[16.09,26.25],[19.55,27.63],[22.44,26.96],[20.63,25.49],[19.55,23.7],[14.72,20.1],[13.95,18.51],[14.93,17.14],[15.59,16.93]]]}},{"type":"Feature","properties":{},"geometry":{"type":"Polygon","coordinates":[[[8.54,20.75],[9.04,21.29],[8.71,21.92],[10.19,22.98],[9.61,22.96],[10.28,23.41],[9.79,23.49],[9.8,24.59],[10.26,24.49],[10.07,24.08],[10.52,24.49],[10.18,25.12],[11.18,25.44],[10.94,25.74],[11.34,26.04],[11.89,25.88],[11.73,26.4],[12.6,26.38],[11.48,26.75],[11.13,27.51],[12.39,27.16],[12.94,27.49],[12.98,26.95],[13.7,27.95],[15.38,27.73],[15.26,28.19],[15.98,28.21],[19.55,27.63],[15.22,25.62],[12.41,21.04],[10.65,20.49],[8.54,20.75]]]}},{"type":"Feature","properties":{},"geometry":{"type":"Polygon","coordinates":[[[29.5,24.86],[29.7,23.31],[26.54,21.58],[25.5,22.12],[25.28,22.8],[26.9,24.52],[26.85,25.46],[29.5,24.86]]]}},{"type":"Feature","properties":{},"geometry":{"type":"Polygon","coordinates":[[[-17.99,43.63],[-17.49,43.26],[-18.33,43.4],[-17.99,43.63]]]}},{"type":"Feature","properties":{},"geometry":{"type":"Polygon","coordinates":[[[-21.07,45.75],[-21.68,45.35],[-22.35,45.59],[-21.93,46.09],[-21.07,45.75]]]}},{"type":"Feature","properties":{},"geometry":{"type":"Polygon","coordinates":[[[-0.32,49.44],[0.43,49.39],[0.71,48.71],[-0.63,49.02],[-0.32,49.44]]]}},{"type":"Feature","properties":{},"geometry":{"type":"Polygon","coordinates":[[[-20.5,46.27],[-20.75,45.81],[-21.56,46.32],[-20.5,46.27]]]}},{"type":"Feature","properties":{},"geometry":{"type":"Polygon","coordinates":[[[-17.66,44.56],[-17.66,43.8],[-18.4,43.84],[-17.94,44.78],[-17.66,44.56]]]}},{"type":"Feature","properties":{},"geometry":{"type":"Polygon","coordinates":[[[-18.59,45.89],[-18.34,44.76],[-19.09,44.15],[-19.23,44.97],[-19.72,45.1],[-19.05,45.33],[-19.16,45.93],[-18.59,45.89]]]}},{"type":"Feature","properties":{},"geometry":{"type":"Polygon","coordinates":[[[-0.06,63.74],[1.12,64.06],[0.04,64.07],[0.79,64.68],[3.43,64.03],[-0.06,63.74]]]}},{"type":"Feature","properties":{},"geometry":{"type":"Polygon","coordinates":[[[-3.69,49.86],[-1.3,49.65],[-1.46,49.04],[-0.64,48.26],[-3.69,49.86]]]}},{"type":"Feature","properties":{},"geometry":{"type":"Polygon","coordinates":[[[-0.72,48.18],[-0.17,47.24],[-1.7,47.64],[-1.04,47.89],[-1.62,47.85],[-1.34,48.37],[-1.87,47.8],[-2.27,48],[-1.8,48.69],[-0.72,48.18]]]}},{"type":"Feature","properties":{},"geometry":{"type":"Polygon","coordinates":[[[-2.25,48.9],[-2.24,48.56],[-2.64,48.84],[-2.56,48.04],[-4.4,49.16],[-4,49.43],[-4,49.04],[-3.34,49],[-3.74,49.47],[-2.25,48.9]]]}},{"type":"Feature","properties":{},"geometry":{"type":"Polygon","coordinates":[[[0.67,61.76],[0.68,62.14],[1.53,61.9],[0.67,61.76]]]}},{"type":"Feature","properties":{},"geometry":{"type":"Polygon","coordinates":[[[-0.37,62.54],[0.71,62.81],[-0.58,62.89],[-0.25,63.16],[1.36,63.59],[2.13,63.21],[2.2,62.72],[1.2,62.26],[1.48,62.12],[-0.37,62.54]]]}},{"type":"Feature","properties":{},"geometry":{"type":"Polygon","coordinates":[[[-2.87,50.93],[-1.67,51.24],[-1.17,50.65],[-1.99,49.93],[-2.54,49.94],[-2.33,50.33],[-2.82,49.91],[-3.48,50.07],[-3.14,50.31],[-3.54,50.57],[-2.47,50.53],[-2.87,50.93]]]}},{"type":"Feature","properties":{},"geometry":{"type":"Polygon","coordinates":[[[-0.1,54.57],[0.3,54.68],[0.01,54.54],[0.4,54.22],[0.01,54.07],[-0.1,54.57]]]}},{"type":"Feature","properties":{},"geometry":{"type":"Polygon","coordinates":[[[0.79,56.82],[1.5,56.36],[0.79,56.41],[0.79,56.82]]]}},{"type":"Feature","properties":{},"geometry":{"type":"Polygon","coordinates":[[[0.02,55.09],[1.2,54.42],[0.68,54.24],[0.02,55.09]]]}},{"type":"Feature","properties":{},"geometry":{"type":"Polygon","coordinates":[[[-2.1,61.83],[-0.52,62.51],[0.51,62.08],[0.09,61.89],[0.39,61.61],[-2.1,61.83]]]}},{"type":"Feature","properties":{},"geometry":{"type":"Polygon","coordinates":[[[-14.87,46.48],[-14.83,45.03],[-14.41,45.19],[-14.91,44.39],[-14.47,43.95],[-15.5,43.6],[-15.41,43.97],[-16.1,43.27],[-16.09,43.79],[-16.24,43.34],[-16.87,43.63],[-16.53,43.88],[-16.85,44.53],[-15.86,44.39],[-16.82,44.88],[-16.31,45.13],[-16.67,45.51],[-16.11,45.4],[-16.32,45.89],[-15.59,45.79],[-15.7,46.19],[-14.87,46.48]]]}},{"type":"Feature","properties":{},"geometry":{"type":"Polygon","coordinates":[[[-9.68,46.85],[-9.1,46.59],[-9.6,46.34],[-8.84,46.54],[-8.28,45.81],[-8.99,45.35],[-9.99,45.47],[-9.5,45.19],[-10.32,44.87],[-9.05,45.12],[-10.66,44.38],[-10.61,44],[-11.13,44.11],[-10.72,43.91],[-11.06,43.6],[-12.8,43.57],[-11.97,43.25],[-12.8,43.41],[-12.19,42.88],[-12.98,42.41],[-12.81,42.11],[-13.49,42.23],[-13.71,41.71],[-14.82,41.92],[-14.04,41.62],[-13.86,40.98],[-15.04,40.74],[-15.18,41.41],[-16.09,41.21],[-17.02,41.64],[-16.9,41.99],[-17.17,41.72],[-17.08,42.18],[-16.09,42.19],[-16.12,42.95],[-15.44,42.1],[-14.47,42.65],[-15.19,42.24],[-15.42,42.79],[-14.97,43.1],[-15.78,43.13],[-15.24,43.63],[-14.23,43.11],[-14.32,43.43],[-13.89,43.36],[-14.57,43.72],[-14.28,43.62],[-14.23,45.01],[-13.33,43.94],[-13.5,44.8],[-11.79,44.91],[-12.31,45.07],[-11.59,45.48],[-12.84,44.96],[-14,45.18],[-12.85,45.53],[-14.24,45.37],[-14.44,45.77],[-13.25,45.78],[-14.43,45.87],[-13.63,46.13],[-14.4,46.58],[-13.36,46.72],[-12.87,46.3],[-13.09,46.74],[-12.61,46.88],[-11.89,45.95],[-12.23,46.67],[-11.79,47],[-11.09,46.94],[-11.05,46.41],[-11,46.98],[-10.29,46.52],[-9.68,46.85]]]}},{"type":"Feature","properties":{},"geometry":{"type":"Polygon","coordinates":[[[-6.53,26.28],[-6.18,26.89],[-6.61,26.63],[-6.83,27.16],[-5.93,27.6],[-6.8,27.21],[-7.16,27.54],[-6.51,27.91],[-7.3,27.82],[-5.95,28.72],[-7.34,27.88],[-7.41,28.29],[-6.86,28.37],[-7.35,28.43],[-6.8,28.66],[-7.61,28.87],[-6.01,29.06],[-7.58,29],[-7.13,29.56],[-5.92,29.41],[-6.39,29.84],[-7.54,29.38],[-6.83,29.8],[-7.4,29.98],[-6,29.83],[-6.6,30.04],[-6.36,30.37],[-7.45,30.12],[-6.46,30.44],[-6.55,30.99],[-6.16,30.85],[-6.58,31.06],[-6.3,31.9],[-8.1,32.41],[-6.47,32.19],[-7.1,32.84],[-6.7,32.87],[-7.22,32.93],[-6.96,33.13],[-7.34,32.97],[-6.92,33.32],[-7.53,33.21],[-7.05,33.54],[-7.78,33.78],[-7.88,33.22],[-8.49,33.21],[-8.23,34.59],[-8.84,35.99],[-9.23,35.83],[-8.83,36.12],[-9.61,37.45],[-11.11,38.14],[-12.16,38.1],[-12.09,37.73],[-12.68,37.97],[-12.97,38.3],[-12.41,38.55],[-13.34,38.99],[-11.84,39.07],[-11.78,39.4],[-12.63,39.35],[-13.51,40.19],[-11.42,41],[-10.83,41.87],[-11.67,42.15],[-10.74,42.89],[-10.58,42.49],[-10.12,43.6],[-9.26,43.06],[-9.87,43.71],[-8.93,44.1],[-8.72,43.3],[-8.6,43.79],[-7.94,43.41],[-8.32,44.29],[-6.95,43.69],[-7.1,44.2],[-6.66,44.21],[-7.45,44.65],[-6.3,44.58],[-7.51,45.01],[-6.21,44.86],[-6.54,45.5],[-6,45.82],[-4.46,45.97],[-5.67,44.98],[-4.3,45.89],[-4.13,45.5],[-3.29,45.65],[-4.7,44.19],[-3.36,44.9],[-3.31,44.29],[-2.88,45.21],[-2.29,43.71],[-1.75,45.46],[-0.72,45.56],[-0.7,44.5],[-1.67,43.96],[-0.58,44.32],[-1.28,43.61],[-0.88,43.33],[-0.53,43.85],[0.1,41.37],[0.17,41.76],[0.72,41.72],[0.43,41.32],[1.23,41.43],[1.63,40.96],[0.53,40.8],[0.97,40.85],[0.54,40.43],[1.58,40.37],[1.15,39.96],[2.27,39.73],[2.27,39.43],[1.32,39.61],[2.13,39.34],[1.55,39.12],[3,38.97],[2,38.67],[2.84,38.58],[2.07,38.36],[3.18,37.87],[2.68,37.44],[1.92,37.59],[2.52,37.8],[1.25,37.65],[1.81,37.39],[0.98,37.06],[1.43,36.93],[1.03,36.67],[1.95,36.92],[1.27,36.45],[2.27,36.62],[1.88,36.16],[2.33,35.93],[2.43,36.41],[3.45,36.22],[3.38,35.89],[3.74,36.16],[4.53,35.15],[4.02,35.29],[3.93,34.8],[3.01,35.43],[1.19,35.6],[1.86,35.41],[1.54,35.12],[2.73,35.3],[2.43,34.77],[1.91,34.82],[1.74,34.01],[2.71,34.37],[2.15,33.77],[2.67,33.8],[3.25,34.5],[4.54,34.52],[3.67,32.74],[2.36,31.69],[1.22,31.89],[1.69,31.3],[1.13,29.51],[0.57,29.44],[0.8,29.17],[0.05,28.95],[0.17,28.63],[-0.33,29.22],[-0.25,28.41],[-1.45,27.62],[-0.93,26.96],[-1.45,26.75],[-0.82,26.29],[-1.34,26.36],[-0.9,26.16],[-1.46,25.94],[-1.19,25.41],[-1.9,25.12],[-1.33,24.85],[-1.78,24.91],[-1.23,24.49],[-1.67,23.73],[-1.31,23.54],[-1.83,23.49],[-1.33,23.5],[-1.72,23.21],[-1.31,23],[-2.03,22.95],[-1.36,22.5],[-1.93,22.72],[-2.44,22.33],[-2.16,22.86],[-2.47,22.37],[-2.27,23.03],[-2.97,22.75],[-2.64,23.14],[-3.12,22.91],[-2.66,23.43],[-3.06,23.09],[-2.98,23.52],[-4.18,22.84],[-4.09,23.37],[-4.69,23.38],[-4.28,23.55],[-4.82,23.52],[-4.6,23.98],[-4.81,23.68],[-4.66,24.06],[-5.46,24.4],[-5.21,24.99],[-5.52,24.68],[-5.41,25.14],[-5.94,25.21],[-5.47,25.3],[-6.2,25.55],[-5.75,26.09],[-6.34,26.03],[-5.6,26.36],[-5.87,26.57],[-5.31,26.28],[-5.92,27.09],[-5.86,26.64],[-6.53,26.28]]]}}]}
