{"type":"FeatureCollection","features":[{"type":"Feature","properties":{},"geometry":{"type":"Polygon","coordinates":[[[45.37,-59.65],[46.97,-59.36],[47.85,-59.79],[46.05,-60.02],[45.37,-59.65]]]}},{"type":"Feature","properties":{},"geometry":{"type":"Polygon","coordinates":[[[52.04,-57.53],[51.76,-57.89],[51.3,-57.28],[52.54,-57.35],[52.04,-57.53]]]}},{"type":"Feature","properties":{},"geometry":{"type":"Polygon","coordinates":[[[10.33,-64.18],[11.64,-63.26],[12.82,-63.86],[12.62,-64.27],[10.33,-64.18]]]}},{"type":"Feature","properties":{},"geometry":{"type":"Polygon","coordinates":[[[30.81,-68.87],[31.85,-68.73],[30.43,-69.01],[30.81,-68.87]]]}},{"type":"Feature","properties":{},"geometry":{"type":"Polygon","coordinates":[[[35.63,-69.21],[32.57,-69.1],[34.87,-68.51],[35.48,-68.57],[35.63,-69.21]]]}},{"type":"Feature","properties":{},"geometry":{"type":"Polygon","coordinates":[[[38.55,-69.52],[36.22,-68.63],[39.25,-69.16],[38.55,-69.52]]]}},{"type":"Feature","properties":{},"geometry":{"type":"Polygon","coordinates":[[[1.05,-65.88],[2.67,-65.35],[2.39,-65.89],[1.05,-65.88]]]}},{"type":"Feature","properties":{},"geometry":{"type":"Polygon","coordinates":[[[14.85,-69.34],[15.35,-69.11],[13.77,-69.12],[13.23,-68.9],[14.45,-68.83],[13.25,-68.67],[14.4,-68.32],[18.35,-69.7],[14.85,-69.34]]]}},{"type":"Feature","properties":{},"geometry":{"type":"Polygon","coordinates":[[[-9.38,-65.61],[-3.38,-64.28],[-0.81,-64.42],[-0.17,-65.06],[-1.14,-65.27],[-1.55,-64.84],[-2.58,-65.38],[-0.9,-65.71],[-1.86,-66.6],[-2.19,-66.57],[-1.74,-66.25],[-2.7,-66.42],[-2.29,-65.92],[-2.84,-66.23],[-3.27,-65.68],[-3.57,-66.03],[-4.61,-65.51],[-4.37,-65.27],[-5.53,-65.71],[-6.23,-65.25],[-6.8,-65.98],[-8.35,-66.26],[-9.38,-65.61]]]}},{"type":"Feature","properties":{},"geometry":{"type":"Polygon","coordinates":[[[61.04,-40.71],[60.58,-41.55],[60.07,-41.25],[61.04,-40.71]]]}},{"type":"Feature","properties":{},"geometry":{"type":"Polygon","coordinates":[[[-20.44,-63.21],[-19.16,-63.4],[-19.54,-63.65],[-20.44,-63.21]]]}},{"type":"Feature","properties":{},"geometry":{"type":"Polygon","coordinates":[[[-20.77,-60.75],[-19.92,-60.48],[-19.48,-60.91],[-20.77,-60.75]]]}},{"type":"Feature","properties":{},"geometry":{"type":"Polygon","coordinates":[[[9.96,-64.41],[11.33,-64.83],[12.33,-64.56],[11.87,-64.91],[12.45,-65.07],[15.74,-62.84],[14.87,-63.15],[15.12,-62.67],[16.91,-61.99],[19.96,-61.8],[23.16,-59.47],[26.8,-60.59],[27.14,-61.72],[27.82,-62.17],[26.47,-63.19],[16.96,-65.23],[15.36,-66],[13.45,-66.13],[9.6,-65.19],[9.96,-64.41]]]}},{"type":"Feature","properties":{},"geometry":{"type":"Polygon","coordinates":[[[-21.84,-60.4],[-21.03,-60.26],[-21.37,-60.51],[-21.06,-60.87],[-19.43,-61.29],[-19.82,-61.77],[-18.02,-62.79],[-16.66,-62.89],[-16.15,-62.7],[-16.67,-62.46],[-16.38,-62.18],[-15.5,-62.64],[-16.11,-62.71],[-16.05,-63.09],[-14.92,-63],[-16.21,-63.37],[-14.59,-63.43],[-13.45,-64.11],[-10.54,-63.86],[-10.31,-63.48],[-11.1,-63.06],[-9.81,-63.34],[-8.86,-62.8],[-6.78,-62.69],[-6.76,-62.36],[-1.4,-61.85],[-1.82,-61.53],[1.28,-61.53],[3.74,-62.21],[3.58,-61.89],[7.09,-63.01],[8.19,-62.18],[10.65,-62.98],[9.05,-64.08],[9.96,-64.41],[8.71,-66.87],[5.93,-67.32],[5.97,-66.94],[5.11,-66.78],[3.29,-67.07],[3.99,-66.33],[3.09,-65.96],[3.93,-65.83],[-0.84,-63.79],[-3.08,-63.85],[-8.31,-65.05],[-9.47,-64.38],[-13.06,-64.48],[-12.82,-64.88],[-14.02,-64.9],[-14.34,-64.68],[-13.5,-64.48],[-15.02,-64.57],[-14.97,-64.25],[-16.24,-64.24],[-17.68,-63.4],[-18.75,-63.46],[-18.38,-63.22],[-20.68,-62.16],[-21.84,-60.4]]]}},{"type":"Feature","properties":{},"geometry":{"type":"Polygon","coordinates":[[[18.9,-55.88],[14.65,-52.49],[14.54,-51.78],[15.18,-51.68],[13.53,-51.16],[12.21,-52.16],[10.74,-51.68],[9.42,-49.76],[9.36,-48.63],[8.31,-47.59],[7.99,-46],[8.61,-43.97],[8.22,-43.29],[7.31,-43.2],[8.07,-43.15],[7.53,-42.4],[8.93,-42.65],[9.13,-42.33],[8.35,-41.5],[8.75,-41.26],[9.34,-41.82],[10.15,-41.09],[9.34,-40.33],[10.58,-41.08],[10.83,-40.7],[11.33,-40.89],[11.58,-39.27],[13.1,-38.12],[14.83,-37.84],[16.24,-36.77],[19.07,-36.15],[22.8,-34.33],[22.83,-33.23],[25.09,-34.37],[25.36,-33.22],[26.52,-32.19],[28.07,-31.28],[28.87,-31.59],[29.32,-30.74],[29.56,-31.19],[30.06,-31.1],[29.94,-30.22],[31.42,-29.76],[32.29,-29.94],[33.04,-30.58],[32.53,-30.79],[33.77,-31.48],[38.45,-32.4],[38.34,-33.32],[37.85,-33.5],[38.24,-33.53],[37.78,-33.65],[38.08,-33.84],[37.58,-33.8],[37.67,-34.38],[37.1,-34.71],[38.1,-36.1],[39.46,-34.73],[40.43,-34.83],[42.43,-33.72],[45.13,-33.41],[48.59,-34.08],[50.96,-35.3],[51.6,-35.42],[51.92,-34.79],[52.54,-34.99],[52.31,-35.51],[53.66,-35.81],[55.23,-38.09],[57.92,-38.26],[57.79,-39.17],[58.46,-39.55],[58.5,-40.44],[59.92,-41.25],[59.61,-41.48],[62.22,-42.42],[62.02,-43.43],[62.48,-43.86],[63.72,-43.27],[64.97,-44.94],[66.3,-44.66],[65.54,-45.16],[65.48,-45.81],[66.92,-48.43],[66.81,-48.99],[67.75,-49.51],[66.39,-49.41],[66.83,-50.63],[65.87,-50.63],[66.68,-51.67],[66.11,-51.95],[67.19,-52.67],[66.28,-53.23],[66.27,-53.94],[66.69,-53.99],[66.38,-54.69],[64.91,-55.59],[64.46,-57.86],[62.47,-58.9],[59.45,-58.27],[59.2,-57.54],[58.27,-57.47],[58.22,-57.06],[57.23,-57.21],[57.46,-56.93],[56.77,-56.81],[57.54,-56.7],[57.04,-56.49],[56.2,-56.49],[55.88,-57.03],[55.37,-56.48],[50.63,-56.56],[51.05,-57],[49.77,-57.27],[50.03,-56.69],[49.05,-55.91],[43.61,-56.1],[43.44,-55.74],[42.86,-55.94],[43.26,-56.19],[41.2,-56.27],[38.83,-57.11],[36.95,-56.46],[38.9,-57.25],[36.79,-57.8],[35.21,-57.6],[33.94,-57.92],[33.84,-58.42],[32.28,-58.57],[35.18,-59.06],[37.22,-60.37],[34.71,-61.11],[33.28,-59.99],[30.11,-58.81],[26.52,-59.18],[24.17,-57.69],[18.9,-55.88]]]}},{"type":"Feature","properties":{},"geometry":{"type":"Polygon","coordinates":[[[40.18,-58.56],[41.94,-59.65],[40.59,-60.86],[46.57,-60.73],[49.4,-61.64],[47.34,-62.52],[45.72,-62.6],[46.04,-62.69],[45.8,-63.23],[45.13,-63.38],[45.81,-63.62],[45.34,-63.73],[46.8,-63.93],[47.89,-63.55],[47.96,-63.99],[46.33,-64.14],[47.33,-64.5],[45.39,-65.63],[45.54,-66.03],[44.28,-66.41],[44.7,-66.8],[44.03,-67.22],[42.68,-67.07],[31.92,-68.67],[29.64,-68.38],[29.7,-68.79],[28.93,-69],[29.22,-68.68],[28.43,-68.8],[28.83,-68.46],[28.4,-67.94],[27.27,-68.03],[27.57,-68.2],[27.09,-68.55],[25.64,-67.81],[24.5,-67.94],[24.17,-67.66],[24.66,-67.21],[23.02,-67.63],[21.88,-67.37],[21.75,-66.81],[20.65,-66.77],[20.74,-67.48],[19.55,-67.65],[20.06,-68.38],[18.2,-68.28],[20.11,-68.59],[20.23,-69.08],[19.73,-69.18],[17.98,-68.41],[16.25,-68.34],[15.63,-67.65],[13.98,-67.73],[14.06,-67.34],[12.68,-66.77],[10.47,-66.89],[10.28,-66.54],[11.05,-66.46],[10.67,-65.88],[9.6,-65.88],[10.22,-65.52],[9.76,-64.82],[18.93,-63.58],[20,-62.91],[29.03,-61.08],[30.51,-60.07],[37.2,-59.86],[40.18,-58.56]]]}},{"type":"Feature","properties":{},"geometry":{"type":"Polygon","coordinates":[[[-21.67,-59.6],[-21.27,-59.43],[-21.27,-60.07],[-21.67,-59.6]]]}},{"type":"Feature","properties":{},"geometry":{"type":"Polygon","coordinates":[[[-22.46,-61.44],[-22.09,-61.59],[-22.7,-61.95],[-22.46,-61.44]]]}},{"type":"Feature","properties":{},"geometry":{"type":"Polygon","coordinates":[[[-22.97,-60.3],[-22.68,-60.17],[-22.79,-60.85],[-22.97,-60.3]]]}},{"type":"Feature","properties":{},"geometry":{"type":"Polygon","coordinates":[[[-15.03,-57.32],[-15.43,-57.6],[-13.87,-57.84],[-16.26,-57.94],[-15.03,-57.32]]]}},{"type":"Feature","properties":{},"geometry":{"type":"Polygon","coordinates":[[[-14.67,-57.2],[-13.49,-57.11],[-14.42,-57.48],[-14.67,-57.2]]]}},{"type":"Feature","properties":{},"geometry":{"type":"Polygon","coordinates":[[[-19.2,-57.3],[-18.66,-57.71],[-19.49,-57.46],[-19.2,-57.3]]]}},{"type":"Feature","properties":{},"geometry":{"type":"Polygon","coordinates":[[[-18.09,-56.66],[-17.47,-57.27],[-18.17,-57.1],[-18.09,-56.66]]]}},{"type":"Feature","properties":{},"geometry":{"type":"Polygon","coordinates":[[[-20.73,-57.2],[-19.45,-57.59],[-20.97,-57.68],[-20.73,-57.2]]]}},{"type":"Feature","properties":{},"geometry":{"type":"Polygon","coordinates":[[[-20.44,-56.31],[-19.6,-56.23],[-20.55,-56.8],[-19.96,-57.16],[-21.18,-57.07],[-20.47,-57.03],[-21.14,-56.71],[-20.44,-56.31]]]}},{"type":"Feature","properties":{},"geometry":{"type":"Polygon","coordinates":[[[-18.33,-57.7],[-16.85,-57.42],[-18.02,-57.28],[-16.03,-57.37],[-15.87,-57.05],[-17.56,-56.82],[-17.2,-56.17],[-18.23,-56.47],[-18.23,-55.99],[-18.68,-55.94],[-17.96,-55.38],[-14.62,-56.24],[-12.12,-56.17],[-13.07,-56.9],[-18.75,-57.92],[-18.33,-57.7]]]}},{"type":"Feature","properties":{},"geometry":{"type":"Polygon","coordinates":[[[-9.43,-51.65],[-9.73,-52.67],[-10.49,-52.72],[-9.73,-52.18],[-10.58,-52],[-9.43,-51.65]]]}},{"type":"Feature","properties":{},"geometry":{"type":"Polygon","coordinates":[[[-9,-51.47],[-7.68,-51.52],[-8.71,-51.94],[-8.2,-52.17],[-8.96,-52.54],[-9,-51.47]]]}},{"type":"Feature","properties":{},"geometry":{"type":"Polygon","coordinates":[[[-24.41,-55.23],[-23.88,-55.51],[-24.53,-55.58],[-24.41,-55.23]]]}},{"type":"Feature","properties":{},"geometry":{"type":"Polygon","coordinates":[[[-25.58,-54.77],[-24.97,-54.8],[-25.34,-55.18],[-25.58,-54.77]]]}},{"type":"Feature","properties":{},"geometry":{"type":"Polygon","coordinates":[[[-25.44,-54.11],[-25.43,-54.63],[-26.07,-54.35],[-25.64,-53.96],[-26.21,-53.6],[-25.74,-53.39],[-24.89,-54.65],[-25.44,-54.11]]]}},{"type":"Feature","properties":{},"geometry":{"type":"Polygon","coordinates":[[[-26.33,-52.92],[-25.8,-53.39],[-26.32,-53.41],[-26.33,-52.92]]]}},{"type":"Feature","properties":{},"geometry":{"type":"Polygon","coordinates":[[[64.4,-69.95],[63.35,-69.66],[64.54,-69.3],[64.4,-69.95]]]}},{"type":"Feature","properties":{},"geometry":{"type":"Polygon","coordinates":[[[-27.38,-49.78],[-27.11,-50.02],[-27.71,-50.05],[-27.38,-49.78]]]}},{"type":"Feature","properties":{},"geometry":{"type":"Polygon","coordinates":[[[-26.93,-48.99],[-26.54,-49.05],[-26.92,-49.57],[-27.24,-49.35],[-26.93,-48.99]]]}},{"type":"Feature","properties":{},"geometry":{"type":"Polygon","coordinates":[[[-29.27,-46.82],[-28.44,-47.12],[-28.77,-47.5],[-28.23,-47.73],[-28.32,-48.34],[-29.02,-48.31],[-29.27,-46.82]]]}},{"type":"Feature","properties":{},"geometry":{"type":"Polygon","coordinates":[[[62.59,-58.99],[62.43,-60.36],[62.93,-60.58],[62.49,-60.94],[62.98,-60.58],[64.23,-61.28],[63.97,-61.66],[59.32,-62.14],[59.94,-61.42],[57.98,-61.47],[57.75,-60.87],[58.32,-60.93],[58.64,-60.32],[62.59,-58.99]]]}},{"type":"Feature","properties":{},"geometry":{"type":"Polygon","coordinates":[[[64.09,-66.57],[61.87,-66.82],[62.69,-67.36],[61.82,-67.21],[62.37,-67.7],[58.95,-67],[58.3,-64.95],[55.96,-62.38],[57.1,-62.86],[58.93,-64.83],[64.09,-66.57]]]}},{"type":"Feature","properties":{},"geometry":{"type":"Polygon","coordinates":[[[55.44,-74.88],[57.09,-74.28],[56.46,-73.91],[56.82,-73.84],[55.54,-73.71],[59.53,-73],[60.01,-71.3],[59.55,-71.36],[61.27,-70.45],[68.12,-70.34],[67.26,-70.59],[68.02,-70.62],[67.77,-70.82],[68.13,-70.9],[67.23,-70.87],[68.03,-71.12],[67.5,-71.3],[67.79,-71.42],[64.37,-73.07],[59.71,-74.44],[55.44,-74.88]]]}},{"type":"Feature","properties":{},"geometry":{"type":"Polygon","coordinates":[[[66.38,-51.75],[66.17,-52.2],[65.1,-51.33],[65.46,-51.1],[66.38,-51.75]]]}},{"type":"Feature","properties":{},"geometry":{"type":"Polygon","coordinates":[[[79.49,-66.82],[78.12,-67.07],[78.67,-67.17],[77.35,-67.8],[77.83,-67.97],[73.05,-68.46],[73.37,-68.5],[72.42,-69.03],[74.41,-68.9],[70.46,-69.85],[69.89,-70.36],[71.16,-70.94],[70.62,-71.38],[66.36,-70.78],[65.96,-70.66],[66.66,-70.56],[66.43,-70.04],[63.81,-69.77],[60.41,-68.43],[61.5,-67.88],[64.66,-68.45],[67,-67.5],[68.02,-68.16],[70.01,-68.38],[74.35,-67.9],[73.91,-68.14],[74.98,-68.17],[75.29,-67.74],[74.55,-67.8],[79.26,-66.52],[79.49,-66.82]]]}},{"type":"Feature","properties":{},"geometry":{"type":"Polygon","coordinates":[[[103.66,-57.32],[103.02,-57.65],[103.11,-57.21],[103.66,-57.32]]]}},{"type":"Feature","properties":{},"geometry":{"type":"Polygon","coordinates":[[[101.82,-54.38],[101.16,-57.74],[100.62,-57.85],[100.67,-55.77],[101.82,-54.38]]]}},{"type":"Feature","properties":{},"geometry":{"type":"Polygon","coordinates":[[[89.88,-37.33],[89.54,-37.97],[89.04,-37.5],[89.88,-37.33]]]}},{"type":"Feature","properties":{},"geometry":{"type":"Polygon","coordinates":[[[24.2,-21.73],[24.83,-19.6],[25.98,-18.59],[27.76,-18.9],[27.98,-19.33],[28.13,-18.86],[28.83,-19.15],[30.2,-18.4],[30.35,-17.77],[30.57,-18.13],[31.29,-17.97],[31.64,-17.1],[32.32,-16.91],[32.47,-18.16],[31.79,-20.57],[31.33,-20.92],[30.98,-20.28],[30.55,-21.52],[23.95,-27.48],[22.15,-27.34],[21.17,-26.26],[21.84,-23.49],[24.2,-21.73]]]}},{"type":"Feature","properties":{},"geometry":{"type":"Polygon","coordinates":[[[86.4,-31.36],[86.21,-31.9],[85.75,-31.51],[86.4,-31.36]]]}},{"type":"Feature","properties":{},"geometry":{"type":"Polygon","coordinates":[[[86.58,-31.27],[87.29,-32.26],[86.41,-32.22],[86.58,-31.27]]]}},{"type":"Feature","properties":{},"geometry":{"type":"Polygon","coordinates":[[[65.02,-56.32],[64.5,-55.73],[64.64,-54.81],[66.79,-53.46],[67.21,-52.64],[66.7,-53.58],[67.04,-53.29],[67.22,-52.57],[66.59,-52.11],[68.06,-52.03],[68.68,-51.36],[67.1,-51.61],[66.28,-51.05],[69.39,-50.97],[70.74,-50.21],[70,-50.54],[66.7,-50.03],[66.08,-50.29],[66.09,-49.48],[66.32,-49.77],[66.98,-49.26],[68.3,-47.14],[67.41,-46.05],[67.37,-45],[63.13,-41.83],[61.19,-40.98],[59.74,-40.98],[57.55,-38.44],[55.23,-37.76],[54.42,-36.28],[54.62,-35.17],[56.98,-34.62],[59.13,-32.49],[61.04,-29.15],[60.89,-29.83],[61.83,-29],[61.34,-29.99],[61.9,-29.85],[62.72,-28.24],[64.5,-27.24],[65.44,-27.05],[64.9,-27.57],[68.42,-28.15],[68.84,-28.87],[72.28,-30.54],[74.46,-30.5],[75.05,-29.79],[76.35,-29.73],[75.77,-31.02],[76.73,-30.77],[76.55,-30.32],[77.01,-30.03],[77.87,-31.15],[77.5,-30.73],[78.39,-30.55],[77.87,-30.57],[78.19,-30.2],[78.64,-30.19],[78.82,-30.86],[78.84,-30.24],[79.35,-30.71],[79.42,-30.16],[80.21,-30.13],[80.12,-30.65],[80.79,-30.2],[80.67,-30.59],[81.61,-30.68],[81.88,-31.2],[81.85,-32.31],[80.78,-32.69],[82.06,-32.53],[82.52,-33.6],[83.29,-33.26],[83.1,-32.82],[85.3,-32.32],[85.59,-32.63],[85.71,-32.29],[85.81,-32.75],[86.6,-32.51],[87.75,-33.61],[88.17,-33.18],[87.59,-32.32],[87.93,-32.32],[88.97,-34.53],[89.62,-34.78],[89.74,-35.39],[90.63,-35.56],[90.2,-35.56],[90.65,-35.73],[90.27,-36.03],[91.28,-35.94],[91.25,-36.55],[90.41,-36.83],[89.52,-36.52],[88.71,-37.18],[87.38,-37],[87.75,-37.69],[87.28,-37.67],[87.76,-37.74],[88.11,-38.81],[87.62,-38.78],[88.2,-39.13],[89.03,-42.09],[89.72,-42.74],[93.13,-41.81],[94.09,-40.62],[95.77,-40.01],[95.34,-39.72],[97.81,-38.9],[96.99,-41.18],[95.86,-42.49],[96.79,-42.81],[96.92,-43.93],[95.6,-45.07],[95.73,-45.77],[94.09,-47.41],[95.28,-50.03],[94.71,-50.31],[94.63,-51.43],[93.6,-52.28],[93.98,-52.61],[94.56,-52.22],[94.59,-52.98],[94.99,-52.78],[93.88,-53.72],[93.59,-53.35],[93.78,-54.52],[94.23,-54.68],[93.91,-56.31],[93.39,-56.95],[91.34,-57.75],[90.09,-59.05],[82.93,-60.63],[81.55,-60.24],[80.05,-60.45],[79.67,-60.04],[79.87,-60.43],[79.46,-60.53],[75.14,-60.65],[71.75,-61.42],[69.46,-59.92],[66.99,-59.26],[66.31,-59.58],[66.73,-58.6],[67.32,-58.55],[66.51,-58.27],[66.66,-57.99],[67.69,-57.97],[65.05,-57.45],[65.02,-56.32]]]}},{"type":"Feature","properties":{},"geometry":{"type":"Polygon","coordinates":[[[96.9,-34],[97.05,-34.34],[96.36,-34.59],[95.54,-33.86],[96.9,-34]]]}},{"type":"Feature","properties":{},"geometry":{"type":"Polygon","coordinates":[[[124.17,14.45],[123.97,13.9],[123.12,13.62],[124.17,14.45]]]}},{"type":"Feature","properties":{},"geometry":{"type":"Polygon","coordinates":[[[93.66,-30.12],[93.7,-30.64],[93.14,-30.69],[93.66,-30.12]]]}},{"type":"Feature","properties":{},"geometry":{"type":"Polygon","coordinates":[[[94.22,-30.21],[93.94,-30.54],[93.81,-30.13],[94.22,-30.21]]]}},{"type":"Feature","properties":{},"geometry":{"type":"Polygon","coordinates":[[[116.78,11.07],[118.9,11.99],[119.57,11.73],[121.08,12.49],[121.23,13.26],[122.91,13.72],[123.69,13.24],[125.05,13.9],[125.57,13.2],[117.94,10.02],[117.8,10.42],[116.59,9.92],[116.78,11.07]]]}},{"type":"Feature","properties":{},"geometry":{"type":"Polygon","coordinates":[[[94.43,-29.83],[94.34,-30.32],[93.92,-30.07],[94.43,-29.83]]]}},{"type":"Feature","properties":{},"geometry":{"type":"Polygon","coordinates":[[[117.11,14.87],[117.71,14.93],[117.74,14.43],[117.38,14.22],[117.11,14.87]]]}},{"type":"Feature","properties":{},"geometry":{"type":"Polygon","coordinates":[[[114.91,14.39],[115.84,13.97],[116.39,14.21],[116.64,13.76],[114.72,13.45],[114.91,14.39]]]}},{"type":"Feature","properties":{},"geometry":{"type":"Polygon","coordinates":[[[105.32,-38.44],[105.27,-41.31],[106.06,-41.66],[105.62,-42],[106.36,-42.63],[105.89,-42.79],[106.84,-43.54],[106.16,-43.32],[106.33,-43.71],[103.75,-41.61],[103.29,-38.72],[102.35,-37.57],[101.69,-37.62],[101.54,-36.86],[101.32,-37.66],[100.75,-37.16],[100.83,-37.66],[99.42,-36.75],[100.16,-37.52],[99.99,-38.12],[97.64,-36.89],[97.36,-35.36],[97.8,-35.22],[96.37,-34.77],[97.08,-34.35],[96.94,-33.78],[97.87,-34.37],[97.01,-33.51],[97.6,-33.97],[97.34,-32.95],[97.83,-32.53],[97.49,-32.26],[97.73,-31.34],[97.42,-31.45],[95.67,-28.91],[100.38,-32.24],[105.32,-38.44]]]}},{"type":"Feature","properties":{},"geometry":{"type":"Polygon","coordinates":[[[112.02,15.56],[112.33,15.26],[111.86,15.2],[112.02,15.56]]]}},{"type":"Feature","properties":{},"geometry":{"type":"Polygon","coordinates":[[[-3.72,-6.06],[-3.84,-6.47],[-4.1,-6.26],[-3.72,-6.06]]]}},{"type":"Feature","properties":{},"geometry":{"type":"Polygon","coordinates":[[[102.92,12.51],[104.68,13.59],[105.96,13.13],[110.9,13.72],[113.7,9.87],[110.96,10.84],[109.3,10.91],[108.06,11.79],[103.38,11.87],[102.72,12.25],[102.92,12.51]]]}},{"type":"Feature","properties":{},"geometry":{"type":"Polygon","coordinates":[[[110.56,13.8],[111.44,14],[111.28,13.55],[112.02,14.29],[112.45,13.3],[113.42,13.74],[114.75,12.81],[115.31,13.54],[116.06,13.37],[117.75,10.97],[117.1,11.03],[117.25,10.67],[116.58,10.47],[116.87,10.18],[113,10.27],[110.56,13.8]]]}},{"type":"Feature","properties":{},"geometry":{"type":"Polygon","coordinates":[[[118.87,27.7],[119.09,27.34],[119.18,27.91],[120.06,27.75],[120.75,27.2],[122.18,27.64],[121.39,26.64],[122.13,26.53],[121.18,25.95],[121.77,25.4],[121.1,24.97],[121.73,25.2],[121.36,24.98],[122.86,24.43],[122.89,23.89],[124.45,23.71],[123.33,23.31],[124.14,21.54],[123.48,20.85],[123.4,19.96],[123.75,19.97],[123.54,19.47],[124.05,19.65],[124.02,18.03],[123.29,17.08],[122.76,17.75],[122.01,17.18],[121.18,17.31],[120.52,16.17],[119.94,16.72],[118.81,15.77],[117.48,17.2],[116.72,17.02],[116.9,17.29],[115.71,17.81],[115.11,19.38],[117.24,19.98],[116.8,20],[116.53,21.19],[117.68,22.46],[117.7,24.17],[118.81,25.2],[118.5,25.61],[118.87,27.7]]]}},{"type":"Feature","properties":{},"geometry":{"type":"Polygon","coordinates":[[[25.67,-31.69],[23.15,-33.4],[21.7,-33.26],[21.09,-32.29],[21.47,-31.73],[23.62,-31.3],[25.67,-31.69]]]}},{"type":"Feature","properties":{},"geometry":{"type":"Polygon","coordinates":[[[-32.18,5.91],[-32.02,5.22],[-32.89,4.93],[-32.5,5.28],[-32.79,5.64],[-32.18,5.91]]]}},{"type":"Feature","properties":{},"geometry":{"type":"Polygon","coordinates":[[[-49.2,-16.1],[-48.28,-17.25],[-49.68,-16.47],[-49.2,-16.1]]]}},{"type":"Feature","properties":{},"geometry":{"type":"Polygon","coordinates":[[[-52.29,-11.39],[-50.49,-13.41],[-50.17,-14.21],[-50.66,-14.08],[-50.05,-15.26],[-50.55,-15.35],[-52.22,-13.72],[-52.98,-13.99],[-52.99,-13.12],[-54.41,-12.06],[-54.56,-11.45],[-54.17,-11.37],[-52.98,-12.71],[-52.57,-11.82],[-52.92,-11.15],[-52.29,-11.39]]]}},{"type":"Feature","properties":{},"geometry":{"type":"Polygon","coordinates":[[[113.54,29.98],[114.55,30.1],[114.21,28.87],[113.23,28.18],[112.26,28.45],[112.16,29.32],[113.54,29.98]]]}},{"type":"Feature","properties":{},"geometry":{"type":"Polygon","coordinates":[[[-49.51,-10.03],[-48.44,-11.83],[-47.07,-17.58],[-49.63,-15.24],[-48.66,-15.03],[-49.15,-14.36],[-48.82,-13.36],[-50.2,-10.81],[-49.84,-10.44],[-52.25,-8.67],[-51.74,-9.08],[-51.03,-8.85],[-49.51,-10.03]]]}},{"type":"Feature","properties":{},"geometry":{"type":"Polygon","coordinates":[[[138.34,47.2],[139.26,46.79],[138.95,46.44],[139.53,46],[138.19,44.59],[137.29,44.35],[137.64,45.01],[137.25,44.52],[136.75,44.86],[137.76,46.1],[137.38,46.58],[137.41,46.06],[136.64,46.05],[136.72,46.57],[137.05,46.27],[136.65,46.82],[138.34,47.2]]]}},{"type":"Feature","properties":{},"geometry":{"type":"Polygon","coordinates":[[[142.44,47.01],[142.95,46.4],[142.09,45.92],[141.24,46.26],[140.18,45.78],[140.1,46.46],[139.59,46.41],[140.87,47.02],[142.44,47.01]]]}},{"type":"Feature","properties":{},"geometry":{"type":"Polygon","coordinates":[[[17.66,18.2],[19.32,16.95],[18.06,17.32],[17.37,18.06],[17.66,18.2]]]}},{"type":"Feature","properties":{},"geometry":{"type":"Polygon","coordinates":[[[22.87,13.31],[22,13.48],[21.34,14.14],[21.42,14.74],[22.12,14.5],[22.87,13.31]]]}},{"type":"Feature","properties":{},"geometry":{"type":"Polygon","coordinates":[[[13.06,23.86],[11.74,22.7],[10.45,24.8],[10.9,25],[13.06,23.86]]]}},{"type":"Feature","properties":{},"geometry":{"type":"Polygon","coordinates":[[[19.12,21.41],[19.45,20.06],[18.63,21.46],[19.12,21.41]]]}},{"type":"Feature","properties":{},"geometry":{"type":"Polygon","coordinates":[[[28.41,37.93],[28.86,37.71],[28.09,37.57],[28.41,37.93]]]}},{"type":"Feature","properties":{},"geometry":{"type":"Polygon","coordinates":[[[7.88,27.76],[7.88,27.06],[7.23,27.24],[7.88,27.76]]]}},{"type":"Feature","properties":{},"geometry":{"type":"Polygon","coordinates":[[[11.21,31.58],[11.01,31.05],[9.43,30.31],[8.53,30.75],[10.41,32.1],[11.21,31.58]]]}},{"type":"Feature","properties":{},"geometry":{"type":"Polygon","coordinates":[[[142.66,47.33],[140.3,47.35],[139.88,46.87],[138.41,47.21],[138.68,47.67],[141.58,48.43],[145.16,47.91],[146.6,49.42],[147.35,49.43],[146.62,49.15],[146.9,48.72],[148.7,49.06],[150.85,50.27],[151.65,51.89],[152.52,52.4],[153.25,51.86],[153.54,52.23],[152.97,52.2],[153.33,52.55],[153.93,52.32],[153.52,51.57],[153.69,50.31],[152.53,49.28],[151.71,49.2],[150.6,47.57],[150.75,46.97],[149.96,46.56],[149.17,46.47],[149.71,47.13],[147.91,46.41],[148.07,46.85],[147.27,46.46],[145.86,46.67],[146.32,46.8],[145.68,47.2],[145.3,46.8],[145.62,46.4],[143.77,45.93],[143.34,46.38],[144.08,47.1],[142.66,47.33]]]}},{"type":"Feature","properties":{},"geometry":{"type":"Polygon","coordinates":[[[13.09,32.33],[11.3,31.67],[12.05,32.58],[13.09,32.33]]]}},{"type":"Feature","properties":{},"geometry":{"type":"Polygon","coordinates":[[[158.51,48.32],[158.81,48.26],[157.27,47.88],[158.51,48.32]]]}},{"type":"Feature","properties":{},"geometry":{"type":"Polygon","coordinates":[[[154.74,50.47],[156.3,48.39],[157.52,48.48],[156.94,48.05],[157.02,47.45],[155.29,47.48],[154.21,46.86],[152.83,47.87],[151.94,47.86],[151.6,48.36],[151.88,48.84],[152.99,48.56],[154.74,50.47]]]}},{"type":"Feature","properties":{},"geometry":{"type":"Polygon","coordinates":[[[153.51,53.61],[152.95,53.36],[153.79,52.73],[152.29,52.62],[152.58,53.81],[153.51,53.61]]]}},{"type":"Feature","properties":{},"geometry":{"type":"Polygon","coordinates":[[[54.95,50.97],[55.4,50.63],[54.69,51.13],[54.95,50.97]]]}},{"type":"Feature","properties":{},"geometry":{"type":"Polygon","coordinates":[[[-11.36,29.17],[-11.1,28.49],[-11.52,27.8],[-11.06,28.53],[-10.52,28.26],[-11.57,27.62],[-11.9,28.06],[-11.36,29.17]]]}},{"type":"Feature","properties":{},"geometry":{"type":"Polygon","coordinates":[[[-13.96,28.48],[-13.69,28.09],[-12.33,28.39],[-12.79,27.77],[-13.95,28],[-13.96,28.48]]]}},{"type":"Feature","properties":{},"geometry":{"type":"Polygon","coordinates":[[[-14.86,31.46],[-12.81,31.04],[-14.29,30.99],[-14.86,31.46]]]}},{"type":"Feature","properties":{},"geometry":{"type":"Polygon","coordinates":[[[-68.8,-2.04],[-67.07,-2.3],[-65.51,-3.82],[-66.63,-3.8],[-66.47,-3.29],[-66.87,-3.7],[-67.6,-3.37],[-67.38,-3.01],[-68.59,-2.78],[-68.36,-2.25],[-68.73,-2.47],[-68.8,-2.04]]]}},{"type":"Feature","properties":{},"geometry":{"type":"Polygon","coordinates":[[[-8.15,32.12],[-7.61,32.67],[-6.76,32.56],[-7.02,31.59],[-6.2,32.03],[-6.78,31.44],[-6.34,30.86],[-5.91,31.58],[-5.62,30.13],[-6.02,30.03],[-6.15,30.59],[-6.52,30.09],[-6.77,31.13],[-7.7,29.83],[-7.4,30.92],[-7.76,30.39],[-8.23,30.37],[-8.07,30.9],[-8.74,30.29],[-10.63,29.95],[-8.15,32.12]]]}},{"type":"Feature","properties":{},"geometry":{"type":"Polygon","coordinates":[[[-9.34,34.4],[-8.96,34.25],[-9.39,34.08],[-9.04,33.91],[-9.49,32.42],[-8.54,32.91],[-8.89,32.38],[-8.11,32.53],[-8.15,32.12],[-10.62,30.09],[-10.1,30.99],[-10.83,30.85],[-10.37,31.59],[-9.96,31.5],[-10.33,31.77],[-9.97,32],[-10.14,33.25],[-9.34,34.4]]]}},{"type":"Feature","properties":{},"geometry":{"type":"Polygon","coordinates":[[[-27.94,32.88],[-27.39,32.4],[-28.4,32.63],[-27.94,32.88]]]}},{"type":"Feature","properties":{},"geometry":{"type":"Polygon","coordinates":[[[-71.37,0.05],[-70.88,-1.05],[-71.81,-0.16],[-71.37,0.05]]]}},{"type":"Feature","properties":{},"geometry":{"type":"Polygon","coordinates":[[[-72.17,0.91],[-71.66,0.79],[-71.8,0.32],[-71.36,0.97],[-71.6,-0.08],[-72.17,0.91]]]}},{"type":"Feature","properties":{},"geometry":{"type":"Polygon","coordinates":[[[161.82,58.29],[161.13,56.8],[159.97,55.88],[160.28,55.99],[159.52,52.62],[159.21,53.37],[158.06,53.52],[156.73,52.41],[156.95,50.82],[156.54,50.55],[156.72,51.02],[156.24,51.41],[155.1,50.77],[156.67,53.49],[158.75,55.56],[158.62,56.25],[160.1,57.7],[161.03,57.58],[161.28,58.39],[161.82,58.29]]]}},{"type":"Feature","properties":{},"geometry":{"type":"Polygon","coordinates":[[[-88.04,5.91],[-87.96,5.36],[-88.93,5.83],[-88.04,5.91]]]}},{"type":"Feature","properties":{},"geometry":{"type":"Polygon","coordinates":[[[173.53,73.92],[174.28,73.72],[172.07,73.66],[173.53,73.92]]]}},{"type":"Feature","properties":{},"geometry":{"type":"Polygon","coordinates":[[[-5.18,36.89],[-4.42,37.4],[-5.32,37.04],[-4.84,37.88],[-5.85,37.8],[-5.55,38.29],[-6.14,38.6],[-4.99,38.89],[-4.91,39.37],[-5.41,39.28],[-4.73,40.2],[-4.33,40.16],[-4.53,39.78],[-3.72,40.3],[-2.94,39.76],[-3.44,39.27],[-3.12,38.84],[-5.18,36.89]]]}},{"type":"Feature","properties":{},"geometry":{"type":"Polygon","coordinates":[[[-3.87,36.73],[-4.76,36.02],[-4.64,36.35],[-5.11,36.1],[-4.78,36.47],[-5.37,36.27],[-5.02,36.69],[-5.56,36.58],[-3.12,38.84],[-2.57,37.41],[-3.87,36.73]]]}},{"type":"Feature","properties":{},"geometry":{"type":"Polygon","coordinates":[[[7.65,44.44],[8.2,44.06],[7.16,44.19],[7.65,44.44]]]}},{"type":"Feature","properties":{},"geometry":{"type":"Polygon","coordinates":[[[-72.81,24.69],[-72.6,23.96],[-72.81,24.39],[-73.04,24.13],[-72.81,24.69]]]}},{"type":"Feature","properties":{},"geometry":{"type":"Polygon","coordinates":[[[8.71,45.4],[9.2,44.3],[7.87,44.69],[8.35,45.13],[8.78,44.92],[8.41,45.14],[8.71,45.4]]]}},{"type":"Feature","properties":{},"geometry":{"type":"Polygon","coordinates":[[[-72.65,3.05],[-71.62,1.46],[-72.37,2],[-72.65,3.05]]]}},{"type":"Feature","properties":{},"geometry":{"type":"Polygon","coordinates":[[[-26.97,36.42],[-26.67,36.13],[-27.2,35.54],[-26.97,36.42]]]}},{"type":"Feature","properties":{},"geometry":{"type":"Polygon","coordinates":[[[-5.1,42.58],[-4.56,42],[-5.28,42.22],[-5.1,42.58]]]}},{"type":"Feature","properties":{},"geometry":{"type":"Polygon","coordinates":[[[11.91,48.64],[12.35,48.3],[12.17,47.63],[11.69,48.17],[11.91,48.64]]]}},{"type":"Feature","properties":{},"geometry":{"type":"Polygon","coordinates":[[[-73.03,1.55],[-72.79,0.64],[-73.49,1.22],[-73.03,1.55]]]}},{"type":"Feature","properties":{},"geometry":{"type":"Polygon","coordinates":[[[-73.46,4.97],[-72.86,4.15],[-73.24,3.68],[-73.46,4.97]]]}},{"type":"Feature","properties":{},"geometry":{"type":"Polygon","coordinates":[[[-5.47,43.34],[-5.55,42.48],[-5.85,42.94],[-5.47,43.34]]]}},{"type":"Feature","properties":{},"geometry":{"type":"Polygon","coordinates":[[[13.93,50.33],[14.56,50.4],[14.13,49.57],[13.51,50.02],[13.93,50.33]]]}},{"type":"Feature","properties":{},"geometry":{"type":"Polygon","coordinates":[[[-3.61,44.05],[-3.29,43.84],[-3.92,43.16],[-3.47,43.24],[-3.74,42.74],[-3.42,42.99],[-3.74,41.91],[-4.56,41.68],[-4.17,42.21],[-4.84,42.82],[-4.32,42.93],[-4.7,43.69],[-3.61,44.05]]]}},{"type":"Feature","properties":{},"geometry":{"type":"Polygon","coordinates":[[[-3.42,42.99],[-2.02,43.41],[-1.95,42.3],[-2.42,41.95],[-1.84,42.01],[-2.63,41.59],[-1.34,41.78],[-0.6,41.35],[-2.69,40.02],[-2.97,41.3],[-3.29,41.5],[-3.51,41.06],[-3.44,41.53],[-3.58,40.44],[-3.96,41.4],[-3.42,42.99]]]}},{"type":"Feature","properties":{},"geometry":{"type":"Polygon","coordinates":[[[-0.6,41.35],[1.03,40.58],[1.46,40.15],[0.79,40.05],[1.53,40.04],[1.7,39.46],[3.01,39.71],[3.24,39.08],[2.65,38.2],[3.56,38.18],[-1.17,35.53],[-0.59,36.93],[0.29,37.23],[0.51,37.92],[-0.02,37.31],[-1.7,37.37],[-0.99,38.27],[-1.24,38.59],[-1.7,38.32],[-1.54,38.71],[-0.49,39.24],[-1.69,40.43],[-0.6,41.35]]]}},{"type":"Feature","properties":{},"geometry":{"type":"Polygon","coordinates":[[[13.52,50.73],[14.07,50.65],[13.29,50.44],[13.52,50.73]]]}},{"type":"Feature","properties":{},"geometry":{"type":"Polygon","coordinates":[[[-28.11,42.1],[-28.21,41.28],[-28.55,41.68],[-28.11,42.1]]]}},{"type":"Feature","properties":{},"geometry":{"type":"Polygon","coordinates":[[[-29.94,42.55],[-29.71,42.28],[-30.71,41.62],[-30.72,42.32],[-29.94,42.55]]]}},{"type":"Feature","properties":{},"geometry":{"type":"Polygon","coordinates":[[[-57.21,69.01],[-60.53,68.28],[-60.16,68.51],[-60.53,68.7],[-58.14,69.28],[-57.21,69.01]]]}},{"type":"Feature","properties":{},"geometry":{"type":"Polygon","coordinates":[[[-32.29,45.3],[-31.86,44.63],[-31.64,44.9],[-29.94,44.11],[-29.93,43.53],[-28.79,43.42],[-29.29,43.05],[-30.62,43.68],[-31.9,42.5],[-32.15,43.13],[-33.03,42.93],[-32.46,43.45],[-32.29,45.3]]]}},{"type":"Feature","properties":{},"geometry":{"type":"Polygon","coordinates":[[[34.47,71.51],[35.18,71.42],[34.41,71.12],[34.76,71.23],[34.35,71.19],[34.47,71.51]]]}},{"type":"Feature","properties":{},"geometry":{"type":"Polygon","coordinates":[[[-27.41,48.22],[-26.88,48.11],[-26.77,47.39],[-27.73,47.07],[-27.92,47.91],[-27.41,48.22]]]}},{"type":"Feature","properties":{},"geometry":{"type":"Polygon","coordinates":[[[-0.3,57.09],[0.16,56.74],[0.01,57.17],[0.47,57.05],[0.37,56.55],[0.04,56.37],[-0.3,57.09]]]}},{"type":"Feature","properties":{},"geometry":{"type":"Polygon","coordinates":[[[-41.33,67.58],[-46.68,67.56],[-49.83,68.28],[-50.3,68.15],[-48.26,67.83],[-50.49,67.08],[-53.55,66.98],[-53.44,67.43],[-53.96,67.57],[-52.88,67.72],[-53.95,67.81],[-52.17,68.26],[-54.04,68.38],[-53.9,68.94],[-55.42,68.85],[-54.69,69.04],[-55.14,69.24],[-54.15,69.1],[-54.54,69.37],[-50.23,69.37],[-47.96,70.05],[-46.36,69.34],[-45.67,69.82],[-47.21,70.29],[-46.19,70.26],[-40.96,67.57],[-41.33,67.58]]]}},{"type":"Feature","properties":{},"geometry":{"type":"Polygon","coordinates":[[[-0.68,57.01],[-0.26,56.63],[-0.73,56.57],[-0.68,57.01]]]}},{"type":"Feature","properties":{},"geometry":{"type":"Polygon","coordinates":[[[16.45,66.07],[17.3,66.07],[17.38,65.55],[16.87,65.29],[15.77,65.81],[16.45,66.07]]]}},{"type":"Feature","properties":{},"geometry":{"type":"Polygon","coordinates":[[[0.06,57.92],[0.6,57.77],[0.35,57.42],[-0.21,57.66],[0.06,57.92]]]}},{"type":"Feature","properties":{},"geometry":{"type":"Polygon","coordinates":[[[-39.12,48.92],[-37.93,48.04],[-38.68,47.63],[-40.22,48.09],[-39.44,49.08],[-39.12,48.92]]]}},{"type":"Feature","properties":{},"geometry":{"type":"Polygon","coordinates":[[[-29.92,68.13],[-31.02,68.25],[-29.48,68.37],[-29.92,68.13]]]}},{"type":"Feature","properties":{},"geometry":{"type":"Polygon","coordinates":[[[-17.17,47.04],[-15.9,46.56],[-17.05,46.15],[-16.61,46.25],[-17.47,46.4],[-17.17,47.04]]]}},{"type":"Feature","properties":{},"geometry":{"type":"Polygon","coordinates":[[[18.45,69.37],[20.99,69.43],[19.22,69.04],[18.45,69.37]]]}},{"type":"Feature","properties":{},"geometry":{"type":"Polygon","coordinates":[[[1.17,60.21],[1.34,59.86],[0.74,59.75],[1.17,60.21]]]}},{"type":"Feature","properties":{},"geometry":{"type":"Polygon","coordinates":[[[-4.18,50.86],[-3.71,50.58],[-4.89,49.97],[-4.18,50.86]]]}},{"type":"Feature","properties":{},"geometry":{"type":"Polygon","coordinates":[[[-38.11,66],[-37.69,66.23],[-37.28,65.82],[-38.11,66]]]}},{"type":"Feature","properties":{},"geometry":{"type":"Polygon","coordinates":[[[-38.2,65.19],[-39.78,65.34],[-38.34,65.86],[-37.68,65.38],[-38.2,65.19]]]}},{"type":"Feature","properties":{},"geometry":{"type":"Polygon","coordinates":[[[-14.86,28.48],[-13.83,27.63],[-12.5,27.46],[-12.14,27.85],[-11.25,27.45],[-13.64,26.19],[-14.3,24.92],[-14.87,25.11],[-15.07,25.78],[-13.98,26.91],[-13.66,26.58],[-13.09,27.12],[-14.32,26.83],[-14.17,27.53],[-16.7,25.28],[-17.31,25.41],[-17.33,24.89],[-18.11,24.53],[-18.47,23.05],[-17.79,22.55],[-17.65,22.91],[-17.49,22.44],[-18.43,22.19],[-18.64,22.51],[-18.65,22.06],[-19.29,21.88],[-17.81,25.49],[-14.86,28.48]]]}},{"type":"Feature","properties":{},"geometry":{"type":"Polygon","coordinates":[[[-10.01,-28.35],[-10.99,-31.86],[-11.78,-33.13],[-10.99,-31.09],[-11.86,-30.85],[-11.53,-31.14],[-12.09,-32.75],[-11.95,-34.17],[-12.76,-36.05],[-14.6,-36.85],[-16.43,-36.89],[-17.27,-36.41],[-17.24,-35.46],[-17.56,-35.73],[-17.13,-37.03],[-15.44,-37.48],[-15.07,-38.32],[-23.66,-38.01],[-25.62,-37.64],[-32.51,-31.41],[-33.26,-29.61],[-33.29,-27.73],[-34.36,-25.35],[-21.02,-28.15],[-10.01,-28.35]]]}},{"type":"Feature","properties":{},"geometry":{"type":"Polygon","coordinates":[[[-18.74,-40.93],[-19.39,-40.87],[-18.71,-41.36],[-19.05,-41.36],[-18.34,-42.88],[-19.56,-43.5],[-21.02,-43.56],[-20.31,-44.7],[-19.58,-44.88],[-19.08,-44.34],[-18.6,-44.95],[-19.96,-45.22],[-19.14,-45.33],[-19.76,-46.23],[-19.23,-47.47],[-20.46,-48.22],[-20.59,-49.13],[-17.9,-49.9],[-17.69,-50.49],[-18.67,-51.79],[-18.33,-52.76],[-19.1,-52.82],[-18.65,-53.03],[-19.06,-53.59],[-18.36,-54.65],[-17.05,-55],[-17.96,-55.09],[-19.14,-56.03],[-18.36,-56.99],[-19.52,-57.22],[-20.15,-57.05],[-19.37,-56.96],[-19.37,-56.18],[-21.26,-56.38],[-20.93,-56.85],[-21.42,-56.98],[-21.73,-56.83],[-21.25,-56.41],[-21.94,-56.81],[-22.52,-56.2],[-21.46,-56.17],[-21.61,-55.85],[-21.18,-56.02],[-21.41,-56.36],[-20.99,-56.25],[-21.44,-55.61],[-22.48,-55.29],[-21.54,-55.6],[-22.42,-55.66],[-21.82,-55.81],[-21.96,-56.11],[-22.48,-55.74],[-21.97,-56.2],[-22.37,-56.13],[-23.21,-55.69],[-22.68,-55.78],[-23.06,-55.4],[-23.86,-55.31],[-23.19,-54.87],[-23.6,-54.66],[-23.71,-55.2],[-24.03,-54.76],[-24.86,-54.8],[-23.95,-54.65],[-24.9,-54.17],[-24.17,-54.08],[-24.98,-53.59],[-24.82,-54.04],[-25.16,-53.98],[-25.6,-53.45],[-25.25,-53.29],[-25.69,-53.26],[-25.29,-52.95],[-26.35,-52.79],[-24.94,-52.43],[-25.71,-52.12],[-26.61,-52.54],[-26.11,-52.27],[-26.6,-52.2],[-26.28,-51.84],[-26.78,-51.53],[-28.21,-51.94],[-27.61,-51.13],[-28.16,-50.95],[-27.83,-50.79],[-27.18,-50.62],[-26.44,-51.26],[-26.32,-50.23],[-26.79,-50.11],[-26.11,-49.91],[-26.98,-49.88],[-26.43,-48.99],[-27.35,-48.87],[-27.78,-47.23],[-27.47,-47.18],[-27.92,-47.02],[-27.37,-47.08],[-28.17,-46.67],[-27.78,-46.13],[-29.15,-46.75],[-29.99,-45.11],[-29.76,-44.39],[-31.22,-42.59],[-30.78,-42.24],[-30.73,-38.58],[-32.43,-34.1],[-32.72,-30.17],[-28.04,-34.06],[-23.83,-38.47],[-18.74,-40.93]]]}},{"type":"Feature","properties":{},"geometry":{"type":"Polygon","coordinates":[[[-39.07,4.05],[-37.17,4.54],[-35.93,4.21],[-34.64,4.97],[-35.28,5],[-32.99,5.63],[-33.94,5.17],[-33.23,4.6],[-31.73,4.6],[-31.64,3.71],[-30.74,3.94],[-29.18,3.32],[-28.85,2.17],[-28.65,2.7],[-27.28,1.93],[-25.29,2.62],[-23.12,2.59],[-21.15,1.71],[-20.39,0.21],[-19.18,-0.58],[-20.19,-2.81],[-19.64,-2.16],[-19.81,-2.9],[-19.33,-2.18],[-17.29,-1.88],[-17.47,-3.11],[-18.87,-3.96],[-17.83,-3.46],[-17.82,-3.93],[-16.96,-3.01],[-16.77,-2.01],[-15.69,-1.89],[-14.09,-2.12],[-14,-2.54],[-13.62,-2.11],[-13.29,-2.36],[-13.32,-2.89],[-12.91,-2.86],[-13.07,-3.91],[-12.82,-3],[-12.63,-3.33],[-11.96,-2.61],[-10.72,-2.8],[-8.52,-2.28],[-5.28,-3.61],[-3.31,-3.67],[-2.28,-6.01],[-4.18,-11.22],[-4.59,-11.77],[-4.86,-11.44],[-3.94,-16.44],[-4.53,-21.07],[-5.23,-22.27],[-7.54,-22.81],[-10.46,-26.18],[-11,-26.21],[-10.56,-26.32],[-10.86,-26.99],[-10.5,-26.97],[-10.05,-28.85],[-21.09,-28.33],[-34.31,-25.14],[-35.92,-23.83],[-41.07,-22.25],[-45.6,-16.64],[-46.94,-15.36],[-48.22,-14.91],[-48.06,-14.35],[-48.72,-13.19],[-47.7,-12.12],[-47.53,-11.22],[-47.82,-11.02],[-48.03,-11.49],[-48.9,-11.1],[-48.57,-8.03],[-47.58,-7.41],[-47.41,-6.44],[-43.43,-3.55],[-42.66,0.12],[-40.25,3.48],[-39.07,4.05]]]}},{"type":"Feature","properties":{},"geometry":{"type":"Polygon","coordinates":[[[-48.27,-0.76],[-47.37,-1.43],[-47.64,-0.83],[-46.51,0.23],[-46.38,1.67],[-44.55,2.48],[-43.2,3.91],[-42.59,3.6],[-43.33,2.97],[-42.8,2.19],[-43.18,1.22],[-42.63,0.54],[-42.09,1.32],[-42.83,2.29],[-41.46,3.19],[-41.57,3.94],[-41.04,3.28],[-39.59,2.96],[-40.74,2.15],[-43.27,-1.12],[-44.19,-4.75],[-48.29,-7.48],[-46.95,-5.42],[-47.52,-5.21],[-47.71,-2.86],[-48.6,-2.11],[-48.27,-0.76]]]}},{"type":"Feature","properties":{},"geometry":{"type":"Polygon","coordinates":[[[-15.61,-37.62],[-14.79,-38.14],[-15.07,-39.51],[-18.76,-41.54],[-23.41,-39.47],[-26.09,-37.07],[-15.61,-37.62]]]}},{"type":"Feature","properties":{},"geometry":{"type":"Polygon","coordinates":[[[-60.77,15.86],[-60.43,15.8],[-60.51,16.36],[-61.13,16.34],[-61.98,18.73],[-61.02,19.33],[-59.68,18.49],[-57.86,15.39],[-57.46,13.98],[-57.73,12.88],[-60.77,15.86]]]}},{"type":"Feature","properties":{},"geometry":{"type":"Polygon","coordinates":[[[-61.98,18.73],[-61.59,19.95],[-61.84,21.28],[-61.02,24.6],[-60.62,24.6],[-61.06,24.65],[-60.68,25.31],[-61.05,25.31],[-61.28,26.8],[-59.85,26.42],[-60.09,25.3],[-59.51,25.72],[-59.75,27.06],[-59.04,27.4],[-58.93,25.97],[-57.54,25.81],[-56.74,24.64],[-55.02,24.39],[-55.14,23.19],[-61.98,18.73]]]}},{"type":"Feature","properties":{},"geometry":{"type":"Polygon","coordinates":[[[-64.67,-2.56],[-65.39,-3.12],[-65.7,-2.32],[-65.55,-2.76],[-65.97,-2.93],[-66,-2.22],[-66.21,-2.73],[-66.64,-2.5],[-66.4,-1.99],[-66.85,-2.25],[-66.51,-1.54],[-66.93,-1.36],[-66.91,-2.2],[-67.63,-2.21],[-67.3,-1.58],[-67.59,-2.05],[-67.71,-1.51],[-68.39,-1.93],[-67.98,-1.58],[-68.69,-1.58],[-68.09,-0.95],[-68.72,-1.38],[-68.83,-1.01],[-68.45,-0.53],[-68.11,-0.83],[-68.34,-0.52],[-67.97,-0.33],[-68.54,-0.33],[-65.56,-1.5],[-64.67,-2.56]]]}},{"type":"Feature","properties":{},"geometry":{"type":"Polygon","coordinates":[[[-68.43,-0.14],[-69.18,-0.69],[-68.97,-0.16],[-69.41,0.08],[-68.43,-0.14]]]}},{"type":"Feature","properties":{},"geometry":{"type":"Polygon","coordinates":[[[-55.46,14.14],[-55.57,13.6],[-57.5,13.34],[-57.57,14.69],[-59.29,17.96],[-61.02,19.33],[-59.08,20.88],[-55.49,22.71],[-55.02,24.39],[-54.51,24.39],[-53.84,24.15],[-55.46,14.14]]]}},{"type":"Feature","properties":{},"geometry":{"type":"Polygon","coordinates":[[[-55.54,14.05],[-55.41,13.38],[-57.89,14.97],[-55.93,25.49],[-54.38,25.09],[-54.54,23.75],[-52.83,22.48],[-53.85,18.7],[-55.13,16.93],[-55.54,14.05]]]}},{"type":"Feature","properties":{},"geometry":{"type":"Polygon","coordinates":[[[-51.99,11.38],[-54.47,11.91],[-55.39,13.11],[-56.72,13.86],[-56.21,17.38],[-54.81,19.07],[-53.63,21.81],[-53.52,22.77],[-55.14,24.15],[-54.87,25.47],[-54.02,25.59],[-51.71,21.62],[-50.8,18.97],[-50.58,15.64],[-51.9,13.24],[-51.99,11.38]]]}},{"type":"Feature","properties":{},"geometry":{"type":"Polygon","coordinates":[[[-45.1,-5.04],[-45.99,-4.03],[-47.5,-4.31],[-48.83,-3.53],[-53.08,0.59],[-54.02,2.03],[-54.25,3.31],[-53.8,3.31],[-53.41,4.1],[-53.5,5.46],[-54.46,8.47],[-55.24,9.34],[-54.89,10.22],[-56.1,12.86],[-56.25,15.42],[-54.43,11.88],[-53.22,10.55],[-49.99,7.37],[-47.59,6.33],[-47.2,-0.24],[-46.65,-1.66],[-44.15,-5.01],[-45.1,-5.04]]]}},{"type":"Feature","properties":{},"geometry":{"type":"Polygon","coordinates":[[[-39.92,9.14],[-38.36,7.54],[-35.84,8.38],[-35.36,8.17],[-33.43,6.1],[-35.32,5.65],[-35.2,5.35],[-36.51,4.79],[-36.13,5.35],[-36.72,5.29],[-37.69,4.25],[-39.01,4.12],[-38.92,3.83],[-41.07,6.34],[-40.84,8.5],[-39.92,9.14]]]}},{"type":"Feature","properties":{},"geometry":{"type":"Polygon","coordinates":[[[-55.46,13.27],[-55.88,11.47],[-54.49,7.45],[-54.49,4.96],[-53.67,3.75],[-54.23,3.33],[-55.63,5.88],[-55.25,6.67],[-55.75,8.19],[-56.23,8.08],[-57.06,9.46],[-56.19,9.05],[-55.99,9.89],[-56.91,11.55],[-57.01,15.24],[-57.63,16.42],[-59.09,17.57],[-59.32,20.91],[-57.93,17.83],[-56.21,15.94],[-55.46,13.27]]]}},{"type":"Feature","properties":{},"geometry":{"type":"Polygon","coordinates":[[[-53.14,10.63],[-53.04,11.08],[-54.54,11.93],[-55.92,14.35],[-57.34,15.25],[-57.07,15.7],[-56.41,16.03],[-54.63,15.72],[-53.22,14.22],[-51.38,13.35],[-50.46,12.16],[-47.97,11.64],[-46.33,10.67],[-45.68,9.69],[-45.16,5.42],[-50.28,7.87],[-53.14,10.63]]]}},{"type":"Feature","properties":{},"geometry":{"type":"Polygon","coordinates":[[[-60.34,64.57],[-60.88,65.36],[-60.02,65.36],[-60.56,65.47],[-59.65,66.18],[-55.36,66.72],[-55.59,64.74],[-56.73,64.97],[-57.53,63.95],[-60.34,64.57]]]}},{"type":"Feature","properties":{},"geometry":{"type":"Polygon","coordinates":[[[-57.39,63.9],[-55.58,64.19],[-56.89,63.99],[-55.8,63.75],[-54.62,64.44],[-50.69,64.76],[-49.99,64.26],[-50.81,63.41],[-49.26,62.19],[-49.59,61.87],[-49.27,61.18],[-49.75,60.79],[-49.23,60.13],[-50.52,60.28],[-50.09,59.85],[-52.49,58.97],[-52.56,58.37],[-54.33,57.05],[-54.28,56.44],[-56.86,54.44],[-58.66,54.98],[-60.59,57.58],[-58.83,58.85],[-57.71,61.57],[-56.3,62.85],[-57.39,63.9]]]}},{"type":"Feature","properties":{},"geometry":{"type":"Polygon","coordinates":[[[-20.52,20.87],[-20.98,19.28],[-21.7,19.85],[-21.06,18.76],[-21.62,17.36],[-21.48,18.24],[-22.21,19.03],[-21.96,19.8],[-22.47,19.41],[-22.05,18.23],[-22.93,18.54],[-21.97,18.08],[-22.52,18.11],[-21.9,17.21],[-22.46,17.36],[-21.63,17.16],[-21.1,16.09],[-21.58,16.96],[-21.35,16.34],[-22.11,16.13],[-21.23,15.9],[-22.22,15.6],[-21.81,15.46],[-22.2,15.15],[-21.64,15.12],[-25.2,12.29],[-25.61,10.88],[-23.92,6.71],[-24.13,5.05],[-24.75,4.98],[-25.35,5.68],[-25.45,6.49],[-25.7,6.29],[-26.36,7.17],[-26.13,7.66],[-26.53,7.54],[-26.39,8.59],[-27.88,9.79],[-28.88,9.17],[-29.67,9.95],[-31.25,9.58],[-31.26,10.17],[-31.35,9.66],[-32.35,9.61],[-34.66,10.39],[-31.7,11.14],[-27.97,12.84],[-25.61,15.04],[-22.85,19.05],[-20.52,20.87]]]}},{"type":"Feature","properties":{},"geometry":{"type":"Polygon","coordinates":[[[-51.11,-1.94],[-48.52,-4.35],[-47.96,-6.34],[-51.26,-8.75],[-52.78,-8.6],[-52.87,-8.03],[-53.11,-8.6],[-53.19,-7.65],[-52.53,-7.3],[-52.54,-4.61],[-52.21,-4.87],[-51.98,-4.46],[-52.87,-3.88],[-54.18,-1.22],[-54.29,1.57],[-53.46,1.12],[-52.94,-0.16],[-51.11,-1.94]]]}},{"type":"Feature","properties":{},"geometry":{"type":"Polygon","coordinates":[[[-35.58,48.77],[-35.95,48.57],[-35.43,47.55],[-34.63,48.51],[-34.01,48.03],[-34.18,47.27],[-33.47,46.42],[-32.78,48.09],[-32.21,48.42],[-32.9,49.23],[-31.13,49.14],[-31.64,49],[-30.47,48.64],[-30.86,48.4],[-30.37,48.2],[-31.1,47.94],[-30.11,47.03],[-30.17,46.56],[-31.24,45.81],[-32.13,46.46],[-31.36,45.6],[-33.09,45.88],[-32.54,45.53],[-33.29,44.64],[-35.76,45.17],[-33.02,44.48],[-33.59,43.48],[-34.76,43.46],[-35.13,42.68],[-37.21,43.15],[-35.78,42.93],[-35.08,42.28],[-36.14,42.04],[-35.93,41.62],[-37.02,41.15],[-36.64,40.92],[-37.29,40.58],[-36.96,40.52],[-37.7,38.23],[-36.48,37.95],[-36.12,36.12],[-34.71,36.47],[-30.8,34.7],[-28.8,34.71],[-28.57,32.56],[-27.01,31.07],[-26.53,30.96],[-26.26,31.49],[-25.86,31.03],[-25.72,32.14],[-27.01,34.4],[-25.73,35.18],[-25.08,36.43],[-25.7,37.97],[-26.89,38.49],[-26.24,39.71],[-26.59,40.72],[-27.03,40.61],[-26.71,41.4],[-27.31,42.07],[-26.9,42.44],[-25.72,42.08],[-24.57,42.64],[-23.01,41.98],[-22.93,41.52],[-21.56,41.65],[-21.36,40.67],[-22.24,40.52],[-21.39,40.55],[-20.74,39.73],[-21.49,39.2],[-20.49,39.63],[-20,39.33],[-20.58,38.4],[-19.89,39.39],[-19.51,38.77],[-18.9,39.85],[-18.5,39.35],[-18.67,39.95],[-18.24,40.16],[-18.61,40.32],[-18.19,40.53],[-18.63,40.81],[-18.05,41.44],[-17.03,40.55],[-17.43,40.29],[-16.54,40.14],[-16.89,39.64],[-16.27,39.96],[-16.62,39.37],[-16.09,39.68],[-15.54,39.24],[-15.93,39.02],[-15.01,38.8],[-15.07,38.28],[-15.73,38.31],[-14.02,37.4],[-13.85,37.68],[-13.84,36.86],[-13.32,37.34],[-13.23,36.74],[-12.86,37.33],[-12.7,36.94],[-11.37,36.99],[-12.77,36.11],[-11.99,36.48],[-13.34,35.16],[-11.33,36.6],[-10.96,35.92],[-10.05,36.22],[-9.58,35.38],[-10.13,35.23],[-9.35,34.88],[-10.04,34.02],[-11.33,33.76],[-11.31,33.02],[-11.99,32.3],[-16.63,31.45],[-17.07,30.41],[-18.22,29.65],[-19.43,27.5],[-16.21,30.43],[-15.26,30.62],[-14.53,30.17],[-15.18,29.41],[-16.33,29.18],[-14.69,29.22],[-14.86,28.48],[-17.81,25.49],[-19.29,21.88],[-20.32,21.45],[-22.85,19.05],[-25.16,15.59],[-27.45,13.26],[-31.7,11.14],[-37.52,10.19],[-42.24,6.98],[-42.02,4.86],[-44.62,5.06],[-45.43,6.46],[-45.94,10.25],[-48.06,12.09],[-47.89,13.5],[-46.58,15.91],[-47.37,20.97],[-49.67,24.7],[-52.68,32.19],[-56.65,36.67],[-57.85,40.66],[-57.01,42.03],[-57.06,44.45],[-60.52,47.24],[-60.51,49.19],[-59.99,50.14],[-60.41,50.72],[-59.59,50.31],[-59.65,50.93],[-58.58,51.22],[-58.28,50.96],[-58.6,50.74],[-55.8,51.19],[-57.38,50.74],[-57.52,50.45],[-56.87,50.71],[-57.02,50.21],[-56.43,50.71],[-54.58,50.89],[-54.8,51.32],[-54.03,49.86],[-53.18,50.63],[-53.46,49.79],[-51.88,50.01],[-50.1,48.92],[-48.6,48.61],[-48.23,47.93],[-49.27,47.72],[-47.19,47.26],[-46.11,47.49],[-45.07,46.68],[-45.46,46.58],[-44.78,45.72],[-45.06,46.17],[-44.61,46.51],[-45.04,47.18],[-43.6,47.95],[-45.39,47.69],[-43.84,48.27],[-42.86,47.15],[-42.46,47.42],[-41.78,46.9],[-39.73,46.92],[-39.85,47.59],[-39.43,47.74],[-38.59,47.49],[-38.77,47.19],[-38.31,47.47],[-38.63,46.64],[-37.98,46.34],[-38.08,47.24],[-36.93,47.83],[-37.2,48.26],[-37.63,47.93],[-37.07,48.72],[-38.65,49.31],[-38.27,49.89],[-38.69,49.97],[-38.64,50.45],[-38.16,50.47],[-38.35,50.78],[-37.7,51.04],[-37.99,51.13],[-37.25,50.95],[-36.05,49.4],[-36.46,49.49],[-36.8,48.88],[-35.58,48.77]]]}},{"type":"Feature","properties":{},"geometry":{"type":"Polygon","coordinates":[[[-72.62,1.88],[-72.73,1.39],[-72.85,2.14],[-73.44,2.5],[-73.12,1.82],[-73.49,1.62],[-74.46,4.66],[-75.71,5.88],[-77.2,6.83],[-78.56,6.84],[-78.24,7.15],[-81.05,6.49],[-81.46,6.12],[-81.14,5.74],[-81.94,5.39],[-84.77,5.22],[-85.05,4.85],[-88,5.63],[-86.63,5.89],[-86.01,5.27],[-85.75,5.71],[-83.81,5.83],[-82.67,6.85],[-83.43,6.93],[-83.27,7.38],[-83.86,6.96],[-84.15,7.85],[-81.56,8.95],[-77.48,8.81],[-74.36,6.78],[-72.62,1.88]]]}},{"type":"Feature","properties":{},"geometry":{"type":"Polygon","coordinates":[[[-64.86,19.8],[-64.67,20.08],[-64.87,19.82],[-66.09,21.14],[-70.63,22.45],[-69.76,22.48],[-70.68,22.75],[-70.71,23.45],[-70.93,22.52],[-71.6,22.91],[-71.17,23.4],[-71.94,23.26],[-71.62,23.27],[-71.95,23.54],[-71.62,24.48],[-71.88,23.92],[-72.07,24.85],[-72.18,23.62],[-72.55,24.7],[-73.18,24.61],[-73.17,24.17],[-73.02,24.94],[-74.49,25.7],[-74.68,26.12],[-74.19,26],[-74.85,26.31],[-74.62,26.56],[-74.99,26.41],[-74.92,26.92],[-75.48,26.64],[-76.07,27.66],[-75.81,26.91],[-80.23,30.38],[-77.11,30.9],[-76.05,30.62],[-74.86,28.9],[-72.83,27.79],[-70.87,27.59],[-64.43,22.23],[-62.88,18.89],[-64.15,18.53],[-64.86,19.8]]]}},{"type":"Feature","properties":{},"geometry":{"type":"Polygon","coordinates":[[[-62.02,38.34],[-61.13,36.7],[-60.79,33.23],[-61.97,34.36],[-62.6,36.39],[-62.02,38.34]]]}},{"type":"Feature","properties":{},"geometry":{"type":"Polygon","coordinates":[[[-64.28,48.33],[-64.07,46.79],[-60.83,44.24],[-60.8,41.81],[-61.65,40.45],[-60.49,36.45],[-56.57,31.95],[-54.02,25.59],[-58.89,26.5],[-59.69,27.06],[-59.74,32.2],[-63.37,41.26],[-66,44.62],[-71.17,49.35],[-70.05,49.78],[-65.36,49.79],[-64.08,50.52],[-63.67,49.94],[-64.28,48.33]]]}},{"type":"Feature","properties":{},"geometry":{"type":"Polygon","coordinates":[[[19.01,75.78],[19.58,75.58],[18.28,75.59],[19.01,75.78]]]}},{"type":"Feature","properties":{},"geometry":{"type":"Polygon","coordinates":[[[-4.97,52.69],[-3.72,52.7],[-3.99,52.54],[-3.5,52.34],[-4.97,52.69]]]}},{"type":"Feature","properties":{},"geometry":{"type":"Polygon","coordinates":[[[-4.71,53],[-3.85,52.9],[-5.2,52.7],[-4.71,53]]]}},{"type":"Feature","properties":{},"geometry":{"type":"Polygon","coordinates":[[[-47.1,53.02],[-47.37,52.23],[-46.53,52.59],[-45.71,52.21],[-46.05,51.8],[-45.07,51.92],[-45.43,52.43],[-44.92,52.36],[-44.3,50.97],[-43.97,51.26],[-44.2,52.54],[-43.35,52.54],[-42.88,52.06],[-42.74,50.33],[-41,49.41],[-41,48.88],[-42.35,48.97],[-42.23,48.35],[-41.72,48.75],[-41.44,48.38],[-42.1,48.04],[-43.3,48.19],[-44,48.83],[-45.42,48.17],[-47.77,48.11],[-47.66,48.81],[-49.27,49.23],[-49.57,49.87],[-46.38,49.82],[-49.48,50.49],[-49.76,50.93],[-47.91,51.24],[-49.51,51.28],[-49.17,51.54],[-49.84,51.75],[-49.07,52.51],[-47.1,53.02]]]}},{"type":"Feature","properties":{},"geometry":{"type":"Polygon","coordinates":[[[9.49,69.56],[10.58,69.83],[13.21,68.92],[17.45,68.89],[15.22,67.93],[13.43,68.29],[12.65,67.77],[11.43,68.02],[11.81,68.25],[10.53,68.58],[10.84,68.85],[9.93,68.64],[10.22,68.94],[9.43,68.93],[9.49,69.56]]]}},{"type":"Feature","properties":{},"geometry":{"type":"Polygon","coordinates":[[[-5.67,53.08],[-4.65,53.13],[-5.87,52.74],[-5.67,53.08]]]}},{"type":"Feature","properties":{},"geometry":{"type":"Polygon","coordinates":[[[14.29,73.91],[15.06,73.6],[13.53,73.67],[14.29,73.91]]]}},{"type":"Feature","properties":{},"geometry":{"type":"Polygon","coordinates":[[[-42.66,53.03],[-42.36,52.8],[-42.83,52.13],[-43.57,52.8],[-42.66,53.03]]]}},{"type":"Feature","properties":{},"geometry":{"type":"Polygon","coordinates":[[[-31.22,53.31],[-29.63,53.22],[-28.88,52.65],[-30.53,52.35],[-31.3,52.86],[-31.22,53.31]]]}},{"type":"Feature","properties":{},"geometry":{"type":"Polygon","coordinates":[[[-25.36,44.78],[-25.76,44.94],[-25.52,44.44],[-26.41,44.56],[-26.78,44.08],[-27.87,44.47],[-27.48,45.31],[-25.23,45.57],[-26,46.18],[-25.03,47.45],[-25.8,48.34],[-27.04,48.91],[-27.91,48.52],[-27.5,49.11],[-29.68,50.36],[-29.91,49.99],[-29.38,49.56],[-30.97,49.65],[-30.45,49.28],[-31.67,49.78],[-30.92,49.4],[-33.06,49.37],[-33.43,49.86],[-34.38,49.62],[-35.12,50.34],[-33.81,50.31],[-35.33,50.6],[-35.17,52.44],[-34.05,53.16],[-33.23,53.1],[-33.95,52.02],[-32.77,50.66],[-33.72,50.31],[-32.74,50.3],[-32.65,51.04],[-33.5,51.36],[-32.69,51.53],[-33.48,52.24],[-32.91,52.26],[-33.43,52.38],[-32.77,52.43],[-33.29,52.67],[-32.32,53.17],[-31.08,52.66],[-30.97,51.43],[-30.56,52.09],[-29.34,51.45],[-30.04,51.87],[-29.42,51.93],[-29.83,52.32],[-28.35,52.35],[-28.52,51.51],[-27.63,51.9],[-28.15,51.55],[-27.77,51.56],[-27.83,51.06],[-27.31,51.75],[-27.18,51.02],[-26.76,51.7],[-25.9,51.43],[-26.37,50.69],[-25.55,51.28],[-26,50.54],[-25.64,50.73],[-25.63,50.19],[-25.11,51.16],[-25.33,50.69],[-24.85,51.11],[-24.15,50.94],[-24.93,50.31],[-24.19,50.57],[-24.67,49.92],[-24,50.76],[-23.36,50.49],[-24.68,49.84],[-22.75,49.82],[-24.07,49.76],[-23.16,49.32],[-24.05,49.2],[-22.43,49.1],[-23.02,48.81],[-22.1,48.83],[-22,48.48],[-21.86,48.78],[-21.74,48.34],[-21.76,48.74],[-21.36,48.41],[-21.18,48.86],[-21.31,48.48],[-20.48,48.33],[-20.96,48.26],[-20.45,48.25],[-20.76,47.92],[-20,48.41],[-20.2,47.84],[-19.7,48.09],[-19.59,47.76],[-19.28,48.27],[-18.66,47.95],[-19.45,47.48],[-18.77,47.28],[-19.45,47.25],[-19,46.78],[-19.65,47.02],[-19.23,46.01],[-20.71,46.61],[-20.29,47.33],[-21,46.77],[-20.94,47.24],[-21.12,46.91],[-22.43,47.22],[-21.75,46.71],[-22.48,46.64],[-22.11,46.04],[-21.72,46.35],[-21.04,45.49],[-21.13,45.8],[-19.98,45.45],[-20.27,45.2],[-19.51,45.02],[-19.18,44.32],[-19.86,44.76],[-19.11,43.98],[-19.56,44.02],[-19.35,43.58],[-20.46,44.25],[-20.33,43.85],[-22.06,44.32],[-19.58,42.83],[-23.31,43.4],[-23.86,43.72],[-23.34,43.95],[-24.28,44.06],[-24.9,44.81],[-25.3,44.41],[-25.36,44.78]]]}},{"type":"Feature","properties":{},"geometry":{"type":"Polygon","coordinates":[[[-92.41,80.1],[-96.38,79.82],[-94.32,80.87],[-92.03,80.41],[-92.41,80.1]]]}},{"type":"Feature","properties":{},"geometry":{"type":"Polygon","coordinates":[[[-40.16,53.11],[-38.97,53.02],[-38.95,52.53],[-39.6,52.18],[-38.54,51.59],[-38.64,51.07],[-39.52,51.09],[-39.76,50.47],[-41.64,52],[-40.31,52.07],[-41.04,52.7],[-40.16,53.11]]]}},{"type":"Feature","properties":{},"geometry":{"type":"Polygon","coordinates":[[[-37.26,53.36],[-35.72,53.12],[-36.51,51.95],[-37.59,51.95],[-37.16,51.63],[-38,51.15],[-38.27,52.86],[-37.26,53.36]]]}},{"type":"Feature","properties":{},"geometry":{"type":"Polygon","coordinates":[[[-91.33,80.48],[-91.63,80.53],[-89.52,80.39],[-91.33,80.48]]]}},{"type":"Feature","properties":{},"geometry":{"type":"Polygon","coordinates":[[[-12.01,84.29],[-13.58,84.49],[-9.91,84.7],[-8.45,84.3],[-12.01,84.29]]]}},{"type":"Feature","properties":{},"geometry":{"type":"Polygon","coordinates":[[[-49.8,54.57],[-49.01,53.9],[-48.14,54.01],[-47.43,53.17],[-51.94,51.34],[-53.14,52.47],[-51.23,53.99],[-51.41,54.63],[-49.8,54.57]]]}},{"type":"Feature","properties":{},"geometry":{"type":"Polygon","coordinates":[[[-4.72,55.68],[-4.26,55.39],[-5.15,55.53],[-4.72,55.68]]]}},{"type":"Feature","properties":{},"geometry":{"type":"Polygon","coordinates":[[[-38.58,55.04],[-38.88,55.2],[-38.4,55.42],[-38.58,55.04]]]}},{"type":"Feature","properties":{},"geometry":{"type":"Polygon","coordinates":[[[-86.06,78.57],[-85.63,78.4],[-87.82,77.61],[-89.4,78.17],[-86.32,78.81],[-84.57,78.64],[-86.06,78.57]]]}},{"type":"Feature","properties":{},"geometry":{"type":"Polygon","coordinates":[[[-34.37,54.81],[-34.26,53.84],[-35.48,54.35],[-34.37,54.81]]]}},{"type":"Feature","properties":{},"geometry":{"type":"Polygon","coordinates":[[[-86.1,80.42],[-84.95,80.47],[-86.6,80.71],[-81.57,81],[-77.78,80.22],[-81.66,80.01],[-82.08,79.9],[-79.48,79.62],[-84.69,78.92],[-87.1,79.54],[-86.82,79.74],[-87.24,79.82],[-85.95,79.83],[-86.1,80.42]]]}},{"type":"Feature","properties":{},"geometry":{"type":"Polygon","coordinates":[[[-2.03,79.98],[-2.57,80.06],[-1.46,80.14],[-2.03,79.98]]]}},{"type":"Feature","properties":{},"geometry":{"type":"Polygon","coordinates":[[[-21.61,82.47],[-21.94,82.53],[-20.9,82.48],[-21.61,82.47]]]}},{"type":"Feature","properties":{},"geometry":{"type":"Polygon","coordinates":[[[-37.51,56.55],[-37.23,56.23],[-37.84,56.25],[-37.51,56.55]]]}},{"type":"Feature","properties":{},"geometry":{"type":"Polygon","coordinates":[[[-35.32,56.1],[-35.54,54.78],[-36.04,54.48],[-37.05,54.68],[-36.42,55.24],[-37.7,55.32],[-36.98,55.44],[-36.79,56.14],[-36.34,55.46],[-35.99,55.67],[-36.41,56.11],[-35.32,56.1]]]}},{"type":"Feature","properties":{},"geometry":{"type":"Polygon","coordinates":[[[-39.13,57.1],[-39.68,56.12],[-38.6,55.91],[-39.39,55.23],[-42.68,55.39],[-43.17,55.86],[-41.27,55.93],[-42.65,56.12],[-42.36,56.48],[-43.19,56.17],[-44,56.75],[-42.59,56.81],[-43.51,56.99],[-42.28,56.96],[-43.02,57.2],[-41.75,57.52],[-41.1,56.94],[-41.17,56.21],[-40.29,55.93],[-40.18,56.87],[-39.13,57.1]]]}},{"type":"Feature","properties":{},"geometry":{"type":"Polygon","coordinates":[[[0.76,73.53],[3.42,73.58],[5.9,71.75],[5.54,71.75],[7.75,70.96],[7.11,70.78],[10.37,69.91],[9.3,69.76],[9.92,69.73],[9.32,69.27],[8.64,69.54],[9.06,69.87],[8.02,69.3],[8.04,69.73],[7.36,69.82],[8.15,70.1],[7.15,69.87],[6.13,70.2],[6.45,70.49],[4.84,70.37],[5.29,70.48],[2.55,71.9],[3.06,72.22],[2.76,72.76],[0.76,73.53]]]}},{"type":"Feature","properties":{},"geometry":{"type":"Polygon","coordinates":[[[-34,56.25],[-33.33,55.99],[-33.53,55.49],[-32.55,55.63],[-31.85,55.13],[-32.71,55.13],[-32.04,54.26],[-28.84,54.31],[-28.09,53.9],[-28.52,53.48],[-28.09,53.33],[-29.26,52.98],[-29.9,53.49],[-30.33,53.13],[-33.48,53.66],[-33.36,55.41],[-34.34,55.44],[-34.7,56.03],[-34,56.25]]]}},{"type":"Feature","properties":{},"geometry":{"type":"Polygon","coordinates":[[[-5.98,79.68],[-5.2,79.51],[-6.95,79.63],[-5.98,79.68]]]}},{"type":"Feature","properties":{},"geometry":{"type":"Polygon","coordinates":[[[-41.3,58.57],[-41.16,58.25],[-42.68,57.61],[-43.04,57.8],[-42.55,58.13],[-44.31,57.56],[-44.27,57.94],[-45.31,57.98],[-42.53,58.7],[-41.3,58.57]]]}},{"type":"Feature","properties":{},"geometry":{"type":"Polygon","coordinates":[[[-31.87,56.52],[-31.74,56.06],[-32.15,56.3],[-31.87,56.52]]]}},{"type":"Feature","properties":{},"geometry":{"type":"Polygon","coordinates":[[[56.04,53.06],[56.04,52.69],[54.98,52.51],[53.82,54.87],[47.85,58.08],[47.33,60.72],[46.26,61.89],[35.15,66.99],[33.97,68.19],[33.81,69.31],[42.09,68.93],[52.93,66.85],[59.33,66.52],[69.05,63.14],[90,60.13],[80.37,55.48],[77.33,53.31],[72.49,48.74],[64.95,47.8],[59.6,48.57],[57.04,49.54],[57.83,51.58],[56.4,51.83],[56.04,53.06]]]}},{"type":"Feature","properties":{},"geometry":{"type":"Polygon","coordinates":[[[98.27,52.58],[99.59,52.07],[100.51,50.73],[97.79,49.48],[88.1,48.74],[85.44,47.54],[82.23,48.48],[77.88,52.03],[75.27,52.66],[83.3,54.51],[90.01,55.12],[98.27,52.58]]]}},{"type":"Feature","properties":{},"geometry":{"type":"Polygon","coordinates":[[[98.23,59],[93.36,57.61],[82.41,56.48],[90,60.13],[98.23,59]]]}},{"type":"Feature","properties":{},"geometry":{"type":"Polygon","coordinates":[[[101.83,45.59],[107.26,42.48],[101.79,43.39],[97.79,45.04],[91.07,46.11],[80.34,45.9],[81.21,46.66],[85.14,47.65],[90.13,48.84],[93.39,49.11],[94.49,49],[101.83,45.59]]]}},{"type":"Feature","properties":{},"geometry":{"type":"Polygon","coordinates":[[[155.27,59.43],[156.55,59.25],[155.56,59.08],[156.31,58.88],[157.3,59.09],[156.78,58.69],[157.64,59.33],[158.79,59.04],[159.59,57.72],[158.75,57.73],[158.81,56.65],[157.17,56.06],[154.75,53.63],[146.52,50.33],[144.63,50.02],[143.12,50.4],[143.37,50.88],[142.82,51],[141.77,50.4],[137.94,52.34],[123.96,54.51],[118.45,54.97],[109.55,54.91],[105.27,56.09],[97.59,56.57],[94.26,57.6],[92.22,59.15],[99.79,58.32],[105.56,58.46],[113.26,59.7],[118.58,59.78],[123.17,60.84],[129.48,60.68],[135.25,62.52],[139.81,63.07],[146.49,61.03],[155.27,59.43]]]}},{"type":"Feature","properties":{},"geometry":{"type":"Polygon","coordinates":[[[-179.99,75.63],[-179.99,89.99],[179.99,89.99],[179.99,75.63],[168.18,74.13],[171.16,73.62],[170.12,72.87],[154.18,73.45],[143.83,74.33],[139.49,74.05],[134.26,72.56],[129.79,70.07],[121.7,68.86],[117.62,66.87],[111.82,65.57],[103.29,62.07],[94.91,60.26],[91.66,60.04],[69.05,63.14],[60.87,66.22],[52.93,66.85],[39.32,69.21],[32.84,70.65],[36.61,71.36],[35.9,71.7],[35.72,72.36],[34.29,72.99],[30.93,73.39],[31.16,74.18],[37.18,73.79],[37.06,74.2],[39.47,74.51],[35.75,73.94],[32,74.49],[29.95,74.09],[29.16,73.35],[24.65,74.06],[21.39,73.91],[19.27,74.72],[16.69,74.85],[22.62,74.61],[25.16,75.43],[20.65,74.95],[20.23,75.26],[21.32,75.59],[19.33,75.79],[23.02,76.64],[23.29,77.12],[29.18,76.32],[28.33,76.5],[32.91,77.04],[29.35,76.73],[23.78,77.24],[19.63,76.52],[14.88,76.55],[14.37,77.91],[13.42,78.43],[11.16,78.04],[10.52,78.2],[11.47,78.35],[10.6,78.41],[11,78.39],[9.77,77.97],[8.85,78.05],[9.86,78.3],[7.39,78.21],[3.4,79.27],[0.63,79.74],[1.54,79.46],[0.21,79.46],[0.64,79.54],[-1.37,80.13],[0.33,80.13],[-4.12,80.72],[-3.73,80.84],[-5.14,80.48],[-7.4,80.87],[-15.58,80.54],[-16.76,80.92],[-12.97,81.04],[-16.1,81.55],[-12.83,81.85],[-20.32,82.23],[-20.77,82.63],[-19.33,82.81],[-21.75,82.93],[-20.84,83.29],[-21.48,83.33],[-19.36,83.59],[-19.98,83.5],[-18.34,83.15],[-18.91,83.33],[-17.96,83.48],[-19.33,83.7],[-14.96,83.99],[13.36,83.78],[5.89,84.25],[6.5,84.42],[-2.73,84.62],[-3.4,84.56],[-0.35,84.39],[-3.4,84.22],[-6.77,84.48],[-4.86,84.68],[-6.02,84.9],[-9.31,84.77],[-5.15,85.46],[-13.88,85.41],[-24.55,85.96],[-25.08,86.07],[-21.66,86.23],[-26.13,86.57],[-32.67,86.72],[-43.96,86.76],[-45.94,86.55],[-43.43,86.12],[-47.35,85.83],[-70.55,85.98],[-71.4,86.02],[-69.54,86.08],[-79.84,86.61],[-77.8,86.91],[-79.91,86.92],[-77.99,86.97],[-85.86,86.89],[-83.64,87.06],[-85.16,87.13],[-106.28,86.9],[-93.74,86.19],[-149.71,86.66],[-152.74,86.19],[-150.42,84.91],[-147.99,82.2],[-147.13,80.46],[-147.1,78.78],[-150.27,76.24],[-156.06,74.53],[-157.18,74.96],[-159.4,74.74],[-168.78,76.51],[-179.99,75.63]]]}},{"type":"Feature","properties":{},"geometry":{"type":"Polygon","coordinates":[[[171.38,72.96],[171.1,73.08],[172.54,73.15],[171.38,72.96]]]}},{"type":"Feature","properties":{},"geometry":{"type":"Polygon","coordinates":[[[28.82,71.28],[27.37,71.73],[24.2,71.43],[24.49,71.31],[20.67,71.8],[18.57,72.67],[15.04,73.28],[16.8,74.21],[18.32,74.1],[20.7,73.58],[31.23,72.98],[34.67,71.63],[32.78,70.66],[28.82,71.28]]]}},{"type":"Feature","properties":{},"geometry":{"type":"Polygon","coordinates":[[[73.87,27],[78.9,27.96],[83.21,27.63],[85.42,26.28],[88.07,23.09],[82.37,24.96],[74.22,23.88],[70.87,24.08],[66.85,25.34],[62.87,27.6],[61.75,28.86],[68.17,26.97],[73.87,27]]]}},{"type":"Feature","properties":{},"geometry":{"type":"Polygon","coordinates":[[[45.09,-33.96],[45.61,-33.77],[45.32,-33],[45.14,-33.79],[44.79,-32.37],[45.02,-33.41],[44.57,-33.9],[42.35,-33.5],[42.68,-33.11],[41.91,-33.17],[42.4,-32.6],[40.82,-32.22],[40.31,-32.67],[39.2,-32.56],[33.93,-30.64],[33.47,-30.86],[31.54,-29.52],[25.65,-31.4],[25.19,-30.87],[24.33,-30.83],[24.23,-31.25],[23.72,-30.52],[22.77,-30.47],[22.19,-29.87],[22.72,-28.88],[28.85,-23.39],[32.27,-21.19],[33.83,-20.51],[34.29,-20.79],[34,-20.33],[34.63,-20.27],[34.53,-19.89],[33.38,-20.16],[32.36,-19.19],[33.2,-17.02],[33.92,-17.97],[34.55,-18.02],[33.8,-17.03],[34.06,-16.12],[34.64,-16.26],[34.17,-15.98],[34.52,-15.83],[34.18,-15.15],[35.01,-14.81],[34.77,-14.11],[35.51,-13.7],[34.99,-13.18],[38.57,-12.04],[41.21,-12.12],[46.86,-13.37],[48.19,-14.43],[48.39,-15.36],[47.48,-16.7],[46.51,-20.82],[46.87,-25.56],[47.83,-27.57],[52.87,-33.68],[53.21,-34.89],[45.09,-33.96]]]}},{"type":"Feature","properties":{},"geometry":{"type":"Polygon","coordinates":[[[64.03,32.26],[66.55,31.51],[68.73,31.65],[69.93,32.89],[76.63,35.42],[82.74,34.86],[87.79,33.41],[89.28,31.2],[89.87,28.79],[86.73,31.44],[84.16,32.26],[80.6,32.09],[75.5,30.73],[69.63,30.21],[62.32,31.58],[61.19,31.32],[59.56,32.89],[61.57,33.14],[64.03,32.26]]]}},{"type":"Feature","properties":{},"geometry":{"type":"Polygon","coordinates":[[[98.99,37.89],[98.68,37.53],[97.83,39.98],[95.9,41.21],[86.46,44.18],[95.06,44.02],[99.33,42.87],[104.12,42.39],[101.87,41],[98.99,37.89]]]}},{"type":"Feature","properties":{},"geometry":{"type":"Polygon","coordinates":[[[32.78,70.66],[39.32,69.21],[33.81,69.31],[31.35,70.92],[32.78,70.66]]]}},{"type":"Feature","properties":{},"geometry":{"type":"Polygon","coordinates":[[[52.15,44.78],[51.09,45.51],[50.73,46.46],[49.06,46.32],[47.09,47.21],[48.33,47.6],[47.48,47.64],[47.62,48.31],[49.03,48.86],[47.58,50.04],[46.21,49.68],[45.3,48.47],[44.76,48.49],[44.98,47.6],[44.57,47.83],[44.72,47.47],[44,47.25],[43.9,45.98],[45.3,45.77],[45.65,44.89],[48.1,44.02],[41.91,43.71],[44.84,49.52],[49.92,52.77],[50.66,53.71],[50.38,55.37],[47.85,58.08],[53.82,54.87],[54.98,52.59],[55.02,51.87],[54.49,51.9],[54.91,51.52],[54.09,51.3],[54.39,50.22],[55.36,49.37],[56.36,49.86],[59.6,48.57],[64.95,47.8],[73.13,48.94],[71.11,46.36],[61.48,43.39],[52.31,44.3],[52.15,44.78]]]}},{"type":"Feature","properties":{},"geometry":{"type":"Polygon","coordinates":[[[43.25,0.7],[42.69,1.01],[41.3,0.66],[40.42,1.1],[38.76,2.82],[38.28,5.29],[37.78,5.25],[37.55,5.87],[37.25,5.44],[36.44,5.73],[36.5,5.16],[36.05,5.13],[36.49,3.14],[37.34,1.88],[37.02,1.3],[37.34,-0.12],[37.88,1.04],[38.36,0.84],[37.69,-0.66],[38.14,-1.14],[40.36,-1.44],[42.75,0.16],[42.42,-1.68],[44.1,-3.07],[44.74,-4.59],[43.21,-6.05],[42.56,-6.08],[42.27,-7.29],[41.29,-7.29],[40.63,-8.01],[39.75,-7.9],[39.17,-8.59],[36.61,-8.53],[36.15,-9.25],[32.4,-9.8],[29.35,-9.57],[28.57,-9.94],[27.17,-9.5],[27.12,-6.82],[27.73,-5.43],[27.01,-2.01],[26.08,-0.21],[26.38,2.56],[25.72,3.43],[25.23,7.58],[24.72,7.83],[28.27,12.8],[29.36,15.3],[31.53,15.93],[34.52,15.58],[41.36,4.33],[42.05,2.42],[43.46,1.96],[43.25,0.7]]]}},{"type":"Feature","properties":{},"geometry":{"type":"Polygon","coordinates":[[[48.69,-9.59],[47.9,-12.78],[46.18,-13.58],[39.08,-11.8],[36.93,-11.87],[37.44,-8.81],[39.1,-7.25],[40.72,-7.95],[43.56,-6.77],[45.14,-6.82],[48.85,-8.5],[48.69,-9.59]]]}},{"type":"Feature","properties":{},"geometry":{"type":"Polygon","coordinates":[[[69.63,30.43],[57.33,32.02],[58.64,35.72],[66.4,32],[69.8,32.51],[69.63,30.43]]]}},{"type":"Feature","properties":{},"geometry":{"type":"Polygon","coordinates":[[[56.87,25.49],[56.38,25.77],[56.99,27.81],[58.57,29.96],[59.35,30.16],[68.54,26.25],[62.29,25.61],[59.61,24.71],[56.87,25.49]]]}},{"type":"Feature","properties":{},"geometry":{"type":"Polygon","coordinates":[[[40.28,32.47],[41.14,32.3],[44.09,34.1],[49.24,32.21],[53.74,33.29],[54.54,32.68],[53.45,31.52],[51.07,31.52],[36.46,28.13],[35.68,28.68],[35.15,30.17],[37.42,32.41],[40.28,32.47]]]}},{"type":"Feature","properties":{},"geometry":{"type":"Polygon","coordinates":[[[-23.18,68.94],[-29.53,68.41],[-31.98,69.25],[-33.05,68.84],[-31.84,68.4],[-32.11,68.2],[-31.73,67.86],[-39.47,67.44],[-40.46,67.53],[-45.99,70.35],[-30.68,70.82],[-26.42,70.17],[-23.18,68.94]]]}},{"type":"Feature","properties":{},"geometry":{"type":"Polygon","coordinates":[[[-91.62,68.99],[-92.13,68.88],[-91.67,68.93],[-93.13,67.36],[-93.35,66.37],[-92.51,64.98],[-90.55,63.28],[-101.1,63.46],[-104.74,64.27],[-109.99,64.15],[-109.35,64.27],[-110.02,64.43],[-109.51,64.64],[-107.88,64.92],[-108.83,64.97],[-107.65,65.53],[-104.84,68.46],[-103.46,69.07],[-97.15,69.74],[-91.62,68.99]]]}},{"type":"Feature","properties":{},"geometry":{"type":"Polygon","coordinates":[[[-103.97,83.41],[-101.78,83.21],[-107.04,82.82],[-105.26,82.28],[-108.4,81.62],[-105.57,81.35],[-107.09,81.23],[-106.35,80.96],[-101.33,81.22],[-100.06,81.07],[-100.42,80.9],[-99.71,80.54],[-97.85,80.65],[-101.49,78.83],[-101.25,78.4],[-101.73,78.12],[-104.29,78.15],[-105.38,77.31],[-107.26,76.89],[-104.6,75.44],[-105.59,74.48],[-108.02,74.32],[-108.29,73.89],[-118.29,74.65],[-124.07,74],[-125.87,73.4],[-129.38,70.47],[-130.82,69.9],[-130.89,70.3],[-134.06,70.84],[-141.25,70.25],[-140.09,70],[-140.49,69.69],[-145.52,70.73],[-143.61,70.7],[-144.12,70.95],[-143.89,71.29],[-145.17,71.5],[-139.72,73.18],[-136.88,75.23],[-136.17,77.85],[-136.68,80.75],[-136.29,83.12],[-135.9,83.33],[-103.97,83.41]]]}},{"type":"Feature","properties":{},"geometry":{"type":"Polygon","coordinates":[[[140.61,50.09],[138.78,49.57],[138.12,48.7],[135.01,47.91],[135.8,46.98],[136.11,44.74],[132.69,44.98],[132.65,45.77],[133.66,45.67],[133.29,45.91],[133.58,46.56],[132.48,47.01],[132.06,46.72],[132.34,46.89],[131.76,47.04],[132.14,47.12],[131.49,47.3],[132.74,47.65],[132.33,47.91],[132.99,48.5],[132.07,48.71],[131.98,49.15],[127.8,48.65],[128.99,49.13],[128.2,49.27],[128.63,49.61],[129.85,50.08],[129.53,50.65],[128.52,50.71],[125.53,49.57],[124.17,49.79],[123.69,49.1],[124.96,48.65],[124.65,47.76],[125.53,47.44],[126.97,47.9],[129.01,47.03],[128.59,46.6],[125.62,46.45],[124.09,45.42],[125.05,44.62],[120.71,42.44],[116.12,44.86],[108.4,46.74],[102.79,50.05],[94.97,53.69],[108.87,54.61],[121.3,54.38],[136.98,51.91],[140.61,50.09]]]}},{"type":"Feature","properties":{},"geometry":{"type":"Polygon","coordinates":[[[134.57,47.44],[134.31,46.02],[132.39,45.76],[132.47,45.44],[131.16,45.09],[130.84,45.49],[131.26,45.43],[130.81,45.91],[131.55,46.72],[131.15,46.89],[134.57,47.44]]]}},{"type":"Feature","properties":{},"geometry":{"type":"Polygon","coordinates":[[[123.8,44.94],[124.62,43.26],[125.88,42.46],[124.01,42.56],[125.95,41.62],[124.12,40.89],[126.28,40.57],[125.49,40.13],[126.13,40.28],[126.12,39.88],[125.48,39.77],[125.86,39.62],[125.78,38.94],[124.68,38.67],[124.17,37.25],[123.55,37.39],[124.01,36.98],[123.61,36.73],[123.73,35.95],[123.33,36.2],[122.66,35.11],[122.11,35.22],[121.53,34.23],[120.39,33.87],[120.7,33.7],[120.37,33.39],[118.5,33.19],[118.01,32.58],[117,33.37],[117.22,32.47],[116.74,32.33],[116.53,32.75],[116.54,32.1],[115.94,32.29],[115.92,31.92],[113.75,31.5],[113.81,30.31],[113.08,30.93],[113.34,31.52],[112.9,31.76],[112.48,31.38],[111.69,31.86],[110.57,30.84],[109.79,30.82],[110.01,30.47],[109.3,29.7],[102.69,34.09],[101.75,35.56],[101.66,38.03],[102.26,39],[104.53,41.68],[106.66,43.18],[109.18,43.58],[114.12,43.38],[120.55,41.93],[123.8,44.94]]]}},{"type":"Feature","properties":{},"geometry":{"type":"Polygon","coordinates":[[[106.07,30.16],[105.98,29.11],[106.45,28.64],[110.91,26.75],[112.44,24.49],[112.48,23.13],[110.54,21.52],[110.66,20.62],[109.41,19.1],[108.95,20.57],[107.45,20.47],[107.27,21.03],[106.82,20.64],[105.79,21.72],[103.92,21.49],[103.7,22.31],[102.94,22.23],[101.79,25.38],[101.82,28.61],[98.27,32.7],[106.07,30.16]]]}},{"type":"Feature","properties":{},"geometry":{"type":"Polygon","coordinates":[[[100.96,21.56],[102.36,18.45],[103.2,17.7],[103.64,18.14],[105.98,17.04],[107.41,17.36],[110.46,14.41],[108.06,14.68],[106.36,16.01],[104.8,16.55],[103.45,16.67],[103.22,16.29],[100.26,19.97],[98.05,20.84],[96.71,21.9],[97.07,21.93],[95.39,21.9],[90.76,25.19],[88.25,28.84],[91.5,29.87],[96,27.97],[97.14,27.16],[98.48,24.16],[100.96,21.56]]]}},{"type":"Feature","properties":{},"geometry":{"type":"Polygon","coordinates":[[[106.45,17.55],[108.65,17.41],[109.97,16.04],[111.7,15.46],[111.28,15.44],[111.18,14.87],[109.6,14.71],[106.45,17.55]]]}},{"type":"Feature","properties":{},"geometry":{"type":"Polygon","coordinates":[[[26.81,-3.97],[29.54,-7.44],[29.51,-7.94],[28.6,-8.26],[29.24,-8.27],[30.16,-9.62],[35.35,-9.43],[36.78,-8.95],[37.24,-9.15],[36.82,-10.53],[37.21,-10.55],[36.68,-10.62],[36.51,-11.5],[32.93,-16.07],[30.62,-17.79],[25.89,-20.23],[25.07,-21.23],[23.59,-21.87],[22.13,-23.58],[21.39,-24.8],[21.99,-25.95],[21.39,-27.58],[21.48,-28.88],[22.34,-29.76],[21.87,-30.33],[21.27,-34.23],[20.01,-35.23],[16.83,-35.83],[13.31,-37.39],[14.76,-32.99],[15.12,-26.68],[17.45,-25.43],[17.84,-23.19],[20.23,-18.08],[20.68,-14.7],[21.61,-13.08],[22.9,-13.24],[23.46,-11.69],[27.23,-8.72],[26.81,-3.97]]]}},{"type":"Feature","properties":{},"geometry":{"type":"Polygon","coordinates":[[[13.19,-37.13],[12.73,-37.85],[13.07,-39.7],[12.13,-41.51],[7.77,-42.23],[7.81,-42.7],[8.28,-42.51],[6.36,-44.57],[2.03,-46.26],[-2.04,-47.13],[-4.55,-47.09],[-7.77,-45.86],[-11.01,-45.59],[-11.73,-44.45],[-12.24,-44.56],[-11.86,-42.96],[-11.22,-42.92],[-10.76,-42.08],[-10.6,-39.25],[-11.1,-37.07],[-9.32,-32.25],[-9.77,-27.06],[-8.85,-25.26],[-7.01,-23.36],[-5.1,-22.37],[-4.64,-21.32],[-4.74,-19.55],[-4.06,-19.04],[-4.24,-16.55],[-3.48,-16.62],[-4.15,-16.26],[-4.07,-14.95],[-5.28,-12.11],[-5.46,-10.15],[-4.86,-10.17],[-4.46,-9.45],[-3.98,-9.82],[-4.43,-9.28],[-2.82,-7.16],[-2.68,-6.13],[-3.2,-6.08],[-3.72,-4.89],[-4.9,-4.9],[-6.23,-4.12],[-3,-3.26],[-2.32,-2.22],[0.3,-1.7],[6.65,-5.14],[9.44,-4.91],[14.72,-5.35],[18.64,-13.68],[14.57,-17.28],[13.3,-20.35],[13.26,-22.34],[16.06,-26.73],[16.06,-28],[15.18,-33.01],[13.19,-37.13]]]}},{"type":"Feature","properties":{},"geometry":{"type":"Polygon","coordinates":[[[-13.09,23.54],[-12.88,24.55],[-11.91,25.45],[-9.18,26.06],[-7.64,27.41],[-7.08,27.32],[-6.67,26.36],[-5.31,26.2],[-4.61,25.55],[-1.24,25.97],[1.03,25.6],[2.14,24.94],[3.22,25.06],[4.36,24.44],[6.12,24.4],[-3.84,22.97],[-9.39,23.94],[-13.09,23.54]]]}},{"type":"Feature","properties":{},"geometry":{"type":"Polygon","coordinates":[[[9.24,29.12],[9.13,28.33],[6.63,27.72],[5.49,26.71],[5.73,25.88],[3.15,24.47],[1.22,24.96],[-0.03,24.56],[-0.5,25.43],[-0.1,25.67],[-0.43,25.5],[-0.66,26.08],[-2.58,26.32],[-1.79,27.55],[-2.25,27.95],[-1.63,28.25],[-2.4,28.12],[-0.97,29.76],[-0.34,32.27],[0.91,32.45],[4.55,30.95],[5.86,30.9],[9.24,29.12]]]}},{"type":"Feature","properties":{},"geometry":{"type":"Polygon","coordinates":[[[-4.73,-5.27],[-5.06,-3.73],[-5.87,-3],[-8.3,-2.5],[-12.08,-2.8],[-13.72,-1.72],[-17.42,-1.42],[-17.96,-1],[-21.05,3.05],[-21.3,5.83],[-22.54,7.75],[-21.87,8.2],[-22.82,8.27],[-23.1,8.73],[-22.79,8.86],[-23.35,9.18],[-22.95,9.2],[-23.29,9.33],[-22.94,10.15],[-21.88,9.79],[-22.78,9.98],[-23.25,11.63],[-21.98,12.25],[-20.82,13.95],[-20.69,15.65],[-20.08,16.32],[-20.29,17.52],[-20.68,17.2],[-20.18,18.09],[-14.26,22.5],[-12.84,22.4],[-10.35,23.76],[-7.5,24.18],[-1.07,23.32],[8.94,24.82],[9.12,24.2],[9.8,24.39],[9.02,23.63],[9.3,22.58],[8.08,21.93],[7.02,20.27],[4.78,13.61],[3.89,9.37],[3.76,5.84],[5.53,0.95],[2.23,-0.74],[1.51,-2.2],[-1.04,-2.98],[-1.61,-4.09],[-4.73,-5.27]]]}},{"type":"Feature","properties":{},"geometry":{"type":"Polygon","coordinates":[[[25,11.15],[24.86,10.25],[26.28,4.66],[26.03,3.72],[27.07,1.54],[26.65,0],[13.76,-5.45],[8.46,-5.14],[5.67,-5.45],[-0.77,-2.17],[0.06,-0.76],[3.48,0.66],[2.1,5.67],[2.51,9.18],[5.88,18.51],[7.62,20.95],[9,19.35],[11.24,18.06],[11.32,16.98],[13.62,15],[14.75,15.22],[15.24,16.47],[17.05,16.67],[17.92,15.57],[19.24,14.96],[19.28,14.48],[22.32,12.85],[23.62,13.2],[24.67,12.86],[25,11.15]]]}},{"type":"Feature","properties":{},"geometry":{"type":"Polygon","coordinates":[[[25.17,13.43],[24.16,14.19],[22.46,14.38],[21.46,16.09],[21.08,15.73],[20.38,15.95],[20.03,17.14],[19.19,17.48],[20.05,17.34],[19.29,17.79],[19.93,18.58],[19.55,19.22],[22.64,19.01],[23.43,18.57],[24.01,17.29],[25.38,17.13],[28.59,15.49],[30.23,12.74],[27.41,13.64],[25.17,13.43]]]}},{"type":"Feature","properties":{},"geometry":{"type":"Polygon","coordinates":[[[16.11,-26.38],[15.61,-26.76],[12.62,-22.47],[12.58,-20.48],[13.73,-17.37],[17.66,-13.62],[22.51,-13.33],[21.53,-14.93],[20.98,-18.3],[18.44,-23.34],[17.98,-25.57],[16.11,-26.38]]]}},{"type":"Feature","properties":{},"geometry":{"type":"Polygon","coordinates":[[[26.4,9.97],[25.29,8.75],[24.33,12.94],[25.46,12.13],[26.87,12.38],[28.92,14.72],[29.64,16.59],[29.18,14.75],[26.4,9.97]]]}},{"type":"Feature","properties":{},"geometry":{"type":"Polygon","coordinates":[[[26.35,0.11],[26.43,-0.67],[27.27,-1.57],[27.71,-4.67],[28.01,-4.39],[28.31,-9.14],[24.44,-12],[23.84,-13.55],[21.11,-13.28],[17.71,-13.63],[14.04,-6.42],[13.92,-5.28],[26.35,0.11]]]}},{"type":"Feature","properties":{},"geometry":{"type":"Polygon","coordinates":[[[0.97,47.74],[0.41,48.03],[1.88,48.32],[1.99,48.78],[0.49,48.11],[-0.1,48.62],[0.97,49.14],[-0.36,49.04],[0.5,49.19],[0.15,49.25],[0.62,49.29],[0.47,49.63],[1.04,49.43],[0.09,49.64],[1.18,50.15],[0.23,50.07],[1.45,50.23],[0.76,50.39],[1.41,50.39],[0.86,50.54],[1.28,50.79],[0.93,50.9],[1.39,51.34],[1.99,51.19],[2.34,51.87],[1.96,52.1],[1.75,51.3],[1.19,51.41],[1.32,52.44],[1.88,52.49],[1.35,52.46],[1.72,53.01],[1.29,52.74],[1.87,53.49],[1.38,53.19],[1.23,53.57],[1.62,53.57],[1.13,53.93],[1.54,53.97],[1,54.07],[1.61,54.61],[1.09,54.23],[0.72,54.51],[1.09,54.74],[0.66,54.72],[1.03,54.96],[0.6,54.97],[1.56,55.54],[0.74,55.41],[0.81,55.84],[1.44,55.83],[0.4,55.98],[0.92,56.29],[0.44,56.26],[0.58,56.59],[1.37,56.35],[0.63,56.68],[1.45,57.15],[0.57,56.89],[1.02,57.38],[0.35,58.02],[1.37,58.14],[0.5,58.45],[1.18,58.32],[0.86,58.88],[1.5,58.26],[1.36,58.62],[1.75,58.65],[1.16,58.76],[1.23,59.12],[2.03,59.13],[0.96,59.41],[2.38,59.61],[1.55,60.61],[2.33,60.82],[3.04,60.01],[2.52,61.02],[3.37,60.59],[3.27,61.18],[2.71,61.24],[3.07,61.51],[3.9,60.97],[4.2,61.14],[3.75,61.54],[5.55,61.69],[5.56,61.27],[4.62,60.96],[5.84,60.82],[5.85,61.15],[6.85,61.2],[6.7,61.66],[8.55,61.3],[8.46,61.61],[9.76,62.11],[14.87,62.53],[16.39,62],[16.55,61.26],[16.07,60.74],[10.65,59.62],[14.04,59.53],[15.81,58.5],[18.41,58.73],[18.07,59.31],[16.63,59.16],[16.23,59.55],[17.72,59.49],[19.36,60.19],[17.4,60.74],[17.47,62.1],[19.59,62.23],[16.15,63.71],[14.45,63.8],[17.17,64.39],[17.8,64.24],[17.24,63.76],[17.64,63.38],[19.14,63.38],[19.95,63.92],[18.86,64.44],[19.47,64.82],[18.67,64.87],[19.1,65],[19.35,66.33],[19.95,66.26],[19.35,66.37],[19.41,67.05],[19.74,67.27],[19.41,66.94],[20.63,66.76],[20.72,66.35],[21.49,66.53],[21.14,66.86],[21.7,66.85],[21.08,67.27],[22.15,67.85],[21.69,67.91],[21.96,68.58],[23.85,68.51],[23.14,68.75],[23.62,69.19],[20.8,69.61],[26.69,71.07],[29.41,71.27],[31.9,70.68],[33.81,69.31],[33.97,68.19],[35.15,66.99],[46.26,61.89],[47.33,60.72],[47.47,58.66],[50.38,55.37],[50.77,54.2],[49.92,52.77],[44.84,49.52],[41.91,43.71],[38.55,42.75],[34.69,43.09],[35.35,43.56],[35.46,44.32],[34.61,44.78],[35.39,45.04],[35.48,45.79],[33.14,44.15],[32.74,43.34],[32.62,43.76],[32.94,43.05],[33.72,42.81],[34.6,43.27],[34.58,42.9],[32.44,41.6],[31.67,42.25],[31.09,41.9],[31.82,42.8],[29.91,42.47],[29.54,42.63],[30.34,42.84],[29.74,43.04],[28.46,41.37],[29.03,40.5],[28.65,40.19],[25.55,40.82],[22.4,42.45],[15.21,43.97],[11.77,44.21],[13.8,45.89],[14.58,45.62],[15.08,46.14],[14.99,45.65],[15.42,46.34],[14.91,46.42],[15.35,46.76],[15.14,47.43],[15.3,46.61],[15.83,46.78],[14.46,48.13],[14.16,49.18],[14.64,49.61],[16.01,49.22],[16.32,49.69],[15.54,50.65],[14.94,50.43],[14.03,51.1],[18,53.52],[16.46,53.48],[16.11,53.84],[13.12,51.42],[12.73,51.88],[11.42,51.68],[9.21,53.41],[9.24,55.93],[9.69,56.15],[9.01,56.64],[6.56,55.96],[7.04,55.91],[6.8,55.56],[7.16,55.51],[6.71,55.55],[7.09,55.05],[7.88,54.87],[7.95,54.11],[7.24,53.2],[7.35,52.62],[6.65,52.82],[7.36,52.5],[7.12,52.17],[8.54,50.62],[10.6,50.34],[10.1,49.77],[10.66,49.67],[10.53,49.25],[10.11,49.47],[10.32,49.08],[9.53,48.62],[10.17,48.68],[9.72,48.52],[10.34,48.39],[11.12,46.96],[11.17,46.29],[10.17,45.78],[10.45,45.24],[9.47,44.87],[8.61,45.59],[8.77,45.96],[4.94,48.34],[5.06,47.94],[4.7,48.06],[5.24,47.46],[4.67,47.36],[4.5,46.15],[3.79,45.74],[2.23,46.07],[2.81,46.61],[2.29,46.44],[2.45,47.05],[1.57,46.67],[2.13,47.98],[1.57,47.76],[1.61,47.23],[0.97,47.74]]]}},{"type":"Feature","properties":{},"geometry":{"type":"Polygon","coordinates":[[[6.69,43.58],[6.01,43.83],[5.37,44.94],[6.4,46.41],[6.77,45.37],[7.48,45.33],[6.95,44.32],[7.58,43.68],[6.69,43.58]]]}},{"type":"Feature","properties":{},"geometry":{"type":"Polygon","coordinates":[[[29.3,37.4],[28.81,38.31],[28.11,37.91],[27.88,38.4],[28.08,38.95],[30.09,39.82],[29.74,39.87],[30.6,40.49],[29.98,40.29],[34.88,42.83],[38.25,43.3],[34.47,41.21],[33.58,40.08],[31.76,40.09],[30.85,39.57],[29.3,37.4]]]}},{"type":"Feature","properties":{},"geometry":{"type":"Polygon","coordinates":[[[19.44,23],[19.2,21.58],[18.42,21.61],[19.17,20.55],[19.01,20.07],[18.29,20.6],[18.41,19.99],[17.88,20.4],[17.78,19.7],[17.13,19.71],[17.18,20.15],[16.74,20.15],[16.91,21.35],[17.65,21.41],[18.56,20.73],[17.11,21.71],[17.11,22.3],[17.49,22.31],[16.95,24.21],[17.95,25.28],[16.42,28.13],[16.67,29.92],[16.48,30.32],[15.82,30.01],[16.25,31],[15.36,31.23],[14.43,30.17],[14.84,29.11],[14.54,28.29],[14.86,27.16],[15.58,26.72],[15.18,26.42],[16.2,24.25],[15.86,24.13],[15.24,25.17],[14.56,24.78],[14.58,23.82],[12.97,23.49],[13.84,24.1],[14.12,25.34],[12.35,29.19],[12.73,30.86],[12.09,31.83],[10.87,31.79],[10.71,32.44],[11.57,33.93],[15.52,33.72],[19.96,31.79],[18.09,30.38],[19.13,26.52],[19.44,23]]]}},{"type":"Feature","properties":{},"geometry":{"type":"Polygon","coordinates":[[[11.77,32.94],[10.93,31.84],[9.04,31.79],[8.59,30.7],[4.63,30.42],[4.17,32.38],[4.78,32],[3.83,33.05],[2.06,33.94],[0.73,33.7],[0.34,33.86],[0.66,34.22],[0.13,34.31],[1.25,35.03],[1.71,34.75],[2.66,35.19],[1.74,36.08],[3.23,36.04],[3.67,36.8],[6.13,36.56],[8.19,37.11],[10.49,40.67],[12.71,42.25],[16.98,43.49],[20.44,42.65],[18.13,41.3],[16.7,39.57],[12.63,37.57],[10.87,36.14],[9.94,34.55],[11.03,33.17],[11.77,32.94]]]}},{"type":"Feature","properties":{},"geometry":{"type":"Polygon","coordinates":[[[3.67,36.8],[4.24,37.35],[3.85,37.97],[5.57,39.05],[4.89,39.02],[5.68,39.48],[5.09,39.56],[5.1,40.65],[5.65,40.55],[5.42,40.15],[5.96,40.55],[5.54,41.18],[6.75,41.51],[6.47,41.8],[6.95,42.11],[7.61,41.95],[7.42,42.47],[8.47,42.45],[7.11,42.82],[7.35,43.09],[6.64,43.14],[6.69,43.58],[8.22,43.23],[8.9,43.55],[8.95,43.01],[9.84,44],[11.9,43.75],[11.77,44.21],[12.66,44.21],[16.98,43.49],[11.63,41.64],[9.96,39.98],[8.91,37.7],[8.19,37.11],[6.13,36.56],[3.67,36.8]]]}},{"type":"Feature","properties":{},"geometry":{"type":"Polygon","coordinates":[[[28.6,39.97],[28.94,39.01],[28.6,38.4],[24.71,36.98],[23.56,37.61],[23.38,38.31],[25.48,39.88],[25.55,40.82],[28.6,39.97]]]}},{"type":"Feature","properties":{},"geometry":{"type":"Polygon","coordinates":[[[-37.22,57.43],[-37.58,57.1],[-37.46,57.69],[-37.22,57.43]]]}},{"type":"Feature","properties":{},"geometry":{"type":"Polygon","coordinates":[[[-33.52,56.93],[-32.72,56.66],[-33.97,56.81],[-33.52,56.93]]]}},{"type":"Feature","properties":{},"geometry":{"type":"Polygon","coordinates":[[[-38.52,58.39],[-39.09,57.89],[-40.19,58.2],[-39.81,58.55],[-38.52,58.39]]]}},{"type":"Feature","properties":{},"geometry":{"type":"Polygon","coordinates":[[[-11.12,65.02],[-9.95,65.02],[-9.35,64.38],[-11.53,64.6],[-11.12,65.02]]]}},{"type":"Feature","properties":{},"geometry":{"type":"Polygon","coordinates":[[[-38.07,59.01],[-38.14,58.52],[-39.47,58.84],[-38.07,59.01]]]}},{"type":"Feature","properties":{},"geometry":{"type":"Polygon","coordinates":[[[-33.52,57.88],[-33,57.47],[-33.18,57.16],[-34.14,57.06],[-34,58.05],[-33.52,57.88]]]}},{"type":"Feature","properties":{},"geometry":{"type":"Polygon","coordinates":[[[-15.59,63.52],[-14.31,63.3],[-15.93,63.54],[-15.59,63.52]]]}},{"type":"Feature","properties":{},"geometry":{"type":"Polygon","coordinates":[[[-35.4,59],[-35.35,58.44],[-34.94,58.59],[-34.5,57.96],[-34.86,57.24],[-36.45,58.03],[-35.71,58.37],[-36.16,58.93],[-35.4,59]]]}},{"type":"Feature","properties":{},"geometry":{"type":"Polygon","coordinates":[[[-20.28,79.07],[-18.09,79.53],[-20.57,79.41],[-19.72,79.68],[-20.51,79.85],[-19.82,80.08],[-12.58,79.74],[-20.28,79.07]]]}},{"type":"Feature","properties":{},"geometry":{"type":"Polygon","coordinates":[[[-16.39,65.1],[-12.68,65.13],[-12.72,64.52],[-11.25,63.82],[-16.39,65.1]]]}},{"type":"Feature","properties":{},"geometry":{"type":"Polygon","coordinates":[[[-11.35,63.73],[-10.15,63.02],[-12.46,63.04],[-11.74,63.41],[-12.58,63.32],[-12.33,63.87],[-12.94,63.25],[-13.6,63.42],[-13.11,64.13],[-11.35,63.73]]]}},{"type":"Feature","properties":{},"geometry":{"type":"Polygon","coordinates":[[[-13.86,64.3],[-13.73,63.96],[-14.43,64.2],[-13.77,63.81],[-14.04,63.43],[-17.17,64.33],[-16.68,64.65],[-16.53,64.26],[-15.53,64.29],[-16.3,64.71],[-13.86,64.3]]]}},{"type":"Feature","properties":{},"geometry":{"type":"Polygon","coordinates":[[[-16.24,77.25],[-16.62,77.61],[-14.59,77.48],[-16.24,77.25]]]}},{"type":"Feature","properties":{},"geometry":{"type":"Polygon","coordinates":[[[-19.32,77.88],[-17.34,78.27],[-20.24,78.19],[-16.88,79.09],[-15.05,78.99],[-13.96,78.34],[-15.65,77.79],[-14.62,77.79],[-14.92,77.69],[-19.32,77.88]]]}},{"type":"Feature","properties":{},"geometry":{"type":"Polygon","coordinates":[[[-15.57,66.24],[-14.84,66.1],[-15.08,66.42],[-13.82,66.67],[-12.83,66.14],[-12.89,65.69],[-13.83,65.35],[-14.67,65.3],[-14.17,65.48],[-14.49,65.7],[-15.09,65.24],[-16.16,65.34],[-15.74,65.61],[-16.45,65.82],[-14.79,65.89],[-15.57,66.24]]]}},{"type":"Feature","properties":{},"geometry":{"type":"Polygon","coordinates":[[[-12.72,70.11],[-12.1,70.26],[-12.51,70.09],[-11.72,69.81],[-12.29,69.62],[-12.72,70.11]]]}},{"type":"Feature","properties":{},"geometry":{"type":"Polygon","coordinates":[[[-12.31,72.41],[-10.8,72.02],[-12.09,72],[-12.31,72.41]]]}},{"type":"Feature","properties":{},"geometry":{"type":"Polygon","coordinates":[[[-12.76,70.63],[-10.46,70.08],[-11.26,69.86],[-12.76,70.63]]]}},{"type":"Feature","properties":{},"geometry":{"type":"Polygon","coordinates":[[[-22.01,76.98],[-21.7,77.49],[-19.6,77.83],[-16.58,77.24],[-22.01,76.98]]]}},{"type":"Feature","properties":{},"geometry":{"type":"Polygon","coordinates":[[[-30.77,60.23],[-30.03,58.83],[-29.54,59.05],[-29.85,58.19],[-29.08,57.84],[-30.28,57.33],[-30.32,57.7],[-30.92,56.91],[-31.13,57.42],[-31.14,56.95],[-32.07,57.12],[-32.28,57.43],[-31.75,57.43],[-32.46,58],[-31.11,58.04],[-32.59,58.34],[-32.04,58.68],[-32.69,58.99],[-31.9,58.98],[-32.41,59.41],[-31.4,59.44],[-31.74,59.81],[-30.77,60.23]]]}},{"type":"Feature","properties":{},"geometry":{"type":"Polygon","coordinates":[[[-19.84,59.4],[-19.12,58.96],[-20.23,59.32],[-19.84,59.4]]]}},{"type":"Feature","properties":{},"geometry":{"type":"Polygon","coordinates":[[[-23.82,61.39],[-22.91,61.22],[-23.49,60.91],[-22.52,61.21],[-21.44,60.56],[-22.26,60.02],[-23.68,60],[-22.9,59.8],[-23.9,59.37],[-22.25,59.78],[-23.75,58.66],[-24.16,58.84],[-23.95,58.48],[-24.7,58.51],[-24.07,58.37],[-24.41,58.02],[-26.72,57.73],[-25.49,57.54],[-26.65,57.58],[-25.65,57.15],[-26.17,56.82],[-25.81,56.66],[-26.52,56.57],[-26.18,56.3],[-27.11,56.32],[-27.21,55.77],[-28.73,55.8],[-27.6,55.64],[-27.13,55.04],[-28.56,54.61],[-28.37,54.88],[-29,55.25],[-28.93,54.94],[-30.09,54.9],[-31.89,55.42],[-30.47,55.86],[-30.82,56.6],[-29.6,55.88],[-28.55,56.57],[-29.32,56.05],[-29.85,56.56],[-29.38,56.93],[-30.45,56.83],[-29.95,57.41],[-28.42,57.06],[-28.67,57.35],[-28.08,57.36],[-29.12,57.6],[-28.7,57.55],[-29.41,58.38],[-29.23,58.91],[-27.57,58.01],[-27.24,58.09],[-28.17,58.82],[-25.91,59.19],[-26.67,59.27],[-25.87,59.78],[-27.35,59.09],[-28.99,59.11],[-27.6,59.64],[-29.4,59.26],[-29.85,59.62],[-28.26,59.82],[-29.88,59.72],[-28.92,60.09],[-30.19,60.41],[-28.85,60.72],[-27.98,60.39],[-28.48,60.78],[-27.89,60.99],[-26.49,60.19],[-27.28,60.84],[-26.65,60.95],[-26.82,61.23],[-25.83,61.28],[-25.54,60.77],[-25.72,61.33],[-24.53,60.99],[-24.76,61.24],[-23.82,61.39]]]}},{"type":"Feature","properties":{},"geometry":{"type":"Polygon","coordinates":[[[-14.59,41.44],[-14.26,42.08],[-14.74,41.78],[-15.08,42.28],[-14.07,42.82],[-15.05,42.34],[-15.53,42.63],[-14.82,43.07],[-15.75,42.89],[-14.26,43.93],[-15.81,42.95],[-15.96,43.35],[-15.31,43.48],[-15.91,43.49],[-15.29,43.78],[-16.29,43.91],[-14.39,44.26],[-16.28,44.04],[-15.83,44.64],[-14.34,44.61],[-14.99,45],[-16.3,44.41],[-16.08,44.91],[-15.51,44.91],[-16.23,45.03],[-14.5,45.02],[-15.27,45.17],[-15.03,45.52],[-16.32,45.16],[-15.17,45.58],[-15.37,46.12],[-14.87,46.03],[-15.42,46.18],[-15.23,47.05],[-17.55,47.36],[-15.49,47.32],[-16.39,47.9],[-15.91,47.97],[-16.57,47.97],[-16.28,48.2],[-16.72,48],[-16.26,48.39],[-17,48.22],[-16.47,48.59],[-17.43,48.75],[-17.43,48.18],[-18.2,48.11],[-17.93,48.68],[-18.53,49.07],[-18.16,49.5],[-18.75,49.69],[-18.53,50],[-19.25,50.82],[-19.71,50.61],[-19.27,50.94],[-20.6,52.16],[-22.7,52.64],[-24.18,52.36],[-23.83,52.11],[-24.65,52.26],[-25.11,52.54],[-24.48,52.86],[-25.8,53.16],[-23.9,53.46],[-23.93,53.8],[-25.01,53.62],[-26.42,54.31],[-23.98,55.41],[-23.93,56.21],[-23.49,56.35],[-24.69,56.51],[-23.73,57.36],[-23.37,56.99],[-23.64,57.38],[-23,57.4],[-23.15,58.15],[-21.8,57.73],[-22.84,58.29],[-21.72,58.81],[-21.05,58.01],[-21.15,58.54],[-20.09,58.29],[-20.95,59.07],[-18.88,58.64],[-19.24,59.13],[-18.63,59.2],[-19.87,59.53],[-18.25,59.6],[-20.08,59.88],[-18.22,59.89],[-18.55,60.06],[-18.23,60.33],[-18.91,60.48],[-18.25,60.86],[-16.12,61.18],[-17.53,60.53],[-17.2,60.52],[-17.51,60.07],[-15.87,61.11],[-15.51,60.75],[-14.35,60.99],[-14.55,60.34],[-15.72,59.95],[-15.92,59.4],[-14.24,60.24],[-13.99,59.63],[-13.64,60.59],[-12.42,59.16],[-12.51,60.45],[-11.78,60.47],[-12.11,60.94],[-10.65,61.13],[-10.37,60.08],[-11.61,59.46],[-10.15,59.91],[-10.98,59.15],[-10.36,58.9],[-10.5,59.27],[-9.98,59.44],[-10.07,58.87],[-9.36,58.57],[-9.54,58.02],[-8.61,57.03],[-8.29,57.08],[-8.6,57.42],[-7.83,57.42],[-8.15,57],[-7.08,57.17],[-6.45,56.73],[-7.93,56.5],[-7.33,56.57],[-7.86,56.13],[-6.43,56.14],[-6.95,55.69],[-6.15,55.88],[-5.25,55.41],[-6.66,55.36],[-5.54,55.14],[-6.29,54.88],[-4.32,54.82],[-5.63,54.46],[-4.49,54.42],[-5.5,54.16],[-4.68,53.69],[-4.99,54.06],[-4.24,54.12],[-3.95,53.73],[-4.56,53.27],[-5.62,53.44],[-4.82,53.62],[-6.49,53.41],[-5.71,53.17],[-6.01,52.74],[-6.77,52.79],[-6.16,52.69],[-6.64,52.41],[-5.47,52.71],[-6.3,52.21],[-5.01,52.44],[-5.48,51.96],[-4.86,51.75],[-4.78,52.23],[-3.42,52.1],[-3.48,51.76],[-3.03,52.05],[-1.92,51.08],[-2.59,51.2],[-2.32,50.81],[-2.67,50.7],[-3.92,51.28],[-6.3,51.35],[-5.41,51.2],[-5.8,50.9],[-4.27,51.15],[-4.61,50.59],[-5.27,50.62],[-5.03,50.12],[-5.41,49.8],[-4.2,50.21],[-4.86,49.58],[-4.19,49.64],[-3.52,50.37],[-1.85,50.46],[-2.83,48.64],[-4.38,47.52],[-5.84,47.66],[-5.2,47.09],[-5.67,46.7],[-5.71,45.27],[-6.4,45.17],[-6.09,44.92],[-6.99,44.65],[-6.8,44.34],[-7.48,44.89],[-7.29,44.09],[-7.96,44.05],[-8.32,43.7],[-8.09,43.24],[-8.67,43.22],[-7.97,42.6],[-8.58,42.35],[-7.76,41.93],[-8.39,41.97],[-7.85,41.8],[-8.49,41.55],[-8.12,41.03],[-8.93,40.7],[-8.22,40.47],[-8.76,40.5],[-8.06,40.11],[-8.5,39.59],[-8.03,39.5],[-8.51,39.32],[-8.07,39.16],[-8.67,39.08],[-8.09,39.13],[-8.51,38.81],[-8.01,38.63],[-8.85,38.52],[-8.02,38.12],[-8.71,38.3],[-9.27,37.88],[-9,38.43],[-9.31,37.92],[-9.15,38.58],[-9.93,38.25],[-9.58,38.66],[-10.12,38.4],[-9.64,38.95],[-10.07,38.58],[-10.03,39.02],[-10.52,38.38],[-11.36,38.24],[-11.31,38.78],[-12.02,38.73],[-11.56,38.94],[-12.19,38.86],[-11.79,39.01],[-12.35,39.11],[-12.07,39.41],[-13.06,39.68],[-12.84,40.29],[-13.16,39.95],[-13.09,40.42],[-13.73,40.44],[-13.19,40.57],[-14.07,40.73],[-13.77,41.03],[-14.21,41.07],[-13.64,41.34],[-14.32,41.21],[-13.49,41.61],[-13.75,41.84],[-13.14,41.56],[-14.2,42.3],[-13.84,41.86],[-14.59,41.44]]]}}]}
