{"type":"FeatureCollection","features":[{"type":"Feature","properties":{},"geometry":{"type":"Polygon","coordinates":[[[108.85,-82.12],[108.56,-81.95],[109.31,-81.52],[111.4,-81.15],[114.99,-81.45],[110.71,-82.25],[108.85,-82.12]]]}},{"type":"Feature","properties":{},"geometry":{"type":"Polygon","coordinates":[[[132.74,-82.73],[132.29,-82.48],[133.18,-82.54],[132.74,-82.73]]]}},{"type":"Feature","properties":{},"geometry":{"type":"Polygon","coordinates":[[[110.51,-78.06],[111.49,-78.4],[108.34,-78.22],[110.62,-77.74],[110.51,-78.06]]]}},{"type":"Feature","properties":{},"geometry":{"type":"Polygon","coordinates":[[[134.98,-83.23],[134.31,-83.13],[136.44,-83.08],[134.98,-83.23]]]}},{"type":"Feature","properties":{},"geometry":{"type":"Polygon","coordinates":[[[-67.88,-80.81],[-61.69,-81.32],[-66.92,-81.88],[-69.32,-81.26],[-67.88,-80.81]]]}},{"type":"Feature","properties":{},"geometry":{"type":"Polygon","coordinates":[[[135.38,-82.8],[134.54,-82.57],[136.39,-82.54],[135.38,-82.8]]]}},{"type":"Feature","properties":{},"geometry":{"type":"Polygon","coordinates":[[[148.4,-82.57],[148.05,-82.46],[148.94,-82.45],[148.4,-82.57]]]}},{"type":"Feature","properties":{},"geometry":{"type":"Polygon","coordinates":[[[-172.05,-84.26],[-172.84,-84.06],[-170.36,-84.1],[-172.05,-84.26]]]}},{"type":"Feature","properties":{},"geometry":{"type":"Polygon","coordinates":[[[-141.5,-84.35],[-145.44,-84.47],[-140.12,-84.22],[-141.5,-84.35]]]}},{"type":"Feature","properties":{},"geometry":{"type":"Polygon","coordinates":[[[-157.19,-83.69],[-147.54,-84.07],[-152.47,-84.51],[-159,-84.31],[-157.19,-83.93],[-158.52,-83.81],[-157.19,-83.69]]]}},{"type":"Feature","properties":{},"geometry":{"type":"Polygon","coordinates":[[[-164.01,-82.96],[-162.36,-83.26],[-163.72,-83.66],[-160.23,-83.93],[-163.2,-84.04],[-165.71,-83.66],[-165.84,-83.28],[-167.36,-83.33],[-164.01,-82.96]]]}},{"type":"Feature","properties":{},"geometry":{"type":"Polygon","coordinates":[[[-84.86,-81.6],[-87.31,-81.16],[-85.61,-81.11],[-84.86,-81.6]]]}},{"type":"Feature","properties":{},"geometry":{"type":"Polygon","coordinates":[[[-101.82,-81.24],[-99.09,-81.47],[-99.25,-81.04],[-97.77,-80.97],[-97.15,-81.1],[-98.47,-81.41],[-94.9,-81.37],[-100.31,-81.93],[-109.21,-81.91],[-101.82,-81.24]]]}},{"type":"Feature","properties":{},"geometry":{"type":"Polygon","coordinates":[[[92.1,-61.26],[92.3,-62.16],[91.29,-62.08],[92.1,-61.26]]]}},{"type":"Feature","properties":{},"geometry":{"type":"Polygon","coordinates":[[[-69.33,-80.65],[-72.11,-81.23],[-70.39,-81.68],[-73.97,-81.69],[-61.65,-82.93],[-56.9,-83.11],[-59.74,-82.75],[-57.24,-82.7],[-53.44,-83.02],[-55.07,-83.21],[-50.65,-83.22],[-46.04,-84.58],[-43.09,-84.8],[-9.82,-84.97],[-2.21,-86.93],[-23.05,-88.37],[-59.14,-87.98],[-60.97,-87.7],[-59.82,-87.43],[-60.31,-87.33],[-73.04,-86.36],[-77.6,-84.53],[-78.04,-84.12],[-77.47,-83.73],[-77.72,-83.53],[-82.42,-82.68],[-81.8,-81.9],[-75.75,-81.2],[-74.1,-80.48],[-69.33,-80.65]]]}},{"type":"Feature","properties":{},"geometry":{"type":"Polygon","coordinates":[[[-4.78,-80.53],[-5.66,-80.35],[-6.28,-79.59],[-5.62,-78.33],[-6.25,-76.38],[-4.95,-75.74],[-3.37,-75.85],[-5.87,-74.89],[-10.63,-75.3],[-12.45,-74.39],[-11.22,-73.4],[-11.68,-73.33],[-10.72,-72.36],[-11.18,-72.33],[-9.38,-71.34],[-9.62,-70.09],[-7.96,-68.6],[-4.48,-66.99],[-4.39,-66.25],[-5.77,-65.88],[-4.48,-66.08],[-4.6,-65.23],[-2.57,-65.89],[-1.92,-65.65],[-2.79,-64.9],[-2.4,-64.66],[-1.55,-64.56],[-1.1,-65.24],[0.88,-64.8],[0.25,-64.72],[0.22,-63.87],[1.3,-64.28],[1.02,-64.5],[1.62,-64.91],[3.01,-64.94],[5.58,-63.12],[19.77,-61.91],[25.86,-60.7],[25.66,-59.8],[26.19,-59.61],[29.72,-60.94],[30.47,-60.47],[30.38,-59.81],[32.43,-58.85],[34.57,-58.5],[35.03,-58.02],[36.3,-58.35],[37.1,-57.98],[36.39,-57.7],[37.06,-57.51],[37.44,-57.96],[38.25,-57.87],[37.8,-57.43],[38.06,-56.99],[40.4,-56.53],[41.79,-56.7],[43,-57.32],[42.21,-57.54],[44.25,-58.19],[51.97,-58.78],[52,-59.71],[51.24,-59.93],[51.89,-59.93],[51.16,-60.09],[51.7,-60.25],[50.85,-60.26],[50.62,-60.57],[51.13,-60.82],[50.24,-61.2],[50.98,-61.3],[50.97,-61.77],[52.31,-62.49],[54.23,-60.98],[55.88,-60.97],[58.79,-59.59],[62.97,-58.83],[68.68,-58.78],[73,-59.4],[74.05,-59.34],[74.15,-58.66],[75.35,-58.72],[75.07,-59.13],[75.67,-59.36],[77.38,-59.16],[78.92,-59.6],[81.39,-60.82],[85.46,-60.14],[86.06,-61.01],[87.36,-61.12],[88.23,-61.91],[91.06,-62.13],[90.85,-62.44],[95.49,-62.31],[96.37,-63.26],[97.5,-63.45],[98.69,-62.81],[98.48,-62.47],[102.15,-63.38],[103.5,-62.6],[103.73,-63.05],[103.17,-63.33],[103.94,-63.88],[110.22,-65.82],[112.19,-65.81],[111.94,-66.2],[110.38,-66.32],[112.97,-67.04],[111.82,-67.45],[114.69,-67.85],[114.52,-68.3],[117.18,-68.33],[117.68,-68.68],[117.28,-69.12],[120.56,-70.03],[121.24,-70.8],[120.85,-70.9],[121.08,-71.25],[125.91,-72.44],[125.48,-72.46],[126.64,-72.76],[126.38,-73.13],[127.45,-73.91],[128.19,-73.68],[127.9,-74.18],[122.79,-75.22],[120.15,-74.94],[117.46,-75.1],[116.71,-75.62],[114.82,-75.59],[115.47,-75.18],[113.67,-75.37],[113.03,-75.64],[114.31,-76.1],[112.59,-75.83],[106.59,-77.65],[107.14,-77.83],[104.52,-78.03],[106.87,-78.15],[105.61,-78.47],[106.13,-78.72],[105.67,-78.85],[103.93,-78.37],[99.29,-78.21],[87.54,-80.35],[85.19,-80.24],[85.48,-80.33],[84.95,-80.47],[86.91,-80.54],[81.27,-81.27],[82.23,-81.39],[76.48,-82.66],[67.52,-82.5],[77.31,-82.76],[72.59,-83.65],[63.08,-83.94],[57.31,-84.55],[58.58,-84.94],[49.49,-85.48],[66.51,-85.26],[89.6,-85.78],[83.06,-87.16],[35.65,-85.58],[11.29,-85.5],[6.39,-83.62],[-1.35,-82.04],[-4.78,-80.53]]]}},{"type":"Feature","properties":{},"geometry":{"type":"Polygon","coordinates":[[[179.99,-84.15],[179.99,-89.99],[-179.99,-89.99],[-179.99,-84.15],[-140.97,-84.84],[-136.79,-84.83],[-137.39,-84.42],[-134.81,-84.18],[-133.83,-84.26],[-135.45,-84.52],[-132.72,-84.35],[-132.35,-84.45],[-133.65,-84.71],[-130.77,-85.2],[-126.19,-84.96],[-128,-84.87],[-127.01,-84.74],[-128.1,-84.54],[-127.28,-84.48],[-118.8,-84.98],[-115.36,-84.65],[-109.68,-85.25],[-107.71,-85.05],[-108.55,-84.59],[-95.31,-84.5],[-101.14,-84.09],[-98.99,-83.81],[-99.63,-83.63],[-105.51,-83.29],[-100.63,-83.01],[-101.12,-82.84],[-106.87,-83.15],[-109.87,-82.7],[-92.85,-82.39],[-90.55,-82.01],[-91.36,-81.79],[-88.92,-81.98],[-82.1,-81.25],[-83.72,-80.9],[-83.08,-80.8],[-76.91,-81.06],[-76.23,-80.86],[-76.56,-80.63],[-70.06,-80.76],[-67.48,-82.45],[-61.81,-83.77],[-59.94,-84.76],[-51.79,-85.18],[-48.48,-85.9],[-39.84,-86.64],[-17.04,-87.56],[19.21,-87.73],[38.11,-86.84],[67.65,-86.41],[84.97,-85.41],[86.82,-85.09],[85.57,-84.9],[86.86,-84.86],[88.3,-83.43],[100.75,-83.53],[106.77,-84.77],[110.49,-84.29],[110.61,-83.97],[109.78,-83.74],[115.55,-83.01],[117.9,-82.13],[127.27,-81.21],[126.77,-81.58],[129.16,-81.56],[130.26,-81.96],[129.12,-82.2],[131.35,-82.37],[130.42,-82.99],[130.72,-83.12],[137.18,-83.25],[136.42,-83.44],[136.99,-83.5],[141.95,-83.2],[141.96,-82.79],[139.28,-82.28],[140.02,-82.22],[142.55,-82.28],[143.66,-83],[146.47,-82.56],[163.96,-83.39],[170.54,-83.13],[172.76,-83.34],[171.47,-83.6],[171.77,-83.66],[179.99,-84.15]]]}},{"type":"Feature","properties":{},"geometry":{"type":"Polygon","coordinates":[[[-58.03,-67.33],[-58.96,-67.3],[-58.11,-67.65],[-58.8,-67.56],[-58.16,-67.83],[-58.51,-68.14],[-59.27,-67.71],[-58.74,-67.47],[-59.97,-67.59],[-60.17,-67.29],[-59.64,-67.27],[-60.29,-67.1],[-58.03,-67.33]]]}},{"type":"Feature","properties":{},"geometry":{"type":"Polygon","coordinates":[[[-57.49,-67.42],[-56.38,-67.91],[-57.92,-67.69],[-57.49,-67.42]]]}},{"type":"Feature","properties":{},"geometry":{"type":"Polygon","coordinates":[[[-59.47,-66.94],[-58.92,-67.18],[-60.01,-67.04],[-59.47,-66.94]]]}},{"type":"Feature","properties":{},"geometry":{"type":"Polygon","coordinates":[[[-52.21,-68.28],[-51.44,-68.4],[-52.9,-68.25],[-52.21,-68.28]]]}},{"type":"Feature","properties":{},"geometry":{"type":"Polygon","coordinates":[[[-60.76,-65.61],[-60.23,-65.9],[-61.22,-65.83],[-60.76,-65.61]]]}},{"type":"Feature","properties":{},"geometry":{"type":"Polygon","coordinates":[[[-61.09,-65.43],[-61.72,-65.83],[-61.6,-65.39],[-61.09,-65.43]]]}},{"type":"Feature","properties":{},"geometry":{"type":"Polygon","coordinates":[[[-58.97,-65.57],[-59.75,-66.19],[-60.07,-65.96],[-58.97,-65.57]]]}},{"type":"Feature","properties":{},"geometry":{"type":"Polygon","coordinates":[[[-61.97,-64.69],[-62.09,-65.01],[-61.32,-65.33],[-63.01,-65.12],[-62.57,-64.92],[-62.98,-64.77],[-61.97,-64.69]]]}},{"type":"Feature","properties":{},"geometry":{"type":"Polygon","coordinates":[[[-63.22,-63.66],[-62,-64.65],[-63.22,-64.09],[-63.22,-63.66]]]}},{"type":"Feature","properties":{},"geometry":{"type":"Polygon","coordinates":[[[-60.06,-64.31],[-59.21,-64.57],[-61.07,-64.54],[-60.71,-64.76],[-61.35,-65.02],[-62.05,-64.41],[-61.46,-64.71],[-61.34,-64.23],[-60.06,-64.31]]]}},{"type":"Feature","properties":{},"geometry":{"type":"Polygon","coordinates":[[[-61.26,-66.04],[-59.61,-66.56],[-60.17,-65.95],[-59.18,-66.33],[-59.25,-66.67],[-58.37,-66.71],[-58.89,-66.9],[-58.09,-66.8],[-58.9,-65.91],[-57.32,-65.69],[-58.72,-65.4],[-57.77,-65.12],[-58.03,-64.89],[-56.41,-64.88],[-55.57,-65.28],[-55.54,-65.82],[-56.11,-65.84],[-55.41,-66.91],[-53.17,-68.01],[-55.57,-67.99],[-62.07,-66.06],[-61.26,-66.04]]]}},{"type":"Feature","properties":{},"geometry":{"type":"Polygon","coordinates":[[[-41.56,-66.37],[-43.75,-66.92],[-44.62,-66.61],[-42.83,-66.6],[-43.39,-66.08],[-41.56,-66.37]]]}},{"type":"Feature","properties":{},"geometry":{"type":"Polygon","coordinates":[[[-40.76,-66.44],[-39.3,-66.89],[-42.39,-67.33],[-42.79,-67.03],[-40.76,-66.44]]]}},{"type":"Feature","properties":{},"geometry":{"type":"Polygon","coordinates":[[[-61.12,-61.88],[-61.19,-62.29],[-61.78,-62.11],[-61.12,-61.88]]]}},{"type":"Feature","properties":{},"geometry":{"type":"Polygon","coordinates":[[[-60.72,-61.68],[-60.69,-62.13],[-61.03,-61.83],[-60.72,-61.68]]]}},{"type":"Feature","properties":{},"geometry":{"type":"Polygon","coordinates":[[[-61.23,-61.07],[-60.77,-61.34],[-61.79,-61.33],[-61.23,-61.07]]]}},{"type":"Feature","properties":{},"geometry":{"type":"Polygon","coordinates":[[[-60.08,-60.71],[-60.89,-61.04],[-60.84,-60.37],[-60.2,-60.61],[-59.74,-60.34],[-59.96,-60.07],[-59.19,-60.1],[-60.09,-61.21],[-60.71,-61.24],[-60.08,-60.71]]]}},{"type":"Feature","properties":{},"geometry":{"type":"Polygon","coordinates":[[[-58.95,-59.53],[-59.07,-60.05],[-59.68,-59.86],[-58.95,-59.53]]]}},{"type":"Feature","properties":{},"geometry":{"type":"Polygon","coordinates":[[[-59.53,-59.33],[-59.07,-59.55],[-59.59,-59.74],[-59.53,-59.33]]]}},{"type":"Feature","properties":{},"geometry":{"type":"Polygon","coordinates":[[[-59.64,-59.3],[-60.04,-59.91],[-59.78,-59.55],[-60.17,-59.52],[-59.64,-59.3]]]}},{"type":"Feature","properties":{},"geometry":{"type":"Polygon","coordinates":[[[-58.05,-59.37],[-57.61,-59.55],[-58.49,-59.38],[-58.05,-59.37]]]}},{"type":"Feature","properties":{},"geometry":{"type":"Polygon","coordinates":[[[170.69,-75.25],[169.8,-75.66],[168.12,-75.31],[170.69,-75.25]]]}},{"type":"Feature","properties":{},"geometry":{"type":"Polygon","coordinates":[[[-54.07,-56.54],[-54.1,-56.91],[-54.86,-56.85],[-54.07,-56.54]]]}},{"type":"Feature","properties":{},"geometry":{"type":"Polygon","coordinates":[[[135.31,-76.75],[135.11,-77.17],[134.38,-77.08],[135.31,-76.75]]]}},{"type":"Feature","properties":{},"geometry":{"type":"Polygon","coordinates":[[[-53.5,-53.88],[-53.03,-54.04],[-53.13,-54.49],[-53.85,-54.62],[-53.85,-55.27],[-55.01,-55.1],[-53.5,-53.88]]]}},{"type":"Feature","properties":{},"geometry":{"type":"Polygon","coordinates":[[[128.28,-74.17],[134.84,-75.07],[133.94,-74.71],[138.05,-74.53],[138.4,-74.67],[138.08,-75.14],[138.45,-75.88],[137.16,-76.02],[136.74,-76.57],[137.37,-76.9],[134.83,-76.39],[135.33,-76.58],[133.6,-77.29],[130.88,-77.17],[130.62,-76.98],[131.62,-76.94],[130.38,-76.9],[128.91,-76.18],[128.82,-75.74],[129.91,-75.93],[127.97,-74.93],[127.79,-74.51],[128.28,-74.17]]]}},{"type":"Feature","properties":{},"geometry":{"type":"Polygon","coordinates":[[[157.28,-75.61],[158.21,-75.7],[157.03,-75.76],[158.15,-76.01],[157.77,-76.29],[158.26,-76.49],[161.98,-76.26],[160.57,-76.51],[161.9,-76.48],[160.88,-76.69],[161.52,-77.01],[158.4,-77.73],[136.31,-78.44],[149.16,-77.61],[157.28,-75.61]]]}},{"type":"Feature","properties":{},"geometry":{"type":"Polygon","coordinates":[[[179.99,-74.21],[179.99,-76.15],[177.57,-76.29],[178.34,-76.35],[178.04,-76.41],[172.4,-75.89],[171.55,-75.48],[172.32,-75.36],[171.53,-75.03],[172.19,-74.84],[170.59,-74.36],[173.41,-73.86],[173.2,-74.12],[179.99,-74.21]]]}},{"type":"Feature","properties":{},"geometry":{"type":"Polygon","coordinates":[[[-179.99,-76.15],[-179.99,-74.21],[-166.65,-75.51],[-171.21,-75.94],[-170.37,-76.14],[-170.77,-76.3],[-175.78,-75.72],[-179.99,-76.15]]]}},{"type":"Feature","properties":{},"geometry":{"type":"Polygon","coordinates":[[[138.43,-74.01],[138.77,-74.12],[137.38,-74.08],[138.43,-74.01]]]}},{"type":"Feature","properties":{},"geometry":{"type":"Polygon","coordinates":[[[137.3,-73.4],[138.36,-73.89],[136.77,-73.55],[137.3,-73.4]]]}},{"type":"Feature","properties":{},"geometry":{"type":"Polygon","coordinates":[[[126.76,-73.04],[127.03,-73.4],[126.34,-73.59],[126.76,-73.04]]]}},{"type":"Feature","properties":{},"geometry":{"type":"Polygon","coordinates":[[[114.48,-68.04],[115.34,-68.41],[111.95,-68.08],[114.48,-68.04]]]}},{"type":"Feature","properties":{},"geometry":{"type":"Polygon","coordinates":[[[160.83,-69.61],[161.23,-70.19],[163.79,-70.46],[164.29,-71.16],[163.97,-71.27],[164.89,-71.68],[164.4,-71.72],[164.72,-72.28],[166.57,-72.53],[166.24,-71.81],[167.3,-72.07],[166.88,-72.22],[168.11,-72.99],[171.21,-73.35],[174.61,-72.99],[174.06,-73.85],[173.12,-74.05],[173.34,-74.45],[170.6,-74.55],[170.12,-74.8],[170.75,-75.01],[170.11,-75.49],[167.2,-76.59],[164.76,-76.93],[162.83,-76.57],[165.12,-75.62],[161.03,-74.5],[163.5,-74.12],[164.54,-73.11],[164.43,-72.65],[163.04,-71.74],[163.75,-71.94],[163.34,-71.6],[163.99,-71.54],[162.77,-71.66],[159.94,-69.63],[160.83,-69.61]]]}},{"type":"Feature","properties":{},"geometry":{"type":"Polygon","coordinates":[[[146.77,-58.24],[146.56,-59.28],[146.37,-58.71],[146.77,-58.24]]]}},{"type":"Feature","properties":{},"geometry":{"type":"Polygon","coordinates":[[[121.67,-46.43],[121.87,-47.11],[121.01,-46.95],[121.67,-46.43]]]}},{"type":"Feature","properties":{},"geometry":{"type":"Polygon","coordinates":[[[30.37,-48.37],[31.48,-46.3],[33.12,-45.35],[35.51,-45.74],[35.78,-46.18],[36,-45.71],[36.95,-46.02],[37.02,-45.67],[38.83,-45.3],[39.03,-44.67],[39.32,-45.03],[40.28,-44.87],[40.75,-44],[41.71,-43.88],[41.42,-44.07],[41.87,-45.05],[40.99,-47.46],[40.36,-47.82],[40.29,-47.15],[39.87,-47.17],[39.27,-48.41],[37.82,-49.4],[29.2,-54.08],[26.05,-53.6],[25.3,-52.59],[26.8,-49.91],[30.37,-48.37]]]}},{"type":"Feature","properties":{},"geometry":{"type":"Polygon","coordinates":[[[113.77,-42.92],[113.96,-43.46],[113.21,-43.33],[113.77,-42.92]]]}},{"type":"Feature","properties":{},"geometry":{"type":"Polygon","coordinates":[[[113.89,-42.77],[115.29,-43.31],[114.37,-43.66],[113.89,-42.77]]]}},{"type":"Feature","properties":{},"geometry":{"type":"Polygon","coordinates":[[[123.03,-71.64],[118.9,-70.88],[117.91,-70.03],[118.5,-69.61],[118.34,-69.04],[117.15,-68.3],[118.47,-69.16],[118.25,-68.82],[115.41,-68.2],[116.93,-67.5],[116.41,-66.76],[115.06,-67.63],[113.07,-67.59],[114.57,-67.37],[115.09,-66.63],[116.51,-66.17],[116.35,-65.87],[116.93,-65.73],[116.73,-65.02],[116.47,-65.59],[111.78,-66.65],[111.47,-67.11],[110.12,-66.5],[110.89,-66.63],[110.86,-65.96],[110.41,-65.05],[109.47,-64.77],[110.02,-64.37],[109.27,-64.22],[109.26,-63.76],[106.68,-63.28],[105.27,-62.45],[96.1,-61.46],[89.9,-61.88],[85.07,-60.42],[81.13,-60.52],[79.43,-59.85],[78.24,-58.58],[78.99,-57.83],[80.12,-57.95],[81.71,-56.76],[82.09,-55.33],[83.12,-54.06],[83.46,-50.73],[83.52,-51.09],[83.82,-50.71],[83.59,-51.35],[83.95,-51.43],[84.39,-50.34],[84.12,-51.03],[84.51,-50.88],[84.34,-51.42],[84.67,-51.36],[85.08,-50.97],[85.08,-49.35],[87.5,-47.42],[87.92,-47.39],[87.39,-47.94],[87.67,-48.06],[88.45,-47.61],[92,-47.32],[92.94,-47.82],[98.03,-48.04],[100.49,-47.15],[100.67,-46.29],[102.08,-45.72],[102.31,-47.09],[103.21,-46.48],[102.7,-46.16],[103,-45.72],[104.71,-46.35],[104.02,-46.13],[104.86,-45.61],[104.31,-45.84],[104.41,-45.38],[104.89,-45.19],[105.53,-45.71],[105.13,-45.15],[106.01,-45.35],[105.71,-44.84],[106.53,-44.49],[106.79,-44.98],[107.19,-44.31],[107.32,-44.7],[108.38,-44.38],[109.02,-44.72],[109.79,-45.7],[108.94,-46.48],[109.46,-46.11],[109.63,-46.46],[110.16,-45.8],[111.42,-46.52],[111.97,-45.9],[111.44,-45.6],[113.01,-44.85],[113.34,-44.22],[113.85,-44.37],[113.73,-44.02],[114.16,-44.37],[114.78,-43.83],[116.72,-44.25],[116.81,-43.71],[115.63,-43.23],[115.96,-43.07],[118.61,-44.5],[120.01,-44.88],[120.99,-44.62],[120.58,-44.82],[121.14,-44.75],[121.01,-45.17],[121.9,-44.65],[122.35,-45.17],[121.55,-45.52],[121.77,-45.78],[120.68,-45.92],[120.43,-46.83],[118.99,-47.27],[119.92,-47.68],[119.45,-47.87],[119.97,-47.71],[121.22,-48.44],[120.72,-48.64],[126.34,-50.88],[128.57,-48.61],[128.36,-47.23],[128.87,-46.76],[128.67,-46.34],[129.34,-45.97],[128.71,-45.94],[129.55,-45.45],[129.66,-44.39],[130.24,-44.16],[131.42,-46.37],[131.6,-47.92],[132.69,-47.75],[133.84,-48.57],[133.83,-50.06],[134.63,-50.54],[134.99,-52.52],[138.9,-53.91],[139.17,-54.21],[138.79,-54.37],[140.09,-55.2],[140.38,-56.25],[141.09,-56.31],[141.03,-55.78],[142.04,-56.29],[142.09,-55.98],[142.51,-57.11],[141.79,-56.98],[144.09,-57.59],[146.86,-59.4],[146.79,-60.77],[148.22,-62.05],[147.71,-62.81],[147.74,-64.37],[146.58,-65.7],[147,-65.94],[145.33,-66.35],[144.89,-67.1],[143.73,-67.06],[144.72,-67.39],[144.19,-67.42],[144.67,-67.42],[143.38,-68.49],[143.94,-68.67],[142.37,-69.33],[142.7,-69.47],[142.02,-70.53],[142.36,-71.14],[136.62,-71.52],[136.12,-71.76],[137.34,-71.58],[132.88,-72.32],[133.54,-72.44],[133.27,-72.77],[130.78,-72.12],[131.15,-71.83],[129.04,-71.83],[130.25,-71.71],[129.89,-71.36],[126.05,-72.26],[123.03,-71.64]]]}},{"type":"Feature","properties":{},"geometry":{"type":"Polygon","coordinates":[[[125.69,-40.51],[126.08,-40.72],[125.63,-41.25],[124.35,-41],[125.69,-40.51]]]}},{"type":"Feature","properties":{},"geometry":{"type":"Polygon","coordinates":[[[120.02,-38.66],[120.39,-39.09],[119.9,-39.38],[120.02,-38.66]]]}},{"type":"Feature","properties":{},"geometry":{"type":"Polygon","coordinates":[[[120.6,-38.49],[120.55,-38.9],[120.16,-38.6],[120.6,-38.49]]]}},{"type":"Feature","properties":{},"geometry":{"type":"Polygon","coordinates":[[[120.55,-38.08],[120.79,-38.53],[120.23,-38.5],[120.55,-38.08]]]}},{"type":"Feature","properties":{},"geometry":{"type":"Polygon","coordinates":[[[110.55,-13.95],[110.98,-13.54],[111.32,-13.93],[111.17,-14.3],[110.55,-13.95]]]}},{"type":"Feature","properties":{},"geometry":{"type":"Polygon","coordinates":[[[109.09,-15.62],[110.11,-15.41],[110.39,-14.9],[110.88,-15.11],[109.53,-16.48],[109.09,-15.62]]]}},{"type":"Feature","properties":{},"geometry":{"type":"Polygon","coordinates":[[[136.36,-40.4],[138.55,-42.76],[139.48,-42.69],[139.4,-43.17],[140.52,-43.34],[140.26,-43.68],[141.66,-43.86],[140.94,-43.98],[141.4,-44.22],[137.54,-43.68],[134.85,-41.54],[133.17,-41.02],[132.64,-41.36],[131.93,-40.81],[132.34,-41.56],[131.47,-41.4],[131.91,-41.78],[129.98,-41.67],[131.23,-41.97],[131.54,-42.53],[128.5,-42.58],[127.1,-41.44],[127.39,-41.12],[125.77,-41.39],[126.11,-40.72],[125.57,-40.31],[126.84,-40.38],[125.45,-40.04],[126.32,-40.16],[125.36,-39.42],[125.52,-38.85],[125.02,-38.77],[124.63,-37.88],[121.12,-36.73],[127.64,-37.45],[136.36,-40.4]]]}},{"type":"Feature","properties":{},"geometry":{"type":"Polygon","coordinates":[[[106.03,-16.31],[106.46,-16.39],[106.11,-16.69],[106.03,-16.31]]]}},{"type":"Feature","properties":{},"geometry":{"type":"Polygon","coordinates":[[[-0.17,-28.09],[-0.44,-28.44],[-0.64,-28.17],[-0.17,-28.09]]]}},{"type":"Feature","properties":{},"geometry":{"type":"Polygon","coordinates":[[[99.91,-23.67],[100.9,-21.87],[102.3,-21.59],[103.7,-20.29],[105.38,-19.52],[104.96,-19.28],[106.2,-18.44],[110.95,-19.95],[106.55,-21.64],[104.93,-21.59],[104.09,-22.44],[100.69,-23.99],[99.88,-24],[99.91,-23.67]]]}},{"type":"Feature","properties":{},"geometry":{"type":"Polygon","coordinates":[[[105.87,-18.56],[106.49,-17.91],[106.63,-18.37],[106.79,-17.35],[107.76,-17.91],[108.28,-17],[109.95,-16.98],[109.94,-16.07],[110.66,-15.76],[113.55,-16.64],[113,-16.98],[113.34,-17.17],[112.93,-17.74],[113.35,-17.79],[110.11,-20.03],[105.87,-18.56]]]}},{"type":"Feature","properties":{},"geometry":{"type":"Polygon","coordinates":[[[31.11,-58.3],[26.69,-59.81],[24.34,-59.52],[23.61,-58.49],[24.37,-57.97],[27.88,-57.77],[28.32,-57.86],[27.44,-57.86],[31.11,-58.3]]]}},{"type":"Feature","properties":{},"geometry":{"type":"Polygon","coordinates":[[[-23.79,-6.86],[-23.92,-7.55],[-24.84,-7.46],[-24.34,-7.3],[-24.47,-6.85],[-23.79,-6.86]]]}},{"type":"Feature","properties":{},"geometry":{"type":"Polygon","coordinates":[[[103.96,3.37],[104.64,3.94],[105.06,2.74],[104.69,1.7],[103.82,1.48],[103.29,2.18],[103.96,3.37]]]}},{"type":"Feature","properties":{},"geometry":{"type":"Polygon","coordinates":[[[22.42,-2.9],[21.05,-3.87],[20.22,-1.6],[20.66,-1.47],[22.42,-2.9]]]}},{"type":"Feature","properties":{},"geometry":{"type":"Polygon","coordinates":[[[27.7,-6.01],[27.87,-7.38],[27.24,-5.91],[27.7,-6.01]]]}},{"type":"Feature","properties":{},"geometry":{"type":"Polygon","coordinates":[[[36.13,13.47],[36.46,13.19],[35.87,13.1],[36.13,13.47]]]}},{"type":"Feature","properties":{},"geometry":{"type":"Polygon","coordinates":[[[18.31,4.02],[18.23,3.33],[17.68,3.58],[18.31,4.02]]]}},{"type":"Feature","properties":{},"geometry":{"type":"Polygon","coordinates":[[[21.6,7.53],[21.38,7.02],[19.95,6.42],[19.22,6.93],[20.97,8.12],[21.6,7.53]]]}},{"type":"Feature","properties":{},"geometry":{"type":"Polygon","coordinates":[[[23.27,8.15],[21.68,7.61],[22.41,8.46],[23.27,8.15]]]}},{"type":"Feature","properties":{},"geometry":{"type":"Polygon","coordinates":[[[1.84,8.42],[1.37,7.12],[1.94,7.74],[2.35,7.37],[1.29,6.96],[1.11,7.46],[1.84,8.42]]]}},{"type":"Feature","properties":{},"geometry":{"type":"Polygon","coordinates":[[[-0.56,8.32],[-0.44,7.88],[0.82,7.87],[0.27,7.37],[-0.68,7.86],[-0.56,8.32]]]}},{"type":"Feature","properties":{},"geometry":{"type":"Polygon","coordinates":[[[-0.54,11.4],[1.08,10.54],[-0.19,10.82],[-0.54,11.4]]]}},{"type":"Feature","properties":{},"geometry":{"type":"Polygon","coordinates":[[[5.26,10.65],[5.83,11.09],[6.52,10.83],[6.1,9.93],[6.88,10.21],[6.26,9.74],[6.51,9.09],[7.02,9.72],[6.97,8.25],[6.61,8.22],[6.62,8.8],[6.2,8.37],[6.21,9.43],[5.13,8.33],[5.63,9.34],[5.2,8.89],[4.79,8.97],[5.05,9.45],[4.34,8.98],[2.66,9.03],[5.26,10.65]]]}},{"type":"Feature","properties":{},"geometry":{"type":"Polygon","coordinates":[[[4.8,13.1],[5.07,12.88],[4.68,12.8],[4.93,12.56],[4.21,11.2],[5.11,11.49],[4.7,11.04],[5.38,11.05],[5.26,10.65],[2.69,9.16],[3.35,9.94],[2.7,9.95],[3.59,10.4],[3.34,10.74],[3.86,12.14],[4.8,13.1]]]}},{"type":"Feature","properties":{},"geometry":{"type":"Polygon","coordinates":[[[-10.96,16.1],[-10.68,15.48],[-11.43,15.99],[-10.96,16.1]]]}},{"type":"Feature","properties":{},"geometry":{"type":"Polygon","coordinates":[[[8.76,14.79],[9.48,15.16],[8.67,14.96],[9.24,15.7],[8.42,15.78],[8.76,16.22],[8.36,16.62],[9.34,16.71],[9.51,17.17],[9.09,17.17],[9.83,17.95],[9.9,17.51],[10.65,17.89],[11.15,17.25],[10.65,16.84],[10.82,16.37],[8.76,14.79]]]}},{"type":"Feature","properties":{},"geometry":{"type":"Polygon","coordinates":[[[9.79,14.42],[8.91,13.87],[9,14.31],[8.47,14.21],[8.84,14.57],[8.39,14.54],[10.82,16.37],[10.97,14.89],[9.79,14.42]]]}},{"type":"Feature","properties":{},"geometry":{"type":"Polygon","coordinates":[[[20.13,20.62],[20.5,20.19],[19.73,20.41],[20.13,20.62]]]}},{"type":"Feature","properties":{},"geometry":{"type":"Polygon","coordinates":[[[21.05,21.48],[21.28,20.35],[20.33,20.85],[21.04,21],[21.05,21.48]]]}},{"type":"Feature","properties":{},"geometry":{"type":"Polygon","coordinates":[[[-8.92,19.15],[-8.78,18.8],[-9.41,18.39],[-8.92,19.15]]]}},{"type":"Feature","properties":{},"geometry":{"type":"Polygon","coordinates":[[[10.07,20.34],[10.36,19.69],[9.85,20.02],[10.07,20.34]]]}},{"type":"Feature","properties":{},"geometry":{"type":"Polygon","coordinates":[[[25.37,26.04],[25.83,26.09],[25.45,25.28],[25.05,25.76],[25.37,26.04]]]}},{"type":"Feature","properties":{},"geometry":{"type":"Polygon","coordinates":[[[11.54,21.55],[10.97,19.48],[10.29,19.37],[10.7,19.83],[10.33,20.53],[10.75,20.56],[10.63,21.36],[11.54,21.55]]]}},{"type":"Feature","properties":{},"geometry":{"type":"Polygon","coordinates":[[[11.45,20.48],[12.61,20.7],[12.01,19.32],[12.47,19.3],[11.76,19],[12.8,19],[13.29,18.47],[11.47,17.45],[11.44,18.76],[11.23,19.01],[10.97,18.61],[11.05,19.02],[10.78,18.01],[10.69,19.01],[11.45,20.48]]]}},{"type":"Feature","properties":{},"geometry":{"type":"Polygon","coordinates":[[[13.29,18.47],[14.43,17.5],[14.69,17.03],[14.15,17.02],[14.73,16.91],[14.77,16.32],[15.84,16.4],[15.93,15.76],[15.32,14.96],[16.05,14.83],[11.75,12.83],[13.55,14.95],[13.01,14.42],[11.67,14.71],[12.41,15.5],[12.27,15.85],[11.85,15.65],[12.05,16.01],[12.99,16.38],[12.27,17.73],[13.29,18.47]]]}},{"type":"Feature","properties":{},"geometry":{"type":"Polygon","coordinates":[[[25.12,26.46],[25.32,26.1],[24.93,26.18],[25.12,26.46]]]}},{"type":"Feature","properties":{},"geometry":{"type":"Polygon","coordinates":[[[-7.67,24.78],[-8.07,24.05],[-8.17,24.51],[-7.67,24.78]]]}},{"type":"Feature","properties":{},"geometry":{"type":"Polygon","coordinates":[[[-8.88,25.69],[-9.85,25.05],[-9.57,25.7],[-8.88,25.69]]]}},{"type":"Feature","properties":{},"geometry":{"type":"Polygon","coordinates":[[[-6.58,55.67],[-9.06,55.9],[-8.43,56.34],[-6.63,56.09],[-6.58,55.67]]]}},{"type":"Feature","properties":{},"geometry":{"type":"Polygon","coordinates":[[[-9.46,28.89],[-9.44,28.15],[-9.16,28.34],[-8.23,27.15],[-8.47,26.61],[-7.65,26.2],[-8.18,25.99],[-8.93,26.93],[-10.39,26.19],[-10.31,26.85],[-11.06,26.91],[-10.41,27.23],[-9.46,28.89]]]}},{"type":"Feature","properties":{},"geometry":{"type":"Polygon","coordinates":[[[-4.63,30.3],[-4.29,30.07],[-4.52,29.37],[-5.35,29.32],[-5.13,30.14],[-4.63,30.3]]]}},{"type":"Feature","properties":{},"geometry":{"type":"Polygon","coordinates":[[[16.85,33.89],[17.36,33.66],[16.9,33.15],[16.85,33.89]]]}},{"type":"Feature","properties":{},"geometry":{"type":"Polygon","coordinates":[[[-0.83,50.71],[-3.42,51.95],[-4.14,53.27],[-4.58,53.14],[-3.89,52.54],[-4.51,52.46],[-7.34,53.26],[-6.86,53.8],[-6.19,53.62],[-6.58,53.97],[-5.23,53.84],[-5.95,54.4],[-5.21,54.76],[-6,55.09],[-5.38,55.29],[-3.56,54.83],[-3.08,54.17],[-1.3,54.14],[-1.39,53.24],[-0.56,53.44],[-0.7,54.15],[-0.3,53.9],[-0.83,50.71]]]}},{"type":"Feature","properties":{},"geometry":{"type":"Polygon","coordinates":[[[28.36,41.65],[28.87,41.51],[28.62,40.87],[27.97,41.41],[28.36,41.65]]]}},{"type":"Feature","properties":{},"geometry":{"type":"Polygon","coordinates":[[[17.29,34.67],[17.59,34.47],[17.19,34.15],[17.29,34.67]]]}},{"type":"Feature","properties":{},"geometry":{"type":"Polygon","coordinates":[[[-12.63,34.12],[-12.25,32.98],[-13,32.83],[-13.84,33.84],[-12.63,34.12]]]}},{"type":"Feature","properties":{},"geometry":{"type":"Polygon","coordinates":[[[5.19,48.8],[4.75,49.11],[5.01,49.33],[5.59,48.93],[5.19,48.8]]]}},{"type":"Feature","properties":{},"geometry":{"type":"Polygon","coordinates":[[[2.31,26.85],[2.91,25.96],[2.36,25.78],[2.1,25.98],[2.48,26.12],[1.87,26.3],[2.31,26.85]]]}},{"type":"Feature","properties":{},"geometry":{"type":"Polygon","coordinates":[[[29.68,44.9],[30.94,44.92],[30.04,44.55],[29.68,44.9]]]}},{"type":"Feature","properties":{},"geometry":{"type":"Polygon","coordinates":[[[12.71,28.28],[12.97,27.95],[11.99,27.52],[12.71,28.28]]]}},{"type":"Feature","properties":{},"geometry":{"type":"Polygon","coordinates":[[[-0.62,48.69],[-0.18,48.56],[-0.66,48.21],[-0.62,48.69]]]}},{"type":"Feature","properties":{},"geometry":{"type":"Polygon","coordinates":[[[-1.34,48.03],[-2.04,48.53],[-0.86,48.63],[-0.91,48.08],[-1.34,48.03]]]}},{"type":"Feature","properties":{},"geometry":{"type":"Polygon","coordinates":[[[-1.34,8.53],[-0.67,7.47],[0.44,7.01],[0.85,7.31],[1.52,6.73],[-0.88,6.03],[-1.77,4.96],[-2.23,5.97],[-0.98,6.8],[-0.79,6.41],[-0.16,6.81],[-1.3,6.81],[-0.99,7.45],[-3.79,5.88],[-4.28,6.15],[-4.44,5.65],[-5.22,5.51],[-5.96,4.17],[-5.5,3.52],[-5.27,3.84],[-5.26,3.34],[-6.17,3.34],[-6.26,3.7],[-6.39,3.28],[-7.02,3.27],[-4.7,6.36],[-1.34,8.53]]]}},{"type":"Feature","properties":{},"geometry":{"type":"Polygon","coordinates":[[[-17.33,-46.85],[-20.82,-49.62],[-22.66,-50.42],[-20.29,-48.93],[-21.12,-48.37],[-21.3,-49.17],[-22.74,-49.96],[-22.68,-50.42],[-23.66,-51.26],[-26.12,-52.56],[-28.87,-52.48],[-30.93,-51.73],[-31.43,-50.97],[-30.61,-50.17],[-31.17,-50.26],[-31.8,-51.55],[-30.36,-52.65],[-30.71,-53.51],[-38.61,-49.97],[-41.08,-48.32],[-41.29,-45.42],[-42.94,-40],[-42.43,-38.13],[-41.24,-36.5],[-40.8,-33.96],[-34.73,-38.89],[-29.32,-42.24],[-23.23,-45.02],[-17.33,-46.85]]]}},{"type":"Feature","properties":{},"geometry":{"type":"Polygon","coordinates":[[[-37.15,-54.07],[-37.76,-53.74],[-37.55,-54.43],[-37.9,-54.28],[-37.62,-54.48],[-38.77,-55.82],[-40.69,-55.76],[-42.21,-55.15],[-42.78,-56.35],[-42.27,-56.83],[-41.15,-56.63],[-41.37,-57.32],[-43.05,-56.91],[-42.36,-57.37],[-44.06,-57.77],[-45.12,-58.94],[-47.27,-58.93],[-48.61,-59.53],[-48.19,-60.58],[-46.98,-61.02],[-47.58,-61.71],[-54.09,-63.27],[-55.37,-64.25],[-54.98,-64.26],[-54.94,-65.07],[-58.55,-64.73],[-60.33,-65.65],[-61.27,-64.87],[-60.33,-64.88],[-60.94,-65.11],[-60.54,-65.17],[-59.04,-64.81],[-59.22,-64.39],[-60.81,-63.98],[-62.04,-64.25],[-60.85,-64],[-62.1,-63.92],[-61.39,-63.31],[-60.58,-63.77],[-60.1,-63.51],[-60.87,-63.9],[-60.37,-64.03],[-59.54,-63.44],[-59.76,-62.78],[-60.24,-62.96],[-59.59,-63.39],[-60.36,-63.03],[-60.59,-63.34],[-60.18,-63.39],[-60.83,-63.51],[-60.55,-63.06],[-60.99,-63.55],[-60.65,-63.07],[-61.17,-62.89],[-60.4,-62.59],[-60.99,-62.45],[-60.84,-62.17],[-59.59,-62.2],[-59.91,-62],[-59.54,-61.88],[-60.54,-62.17],[-60.05,-61.75],[-60.73,-61.4],[-59.8,-61.72],[-60.12,-61.31],[-59.35,-61.31],[-59.94,-61.25],[-59.47,-61.15],[-59.75,-60.99],[-59.04,-61.26],[-59.37,-60.94],[-58.9,-60.58],[-59.65,-60.75],[-58.66,-60.27],[-58.96,-60.04],[-58.18,-60.02],[-58.77,-59.44],[-57.11,-59.84],[-57.54,-59.71],[-57.28,-59.28],[-58.61,-59.16],[-57.82,-59.2],[-58.12,-58.93],[-57.34,-58.83],[-57.31,-58.39],[-59.02,-58.02],[-57.15,-57.41],[-56.39,-57.58],[-56.67,-58.36],[-55.16,-57.7],[-55.75,-57.69],[-55.4,-57.4],[-54.56,-57.57],[-55.26,-57.16],[-53.65,-56.77],[-54.28,-56.27],[-52.34,-54.97],[-52.55,-54.65],[-52.13,-54.94],[-51.87,-54.45],[-52.37,-54.28],[-51.42,-54.05],[-53.31,-53.89],[-53.14,-53.25],[-51.3,-51.82],[-50.81,-49.75],[-50.09,-49.68],[-46.65,-46.66],[-45.6,-43.81],[-44.83,-43.23],[-44.78,-42.3],[-42.29,-38.84],[-40.57,-44.25],[-40.02,-49.8],[-38.68,-52.35],[-37.15,-54.07]]]}},{"type":"Feature","properties":{},"geometry":{"type":"Polygon","coordinates":[[[-30.85,-5.67],[-28.91,-6.04],[-27.93,-6.86],[-26.43,-6.71],[-27,-6.42],[-24.64,-6.78],[-25.71,-6.81],[-25.29,-7.62],[-23.92,-8.23],[-24.2,-9.08],[-23.27,-9.23],[-22.08,-10.43],[-22.23,-11.62],[-21.83,-11.21],[-20.86,-12.46],[-17.72,-12.93],[-15.63,-14.44],[-15,-15.26],[-14.82,-17.04],[-14.09,-17.85],[-15.93,-19.55],[-15.14,-19.15],[-15.6,-19.78],[-14.84,-19.29],[-12.71,-19.74],[-13.36,-20.83],[-15.09,-21.11],[-13.86,-21.03],[-14.03,-21.46],[-13.09,-20.71],[-12.81,-20.92],[-12.43,-20.14],[-11.76,-20.13],[-9.61,-21.08],[-9.67,-21.51],[-9.13,-21.23],[-8.76,-21.86],[-9.11,-22.08],[-8.68,-22.18],[-9.23,-23.12],[-8.64,-22.34],[-8.32,-22.28],[-8.57,-22.72],[-7.62,-22.27],[-5.58,-23.03],[-3.98,-23.05],[-1.04,-25.3],[1.03,-25.91],[1.48,-27.6],[1.02,-29.33],[-2.85,-33.21],[-3.29,-32.88],[-4.2,-37.91],[-4.98,-38.67],[-5.2,-39.82],[-6.95,-41.56],[-6.92,-42.08],[-8.19,-42.52],[-8.33,-42.97],[-11.3,-42.68],[-16.53,-44.71],[-17.17,-44.54],[-16.73,-44.8],[-17.47,-45.3],[-17.05,-45.42],[-17.69,-47.28],[-24.36,-44.93],[-32.08,-40.78],[-40.62,-33.8],[-40.44,-33.39],[-41.37,-31.94],[-44.66,-29.19],[-45.47,-27.68],[-45.13,-26.96],[-45.98,-24.54],[-46.27,-21.67],[-46.95,-19.53],[-47.88,-18.55],[-47.46,-18.12],[-47.48,-16.8],[-46.04,-16.31],[-45.45,-15.59],[-46.56,-15.04],[-46.2,-13.81],[-45.49,-13.59],[-44.88,-12.29],[-43.7,-12.19],[-43.1,-11.4],[-38.16,-10.6],[-35.82,-7.66],[-32.16,-5.68],[-30.85,-5.67]]]}},{"type":"Feature","properties":{},"geometry":{"type":"Polygon","coordinates":[[[-41.27,-5.95],[-40.77,-6.95],[-40.74,-6.29],[-39.24,-5.85],[-38.49,-4.62],[-36.48,-4.71],[-34.63,-4.02],[-34.22,-4.55],[-35.16,-4.8],[-35.03,-5.73],[-35.8,-6.44],[-35.6,-7.29],[-34.77,-6.83],[-35.01,-5.63],[-33.38,-5.42],[-33.15,-4.7],[-32.96,-5.52],[-31.79,-6.43],[-33.18,-6.67],[-36.92,-8.49],[-39.39,-11.34],[-44.37,-11.93],[-42.21,-10.7],[-42.62,-10.25],[-41.71,-8.07],[-42.18,-7.01],[-41.27,-5.95]]]}},{"type":"Feature","properties":{},"geometry":{"type":"Polygon","coordinates":[[[-30.68,-52.7],[-30.13,-52.99],[-30.22,-53.48],[-31.82,-54.51],[-37.79,-54.55],[-40.51,-50.81],[-41.05,-47.63],[-38.56,-49.25],[-30.68,-52.7]]]}},{"type":"Feature","properties":{},"geometry":{"type":"Polygon","coordinates":[[[-42.01,8.4],[-42.34,7.95],[-44.17,8.49],[-43.66,9.74],[-43.79,13.4],[-44.72,15.34],[-38.37,16.2],[-37.22,17.54],[-36.78,17.33],[-36.3,16.86],[-42.01,8.4]]]}},{"type":"Feature","properties":{},"geometry":{"type":"Polygon","coordinates":[[[-42.12,8.35],[-42.28,7.69],[-43.83,10.13],[-37.51,18.88],[-36.35,17.92],[-37.08,16.77],[-36.16,14.95],[-38.67,11.92],[-40.55,10.81],[-42.12,8.35]]]}},{"type":"Feature","properties":{},"geometry":{"type":"Polygon","coordinates":[[[-40.03,4.5],[-42.05,5.97],[-43.25,8.65],[-41.31,11.64],[-39.35,12.62],[-37.14,14.65],[-36.63,15.48],[-37.42,17.36],[-36.6,18.46],[-35.81,18.23],[-35.55,13.74],[-35.87,10.97],[-37.04,7.85],[-39.2,6.16],[-40.03,4.5]]]}},{"type":"Feature","properties":{},"geometry":{"type":"Polygon","coordinates":[[[-40.27,-13.29],[-40.7,-12.01],[-42.22,-11.67],[-43.14,-10.42],[-45.39,-4.94],[-45.65,-3.24],[-45.35,-1.98],[-44.94,-2.16],[-44.26,-1.59],[-43.79,-0.32],[-43.44,2.82],[-43.79,3.93],[-43.11,4.6],[-43.11,7.49],[-42.18,9.88],[-42.02,5.93],[-41.48,4.23],[-39.83,0.04],[-38.05,-1.86],[-40.29,-8.06],[-40.36,-9.58],[-39.36,-13.64],[-40.27,-13.29]]]}},{"type":"Feature","properties":{},"geometry":{"type":"Polygon","coordinates":[[[-29.42,-0.71],[-28.71,-2.82],[-26.09,-3.11],[-25.74,-3.5],[-24.86,-6.18],[-26.76,-5.81],[-26.78,-6.12],[-28.21,-6.09],[-27.62,-5.74],[-28.18,-5.55],[-29.51,-6.08],[-30.76,-5.63],[-30.8,-5.94],[-31.66,-2.75],[-30.52,-0.9],[-29.42,-0.71]]]}},{"type":"Feature","properties":{},"geometry":{"type":"Polygon","coordinates":[[[-42.37,7.61],[-43.49,6.14],[-43.93,1.69],[-44.9,-0.37],[-44.64,-1.81],[-45.32,-1.96],[-45.56,0.93],[-44.89,1.5],[-44.73,3.09],[-45.21,3.18],[-45.39,4.78],[-44.77,4.06],[-44.24,4.74],[-44.39,6.63],[-42.93,10.02],[-42.97,11.35],[-43.79,12.97],[-42.52,16.09],[-42.64,12.74],[-41.92,10.34],[-42.37,7.61]]]}},{"type":"Feature","properties":{},"geometry":{"type":"Polygon","coordinates":[[[-41.37,4.27],[-41.1,4.64],[-42.09,6.02],[-42.33,8.78],[-43.22,10.17],[-42.79,10.46],[-42.06,10.5],[-40.62,9.51],[-38.34,4.61],[-36.31,3.17],[-35.2,1.64],[-35,0.49],[-36.18,-3.65],[-39.89,0.61],[-41.37,4.27]]]}},{"type":"Feature","properties":{},"geometry":{"type":"Polygon","coordinates":[[[-13.51,53.41],[-12.85,54.13],[-12.42,53.88],[-11.24,54.36],[-8.52,53.55],[-10.84,52.16],[-11.18,52.65],[-12.73,52.13],[-13.51,53.41]]]}},{"type":"Feature","properties":{},"geometry":{"type":"Polygon","coordinates":[[[-12.7,52.05],[-11.43,51.74],[-12.34,51.97],[-12.02,51.47],[-10.66,51.65],[-8.27,50.81],[-8.4,50.23],[-9.66,49.79],[-9.81,48.53],[-11.45,47.4],[-11.71,46.72],[-12.34,47.22],[-12.47,46.74],[-14.65,46.74],[-19.91,44.64],[-21.21,44.44],[-21.88,45.03],[-20.92,48.21],[-18.63,48.63],[-15.31,50.38],[-13.22,50.93],[-12.7,52.05]]]}},{"type":"Feature","properties":{},"geometry":{"type":"Polygon","coordinates":[[[-8.33,2.63],[-9.22,1.24],[-9.69,1.99],[-9.44,0.77],[-10.37,-0.41],[-9.98,0.39],[-10.4,1.35],[-9.94,2.02],[-10.51,1.79],[-10.5,0.55],[-11.2,1.1],[-10.47,0.38],[-10.96,0.57],[-10.67,-0.47],[-11.13,-0.16],[-10.44,-0.59],[-10.28,-1.77],[-10.46,-0.8],[-10.43,-1.46],[-11.19,-1.44],[-10.46,-1.91],[-11.45,-1.91],[-11.11,-2.16],[-11.57,-2.35],[-11.06,-2.54],[-15.24,-4.15],[-16.08,-5.36],[-15.82,-9.84],[-16.57,-11.35],[-17.19,-11.22],[-17.53,-10.36],[-17.36,-9.56],[-17.66,-9.67],[-18,-8.63],[-17.62,-8.24],[-18.04,-8.22],[-17.56,-7.27],[-18.56,-5.66],[-19.7,-5.91],[-20.17,-4.91],[-21.76,-4.72],[-21.56,-4.17],[-21.83,-4.61],[-22.78,-4.31],[-24.63,-2.77],[-21.63,-3.1],[-17.62,-2.75],[-14.73,-1.42],[-10.97,1.55],[-8.33,2.63]]]}},{"type":"Feature","properties":{},"geometry":{"type":"Polygon","coordinates":[[[-44.59,-8.05],[-43.18,-11.29],[-43.49,-13.34],[-47.58,-14.21],[-48.92,-13.45],[-48.75,-12.89],[-49.22,-13.31],[-48.89,-12.41],[-48.14,-12.37],[-47.01,-9.9],[-46.82,-10.28],[-46.44,-10],[-47.02,-9.11],[-47.13,-6.15],[-46.09,-3.55],[-45.51,-4.29],[-45.56,-5.68],[-44.59,-8.05]]]}},{"type":"Feature","properties":{},"geometry":{"type":"Polygon","coordinates":[[[-10.19,32.97],[-10.56,32.9],[-10.69,31.82],[-9.65,32.47],[-9.81,30.24],[-7.96,31.72],[-8.07,32.65],[-6.85,32.1],[-7.28,32.11],[-6.62,31.47],[-7.4,30.99],[-7.34,29.48],[-8.46,29.07],[-8.82,29.91],[-8.64,28.91],[-9.79,29.64],[-9.54,29.17],[-10.5,28.56],[-12.08,29.75],[-10.37,28.33],[-11.24,27.57],[-12.13,27.89],[-12.76,27.29],[-14.12,28.33],[-13.15,27.71],[-12.9,26.91],[-13.82,27.01],[-13.85,26.56],[-14.89,26.45],[-14.7,26.13],[-15.36,26.02],[-16.72,23.99],[-15.88,23.35],[-16.36,21.56],[-15.09,21.44],[-12.64,18.63],[-11.02,18.06],[-11.59,15.97],[-10.82,14.13],[-10.46,13.89],[-10.05,14.31],[-9.88,13.76],[-9.37,14.88],[-9.67,17.26],[-8.35,17.65],[-7.4,18.66],[-7.35,20.27],[-8.1,21.08],[-7.14,22.05],[-7.04,23.09],[-7.42,23.1],[-6.87,23.76],[-7.07,24.54],[-6.61,24.78],[-5.85,24.14],[-4.77,24.38],[-3.82,23.37],[-3.92,22.92],[-2.83,22.71],[-3.01,21.73],[-3.74,21.81],[-3.07,21.62],[-2.84,20.69],[-3.6,20.36],[-2.68,20.54],[-2.39,20.14],[-3.16,19.38],[-2.29,20.16],[-2.19,19.49],[-1.36,20.37],[-1.21,19.81],[-0.59,20.86],[-0.84,21.23],[-0.19,21.7],[0.31,20.62],[-0.08,20.47],[0.57,20.12],[0.14,19.72],[0.73,19.9],[0.27,19.4],[0.78,19.59],[1.08,19.04],[0.71,18.91],[1.38,18.5],[1.18,18.02],[0.66,18.19],[1.77,16.94],[1.98,17.18],[1.76,16.39],[2.31,16.74],[2.22,16.14],[2.68,16.64],[2.7,16.23],[3.78,16.01],[1.71,14.65],[3.72,15.63],[3.84,14.89],[4.66,15.01],[4.84,14.1],[4.35,14.06],[4.9,13.57],[4.12,12.86],[3,12.87],[2.08,11.59],[-2.02,11.8],[-2.69,10.9],[-3.88,10.45],[-5.53,8.69],[-1.96,10.72],[-1.1,10.68],[-0.61,10.08],[-1.37,9.5],[-2.41,9.54],[-0.99,9.2],[-1.34,8.53],[-4.7,6.36],[-7.02,3.27],[-11.04,1.53],[-16.44,-2.33],[-21.67,-3.2],[-27.95,-2.12],[-32.9,-3.32],[-33.5,-5.36],[-35.83,-4.19],[-36.03,-2.58],[-35.01,1.1],[-36.21,3.61],[-35.49,4.85],[-33.37,6.56],[-32.04,11.5],[-32.47,15.77],[-31.62,23.67],[-32.69,27.81],[-32.6,29.15],[-31.33,33.1],[-29.86,33.99],[-28.42,36.1],[-29.18,39.74],[-26.7,41.97],[-26.57,42.6],[-26.21,41.95],[-25.87,42.51],[-24.89,42.38],[-25.31,42.02],[-22.96,41.39],[-24.4,41.56],[-24.71,41.37],[-24.06,41.36],[-24.53,40.98],[-23.75,41.21],[-22.32,40.73],[-22.17,41.16],[-22.65,39.66],[-21.52,40.04],[-22.29,39.41],[-21.02,39.07],[-20.46,37.55],[-19.58,36.78],[-19.56,36.17],[-20.49,35.99],[-18.45,35],[-18.15,33.95],[-18.5,33.98],[-18.47,33.01],[-17.85,34.38],[-16.37,34.61],[-17.82,34.94],[-16.37,34.96],[-16.28,33.67],[-15.84,33.79],[-15.63,33.11],[-14.13,32.5],[-13.48,33.15],[-13,32.68],[-13.3,32.46],[-12.82,32.58],[-13.47,31.92],[-13.15,31.47],[-12.77,32.31],[-11.63,32.5],[-11.61,32.97],[-12.09,32.8],[-11.28,33.35],[-12.09,34.33],[-10.63,35.77],[-10.22,35.4],[-10.21,33.67],[-11.01,33.41],[-10.19,32.97]]]}},{"type":"Feature","properties":{},"geometry":{"type":"Polygon","coordinates":[[[-36.02,32.66],[-36.24,30.88],[-37.84,27.69],[-38.23,29.15],[-37.62,31.19],[-36.02,32.66]]]}},{"type":"Feature","properties":{},"geometry":{"type":"Polygon","coordinates":[[[-31.19,42.03],[-32.17,40.67],[-31.44,37.3],[-32.96,35.21],[-34.47,34.35],[-35.85,30.42],[-35.97,29.08],[-34.97,24.93],[-35.81,18.23],[-39.58,20.96],[-40.03,22.16],[-37.7,25.73],[-37.46,28.2],[-35.34,35.7],[-35.52,45.46],[-34.32,45.39],[-30.85,43.63],[-29.35,43.76],[-29.51,43.14],[-31.19,42.03]]]}},{"type":"Feature","properties":{},"geometry":{"type":"Polygon","coordinates":[[[30.34,50.84],[30.43,50.36],[30.05,50.65],[30.34,50.84]]]}},{"type":"Feature","properties":{},"geometry":{"type":"Polygon","coordinates":[[[12.64,30.18],[13.49,30.02],[13.55,29.64],[12.64,30.18]]]}},{"type":"Feature","properties":{},"geometry":{"type":"Polygon","coordinates":[[[12.9,30.44],[13.46,30.23],[12.49,30.22],[12.9,30.44]]]}},{"type":"Feature","properties":{},"geometry":{"type":"Polygon","coordinates":[[[-15.7,40.12],[-16.41,39.52],[-15.6,39.57],[-15.28,38.99],[-15.78,38.74],[-14.65,38.88],[-15.09,37.48],[-13.91,38.91],[-13.4,38.29],[-14.38,36.45],[-13.69,35.11],[-13.99,34.64],[-14.9,35.13],[-15.16,34.54],[-14.58,34.74],[-14.71,34.2],[-16.02,34.73],[-16.15,35.51],[-17.56,35.37],[-19.28,36.08],[-18.78,36.66],[-19.66,37.54],[-19.21,38.19],[-17.26,37.12],[-17.72,37.96],[-19.01,38.7],[-18.92,39.16],[-17.43,38.84],[-18.51,39.39],[-18.1,39.5],[-18.43,39.89],[-17.38,40.3],[-15.7,40.12]]]}},{"type":"Feature","properties":{},"geometry":{"type":"Polygon","coordinates":[[[25.27,45.39],[25.86,45.6],[27.01,44.59],[29.14,44.43],[27.9,43.54],[27.03,43.96],[26.55,43.47],[25.96,43.77],[25.81,44.63],[25.31,44.46],[25.27,45.39]]]}},{"type":"Feature","properties":{},"geometry":{"type":"Polygon","coordinates":[[[12.26,30.66],[12.97,30.56],[12.04,30.36],[12.26,30.66]]]}},{"type":"Feature","properties":{},"geometry":{"type":"Polygon","coordinates":[[[28.32,49.02],[28.52,48.56],[27.97,48.79],[28.32,49.02]]]}},{"type":"Feature","properties":{},"geometry":{"type":"Polygon","coordinates":[[[-12.7,38.79],[-13.37,38.05],[-13.46,38.86],[-12.7,38.79]]]}},{"type":"Feature","properties":{},"geometry":{"type":"Polygon","coordinates":[[[-4.86,35.92],[-3.84,35.45],[-3.61,34.75],[-4.88,34.88],[-4.86,35.92]]]}},{"type":"Feature","properties":{},"geometry":{"type":"Polygon","coordinates":[[[-4.54,26.58],[-5.88,26.29],[-6.54,26.93],[-5.9,27.61],[-4.13,27.29],[-4.45,28.05],[-3.23,29],[-3.62,30.47],[-4.3,30.95],[-4.85,30.7],[-4.3,31.15],[-5.26,32.85],[-5.42,32.04],[-6.5,32.52],[-6.31,32.05],[-6.6,32.64],[-6.93,32.82],[-6.76,32.23],[-9.06,33.67],[-9.06,34.26],[-8.17,33.88],[-9.01,34.79],[-7.39,36.47],[-6.31,36.25],[-7.38,35.46],[-7.26,33.92],[-8.1,33.86],[-7.33,33.64],[-6.99,34.23],[-7.41,34.75],[-6.77,34.68],[-7.05,35.3],[-6.54,35.4],[-6.75,35.74],[-6.36,35.53],[-6.58,35.88],[-5.24,35.96],[-5.11,34.91],[-5.64,34.15],[-5.03,34.65],[-4.51,33.76],[-4.79,34.32],[-4.33,34.22],[-4.42,34.67],[-3.4,34.34],[-3.92,33.61],[-3.12,33.76],[-3.64,33.56],[-3.64,33.03],[-2.97,33.54],[-3.22,32.83],[-2.62,33.36],[-2.15,32.91],[-2.8,32.33],[-1.98,32.69],[-2.51,31.7],[-1.73,32.48],[-2.08,32.09],[-1.15,32.05],[-1.97,31.64],[-1.34,31.72],[-1.95,31.22],[-1.13,31.85],[-0.8,31.45],[-1.99,31.15],[-0.64,30.76],[-1.6,30.93],[-1.14,30.31],[-1.82,30.4],[-0.71,29.94],[-1.24,29.8],[-0.59,29.61],[-0.65,29.26],[-0.44,29.51],[-0.52,29.07],[0.08,29.43],[-0.16,29.1],[0.38,28.78],[0.03,28.45],[0.76,28.75],[0.4,28.25],[1.22,28.46],[1.55,28.02],[0.81,27.75],[1.23,27.42],[0.73,27.53],[0.88,26.99],[0.5,27.35],[0.45,26.31],[-0.42,27.21],[0.15,27.79],[-0.58,27.42],[-0.36,27.85],[-0.61,27.59],[-1.45,28.18],[-1.15,27.54],[-1.7,27.63],[-1.66,26.99],[-1.26,27.19],[-1.07,26.22],[-0.99,26.53],[-0.3,25.94],[-0.61,25.78],[-0.11,25.43],[-0.11,24.69],[-0.46,25.26],[-0.17,24.35],[-0.49,24.5],[-0.48,24.03],[-1.08,24.92],[-1.12,24.51],[-2.25,25.35],[-0.92,23.36],[-3.53,24.78],[-3.83,25.21],[-3.36,25.31],[-4.02,25.64],[-4.19,26.5],[-4.64,26.23],[-4.54,26.58]]]}},{"type":"Feature","properties":{},"geometry":{"type":"Polygon","coordinates":[[[6.54,67.01],[5.87,67.71],[8.57,67.29],[6.54,67.01]]]}},{"type":"Feature","properties":{},"geometry":{"type":"Polygon","coordinates":[[[-10.96,38.14],[-10.22,37.73],[-11.14,37.16],[-10.75,36.33],[-12.23,35.69],[-12.64,37.59],[-12.27,37.78],[-12.15,37.26],[-11.69,37.27],[-11.81,38.03],[-10.96,38.14]]]}},{"type":"Feature","properties":{},"geometry":{"type":"Polygon","coordinates":[[[-8.88,37.55],[-7.98,36.93],[-10.63,35.79],[-9.85,37.38],[-8.88,37.55]]]}},{"type":"Feature","properties":{},"geometry":{"type":"Polygon","coordinates":[[[7.52,66.82],[7.86,66.67],[7.17,66.61],[7.52,66.82]]]}},{"type":"Feature","properties":{},"geometry":{"type":"Polygon","coordinates":[[[24.59,60.06],[25.31,60.34],[25.24,59.92],[24.59,60.06]]]}},{"type":"Feature","properties":{},"geometry":{"type":"Polygon","coordinates":[[[-16.42,42.28],[-16.37,41.46],[-15.72,41.29],[-15.83,40.35],[-18.34,40.43],[-19.09,40.02],[-20.26,40.34],[-20.19,41.57],[-17.8,42.23],[-17.44,42.83],[-16.42,42.28]]]}},{"type":"Feature","properties":{},"geometry":{"type":"Polygon","coordinates":[[[13.62,33.05],[13.85,32.72],[13.43,32.69],[13.62,33.05]]]}},{"type":"Feature","properties":{},"geometry":{"type":"Polygon","coordinates":[[[2.99,65.71],[0.53,65.91],[1.78,66.32],[3.54,65.8],[3.28,65.43],[2.99,65.71]]]}},{"type":"Feature","properties":{},"geometry":{"type":"Polygon","coordinates":[[[-6.13,38.08],[-6.42,37.32],[-6.97,37.35],[-7.13,37.96],[-6.13,38.08]]]}},{"type":"Feature","properties":{},"geometry":{"type":"Polygon","coordinates":[[[9.46,65.04],[9.79,65.07],[9.3,64.62],[9.46,65.04]]]}},{"type":"Feature","properties":{},"geometry":{"type":"Polygon","coordinates":[[[7.22,64.55],[6.74,65.15],[6.01,64.69],[3.94,65.51],[5.96,66.09],[8.17,66.06],[8.98,65.52],[8.29,64.69],[7.22,64.55]]]}},{"type":"Feature","properties":{},"geometry":{"type":"Polygon","coordinates":[[[-7.12,40.44],[-7.13,40.09],[-7.52,40.26],[-7.12,40.44]]]}},{"type":"Feature","properties":{},"geometry":{"type":"Polygon","coordinates":[[[-6,39.47],[-6.91,38.36],[-7.93,38.59],[-7.22,38.99],[-7.92,39.54],[-7.46,39.32],[-6.91,39.89],[-7.03,39.17],[-6.69,39.77],[-6,39.47]]]}},{"type":"Feature","properties":{},"geometry":{"type":"Polygon","coordinates":[[[-7.79,41.35],[-8.77,40.65],[-8.22,40.17],[-9.15,39.79],[-11.33,41.1],[-11.19,41.39],[-9.92,40.92],[-10.68,41.47],[-10.25,41.7],[-10.99,41.67],[-11.1,42.4],[-9.87,42.08],[-9.89,42.58],[-9.15,42.42],[-9.67,41.14],[-9.29,40.65],[-8.6,41.44],[-7.79,41.35]]]}},{"type":"Feature","properties":{},"geometry":{"type":"Polygon","coordinates":[[[22.42,49.82],[23.57,49.7],[23.93,47.77],[24.75,46.86],[24.4,46.72],[25.77,45.7],[25.13,45.11],[25.13,45.72],[24.49,45.22],[24.29,45.76],[24.74,46],[24.2,45.82],[24.01,46.47],[23.21,46.46],[23.37,46.99],[22.61,48.11],[22.93,49.27],[22.42,49.82]]]}},{"type":"Feature","properties":{},"geometry":{"type":"Polygon","coordinates":[[[-5.06,39.27],[-4.78,38.87],[-5.2,38.48],[-4.48,38.35],[-4.31,37.73],[-4.87,37.94],[-4.9,37],[-2.76,36.26],[-2.75,35.18],[-3.71,35.14],[-3.88,35.76],[-4.35,35.54],[-6.18,36.82],[-5.13,38.36],[-5.75,38.63],[-5.64,39.25],[-5.06,39.27]]]}},{"type":"Feature","properties":{},"geometry":{"type":"Polygon","coordinates":[[[-8.14,43.21],[-9.67,42.76],[-9.22,43.16],[-10.72,43.18],[-10.42,43.48],[-11.04,43.81],[-8.14,43.21]]]}},{"type":"Feature","properties":{},"geometry":{"type":"Polygon","coordinates":[[[55.25,31.37],[55.38,31.01],[54.72,30.66],[53.16,32.73],[48.32,34.96],[46.86,37.9],[38.72,42.51],[37.56,44.73],[41.75,44.9],[48.04,44.02],[52.47,44.57],[58.66,43.21],[64.59,43.92],[72.76,45.68],[70.28,39.63],[68.34,30.89],[64.28,28.49],[59.26,27.76],[57.12,28.18],[56.98,30.28],[55.92,30.25],[55.25,31.37]]]}},{"type":"Feature","properties":{},"geometry":{"type":"Polygon","coordinates":[[[81.06,32.88],[81.82,32.17],[82.06,30.73],[79.73,29.98],[72.45,31.18],[70.03,30.64],[68.06,32.28],[66.6,36.63],[65.11,37.86],[71.56,37.63],[76.37,36.8],[81.06,32.88]]]}},{"type":"Feature","properties":{},"geometry":{"type":"Polygon","coordinates":[[[78.61,47.22],[78.6,46.66],[76.82,44.59],[70.77,40.48],[72.76,45.68],[76.49,46.33],[78.61,47.22]]]}},{"type":"Feature","properties":{},"geometry":{"type":"Polygon","coordinates":[[[118.9,43.71],[119.83,43.67],[119.2,43.39],[119.77,43.27],[120.4,43.58],[120.15,43.15],[120.57,43.86],[121.45,43.7],[122.4,42.51],[121.81,42.42],[122.16,41.37],[121.14,40.61],[120.28,38.44],[114.38,33.94],[112.36,33.48],[111.78,33.77],[111.91,34.26],[110.75,33.69],[107.09,35.55],[95.89,37.61],[86.78,38.28],[83.87,39.74],[78.04,41.12],[76.38,42.29],[75.42,44.03],[80.46,42.42],[86.13,42.12],[90.04,42.84],[93.69,42.72],[96.86,43.69],[101.12,43.52],[104.85,45.47],[107.77,46.2],[112.54,44.55],[118.9,43.71]]]}},{"type":"Feature","properties":{},"geometry":{"type":"Polygon","coordinates":[[[27.45,58.95],[29.28,58.86],[28.32,58.98],[28.09,59.6],[26.5,60.02],[26.8,59.74],[26.01,59.73],[25.69,60.03],[26.13,60.38],[25.47,60.38],[26.69,60.88],[25.19,61.28],[24.58,62.03],[25.28,62.13],[24.9,62.94],[24.1,63.47],[22.08,63.18],[22.16,63.72],[21.15,64.13],[21.15,64.78],[22.56,65.41],[23.42,65.29],[23.61,65.57],[23.02,65.4],[23.88,65.65],[24.3,66.45],[23.49,66.74],[21.87,66.33],[22.19,66.5],[24.1,67.34],[28.95,68.34],[29.23,68.83],[26.4,71.72],[19.62,76.2],[18.66,77.93],[19.96,79.1],[23.83,80.42],[27.55,80.01],[29.22,80.31],[34.13,79.36],[36.22,79.45],[35.35,79.22],[40.35,78.24],[58.8,77.36],[66.95,76.04],[68.17,76.39],[67.44,77],[71.03,77.04],[72.62,76],[73.08,73.29],[72.94,72.42],[70.83,70.3],[70.36,68.79],[71.67,67.72],[78.39,64.39],[77.93,61.32],[79.56,58.94],[78.76,56.3],[79.21,53.78],[78.77,51.69],[75.52,47.21],[72.76,45.68],[64.59,43.92],[58.66,43.21],[52.47,44.57],[46.02,44.15],[40.3,44.97],[36.83,46.01],[38.42,46.91],[36.97,48.39],[35.44,48.64],[35.3,49.28],[37.99,49.32],[37.82,49.72],[38.71,50.16],[37.35,49.4],[35.66,49.78],[34.89,49.31],[34.68,48.55],[32.68,49.15],[31.31,48.97],[30.43,49.78],[29.38,49.92],[32,49.81],[32.76,50.53],[30.99,50.01],[31.24,50.65],[30.46,50.85],[31.84,51.71],[31.91,52.2],[34.19,51.5],[33.84,51.66],[34.48,51.61],[35.41,52.33],[34.18,51.91],[32.08,52.32],[30.58,51.58],[28.8,51.64],[28.53,53.51],[27.66,53.19],[27.54,53.57],[27.17,53.16],[26.87,53.26],[27.27,53.48],[26.41,53.46],[24.75,55.21],[24.91,54.9],[24.5,54.96],[24.33,55.68],[24.83,55.6],[23.8,56.25],[24.02,56.47],[23.43,56.2],[23.04,56.68],[20.6,56.92],[20.85,57.49],[21.68,57.18],[21.44,57.93],[22.36,57.91],[20.97,58.74],[21.76,59.16],[21.25,59.13],[21.88,59.74],[22.56,59.83],[22.31,59.39],[22.69,59.92],[24.53,59.84],[27.45,58.95]]]}},{"type":"Feature","properties":{},"geometry":{"type":"Polygon","coordinates":[[[34.84,46.48],[34.11,46.89],[32.82,46.41],[31.04,46.86],[28.59,48.37],[29.39,49.28],[31.03,48.64],[35.64,48.26],[37.46,47.06],[36.79,46.02],[34.84,46.48]]]}},{"type":"Feature","properties":{},"geometry":{"type":"Polygon","coordinates":[[[66.28,-14.01],[70.97,-13.78],[74.85,-14.51],[76.79,-16],[79.19,-19.28],[76.15,-18.39],[73.82,-17.11],[65.98,-17.12],[63.74,-16.67],[59.56,-14.16],[56.75,-10.95],[56.21,-9.45],[61.18,-12.9],[66.28,-14.01]]]}},{"type":"Feature","properties":{},"geometry":{"type":"Polygon","coordinates":[[[63.16,-59.38],[63.89,-59.09],[63.35,-59.03],[63.11,-58.4],[63.16,-59.21],[62.85,-58.26],[62.04,-57.88],[62.81,-58.85],[62.29,-59.41],[58.59,-59.39],[58.98,-58.95],[57.76,-59.12],[58.36,-58.49],[55.72,-58.33],[55.03,-58.85],[53.22,-58.86],[44.43,-57.34],[43.71,-57.59],[42.42,-56.89],[41.11,-56.84],[40.59,-56.29],[36.66,-57.36],[31.12,-58.01],[30.45,-57.46],[29.1,-57.35],[28.87,-57.77],[28.19,-57],[26.71,-56.86],[25.94,-56.21],[26.95,-55.27],[30.63,-53.82],[37.23,-49.84],[43.25,-47.32],[44.23,-47.49],[43.8,-47.04],[44.66,-46.96],[44.5,-46.59],[42.94,-46.89],[41.51,-45.95],[42.56,-43.76],[43.56,-44.69],[44.41,-44.71],[43.36,-43.76],[43.66,-42.84],[44.42,-42.95],[43.79,-42.7],[44.24,-42.53],[43.77,-41.87],[44.82,-41.49],[44.47,-40.8],[45.38,-40.36],[44.69,-39.86],[50.23,-38.31],[59.6,-38.85],[61.02,-39.33],[61.94,-40.56],[61.11,-42.03],[60.87,-46.25],[62.71,-50.84],[64.74,-52.62],[70.67,-55.73],[74.89,-57.37],[76.13,-58.42],[63.16,-59.38]]]}},{"type":"Feature","properties":{},"geometry":{"type":"Polygon","coordinates":[[[59.15,-6.82],[61.01,-8.14],[62.38,-8.49],[63.37,-8.42],[64.15,-7.53],[70.12,-6.12],[76.85,-7.84],[79.18,-8.96],[79.74,-9.68],[80.94,-13.6],[78.21,-10.9],[76.04,-9.97],[72.98,-9.87],[68.4,-10.59],[63.26,-10.07],[57.55,-7.02],[56.55,-6.96],[55.77,-5.02],[57.45,-5.34],[59.15,-6.82]]]}},{"type":"Feature","properties":{},"geometry":{"type":"Polygon","coordinates":[[[36.79,46.02],[40.3,44.97],[37.56,44.73],[36.08,46.21],[36.79,46.02]]]}},{"type":"Feature","properties":{},"geometry":{"type":"Polygon","coordinates":[[[53.31,-25.7],[52.65,-25.45],[51.16,-25.94],[50.14,-25.59],[48.16,-24.01],[47.45,-21.58],[46.92,-21.65],[46.63,-21.05],[46.34,-21.5],[45.47,-21.26],[45.56,-21.82],[45.07,-21.88],[45.43,-21.99],[45.67,-23.84],[46.69,-25.04],[46.37,-25.64],[46.82,-27.04],[47.33,-25.85],[47.89,-26.01],[47.25,-27.56],[47.81,-28],[50.33,-28.12],[52.83,-26.29],[52.68,-28.15],[54.78,-29.33],[55.73,-30.76],[54.18,-32.4],[53.43,-32.5],[53.26,-33.74],[52.09,-33.85],[51.39,-34.64],[50.32,-34.61],[49.7,-35.35],[46.6,-35.48],[46.1,-36.23],[41.52,-36.93],[35.5,-36.87],[34.97,-36],[35.12,-33.93],[35.88,-32.56],[35.15,-29.11],[34.16,-27.29],[34.67,-26.06],[34.61,-24.53],[33.91,-23.64],[33.57,-19.47],[33.04,-19.2],[36.85,-14.34],[38.2,-11.64],[40.1,-11.21],[43.03,-11.5],[45.49,-15.67],[50.84,-22.29],[51.79,-24.11],[53.38,-24.41],[53.68,-24.89],[53.31,-25.7]]]}},{"type":"Feature","properties":{},"geometry":{"type":"Polygon","coordinates":[[[61.27,-35.08],[61.03,-38.37],[59.09,-39.44],[49.96,-38.55],[47.27,-38.79],[47.12,-38.24],[47.63,-35.7],[49.48,-34.01],[51.49,-34.57],[54.7,-33.07],[56.56,-32.91],[61.24,-33.99],[61.27,-35.08]]]}},{"type":"Feature","properties":{},"geometry":{"type":"Polygon","coordinates":[[[63.32,-9.86],[58.47,-7.87],[53.69,-5.17],[56.04,-2.1],[61.02,-7.64],[63.96,-7.87],[63.32,-9.86]]]}},{"type":"Feature","properties":{},"geometry":{"type":"Polygon","coordinates":[[[50.88,-11.09],[50.57,-10.66],[51.86,-8.97],[53.94,-7.47],[54.65,-7.52],[61.32,-13.67],[54.84,-12.58],[52.95,-12.71],[50.88,-11.09]]]}},{"type":"Feature","properties":{},"geometry":{"type":"Polygon","coordinates":[[[40.96,1.61],[41.49,1.09],[44.53,1.43],[47.49,-2.23],[51.38,-2.85],[51.76,-3.66],[50.44,-4.36],[48.59,-3.53],[40.43,-1.85],[35.86,-0.34],[35.59,0.5],[36.02,2],[38.87,2.83],[40.96,1.61]]]}},{"type":"Feature","properties":{},"geometry":{"type":"Polygon","coordinates":[[[9.04,48.33],[5.6,48.97],[5.1,50.15],[4.26,50.01],[4.48,49.4],[4.1,48.92],[-0.05,50.18],[-0.45,50.48],[-0.11,53.92],[7.39,51.01],[8.41,49.95],[9.04,48.33]]]}},{"type":"Feature","properties":{},"geometry":{"type":"Polygon","coordinates":[[[15.8,68.06],[14.78,67.92],[15.28,68.02],[14.65,68.62],[13.05,68.59],[11.74,69.23],[11.28,68.9],[9.7,69.14],[9.96,68.66],[9.05,68.52],[9.86,68.33],[7.95,68.2],[8.11,67.88],[1.48,68.84],[0.81,69.18],[1.72,69.36],[-1.67,70.16],[-8.32,69.75],[-9.26,70.11],[-9.26,70.52],[-10.54,70.59],[-7.21,73.21],[-7,73.96],[-8.01,74.88],[-13,76.27],[-22.98,77.87],[-18.36,78.3],[-17.23,78.71],[-17.89,79.01],[-16.79,79.38],[-17.25,79.6],[-14.63,80.7],[-15.73,80.94],[-15.19,81.16],[-19.2,81.15],[-7.11,82.1],[-5.92,81.86],[-9.93,81.61],[-3.52,81.52],[-4.21,81.42],[-3.53,81.4],[-2.88,79.91],[-1.18,78.76],[16.36,73.68],[22.16,70.95],[17.51,69.24],[15.8,68.06]]]}},{"type":"Feature","properties":{},"geometry":{"type":"Polygon","coordinates":[[[109.9,33.31],[108.55,32.7],[108.11,31.8],[105.75,30.88],[106.42,29.98],[106.81,27.76],[104.06,27.89],[104,28.67],[104.8,28.6],[104.7,29.5],[103.81,29.91],[103.49,29.61],[103.02,30.18],[103.99,30.55],[103.66,30.8],[104.14,31.41],[103.34,32.04],[100.11,31.49],[101.67,32.93],[101.42,33.5],[100.65,33.54],[98.37,32.4],[97.33,32.63],[96.94,31.95],[97.92,31.49],[97.84,30.46],[99.48,30.73],[101.08,29.87],[100.76,29.44],[98.42,29.28],[97.19,28.26],[97.95,27.46],[94.38,25.34],[90.8,27.91],[84.84,30.23],[75.84,38.38],[95.3,37.26],[106.98,34.96],[109.9,33.31]]]}},{"type":"Feature","properties":{},"geometry":{"type":"Polygon","coordinates":[[[106.16,27.09],[107.15,25.95],[106.27,24.84],[106.56,24.64],[106.26,24.75],[106.5,24.33],[106.18,24.51],[106.08,23.75],[104.73,25.07],[106.16,27.09]]]}},{"type":"Feature","properties":{},"geometry":{"type":"Polygon","coordinates":[[[101.92,20.25],[103.54,19.31],[104.88,19.21],[103.63,18.49],[105.43,18.66],[104.78,17.23],[106.33,18],[106.13,17.28],[106.43,17.71],[106.69,17.39],[106.3,17.16],[107.07,16.57],[106.56,15.75],[107.14,14.37],[106.65,14.19],[107.2,14.08],[107.66,13.13],[107.24,13.13],[107.46,11.93],[106.99,11.63],[106.92,9.43],[105.74,8.37],[105.75,7.64],[104.6,7.81],[105.25,7.17],[104.99,6.83],[104.61,7.08],[104.98,6.54],[104.45,6.42],[104.64,6.1],[103.31,4.75],[103.99,3.77],[103.12,3.97],[103,4.58],[102.56,4.59],[102.45,4.07],[101.62,4.13],[101.32,2.77],[100.76,2.41],[101.1,2.2],[100.96,1.23],[93.93,2.41],[92.58,3.37],[91.42,5.55],[91.45,8.16],[92.37,11.89],[97.01,14.9],[101.9,16.43],[101.92,20.25]]]}},{"type":"Feature","properties":{},"geometry":{"type":"Polygon","coordinates":[[[98.29,0.26],[98.73,-0.7],[99.31,-0.91],[103.68,-0.59],[106.03,-1.81],[106.78,-2.95],[106.08,-5.26],[106.64,-5.98],[106.4,-7.88],[105.27,-6.83],[104.09,-7.62],[103.53,-7.24],[103.49,-7.75],[102.12,-7.27],[100.67,-8.3],[100.11,-7.67],[99.52,-8.06],[97.14,-5.73],[95.72,-2.82],[91.2,-0.44],[98.29,0.26]]]}},{"type":"Feature","properties":{},"geometry":{"type":"Polygon","coordinates":[[[93.44,-16.71],[96.22,-18.8],[97.35,-19.06],[97.49,-18.47],[100.11,-18.27],[101.15,-17.28],[105.42,-18.11],[103.23,-19.19],[99.36,-19.27],[98.11,-19.83],[98.11,-20.27],[93.62,-18.42],[91.25,-18.58],[89.58,-18.17],[89.89,-18.01],[88.41,-18.68],[84.15,-17.72],[81.64,-16.61],[79.49,-14.61],[81.87,-12.68],[86.34,-12.92],[87.63,-13.25],[90.1,-15.43],[93.44,-16.71]]]}},{"type":"Feature","properties":{},"geometry":{"type":"Polygon","coordinates":[[[100.23,-17.59],[102.15,-16.59],[104.05,-17.03],[105.82,-16.57],[105.49,-16.81],[105.74,-17.34],[104.52,-18.33],[100.23,-17.59]]]}},{"type":"Feature","properties":{},"geometry":{"type":"Polygon","coordinates":[[[34.85,-31.07],[38.01,-34.59],[37.97,-35.09],[36.87,-35.4],[37.64,-35.42],[38.76,-36.77],[45.13,-36.45],[46.83,-35.88],[47.42,-36.06],[47.01,-37.46],[47.5,-37.46],[46.86,-37.56],[46.71,-38.45],[42.41,-43.19],[39.39,-44.94],[29.5,-48.78],[25.92,-51.51],[25.77,-51.92],[26.59,-52.71],[25.46,-53.86],[25.25,-55.57],[26.41,-56.53],[25.55,-57.05],[25.16,-58.49],[24.64,-58.6],[24.95,-58.68],[24.05,-59.78],[24.39,-59.88],[24.16,-60.51],[21.12,-61.67],[15.51,-61.76],[8.8,-62.55],[13.46,-58.6],[15.38,-55.65],[16.38,-52.5],[20.09,-51.64],[20.68,-50.15],[23.38,-47.54],[25.42,-44.71],[26.5,-41.39],[27.89,-39.86],[29.5,-40.13],[30.35,-38.62],[35.19,-35.83],[34.85,-31.07]]]}},{"type":"Feature","properties":{},"geometry":{"type":"Polygon","coordinates":[[[8.77,-62.27],[7.56,-62.86],[7.92,-63.26],[6.48,-64.59],[6.85,-64.7],[3.79,-66.16],[-4.24,-65.58],[-4.65,-66.02],[-3.67,-65.99],[-9.13,-67.21],[-18.1,-67.1],[-27.05,-65.64],[-29.32,-64.59],[-30.6,-62.79],[-34.17,-60.88],[-33.6,-60.32],[-33.95,-60.11],[-33.42,-59.96],[-34.12,-59.83],[-31.82,-58.72],[-31.04,-58.96],[-29.58,-58.47],[-26.48,-56.18],[-25.07,-54.12],[-19.14,-50.61],[-16.26,-45.77],[-14.14,-44.47],[-10.97,-43.38],[-8.77,-43.32],[-7.4,-42.58],[-6.46,-40.59],[-5.45,-40.33],[-4.59,-37.93],[-3.74,-38.22],[-4.36,-37.68],[-3.75,-36.46],[-4,-33.39],[-3.48,-31.47],[-2.83,-31.68],[-2.12,-31.11],[-1.73,-31.61],[-2.04,-30.96],[-1.76,-31.16],[-1.51,-30.48],[0.44,-29.4],[0.93,-28.45],[0.38,-28.25],[0.22,-26.97],[-1.05,-26.64],[-2.2,-25.5],[1.48,-25.61],[2.53,-24.79],[5.46,-24.97],[11.51,-29.78],[20.67,-31.41],[23.52,-37.94],[24.05,-40.16],[18.17,-43.17],[15.74,-45.97],[15.11,-47.92],[17.73,-52.71],[17.32,-53.95],[14.12,-58.7],[10.68,-61.38],[8.77,-62.27]]]}},{"type":"Feature","properties":{},"geometry":{"type":"Polygon","coordinates":[[[-0.23,2.9],[0.27,3.8],[1.39,4.37],[3.92,4.23],[5.63,5.13],[6.09,4.9],[6.17,3.88],[7.31,3.39],[7.75,2.6],[10.79,2.25],[15.4,-0.35],[16.97,-0.69],[7.76,-0.07],[3.13,2.25],[-0.23,2.9]]]}},{"type":"Feature","properties":{},"geometry":{"type":"Polygon","coordinates":[[[19.66,5.25],[19.48,4.48],[17.21,4.11],[16.08,3.24],[16.18,2.39],[13.68,1.31],[12.02,2.06],[10.83,1.85],[10.55,2.78],[10.96,2.96],[10.63,2.84],[10.52,3.45],[8.87,3.99],[9.78,5.07],[9.46,5.54],[10.05,5.73],[9.36,5.73],[10.89,7.12],[11.87,9.49],[12.96,9.5],[15.83,7.56],[16.94,7.36],[19.66,5.25]]]}},{"type":"Feature","properties":{},"geometry":{"type":"Polygon","coordinates":[[[-1,-27.04],[-0.84,-25.47],[-1.46,-24.54],[-3.83,-23.33],[-7.82,-22.4],[-9.09,-20.83],[-12.67,-19.26],[-13.04,-18.69],[-14.52,-13.79],[-13.71,-11.11],[-14.16,-8.88],[-13.38,-8.7],[-14.23,-8.28],[-13.99,-7.75],[-14.39,-7.24],[-14.01,-7.38],[-14.27,-7.13],[-13.65,-6.5],[-12.8,-7.21],[-13.56,-6.71],[-13.38,-5.01],[-12,-4.88],[-10.32,-3.7],[-9.6,-2.15],[-8.82,-1.74],[-8.58,-0.54],[-9.05,-0.71],[-8.29,-0.05],[-1.58,2.25],[-0.36,1.74],[2.24,2.34],[4.85,1.99],[10.32,-0.35],[19.57,-0.73],[19.62,-1.36],[20.27,-1.28],[19.44,-1.91],[19.53,-2.99],[18.3,-3.44],[17.03,-4.91],[11.87,-15.01],[10.96,-18.44],[11.71,-23.59],[7.78,-24.5],[6.62,-25.75],[3.67,-25.87],[2.72,-26.78],[-1,-27.04]]]}},{"type":"Feature","properties":{},"geometry":{"type":"Polygon","coordinates":[[[33.49,-15.89],[33.3,-16.79],[34.57,-22.43],[34.26,-23.36],[35.12,-24.42],[35.33,-25.58],[34.81,-27.1],[29.78,-28.74],[19.54,-31.36],[10.35,-29.87],[4.19,-25.15],[5.46,-24],[9.46,-23.43],[9.1,-19.31],[9.46,-17.1],[12.57,-11.1],[16.49,-5.28],[17.71,-4.34],[18.72,-6.13],[20.62,-7.74],[20.54,-8.82],[22.48,-11.09],[23.6,-11.01],[24.24,-9.83],[26.01,-9.83],[26.75,-11],[27.98,-11.73],[27.97,-12.21],[30.87,-14.06],[32.2,-13.78],[33.23,-14.18],[33.49,-15.89]]]}},{"type":"Feature","properties":{},"geometry":{"type":"Polygon","coordinates":[[[33.76,-13.62],[32.79,-12.82],[31.11,-12.54],[30.24,-10.77],[29.85,-11.1],[29.17,-10.83],[28.94,-9.61],[28.15,-9.21],[28.97,-9.42],[28.28,-8.91],[28.96,-8.18],[28.65,-7.51],[31.57,-7.93],[32.3,-8.42],[32.79,-9.72],[34.11,-9.93],[37.21,-11.66],[38.82,-14.42],[36,-13.48],[33.76,-13.62]]]}},{"type":"Feature","properties":{},"geometry":{"type":"Polygon","coordinates":[[[17.91,-52.37],[17.06,-52.66],[14.21,-47.93],[14.75,-45.97],[16.44,-43.8],[22.83,-39.99],[29,-40.19],[27.56,-41.7],[26.4,-45.01],[24.26,-47.81],[21.47,-50.37],[20.82,-51.86],[17.91,-52.37]]]}},{"type":"Feature","properties":{},"geometry":{"type":"Polygon","coordinates":[[[34.88,-17.12],[33.68,-18.3],[32.89,-14.08],[34,-14.93],[35.43,-14.73],[37.52,-12.43],[38.25,-10.56],[37.49,-12.98],[34.88,-17.12]]]}},{"type":"Feature","properties":{},"geometry":{"type":"Polygon","coordinates":[[[34.48,-26.98],[34.54,-27.76],[35.46,-28.69],[35.89,-31.8],[36.25,-31.52],[36.49,-36.28],[31.56,-38.99],[30.67,-40.5],[22.89,-40],[19.69,-32.36],[19.75,-31.21],[34.48,-26.98]]]}},{"type":"Feature","properties":{},"geometry":{"type":"Polygon","coordinates":[[[15.7,24.57],[15.35,24.92],[16.47,25.04],[16.64,25.47],[15.43,24.98],[15.1,25.56],[15.98,25.95],[15,26],[15.65,26.05],[15.71,26.48],[16.08,26.22],[15.45,26.53],[16.32,26.91],[15.64,26.94],[16.53,26.96],[16.07,27.2],[16.53,27.12],[16.3,27.68],[17.34,28.09],[17.29,28.75],[16.95,27.98],[16.58,28.15],[17.47,30.12],[17.08,29.89],[17.35,30.64],[17.01,30.79],[17.53,31.25],[17.11,30.93],[16.94,31.72],[17.7,32.17],[17.14,32.13],[17.69,32.47],[17.04,32.72],[17.3,33.3],[17.76,32.99],[17.35,33.39],[17.99,33.76],[17.37,33.6],[17.76,33.95],[17.49,34.73],[18.16,34.75],[17.69,35.14],[18.08,34.94],[18.02,35.52],[18.28,34.85],[18.31,35.73],[18.81,35.65],[18.21,36.03],[19.14,36.09],[18.87,37.15],[19.39,37.28],[19.63,36.43],[19.55,37.46],[19.96,36.97],[19.99,37.9],[20.37,37.29],[20.41,37.87],[21.51,37.87],[20.8,37.22],[21.5,36.99],[22.18,37.29],[22.18,37.76],[23.21,37.27],[24.07,38],[27.12,38.16],[27.97,37.58],[27.67,36.34],[24.23,35.47],[26.32,35.21],[27.32,34.12],[28.97,34.27],[28.8,34.85],[27.89,34.74],[27.67,35.14],[28.59,35.04],[29.64,35.7],[28.66,36.09],[28.51,36.85],[28.61,37.65],[29.87,37.74],[27.98,39.3],[27.02,39.45],[28.61,39.95],[28.96,39.78],[28.81,38.93],[29.66,38.9],[30.16,39.43],[29.57,39.96],[29.93,40.33],[29.49,40.39],[29.95,41.84],[30.27,41.76],[30.02,42.56],[30.69,41.84],[31.1,42.01],[30.91,42.75],[31.48,43.33],[31.4,44.06],[32.36,43.99],[32,44.22],[32.25,44.67],[30.85,45.1],[34.68,46.8],[36.45,46.02],[38.82,42.35],[46.26,37.87],[47.2,35.42],[50.48,31.45],[50.27,29.95],[47.42,26.15],[46.22,20.11],[43.77,18.85],[40.76,18.9],[41.24,20.18],[40.55,20.59],[41.12,20.9],[41.11,21.65],[39.25,19.04],[39.12,19.46],[39.42,18.77],[40.04,18.57],[40.68,19.08],[40.7,18.71],[39.14,17.3],[38.5,17.91],[38.07,17.53],[38.58,18.46],[37.12,18.06],[36.82,18.21],[37.43,18.45],[36.96,18.62],[36.04,16.91],[36.52,16.06],[36.23,15.74],[33.76,16.31],[31.29,17.93],[23.22,20.07],[24.9,21.62],[25.47,21.32],[25.88,21.82],[25.77,21.32],[26.02,23.1],[26.08,22.27],[26.48,22.41],[25.44,24.89],[25.82,25.29],[26.77,24.85],[27.03,25.3],[26.54,26.29],[26.09,26.09],[25.51,26.81],[28.42,29.08],[27.38,29.08],[27.16,29.46],[24.91,27.18],[24.68,27.66],[23.75,27.53],[22.44,29.4],[23.14,32.08],[22.76,32.62],[21.06,32.13],[21.69,30.19],[21.06,28.75],[20.61,29.01],[21.6,26.67],[23.02,26.25],[22.6,25.71],[22.98,25.58],[22.84,25.17],[22.57,25.42],[22.67,25.02],[22.05,24.61],[22.52,24.63],[22.17,24.5],[22.6,24.33],[23.02,22.86],[22.98,22.18],[22.19,21.75],[22.34,21.18],[21.56,20.89],[21.16,22.03],[18.69,24.73],[18.77,23.83],[17.42,22.28],[16.32,22.77],[16.84,23.24],[16.43,23.14],[16.65,23.71],[15.93,23.44],[16.59,24.67],[16.07,23.99],[15.7,24.57]]]}},{"type":"Feature","properties":{},"geometry":{"type":"Polygon","coordinates":[[[19.28,19.85],[18.48,21.32],[19.46,22.68],[19.59,21.62],[20.12,21.51],[19.58,20.56],[19.98,19.87],[19.28,19.85]]]}},{"type":"Feature","properties":{},"geometry":{"type":"Polygon","coordinates":[[[36.87,12.97],[36.44,13.87],[35.88,13.44],[35.82,14.48],[40.93,18.66],[43.48,19.37],[40.76,17.02],[40.15,15.84],[38.7,15.75],[38.01,15.2],[36.87,12.97]]]}},{"type":"Feature","properties":{},"geometry":{"type":"Polygon","coordinates":[[[28.15,-4.46],[27.78,-5.86],[27.06,-5.75],[27.66,-6.87],[27.46,-7.33],[26.83,-6.74],[26.89,-7.36],[26.43,-6.9],[26.26,-7.58],[25.65,-7.51],[25.74,-7.07],[25.33,-7.03],[25.63,-5.85],[26.33,-5.87],[27.11,-6.64],[25.85,-5.52],[26.28,-4.96],[26,-3.02],[27.02,-2.05],[25.99,0.94],[26.3,3.1],[25.69,2.86],[26.18,3.79],[25.45,4.12],[24.52,3.17],[24.73,2.08],[24.36,1.3],[24.49,0.14],[25.07,-0.38],[24.68,-0.63],[25.32,-2.89],[25,-2.98],[24.57,-1.87],[23.91,-2.18],[23.8,-3.14],[22.29,-3.26],[23.16,-2.76],[23.59,-1.58],[22.58,2.46],[23.17,4.07],[22.77,5.11],[21.74,5.23],[21.71,5.9],[22.67,7.25],[25.91,6.57],[29.42,4.25],[27.69,3],[28.15,-4.46]]]}},{"type":"Feature","properties":{},"geometry":{"type":"Polygon","coordinates":[[[22.2,8.85],[21.38,7.82],[19.77,7.93],[19.26,6.88],[15.82,7.02],[15.7,9.02],[16.16,8.57],[15.51,9.72],[14.16,10.82],[13.01,10.76],[12.61,11.45],[14.85,11.98],[14.24,12.97],[15.46,12.75],[15.92,13.45],[17.9,12.94],[19.65,13.29],[21.88,16.63],[23.76,18.06],[27.15,19.08],[29.78,18.16],[27.59,16.53],[26.72,15.18],[21.74,12.1],[20.82,10.59],[21.59,9.13],[22.2,8.85]]]}},{"type":"Feature","properties":{},"geometry":{"type":"Polygon","coordinates":[[[15.92,13.45],[16.47,13.93],[16.24,14.58],[17.79,15.47],[17.23,15.51],[17.93,15.88],[17.48,16.02],[17.64,17.1],[18.05,16.95],[17.82,16.57],[18.3,16.92],[18.06,17.58],[19.05,17.79],[19.28,18.37],[19.77,18.15],[19.7,18.68],[20.51,18.56],[19.51,19.06],[19.28,19.85],[20.41,19.36],[20.97,19.63],[20.94,19.09],[21.74,20],[23.28,19.6],[23.22,20.07],[23.9,20.01],[27.15,19.08],[22.87,17.52],[19.65,13.29],[17.9,12.94],[15.92,13.45]]]}},{"type":"Feature","properties":{},"geometry":{"type":"Polygon","coordinates":[[[36.2,15.51],[36.26,13.95],[33.14,12.46],[32.2,13.08],[32.05,13.78],[33.73,15.37],[33.76,16.31],[36.2,15.51]]]}},{"type":"Feature","properties":{},"geometry":{"type":"Polygon","coordinates":[[[-4.36,39.76],[-4.01,39.32],[-4.74,39.59],[-4.36,39.76]]]}},{"type":"Feature","properties":{},"geometry":{"type":"Polygon","coordinates":[[[-6.55,42.31],[-7.24,42.03],[-7.78,42.37],[-7.24,42.79],[-6.55,42.31]]]}},{"type":"Feature","properties":{},"geometry":{"type":"Polygon","coordinates":[[[13.07,42.89],[13.71,42.74],[13.77,42.04],[12.68,42.52],[13.07,42.89]]]}},{"type":"Feature","properties":{},"geometry":{"type":"Polygon","coordinates":[[[-5.87,42.73],[-6.24,42.32],[-6.83,42.95],[-5.87,42.73]]]}},{"type":"Feature","properties":{},"geometry":{"type":"Polygon","coordinates":[[[-3.79,40.61],[-4.01,39.88],[-4.67,40.02],[-3.98,40.87],[-3.79,40.61]]]}},{"type":"Feature","properties":{},"geometry":{"type":"Polygon","coordinates":[[[-4.24,42.06],[-4.35,40.91],[-5.22,40.44],[-5.11,41.26],[-5.51,41.47],[-4.84,41.58],[-4.75,42.18],[-4.24,42.06]]]}},{"type":"Feature","properties":{},"geometry":{"type":"Polygon","coordinates":[[[18.02,56],[19.05,56.21],[18.23,56.32],[19.04,56.84],[20.82,55.97],[18.02,56]]]}},{"type":"Feature","properties":{},"geometry":{"type":"Polygon","coordinates":[[[10.25,43.74],[12.27,43.22],[11.97,42.64],[12.48,41.77],[10.25,43.74]]]}},{"type":"Feature","properties":{},"geometry":{"type":"Polygon","coordinates":[[[12.39,41.71],[12.62,40.71],[11.38,41.3],[12.03,41.46],[11.51,41.5],[11.89,41.97],[11.27,41.48],[10.98,41.74],[11.58,42.34],[12.39,41.71]]]}},{"type":"Feature","properties":{},"geometry":{"type":"Polygon","coordinates":[[[11.23,42.61],[11.15,42.27],[10.87,42.6],[10.73,41.81],[9.38,43.02],[9.85,43.36],[9.74,42.98],[10.31,42.85],[10.1,43.36],[11.23,42.61]]]}},{"type":"Feature","properties":{},"geometry":{"type":"Polygon","coordinates":[[[17.87,54],[18.01,54.37],[18.59,54.06],[17.87,54]]]}},{"type":"Feature","properties":{},"geometry":{"type":"Polygon","coordinates":[[[17.33,54.86],[18.27,55.02],[17.39,55.1],[17.65,55.46],[19.53,55.48],[19.4,54.79],[18.63,54.28],[17.33,54.86]]]}},{"type":"Feature","properties":{},"geometry":{"type":"Polygon","coordinates":[[[11.27,44.68],[12.4,44.83],[12.66,44.18],[11.75,43.58],[11.27,43.66],[11.57,44.02],[10.49,43.92],[10.85,44.11],[10.58,44.42],[11.5,44.23],[11.27,44.68]]]}},{"type":"Feature","properties":{},"geometry":{"type":"Polygon","coordinates":[[[14.75,47.88],[15.12,47.94],[14.69,47.37],[14.75,47.88]]]}},{"type":"Feature","properties":{},"geometry":{"type":"Polygon","coordinates":[[[16.24,49.96],[16.68,49.44],[16.1,49.57],[16.24,49.96]]]}},{"type":"Feature","properties":{},"geometry":{"type":"Polygon","coordinates":[[[15.02,48.37],[15.41,48.4],[15.71,47.48],[15.31,47.46],[15.02,48.37]]]}},{"type":"Feature","properties":{},"geometry":{"type":"Polygon","coordinates":[[[15.7,54.34],[17.2,54.85],[17.85,54.33],[17.59,53.88],[15.7,54.34]]]}},{"type":"Feature","properties":{},"geometry":{"type":"Polygon","coordinates":[[[-0.69,42.05],[-1.07,40.63],[-0.64,40.72],[-1.33,40.01],[-1.04,39.52],[-2.08,39.34],[-1.9,39.68],[-2.73,39.11],[-2.57,39.61],[-2.84,39.2],[-3.33,39.58],[-2.95,39.77],[-3.05,40.46],[-2.2,40.16],[-2.93,40.79],[-2.39,40.96],[-2.6,41.39],[-2.13,41.19],[-2.17,41.7],[-1.54,41.48],[-1.52,41.89],[-0.69,42.05]]]}},{"type":"Feature","properties":{},"geometry":{"type":"Polygon","coordinates":[[[4.09,41.63],[4.53,41.3],[4.02,41.12],[4.76,41.21],[5.06,40.41],[4.29,40.07],[3.43,40.33],[3.8,39.99],[2.97,39.79],[4.18,39.85],[2.53,39.36],[2.48,38.99],[2.03,39.17],[2.35,38.92],[1.96,38.66],[0.37,38.89],[1.04,38.45],[0.33,38.74],[0.74,38.13],[-0.02,37.47],[-0.61,37.69],[-0.96,37.21],[-1.92,37.59],[-1.28,37.18],[-1.28,36.52],[-2.42,36.47],[-2.38,37.15],[-3.28,37.1],[-4.02,37.66],[-3.81,37.99],[-4.13,37.76],[-3.92,38.2],[-3.01,38.05],[-2.83,38.8],[-2.44,37.86],[-1.4,38.25],[-2.17,37.95],[-2.24,38.54],[-1.73,38.77],[-2.47,38.92],[-1.83,39.33],[-1.06,38.66],[-0.68,38.86],[-1.2,39.31],[-0.53,40.52],[-0.01,39.33],[0.07,40.2],[1.65,40.05],[1.23,40.28],[1.99,40.58],[0.71,40.26],[-0.27,40.65],[0.87,40.82],[-0.44,40.87],[-0.5,41.29],[0.57,41.12],[-0.46,41.39],[0.34,41.51],[-0.23,42.07],[0.75,42.06],[1.07,41.57],[1.01,42.03],[1.48,42.1],[1.85,41.08],[1.75,41.83],[2.24,42.09],[2.85,41.93],[2.74,41.4],[2.94,41.95],[3.45,41.4],[4.09,41.63]]]}},{"type":"Feature","properties":{},"geometry":{"type":"Polygon","coordinates":[[[2.47,20.96],[2.92,21.5],[2.46,21.32],[2.35,21.87],[3.28,22.17],[2.38,21.91],[2.11,22.3],[2.78,22.57],[2.02,22.59],[3.46,23.28],[1.99,22.66],[2.01,23.07],[2.54,23.07],[2.09,23.2],[2.65,23.35],[1.93,23.67],[3.47,23.62],[1.98,23.8],[2.51,24.28],[3.61,23.96],[3.25,24.45],[2.08,24.16],[2.83,24.47],[2.33,24.73],[3.62,24.38],[3.1,24.68],[3.38,24.97],[2.31,24.88],[3.3,25.05],[3.32,25.6],[3.66,25.41],[3.31,25.68],[3.72,26.46],[2.14,27.24],[3.63,26.78],[3.16,27.51],[3.54,27.48],[2.96,27.67],[3.42,27.95],[2.83,27.94],[3.34,28.19],[2.77,28.23],[3.01,28.5],[1.94,28.08],[2.47,29.39],[2.19,30.87],[1.79,30.77],[2.23,30.99],[1.8,32.41],[0.57,33.32],[-0.41,33.44],[-0.43,33.07],[-0.92,33.39],[-1.11,33.75],[-0.54,33.91],[-1.29,34.49],[0.12,34.34],[0.25,34.66],[-0.55,34.73],[-1.16,35.69],[0.96,36.17],[1.72,36.93],[1.03,37.33],[2.06,37.91],[2.11,37.5],[2.81,38.52],[3.45,37.86],[3.07,38.59],[4.02,38.84],[4,38.02],[4.24,38.48],[4.74,38.02],[4.62,38.94],[5.69,38.15],[5.69,38.67],[6.1,38.62],[5.5,39.16],[6.51,38.92],[5.53,39.52],[6.66,39.19],[6.53,39.86],[7.1,40.1],[8.51,40.04],[7.18,39.24],[8.63,39.93],[8.68,39.53],[9.47,39.56],[7.85,38.32],[9.22,38.84],[9.12,38.23],[9.73,39.07],[9.89,37.52],[10.79,39.17],[11.73,39.14],[11.5,38.09],[10.5,37.68],[11.56,37.9],[10.77,37.29],[11.07,36.96],[11.5,37.42],[11.52,34.9],[12.14,35.16],[11.8,34.81],[12.54,34.81],[12.8,34.3],[11.78,34.29],[12.19,34.28],[11.71,33.92],[12.73,33.62],[12.22,33.31],[13.01,33.29],[13.19,32.73],[12.2,32.86],[12.93,32.64],[12.36,32.5],[12.93,32.55],[12.95,32.14],[13.65,32.17],[12.68,32],[13.43,31.79],[12.68,31.68],[13.1,31.11],[12.99,31.51],[13.62,31.15],[13.07,30.69],[12.41,30.94],[12.99,31.07],[11.8,31.09],[12.27,30.75],[11.44,30.54],[11.83,30.35],[11.42,30.15],[12.3,30.27],[11.6,29.9],[12.54,29.94],[12.1,29.54],[12.46,29.25],[12.65,29.71],[13.55,29.39],[13.43,29.07],[13.8,29.29],[14.34,28.2],[13.9,28.4],[13.73,27.93],[13,28.66],[11.36,29.07],[11.94,28.8],[11.59,28.55],[12.72,28.58],[11.89,28.21],[11.58,27.43],[12.54,27.66],[11.91,27.14],[12.4,27.1],[13.06,27.72],[14.25,27.58],[13.14,25.93],[11.75,25.06],[10.73,25.4],[11.06,24.76],[10.24,23.06],[9.7,23.07],[9.87,22.77],[9.13,22.66],[9.2,22.32],[8.83,22.97],[8.76,22.17],[7.5,21.55],[7.88,20.83],[7.35,20.69],[7.87,20.15],[7.4,20.29],[7.77,20.03],[7.22,19.89],[7.38,19.33],[6.66,19.15],[7.16,18.8],[6.74,18.92],[7.19,18.43],[6.65,17.73],[6.96,17.5],[6.46,17.53],[6.93,17.47],[6.52,17.23],[6.88,16.97],[6.19,17.02],[6.75,16.48],[6.24,16.77],[5.69,16.47],[6.05,16.95],[5.67,16.51],[5.97,17.13],[5.26,16.96],[5.64,17.29],[5.14,17.13],[5.67,17.58],[5.23,17.3],[5.37,17.72],[4.12,17.22],[4.3,17.73],[3.72,17.83],[4.14,17.94],[3.62,17.98],[3.91,18.41],[3.65,18.14],[3.87,18.49],[3.16,18.95],[3.5,19.49],[3.16,19.23],[3.34,19.67],[2.85,19.81],[3.3,19.83],[2.66,20.19],[3.18,20.66],[2.61,20.68],[3.37,20.9],[3.15,21.14],[3.63,20.78],[3.19,21.67],[3.17,21.21],[2.47,20.96]]]}}]}
