{"type":"FeatureCollection","features":[{"type":"Feature","properties":{},"geometry":{"type":"Polygon","coordinates":[[[25.39,-70.82],[28,-70.91],[28.69,-71.48],[25.09,-71.08],[25.39,-70.82]]]}},{"type":"Feature","properties":{},"geometry":{"type":"Polygon","coordinates":[[[37.49,-70.23],[36.49,-70.27],[36.94,-70.12],[36.65,-69.85],[38.41,-70.15],[37.49,-70.23]]]}},{"type":"Feature","properties":{},"geometry":{"type":"Polygon","coordinates":[[[-12.68,-64.68],[-10.35,-64.26],[-10,-64.62],[-10.89,-65.34],[-12.68,-64.68]]]}},{"type":"Feature","properties":{},"geometry":{"type":"Polygon","coordinates":[[[-0.08,-76],[-0.15,-76.38],[-0.86,-76.14],[-0.08,-76]]]}},{"type":"Feature","properties":{},"geometry":{"type":"Polygon","coordinates":[[[-10.54,-74.6],[-9.17,-74.77],[-11.26,-74.59],[-10.54,-74.6]]]}},{"type":"Feature","properties":{},"geometry":{"type":"Polygon","coordinates":[[[-6.92,-76.1],[-9.55,-75.21],[-7,-75.15],[-5.14,-75.62],[-6.92,-76.1]]]}},{"type":"Feature","properties":{},"geometry":{"type":"Polygon","coordinates":[[[-5,-77.08],[-5.38,-76.72],[-4.19,-76.41],[-5.5,-76.36],[-4.59,-75.86],[-3.29,-76.46],[-3.67,-76.84],[-2.85,-76.83],[-5,-77.08]]]}},{"type":"Feature","properties":{},"geometry":{"type":"Polygon","coordinates":[[[-22.27,-63.76],[-20.33,-63.72],[-21.28,-64.09],[-22.27,-63.76]]]}},{"type":"Feature","properties":{},"geometry":{"type":"Polygon","coordinates":[[[-22.54,-67.96],[-22.06,-68.17],[-22.86,-68.1],[-22.54,-67.96]]]}},{"type":"Feature","properties":{},"geometry":{"type":"Polygon","coordinates":[[[-22.76,-64.4],[-21.78,-64.73],[-22.35,-64.85],[-22.76,-64.4]]]}},{"type":"Feature","properties":{},"geometry":{"type":"Polygon","coordinates":[[[-24.82,-70.77],[-23.89,-70.41],[-25.17,-70.34],[-25.1,-70.05],[-24.03,-70.3],[-24.63,-69.89],[-23.03,-69.93],[-22.75,-71.75],[-24.51,-71.39],[-23.86,-71.4],[-24.44,-71.17],[-24.05,-70.83],[-25.25,-70.91],[-24.82,-70.77]]]}},{"type":"Feature","properties":{},"geometry":{"type":"Polygon","coordinates":[[[-26.9,-62.85],[-26.56,-63.4],[-27.2,-63.23],[-26.9,-62.85]]]}},{"type":"Feature","properties":{},"geometry":{"type":"Polygon","coordinates":[[[-29.35,-62.9],[-28.36,-62.97],[-29.32,-63.35],[-29.35,-62.9]]]}},{"type":"Feature","properties":{},"geometry":{"type":"Polygon","coordinates":[[[-29.56,-61.1],[-23.62,-61.37],[-21.83,-62.11],[-22.12,-62.79],[-22.74,-62.95],[-23.11,-62.73],[-22.89,-62.28],[-24.33,-62.48],[-23.95,-62.72],[-24.32,-63],[-23.5,-63.15],[-25.37,-63.65],[-24.82,-63.39],[-25.73,-63.3],[-24.79,-62.99],[-25.59,-63.12],[-25.21,-62.57],[-25.86,-62.78],[-25.99,-62.11],[-25.53,-61.97],[-26.89,-62.06],[-26.86,-61.52],[-28.14,-62],[-29.58,-61.88],[-29.87,-61.22],[-29.56,-61.1]]]}},{"type":"Feature","properties":{},"geometry":{"type":"Polygon","coordinates":[[[-32.97,-59.38],[-31.2,-60.15],[-31.93,-60.22],[-32.97,-59.38]]]}},{"type":"Feature","properties":{},"geometry":{"type":"Polygon","coordinates":[[[58.87,-55.14],[58.05,-55.92],[57.46,-55.57],[58.87,-55.14]]]}},{"type":"Feature","properties":{},"geometry":{"type":"Polygon","coordinates":[[[-35.17,-56.62],[-34.5,-56.6],[-34.41,-57.06],[-34.9,-57.2],[-35.17,-56.62]]]}},{"type":"Feature","properties":{},"geometry":{"type":"Polygon","coordinates":[[[-33.45,-54.35],[-32.42,-54.52],[-32.79,-54.85],[-33.45,-54.35]]]}},{"type":"Feature","properties":{},"geometry":{"type":"Polygon","coordinates":[[[-13.3,-64.77],[-12.78,-65.46],[-11.55,-65.5],[-12.45,-65.66],[-12.21,-65.94],[-6.23,-64.99],[-7.41,-65.01],[-6.55,-64.68],[-4.05,-64.59],[-1,-65.23],[5.03,-64.1],[7.29,-66.02],[6.1,-67.06],[6.13,-67.6],[3.77,-68.05],[-8.68,-67.22],[-10.72,-67.48],[-13.02,-67.03],[-12.8,-66.75],[-13.56,-65.91],[-14.69,-65.31],[-13.3,-64.77]]]}},{"type":"Feature","properties":{},"geometry":{"type":"Polygon","coordinates":[[[-34,-53.82],[-33.28,-53.86],[-33.76,-54.4],[-32.86,-55.13],[-33.53,-55.48],[-33.05,-56.77],[-32.13,-57.15],[-31.6,-57.09],[-31.47,-56.53],[-31.1,-56.8],[-31.52,-56.9],[-31.06,-57.19],[-31.87,-57.46],[-30.95,-57.63],[-32.24,-57.67],[-31.1,-58.08],[-31.38,-58.51],[-30.72,-59.01],[-28.54,-59.36],[-27.98,-59.08],[-28.45,-58.82],[-28.16,-58.54],[-27.47,-59.07],[-22.85,-59.08],[-20.28,-59.82],[-19.43,-59.8],[-19.45,-59.43],[-16.93,-60.19],[-15.66,-61.39],[-15.43,-61.07],[-13.84,-62.89],[-11.92,-62.49],[-10.82,-63.78],[-13.6,-64.27],[-13.3,-64.77],[-17.91,-66.41],[-20.71,-66.08],[-20.1,-65.79],[-22.28,-65.25],[-20.67,-64.82],[-20.83,-64.31],[-20.02,-64.41],[-21.11,-61.57],[-22.91,-61.09],[-28.15,-60.87],[-27.88,-60.35],[-28.28,-60.04],[-28.89,-60.2],[-31,-59.32],[-31.25,-59.72],[-32.12,-59.47],[-31.32,-59.23],[-32.51,-58.97],[-32.16,-58.7],[-33.07,-58.43],[-32.87,-57.94],[-33.37,-57.86],[-33.34,-57.38],[-34.17,-57.21],[-33.68,-57],[-34.33,-56.51],[-33.85,-56.17],[-34.48,-55.64],[-34,-53.82]]]}},{"type":"Feature","properties":{},"geometry":{"type":"Polygon","coordinates":[[[-1.32,-60.93],[-1.99,-59.97],[-2.67,-56.79],[-2.22,-56.12],[-1.51,-56.2],[-2.78,-55.3],[-4.84,-55.85],[-5.91,-55.03],[-5.85,-52.94],[-5.16,-51.88],[-5.53,-50.66],[-4.89,-49.1],[-3.14,-47.38],[-3.16,-46.65],[-4.01,-46.32],[-3.23,-46.47],[-3.39,-45.64],[-2.12,-46.24],[-1.76,-45.98],[-2.11,-45.01],[-1.61,-44.89],[-1.3,-45.57],[-0.13,-45.1],[-0.51,-45.02],[-0.56,-44.17],[0.32,-45.2],[1.16,-45.22],[2.19,-43.76],[4.25,-43.07],[6.15,-43.25],[8.07,-42.6],[11.27,-42.72],[15.93,-41.9],[16.15,-40.89],[18.37,-42.48],[19.76,-41.1],[22.71,-40.21],[23.6,-40.66],[24.12,-40.44],[23.72,-40.07],[24.24,-39.97],[24.35,-40.46],[24.93,-40.48],[24.91,-39.7],[25.93,-39.42],[27.75,-39.85],[28.35,-40.63],[27.73,-40.72],[28.87,-41.65],[33.8,-43.5],[33.37,-44.37],[32.76,-44.45],[33.19,-44.56],[32.63,-44.59],[32.91,-44.83],[32.35,-44.69],[32.25,-45.27],[31.49,-45.47],[31.91,-45.69],[31.67,-46.12],[32.14,-47.02],[34.18,-45.96],[35.26,-46.25],[37.93,-45.54],[41.17,-45.72],[45.07,-46.95],[47.57,-48.52],[48.32,-48.73],[48.88,-48.16],[49.57,-48.44],[49.15,-48.92],[50.72,-49.4],[52.08,-51.86],[55.43,-52.37],[55.04,-53.26],[55.8,-53.7],[55.61,-54.59],[57.26,-55.55],[56.79,-55.74],[60.02,-56.95],[59.5,-57.94],[60,-58.41],[61.84,-57.93],[63.17,-59.71],[65.08,-59.53],[63.91,-59.97],[63.68,-60.62],[64.76,-62.76],[64.46,-63.08],[65.08,-63.33],[64.79,-63.87],[66.04,-64.46],[64.04,-64.26],[63.8,-65.01],[64.34,-65.5],[62.89,-65.42],[63.79,-66.53],[62.8,-66.75],[64.25,-67.55],[62.59,-68.04],[62.97,-68.22],[62.3,-68.74],[62.94,-68.82],[62.32,-68.95],[62.15,-69.49],[59.31,-70.23],[59.55,-70.42],[58.93,-70.48],[59.53,-70.55],[58.9,-70.54],[59.32,-70.78],[58.05,-71.06],[58.65,-71.07],[57.17,-72.41],[52.93,-73.19],[48.39,-72.16],[48.15,-71.94],[48.87,-71.89],[48.32,-71.51],[48.62,-71.43],[47.18,-71.22],[47.45,-70.82],[45.75,-70.82],[46.35,-70.58],[45.38,-70.36],[46.68,-70.37],[45.68,-70.01],[43.8,-70.42],[43.41,-70.35],[44.12,-69.93],[40.09,-69.34],[37.48,-69.49],[36.38,-69.05],[35.94,-69.26],[36.56,-69.54],[34.43,-69.55],[35.38,-69.06],[34.59,-68.57],[34.95,-68.3],[33.91,-67.95],[27.1,-67.2],[27.22,-66.83],[26.82,-66.8],[26.27,-66.89],[26.54,-67.2],[23.76,-66.82],[19.85,-67.04],[18.22,-66.01],[19.8,-67.18],[16.54,-67.18],[14.85,-66.62],[12.97,-66.59],[12.25,-67],[10.25,-66.75],[9.9,-66.9],[13.06,-67.9],[13.77,-69.55],[9.66,-69.56],[9.57,-68.24],[7.47,-66.41],[3.07,-65.81],[2.29,-63.9],[-1.32,-60.93]]]}},{"type":"Feature","properties":{},"geometry":{"type":"Polygon","coordinates":[[[19.89,-68.66],[21.01,-69.56],[20.75,-70.04],[17.29,-70.79],[25.57,-72.05],[25.98,-72.68],[26.97,-72.49],[28.28,-73.48],[23.81,-73.8],[21.36,-73.51],[21.66,-73.65],[18.72,-74.39],[22.81,-74.9],[19.27,-74.96],[20.22,-75.34],[18.35,-75.81],[7.2,-76.76],[7.48,-76.47],[-8.96,-74.75],[-8.7,-74.4],[-10.31,-73.95],[-12.61,-74.19],[-10.34,-73.31],[-13.06,-73.4],[-13.44,-73.12],[-12.55,-72.49],[-13.88,-72.28],[-12.1,-71.8],[-14.47,-71.67],[-14.92,-71.19],[-13.86,-70.73],[-14.75,-70.41],[-16.12,-70.96],[-17.49,-70.78],[-18.63,-71.43],[-19.04,-70.91],[-19.94,-70.88],[-20.34,-71.21],[-19.06,-71.59],[-20.72,-71.91],[-20.23,-71.45],[-20.78,-71.18],[-20.39,-70.92],[-21.61,-70.42],[-20.71,-69.76],[-22.21,-69.4],[-21.4,-69.13],[-21.47,-68.34],[-23.44,-67.86],[-22.25,-67.68],[-21.6,-67.14],[-22.47,-66.87],[-21.39,-66.75],[-20.71,-66.08],[-10.72,-67.48],[-8.68,-67.22],[3.25,-68.08],[6.31,-67.6],[14.45,-69.1],[19.89,-68.66]]]}},{"type":"Feature","properties":{},"geometry":{"type":"Polygon","coordinates":[[[-33.29,-53.13],[-32.87,-53.06],[-33.5,-53.65],[-33.29,-53.13]]]}},{"type":"Feature","properties":{},"geometry":{"type":"Polygon","coordinates":[[[-34.78,-53.48],[-34.47,-53.43],[-35.05,-54.02],[-34.78,-53.48]]]}},{"type":"Feature","properties":{},"geometry":{"type":"Polygon","coordinates":[[[-25.28,-52.19],[-25.73,-52.41],[-24.49,-52.84],[-26.57,-52.63],[-25.28,-52.19]]]}},{"type":"Feature","properties":{},"geometry":{"type":"Polygon","coordinates":[[[-24.93,-52.12],[-23.87,-52.19],[-24.82,-52.42],[-24.93,-52.12]]]}},{"type":"Feature","properties":{},"geometry":{"type":"Polygon","coordinates":[[[-28.83,-51.65],[-28.52,-52.11],[-29.05,-51.92],[-28.83,-51.65]]]}},{"type":"Feature","properties":{},"geometry":{"type":"Polygon","coordinates":[[[-27.65,-51.16],[-27.34,-51.83],[-27.87,-51.58],[-27.65,-51.16]]]}},{"type":"Feature","properties":{},"geometry":{"type":"Polygon","coordinates":[[[-30.08,-51.37],[-29.14,-51.9],[-30.45,-51.81],[-30.08,-51.37]]]}},{"type":"Feature","properties":{},"geometry":{"type":"Polygon","coordinates":[[[-29.53,-50.53],[-28.79,-50.56],[-29.79,-51],[-29.42,-51.43],[-30.42,-51.19],[-29.81,-51.24],[-30.26,-50.85],[-29.53,-50.53]]]}},{"type":"Feature","properties":{},"geometry":{"type":"Polygon","coordinates":[[[-28.23,-52.14],[-26.87,-52.06],[-27.81,-51.77],[-25.89,-51.82],[-27.25,-51.39],[-26.71,-50.8],[-27.7,-50.97],[-27.53,-50.49],[-27.9,-50.39],[-27.1,-49.93],[-24.52,-51.19],[-22.33,-51.45],[-23.43,-52.04],[-28.67,-52.31],[-28.23,-52.14]]]}},{"type":"Feature","properties":{},"geometry":{"type":"Polygon","coordinates":[[[-18.35,-47.42],[-18.96,-48.37],[-19.65,-48.31],[-18.79,-47.9],[-19.5,-47.6],[-18.35,-47.42]]]}},{"type":"Feature","properties":{},"geometry":{"type":"Polygon","coordinates":[[[-17.91,-47.31],[-16.74,-47.53],[-18.23,-48.35],[-17.91,-47.31]]]}},{"type":"Feature","properties":{},"geometry":{"type":"Polygon","coordinates":[[[-32.57,-49.02],[-32.2,-49.35],[-32.78,-49.34],[-32.57,-49.02]]]}},{"type":"Feature","properties":{},"geometry":{"type":"Polygon","coordinates":[[[38.62,-78.57],[38.13,-78.25],[39.25,-78.28],[38.62,-78.57]]]}},{"type":"Feature","properties":{},"geometry":{"type":"Polygon","coordinates":[[[-33.43,-48.44],[-32.91,-48.5],[-33.34,-48.86],[-33.43,-48.44]]]}},{"type":"Feature","properties":{},"geometry":{"type":"Polygon","coordinates":[[[-33.12,-47.81],[-33.26,-48.31],[-33.87,-47.78],[-33.28,-47.77],[-33.38,-47.05],[-32.8,-48.39],[-33.12,-47.81]]]}},{"type":"Feature","properties":{},"geometry":{"type":"Polygon","coordinates":[[[-33.56,-46.53],[-33.22,-47.06],[-33.68,-47.02],[-33.56,-46.53]]]}},{"type":"Feature","properties":{},"geometry":{"type":"Polygon","coordinates":[[[33.49,-83.72],[32.27,-83.47],[33.86,-83.44],[32.17,-83.34],[37.03,-83.2],[33.49,-83.72]]]}},{"type":"Feature","properties":{},"geometry":{"type":"Polygon","coordinates":[[[-33.67,-43.33],[-33.49,-43.59],[-34.02,-43.56],[-33.67,-43.33]]]}},{"type":"Feature","properties":{},"geometry":{"type":"Polygon","coordinates":[[[-33.09,-42.59],[-32.76,-42.7],[-33.21,-43.17],[-33.09,-42.59]]]}},{"type":"Feature","properties":{},"geometry":{"type":"Polygon","coordinates":[[[-24.99,-76.74],[-25.01,-76.43],[-23.18,-76.69],[-24.99,-76.74]]]}},{"type":"Feature","properties":{},"geometry":{"type":"Polygon","coordinates":[[[-34.67,-40.2],[-34,-40.59],[-34.37,-40.93],[-33.95,-41.21],[-34.16,-41.81],[-34.77,-41.69],[-34.67,-40.2]]]}},{"type":"Feature","properties":{},"geometry":{"type":"Polygon","coordinates":[[[44.64,-75.44],[45.82,-75.25],[42.34,-74.97],[43.05,-74.76],[42.74,-74.37],[51.81,-73.24],[53.07,-73.29],[52.56,-73.6],[53.05,-73.69],[51.5,-74.59],[52.17,-74.87],[50.99,-75.16],[52.27,-74.88],[53.85,-75.71],[51.75,-76.08],[43.76,-75.83],[45.7,-75.44],[44.64,-75.44]]]}},{"type":"Feature","properties":{},"geometry":{"type":"Polygon","coordinates":[[[45.01,-80.7],[39.48,-80.55],[39.76,-80.96],[39.29,-81.06],[39.72,-81.18],[38.24,-80.89],[37.58,-81.19],[39.03,-81.25],[37.93,-81.42],[37.29,-81.24],[37.71,-81.01],[36.77,-81.28],[34.31,-80.91],[32.99,-80.15],[36.96,-78.22],[37.74,-76.34],[37.64,-75.45],[38.73,-76.11],[38.12,-76.39],[38.38,-78.23],[41.72,-79.24],[41.33,-79.45],[42.04,-79.82],[44.39,-80.11],[45.01,-80.7]]]}},{"type":"Feature","properties":{},"geometry":{"type":"Polygon","coordinates":[[[-21.11,-84.05],[-14.41,-84.36],[-10.36,-84.16],[-11.59,-83.91],[-10.3,-83.78],[0.55,-84.56],[24.76,-83.45],[42.12,-84.55],[33.74,-85.56],[7.65,-85.85],[-8.92,-85.44],[-22.06,-84.08],[-21.11,-84.05]]]}},{"type":"Feature","properties":{},"geometry":{"type":"Polygon","coordinates":[[[55.7,-75.98],[55.03,-76.03],[55.22,-75.71],[55.7,-75.98]]]}},{"type":"Feature","properties":{},"geometry":{"type":"Polygon","coordinates":[[[63.3,-66.58],[62.81,-67.01],[61.47,-66.05],[62.11,-65.85],[63.3,-66.58]]]}},{"type":"Feature","properties":{},"geometry":{"type":"Polygon","coordinates":[[[85.58,-82.14],[81.64,-82.41],[83.26,-82.5],[79.18,-83.13],[80.68,-83.3],[64.69,-83.59],[65.65,-83.65],[61.38,-84.09],[68.45,-84.12],[52.02,-84.65],[47.62,-85.32],[49.26,-85.74],[44.23,-86.04],[33.96,-84.78],[33.6,-84.6],[38.5,-84.18],[32.97,-83.45],[30.73,-82.17],[31.7,-81.53],[35.45,-81.41],[38.66,-82.41],[49.61,-81.99],[50.46,-82.75],[61.6,-83.44],[69.7,-83.12],[70.03,-83.19],[67.97,-83.33],[71.34,-83.43],[70.92,-83.3],[72.76,-83.01],[70.43,-83.04],[84.86,-81.85],[85.58,-82.14]]]}},{"type":"Feature","properties":{},"geometry":{"type":"Polygon","coordinates":[[[107.78,-68.21],[108.09,-68.34],[107.59,-68.59],[107.78,-68.21]]]}},{"type":"Feature","properties":{},"geometry":{"type":"Polygon","coordinates":[[[125.29,-71.08],[125.55,-71.24],[124.61,-71.19],[125.29,-71.08]]]}},{"type":"Feature","properties":{},"geometry":{"type":"Polygon","coordinates":[[[125.05,-70.17],[124.81,-70.54],[124.08,-70.36],[125.05,-70.17]]]}},{"type":"Feature","properties":{},"geometry":{"type":"Polygon","coordinates":[[[119.81,-67.68],[120.83,-68.97],[120.61,-69.58],[121.64,-71],[121.31,-71.22],[120.14,-70.85],[120.23,-70.31],[119.15,-69.2],[119.81,-67.68]]]}},{"type":"Feature","properties":{},"geometry":{"type":"Polygon","coordinates":[[[97.14,-52.26],[96.8,-52.91],[96.09,-52.49],[97.14,-52.26]]]}},{"type":"Feature","properties":{},"geometry":{"type":"Polygon","coordinates":[[[20.37,-29.19],[21.39,-27.18],[22.76,-26.34],[24.58,-26.89],[24.74,-27.35],[24.97,-26.9],[25.66,-27.28],[27.23,-26.72],[27.47,-26.11],[27.65,-26.49],[28.43,-26.43],[28.92,-25.61],[29.67,-25.5],[29.65,-26.76],[28.57,-29.06],[28.03,-29.36],[27.76,-28.67],[27.11,-29.85],[19.01,-34.83],[16.8,-34.24],[16.31,-33.21],[17.56,-30.59],[20.37,-29.19]]]}},{"type":"Feature","properties":{},"geometry":{"type":"Polygon","coordinates":[[[92.1,-46.5],[91.91,-47.05],[91.3,-46.68],[92.1,-46.5]]]}},{"type":"Feature","properties":{},"geometry":{"type":"Polygon","coordinates":[[[92.32,-46.41],[92.41,-46.96],[93.22,-46.98],[93.28,-47.36],[92.17,-47.36],[91.94,-46.84],[92.32,-46.41]]]}},{"type":"Feature","properties":{},"geometry":{"type":"Polygon","coordinates":[[[59.09,-70.96],[59.19,-70.56],[58.56,-70.33],[59.17,-70.06],[59.27,-69.44],[63.31,-68.31],[64.28,-67.53],[63.12,-68.41],[63.77,-68.15],[64.32,-67.46],[63.5,-66.95],[65.81,-66.99],[66.97,-66.37],[64.45,-66.5],[63.37,-65.88],[68.16,-66.02],[70.41,-65.34],[69.2,-65.64],[63.31,-65.1],[63.57,-64.3],[63.98,-64.31],[63.83,-64.61],[64.96,-64.16],[66.17,-63.4],[65.81,-63.13],[66.18,-62.8],[67,-62.81],[66.72,-62.48],[67.4,-62.14],[66.35,-61],[66.51,-59.95],[61.38,-56.45],[59,-55.42],[57.09,-55.27],[54.92,-52.5],[52.16,-51.54],[51.55,-49.97],[52.06,-48.9],[52.84,-48.67],[53.54,-49.07],[55.57,-48.47],[58.56,-46.5],[61.04,-43.66],[60.85,-44],[61.33,-43.75],[60.76,-44.32],[62.01,-43.59],[61.27,-44.53],[61.97,-44.44],[63.64,-42.7],[66.58,-41.94],[65.86,-42.41],[70.04,-43.22],[70.5,-43.96],[74.58,-45.78],[77.28,-45.79],[78.03,-45.1],[79.63,-45.06],[78.89,-46.34],[80.09,-46.1],[79.87,-45.65],[80.43,-45.36],[80.8,-46.22],[81.49,-46.49],[81.04,-46.06],[82.14,-45.89],[81.49,-45.9],[81.9,-45.54],[82.45,-45.52],[82.67,-46.2],[82.69,-45.57],[83.33,-46.04],[83.41,-45.49],[84.38,-45.45],[84,-45.78],[84.28,-45.97],[85.09,-45.52],[84.95,-45.91],[86.12,-45.98],[86.48,-46.5],[86.49,-47.61],[85.15,-48.01],[86.75,-47.83],[87.2,-48.31],[86.84,-48.6],[87.45,-48.41],[87.37,-48.88],[88.34,-48.52],[88.07,-48.08],[90.8,-47.51],[91.19,-47.81],[91.31,-47.46],[91.47,-47.91],[92.44,-47.65],[93.98,-48.68],[94.46,-48.23],[93.66,-47.4],[94.08,-47.38],[94.01,-47.73],[94.26,-47.48],[94.49,-48.12],[94.94,-48.13],[95.08,-48.91],[95.69,-49.06],[95.62,-49.53],[96.47,-49.74],[96.71,-50.34],[97.86,-50.44],[97.31,-50.47],[97.91,-50.61],[97.47,-50.93],[98.74,-50.77],[98.46,-51.13],[98.8,-51.38],[97.76,-51.72],[96.57,-51.48],[95.62,-52.19],[93.87,-52.08],[94.35,-52.17],[94.43,-52.75],[93.82,-52.76],[94.45,-52.8],[95.03,-53.85],[94.39,-53.85],[95.2,-54.16],[97.07,-57.44],[97.81,-57.65],[102.24,-56.45],[103.24,-55.18],[105.31,-54.4],[104.68,-54.16],[105.96,-54.01],[106.88,-53.11],[107.73,-53.18],[107.11,-54.24],[107.55,-54.54],[106.98,-54.77],[107.26,-55.18],[106.86,-55.38],[107.19,-55.44],[106.05,-56.85],[107.38,-57.06],[107.89,-58.15],[106.44,-59.43],[106.43,-60.09],[106.83,-60.11],[105.07,-61.91],[105.83,-62.85],[106.47,-62.87],[106.28,-63.44],[107.74,-64.35],[107.03,-64.7],[107.52,-65.29],[107.03,-65.71],[107.38,-65.81],[106.2,-66.76],[106.93,-67.04],[107.64,-66.59],[108.06,-67.34],[108.57,-67.1],[107.34,-68.14],[106.69,-67.81],[107.52,-68.29],[107.61,-68.94],[108.4,-69.04],[108.19,-69.81],[108.67,-70.06],[108.3,-70.42],[108.89,-70.67],[107.94,-71.32],[108.45,-71.36],[105.51,-72.37],[105.72,-72.69],[104.19,-73.78],[91.43,-75.86],[85.6,-75.77],[84.8,-75.36],[85.3,-75.57],[84.6,-75.69],[85.24,-75.75],[68.53,-76.55],[66.92,-76.27],[64.87,-74.91],[61.54,-74.57],[60.69,-74.05],[59.23,-74.29],[60.23,-74.04],[59.74,-73.88],[60.66,-73.37],[61.75,-73.38],[60.49,-73.03],[60.92,-72.77],[62.74,-72.84],[58.46,-72.07],[59.09,-70.96]]]}},{"type":"Feature","properties":{},"geometry":{"type":"Polygon","coordinates":[[[105.46,-48.33],[105.72,-48.65],[104.91,-48.98],[103.76,-48.33],[105.46,-48.33]]]}},{"type":"Feature","properties":{},"geometry":{"type":"Polygon","coordinates":[[[129.57,3.6],[129.41,3.04],[128.61,2.7],[129.57,3.6]]]}},{"type":"Feature","properties":{},"geometry":{"type":"Polygon","coordinates":[[[100.87,-44.79],[100.98,-45.3],[100.31,-45.4],[100.87,-44.79]]]}},{"type":"Feature","properties":{},"geometry":{"type":"Polygon","coordinates":[[[101.55,-44.82],[101.26,-45.18],[101.05,-44.78],[101.55,-44.82]]]}},{"type":"Feature","properties":{},"geometry":{"type":"Polygon","coordinates":[[[122.56,-0.18],[124.59,0.84],[125.25,0.61],[126.69,1.45],[126.79,2.23],[128.39,2.79],[129.18,2.36],[130.46,3.11],[131.01,2.45],[123.74,-1.18],[123.59,-0.79],[122.43,-1.34],[122.56,-0.18]]]}},{"type":"Feature","properties":{},"geometry":{"type":"Polygon","coordinates":[[[101.75,-44.43],[101.72,-44.92],[101.17,-44.71],[101.75,-44.43]]]}},{"type":"Feature","properties":{},"geometry":{"type":"Polygon","coordinates":[[[122.71,3.63],[123.28,3.72],[123.34,3.21],[123,2.99],[122.71,3.63]]]}},{"type":"Feature","properties":{},"geometry":{"type":"Polygon","coordinates":[[[120.6,3.07],[121.52,2.67],[122.04,2.94],[122.31,2.5],[120.45,2.12],[120.6,3.07]]]}},{"type":"Feature","properties":{},"geometry":{"type":"Polygon","coordinates":[[[117.01,-51.62],[116.87,-52.38],[117.89,-53.32],[117.9,-54.44],[119.03,-54.66],[118.6,-55.07],[119.78,-55.56],[119.24,-55.79],[120.75,-56.37],[119.32,-56.56],[116.08,-54.97],[115.18,-53.88],[115.48,-53.69],[114.91,-53.52],[114.57,-52.2],[113.06,-51.2],[112.26,-51.34],[111.86,-50.61],[111.8,-51.43],[110.96,-51.01],[111.19,-51.49],[109.19,-50.77],[110.32,-51.44],[110.26,-52.05],[106.98,-51.11],[106.31,-49.63],[106.82,-49.44],[104.96,-49.15],[105.75,-48.66],[105.47,-48.11],[106.74,-48.59],[105.51,-47.83],[106.33,-48.22],[105.81,-47.24],[106.33,-46.77],[105.86,-46.54],[106.23,-46.35],[105.67,-45.8],[105.99,-45.6],[105.64,-45.75],[103.1,-43.4],[109.37,-46.19],[117.01,-51.62]]]}},{"type":"Feature","properties":{},"geometry":{"type":"Polygon","coordinates":[[[117.77,4.14],[118.07,3.85],[117.62,3.78],[117.77,4.14]]]}},{"type":"Feature","properties":{},"geometry":{"type":"Polygon","coordinates":[[[-3.52,-3.42],[-3.7,-3.79],[-3.92,-3.55],[-3.52,-3.42]]]}},{"type":"Feature","properties":{},"geometry":{"type":"Polygon","coordinates":[[[108.96,0.99],[110.68,2.06],[111.93,1.61],[116.73,2.27],[119.58,-1.5],[116.86,-0.61],[115.23,-0.57],[113.99,0.29],[112.88,0],[111.25,0.47],[109.41,0.34],[108.77,0.72],[108.96,0.99]]]}},{"type":"Feature","properties":{},"geometry":{"type":"Polygon","coordinates":[[[116.39,2.35],[117.24,2.56],[117.1,2.11],[117.8,2.87],[118.25,1.89],[119.17,2.36],[120.5,1.48],[121.02,2.23],[121.76,2.08],[123.51,-0.24],[122.88,-0.21],[123.04,-0.56],[122.38,-0.79],[122.68,-1.07],[118.88,-1.12],[116.39,2.35]]]}},{"type":"Feature","properties":{},"geometry":{"type":"Polygon","coordinates":[[[123.73,16.53],[123.95,16.18],[124.01,16.75],[124.83,16.63],[125.5,16.12],[126.79,16.64],[126.12,15.59],[126.81,15.53],[125.97,14.89],[126.56,14.38],[125.96,13.91],[126.53,14.17],[126.2,13.94],[127.63,13.48],[127.7,12.94],[129.18,12.86],[128.16,12.39],[129.05,10.67],[128.45,9.04],[128.78,9.08],[128.62,8.57],[129.09,8.79],[129.17,7.16],[128.54,6.17],[127.98,6.81],[127.31,6.19],[126.5,6.27],[125.94,5.09],[125.34,5.61],[124.31,4.61],[122.96,5.97],[122.24,5.77],[122.4,6.04],[121.23,6.51],[120.6,8.05],[122.6,8.74],[122.18,8.74],[121.87,9.92],[122.89,11.23],[122.83,12.94],[123.81,14.03],[123.73,16.53]]]}},{"type":"Feature","properties":{},"geometry":{"type":"Polygon","coordinates":[[[20.39,-39.88],[17.18,-41.09],[15.66,-40.68],[15.28,-39.62],[15.86,-39.14],[18.28,-39.13],[18.56,-39.24],[17.96,-39.2],[20.39,-39.88]]]}},{"type":"Feature","properties":{},"geometry":{"type":"Polygon","coordinates":[[[-30.14,12.42],[-30.06,11.73],[-30.97,11.53],[-30.54,11.84],[-30.79,12.23],[-30.14,12.42]]]}},{"type":"Feature","properties":{},"geometry":{"type":"Polygon","coordinates":[[[-47.65,-1.45],[-46.56,-2.39],[-48.02,-1.9],[-47.65,-1.45]]]}},{"type":"Feature","properties":{},"geometry":{"type":"Polygon","coordinates":[[[-51.56,2.54],[-49.41,0.93],[-48.95,0.21],[-49.44,0.25],[-48.62,-0.79],[-49.08,-0.97],[-51,0.28],[-51.66,-0.14],[-51.86,0.71],[-53.44,1.43],[-53.72,2],[-53.36,2.16],[-51.93,1.11],[-51.73,2.07],[-52.21,2.65],[-51.56,2.54]]]}},{"type":"Feature","properties":{},"geometry":{"type":"Polygon","coordinates":[[[116.4,19.83],[117.29,20.12],[117.25,18.86],[116.5,18.01],[115.57,18.11],[115.3,18.94],[116.4,19.83]]]}},{"type":"Feature","properties":{},"geometry":{"type":"Polygon","coordinates":[[[-49.16,4.44],[-47.78,2.89],[-45.36,-2.5],[-48.23,-0.69],[-47.35,-0.29],[-47.95,0.27],[-47.83,1.31],[-49.67,3.54],[-49.4,3.97],[-52.1,5.2],[-51.52,4.91],[-50.88,5.29],[-49.16,4.44]]]}},{"type":"Feature","properties":{},"geometry":{"type":"Polygon","coordinates":[[[-29.83,17.8],[-29.48,17.05],[-29.78,16.87],[-30.16,17.24],[-29.83,17.8]]]}},{"type":"Feature","properties":{},"geometry":{"type":"Polygon","coordinates":[[[133.02,40.18],[133.97,39.99],[133.85,39.58],[134.51,39.29],[133.91,37.66],[133.22,37.24],[133.28,37.95],[133.12,37.4],[132.57,37.61],[132.96,39.01],[132.45,39.39],[132.68,38.89],[132.03,38.73],[131.89,39.25],[132.29,39.03],[131.74,39.47],[133.02,40.18]]]}},{"type":"Feature","properties":{},"geometry":{"type":"Polygon","coordinates":[[[136.58,40.88],[137.28,40.41],[136.74,39.77],[135.87,39.9],[135.15,39.22],[134.81,39.84],[134.39,39.7],[135.24,40.54],[136.58,40.88]]]}},{"type":"Feature","properties":{},"geometry":{"type":"Polygon","coordinates":[[[21.17,19.46],[22.7,18.06],[21.48,18.55],[20.86,19.35],[21.17,19.46]]]}},{"type":"Feature","properties":{},"geometry":{"type":"Polygon","coordinates":[[[25.84,11.42],[25.02,11.72],[24.47,12.48],[24.66,13.06],[25.31,12.71],[25.84,11.42]]]}},{"type":"Feature","properties":{},"geometry":{"type":"Polygon","coordinates":[[[17.13,25.51],[15.68,24.47],[14.6,26.67],[15.08,26.83],[17.13,25.51]]]}},{"type":"Feature","properties":{},"geometry":{"type":"Polygon","coordinates":[[[22.96,22.52],[23.15,21.15],[22.48,22.62],[22.96,22.52]]]}},{"type":"Feature","properties":{},"geometry":{"type":"Polygon","coordinates":[[[34.06,35.76],[34.38,35.44],[33.61,35.5],[34.06,35.76]]]}},{"type":"Feature","properties":{},"geometry":{"type":"Polygon","coordinates":[[[10.53,31.51],[10.35,30.83],[9.74,31.13],[10.53,31.51]]]}},{"type":"Feature","properties":{},"geometry":{"type":"Polygon","coordinates":[[[15.23,34.29],[14.84,33.84],[13.01,33.56],[12.28,34.21],[14.65,35],[15.23,34.29]]]}},{"type":"Feature","properties":{},"geometry":{"type":"Polygon","coordinates":[[[136.64,41.23],[134.62,40.73],[134.46,40.19],[133.07,40.2],[133.12,40.7],[135.25,42.03],[138.51,42.33],[139.05,44.06],[139.69,44.25],[139.19,43.82],[139.64,43.47],[141.02,44.2],[142.26,45.82],[142.08,47.52],[142.53,48.19],[143.46,47.85],[143.14,48.51],[143.78,48.43],[144.68,46.52],[144.21,45.29],[143.54,45.02],[143.75,43.99],[143.37,43.23],[143.78,42.71],[143.28,42.13],[142.63,41.88],[142.8,42.61],[141.56,41.53],[141.51,41.98],[140.99,41.43],[139.67,41.31],[140.01,41.53],[139.28,41.77],[139.13,41.31],[139.58,41],[138.18,40.14],[137.62,40.47],[137.95,41.32],[136.64,41.23]]]}},{"type":"Feature","properties":{},"geometry":{"type":"Polygon","coordinates":[[[17.35,34.51],[15.35,34.35],[16.43,35.02],[17.35,34.51]]]}},{"type":"Feature","properties":{},"geometry":{"type":"Polygon","coordinates":[[[149.95,45.81],[150.25,45.83],[149.07,45.1],[149.95,45.81]]]}},{"type":"Feature","properties":{},"geometry":{"type":"Polygon","coordinates":[[[145.5,46.91],[147.96,45.35],[148.99,45.72],[148.7,45.18],[149.07,44.63],[147.52,44.25],[146.87,43.42],[144.14,43.97],[143.86,44.72],[144.97,44.71],[145.5,46.91]]]}},{"type":"Feature","properties":{},"geometry":{"type":"Polygon","coordinates":[[[142.66,49.53],[142.34,49.17],[143.42,48.79],[142.21,48.33],[141.76,49.5],[142.66,49.53]]]}},{"type":"Feature","properties":{},"geometry":{"type":"Polygon","coordinates":[[[-11.53,38.22],[-11.52,37.5],[-12.23,36.96],[-11.46,37.53],[-11,37.13],[-12.35,36.8],[-12.52,37.31],[-11.53,38.22]]]}},{"type":"Feature","properties":{},"geometry":{"type":"Polygon","coordinates":[[[-14.56,38.27],[-14.42,37.82],[-12.85,37.74],[-13.58,37.27],[-14.73,37.81],[-14.56,38.27]]]}},{"type":"Feature","properties":{},"geometry":{"type":"Polygon","coordinates":[[[-14.33,41.33],[-12.31,40.39],[-13.92,40.74],[-14.66,41.27],[-14.33,41.33]]]}},{"type":"Feature","properties":{},"geometry":{"type":"Polygon","coordinates":[[[-80.16,28.67],[-78.33,28],[-77.06,26.14],[-78.27,26.45],[-77.95,26.9],[-78.5,26.6],[-79.19,27.1],[-78.87,27.4],[-80.13,27.9],[-79.73,28.37],[-80.19,28.24],[-80.16,28.67]]]}},{"type":"Feature","properties":{},"geometry":{"type":"Polygon","coordinates":[[[-6.93,40.13],[-6.13,40.5],[-5.29,40.16],[-5.98,39.31],[-4.94,39.49],[-5.8,39.1],[-5.58,38.43],[-4.84,38.99],[-5.15,37.54],[-5.6,37.55],[-5.5,38.12],[-6.09,37.76],[-5.91,38.81],[-7.42,37.84],[-6.46,38.62],[-10.44,38.77],[-6.93,40.13]]]}},{"type":"Feature","properties":{},"geometry":{"type":"Polygon","coordinates":[[[-7.16,42.61],[-6.83,42.36],[-7.36,42.33],[-7.07,42.06],[-8.2,40.78],[-6.99,40.98],[-7.59,40.58],[-6.71,40.5],[-6.93,40.13],[-10.38,38.89],[-9.46,39.61],[-10.28,39.67],[-9.49,40.25],[-9.09,40.05],[-9.38,40.41],[-8.89,40.52],[-8.53,41.75],[-7.16,42.61]]]}},{"type":"Feature","properties":{},"geometry":{"type":"Polygon","coordinates":[[[-28.43,45.9],[-27.97,45.31],[-29.06,45.76],[-28.43,45.9]]]}},{"type":"Feature","properties":{},"geometry":{"type":"Polygon","coordinates":[[[-82.53,31.27],[-82.24,30.09],[-83.09,31.16],[-82.53,31.27]]]}},{"type":"Feature","properties":{},"geometry":{"type":"Polygon","coordinates":[[[-83.24,32.28],[-82.68,32.05],[-82.95,31.62],[-82.29,32.17],[-82.83,31.19],[-83.24,32.28]]]}},{"type":"Feature","properties":{},"geometry":{"type":"Polygon","coordinates":[[[146.4,55.72],[146.97,54.22],[146.65,53.11],[148.41,50.03],[147.67,50.64],[146.59,50.51],[146.12,49.18],[147.23,47.75],[147.02,47.41],[146.28,48.14],[145.65,47.28],[145.38,47.97],[145.79,49.37],[145.42,50.16],[145.84,52.53],[145.25,53.14],[145.31,53.83],[145.43,54.79],[146.42,55.09],[145.87,55.68],[146.4,55.72]]]}},{"type":"Feature","properties":{},"geometry":{"type":"Polygon","coordinates":[[[-101.94,39.12],[-101.85,38.57],[-103.07,39.06],[-101.94,39.12]]]}},{"type":"Feature","properties":{},"geometry":{"type":"Polygon","coordinates":[[[140.55,62.43],[141.15,62.36],[140.05,62.01],[140.55,62.43]]]}},{"type":"Feature","properties":{},"geometry":{"type":"Polygon","coordinates":[[[0.81,43.59],[1.83,43.88],[0.72,43.76],[1.6,44.44],[0.51,44.61],[1.04,45.01],[0.56,45.45],[1.9,45.44],[2.21,45.87],[1.64,45.91],[2.06,46.38],[3.9,46.44],[4.45,45.74],[2.52,44.08],[0.81,43.59]]]}},{"type":"Feature","properties":{},"geometry":{"type":"Polygon","coordinates":[[[2.11,43.11],[0.88,42.66],[1.14,42.94],[0.55,42.82],[1.05,43.09],[0.34,43.05],[0.89,43.36],[0.28,43.38],[3.83,44.91],[3.76,43.42],[2.11,43.11]]]}},{"type":"Feature","properties":{},"geometry":{"type":"Polygon","coordinates":[[[17.54,47.34],[17.87,46.84],[16.93,47.23],[17.54,47.34]]]}},{"type":"Feature","properties":{},"geometry":{"type":"Polygon","coordinates":[[[-75.5,49.26],[-75.81,48.6],[-76.11,48.72],[-75.8,49.02],[-76.29,48.95],[-75.5,49.26]]]}},{"type":"Feature","properties":{},"geometry":{"type":"Polygon","coordinates":[[[19.11,47.94],[18.97,46.79],[17.9,47.52],[18.91,47.49],[18.67,47.79],[19.11,47.94]]]}},{"type":"Feature","properties":{},"geometry":{"type":"Polygon","coordinates":[[[-83.29,34.48],[-82.45,33.49],[-82.87,33.42],[-82.38,33.28],[-82.47,32.71],[-83.21,33.38],[-83.29,34.48]]]}},{"type":"Feature","properties":{},"geometry":{"type":"Polygon","coordinates":[[[-25.86,49.08],[-25.98,48.33],[-25.66,48.82],[-26.07,48.31],[-25.85,48.68],[-26.67,48.42],[-25.86,49.08]]]}},{"type":"Feature","properties":{},"geometry":{"type":"Polygon","coordinates":[[[-83.62,35.1],[-83.31,34.72],[-83.7,34.16],[-83.62,35.1]]]}},{"type":"Feature","properties":{},"geometry":{"type":"Polygon","coordinates":[[[-83.34,35.23],[-82.86,34.98],[-83,34.54],[-83.34,35.23]]]}},{"type":"Feature","properties":{},"geometry":{"type":"Polygon","coordinates":[[[3.61,48.94],[4.16,48.51],[3.87,48.26],[3.23,48.65],[3.61,48.94]]]}},{"type":"Feature","properties":{},"geometry":{"type":"Polygon","coordinates":[[[24.1,50.08],[24.31,49.65],[23.73,49.09],[23.6,49.71],[24.1,50.08]]]}},{"type":"Feature","properties":{},"geometry":{"type":"Polygon","coordinates":[[[-84.09,33.08],[-84.02,32.13],[-84.4,32.64],[-84.62,32.31],[-84.7,32.84],[-84.09,33.08]]]}},{"type":"Feature","properties":{},"geometry":{"type":"Polygon","coordinates":[[[-83.78,36.51],[-83.27,35.59],[-83.84,35.21],[-83.78,36.51]]]}},{"type":"Feature","properties":{},"geometry":{"type":"Polygon","coordinates":[[[27.07,51.09],[27.71,50.98],[26.77,50.34],[26.48,50.91],[27.07,51.09]]]}},{"type":"Feature","properties":{},"geometry":{"type":"Polygon","coordinates":[[[5.97,49.93],[6.18,49.66],[5.15,49.18],[5.66,49.14],[4.69,47.97],[3.71,47.95],[4.39,48.36],[4.01,49.1],[4.61,49.07],[4.29,49.32],[4.63,49.88],[5.97,49.93]]]}},{"type":"Feature","properties":{},"geometry":{"type":"Polygon","coordinates":[[[5.58,48.89],[7.27,48.93],[6.74,47.87],[6.08,47.66],[6.71,47.57],[5.67,47.38],[7.11,47.22],[7.64,46.62],[4.93,45.89],[4.64,46.23],[5.17,47.19],[4.94,47.47],[4.5,47.11],[4.69,47.5],[4.11,46.54],[4.19,47.54],[5.58,48.89]]]}},{"type":"Feature","properties":{},"geometry":{"type":"Polygon","coordinates":[[[7.64,46.62],[7.93,45.92],[8.93,45.48],[9.16,44.96],[8.43,45.05],[9.17,44.85],[9.08,44.26],[10.51,44.14],[10.45,43.5],[9.45,42.82],[10.36,42.56],[4.39,41.28],[5.58,42.46],[6.62,42.51],[7.15,43.11],[6.33,42.67],[4.64,43.16],[5.77,43.83],[5.66,44.2],[5.07,44.06],[5.41,44.39],[6.74,44.61],[6.66,45.52],[6.29,45.39],[6.07,46.05],[7.64,46.62]]]}},{"type":"Feature","properties":{},"geometry":{"type":"Polygon","coordinates":[[[26.96,51.56],[27.41,51.34],[26.55,51.35],[26.96,51.56]]]}},{"type":"Feature","properties":{},"geometry":{"type":"Polygon","coordinates":[[[-13.24,53.07],[-13.17,52.68],[-13.62,53.02],[-13.24,53.07]]]}},{"type":"Feature","properties":{},"geometry":{"type":"Polygon","coordinates":[[[-24.44,54.76],[-25,54.01],[-25.2,54.47],[-24.44,54.76]]]}},{"type":"Feature","properties":{},"geometry":{"type":"Polygon","coordinates":[[[-26.45,55.61],[-26.31,55.3],[-27.9,54.9],[-27.54,55.57],[-26.45,55.61]]]}},{"type":"Feature","properties":{},"geometry":{"type":"Polygon","coordinates":[[[-23.09,55.75],[-22.65,55.41],[-23.39,55.72],[-23.09,55.75]]]}},{"type":"Feature","properties":{},"geometry":{"type":"Polygon","coordinates":[[[-33.53,85.59],[-51.66,85.49],[-48.99,85.65],[-49.74,85.88],[-37.26,85.99],[-33.08,85.6],[-33.53,85.59]]]}},{"type":"Feature","properties":{},"geometry":{"type":"Polygon","coordinates":[[[-26.62,84.67],[-28.05,84.71],[-25.57,84.83],[-26.62,84.67]]]}},{"type":"Feature","properties":{},"geometry":{"type":"Polygon","coordinates":[[[-27.81,58.76],[-27.67,58.02],[-27.23,58.23],[-25.55,57.1],[-25.89,56.54],[-24.53,56.18],[-25.36,55.94],[-26.4,56.28],[-26.67,56.84],[-28.92,56],[-28.89,56.67],[-30.12,56.66],[-29.12,57.04],[-28.46,58.42],[-27.81,58.76]]]}},{"type":"Feature","properties":{},"geometry":{"type":"Polygon","coordinates":[[[63.67,64.43],[63.94,64.22],[63.08,64.13],[63.67,64.43]]]}},{"type":"Feature","properties":{},"geometry":{"type":"Polygon","coordinates":[[[-18.54,59.96],[-17.94,59.67],[-18.94,59.94],[-18.54,59.96]]]}},{"type":"Feature","properties":{},"geometry":{"type":"Polygon","coordinates":[[[-19.63,60.34],[-19.05,60.1],[-19.45,59.4],[-20.87,59.35],[-20.51,60.17],[-19.63,60.34]]]}},{"type":"Feature","properties":{},"geometry":{"type":"Polygon","coordinates":[[[19.08,60.9],[19.19,60.47],[19.47,60.89],[19.76,60.55],[18.72,60.18],[19.08,60.9]]]}},{"type":"Feature","properties":{},"geometry":{"type":"Polygon","coordinates":[[[-4.71,80.49],[-15.36,82.26],[-15.03,82.54],[-15.66,82.9],[-14.84,82.96],[-16.79,83.3],[-19.1,83.17],[-17.15,83.12],[-18.19,82.95],[-15.89,82.57],[-24.68,82.55],[-33.04,83.14],[-30.66,83.49],[-31.44,83.72],[-27.64,83.61],[-30.15,83.92],[-22.61,83.87],[-27.13,84.4],[-22.9,84.79],[-28.31,85.07],[-24.39,85.31],[-12.34,84.83],[-12.69,84.77],[-10.45,84.6],[-11.27,84.47],[-10.33,84.14],[-0.65,83.88],[-1.73,83.69],[-0.85,83.32],[-3.14,83.03],[1.26,83.1],[2.4,83.33],[1.6,83.65],[2.53,83.79],[3.78,83.47],[-4.71,80.49]]]}},{"type":"Feature","properties":{},"geometry":{"type":"Polygon","coordinates":[[[18.63,60.93],[18.92,60.61],[18.15,60.56],[18.63,60.93]]]}},{"type":"Feature","properties":{},"geometry":{"type":"Polygon","coordinates":[[[-20.05,61.52],[-19.72,61.42],[-20.29,61.23],[-20.05,61.52]]]}},{"type":"Feature","properties":{},"geometry":{"type":"Polygon","coordinates":[[[44.18,64.08],[44.81,63.87],[43.83,63.33],[43.22,63.64],[43.32,64.03],[44.18,64.08]]]}},{"type":"Feature","properties":{},"geometry":{"type":"Polygon","coordinates":[[[20.3,61.53],[20.66,61.25],[19.8,61.06],[20.3,61.53]]]}},{"type":"Feature","properties":{},"geometry":{"type":"Polygon","coordinates":[[[-34.67,63.64],[-33.59,62.56],[-34.9,62.32],[-36.77,63.06],[-34.67,63.64]]]}},{"type":"Feature","properties":{},"geometry":{"type":"Polygon","coordinates":[[[11.7,77.46],[11.03,77.86],[12.19,78],[13.03,77.47],[11.7,77.46]]]}},{"type":"Feature","properties":{},"geometry":{"type":"Polygon","coordinates":[[[21.23,62.2],[21.6,62.12],[20.91,62.01],[21.23,62.2]]]}},{"type":"Feature","properties":{},"geometry":{"type":"Polygon","coordinates":[[[-8.38,56.53],[-7.31,55.74],[-8.88,55.69],[-8.32,55.66],[-9.19,56.04],[-8.38,56.53]]]}},{"type":"Feature","properties":{},"geometry":{"type":"Polygon","coordinates":[[[50.51,66.18],[52.28,65.64],[50.19,65.88],[50.51,66.18]]]}},{"type":"Feature","properties":{},"geometry":{"type":"Polygon","coordinates":[[[-15.65,62.73],[-15.32,62.64],[-15.92,62.51],[-15.65,62.73]]]}},{"type":"Feature","properties":{},"geometry":{"type":"Polygon","coordinates":[[[8.49,56.17],[8.73,55.79],[7.03,55.6],[8.49,56.17]]]}},{"type":"Feature","properties":{},"geometry":{"type":"Polygon","coordinates":[[[44.92,66.31],[45.6,65.95],[44.61,66.16],[44.92,66.31]]]}},{"type":"Feature","properties":{},"geometry":{"type":"Polygon","coordinates":[[[-6.11,78.48],[-4.7,78.53],[-6.67,78.01],[-6.11,78.48]]]}},{"type":"Feature","properties":{},"geometry":{"type":"Polygon","coordinates":[[[-8.95,77.91],[-11.19,78.35],[-6.94,78.45],[-7.55,77.91],[-8.95,77.91]]]}},{"type":"Feature","properties":{},"geometry":{"type":"Polygon","coordinates":[[[137.77,79.05],[138.7,79.03],[137.04,78.95],[137.77,79.05]]]}},{"type":"Feature","properties":{},"geometry":{"type":"Polygon","coordinates":[[[-15.52,38.5],[-15.12,37.64],[-14.46,37.52],[-14.74,37.42],[-13.39,36.9],[-12.86,37.17],[-12.08,36.56],[-15.07,35.99],[-16.22,34.95],[-16.76,35.28],[-16.43,36.09],[-16.74,35.97],[-15.16,36.76],[-14.94,36.36],[-14.15,36.73],[-15.55,36.78],[-15.14,37.41],[-18.65,35.91],[-19.26,36.18],[-19.46,35.69],[-20.42,35.54],[-21.29,34.2],[-20.73,33.55],[-20.46,33.87],[-20.44,33.38],[-21.53,33.37],[-21.65,33.73],[-21.8,33.3],[-22.54,33.27],[-19.77,36.39],[-15.52,38.5]]]}},{"type":"Feature","properties":{},"geometry":{"type":"Polygon","coordinates":[[[-13.31,-24.46],[-15.89,-28.92],[-14.76,-27.02],[-15.54,-26.66],[-15.28,-26.99],[-16.11,-28.5],[-16.26,-29.92],[-17.4,-31.66],[-19.27,-32.19],[-20.99,-31.98],[-21.67,-31.4],[-21.47,-30.46],[-21.81,-30.68],[-21.66,-32.02],[-20.18,-32.7],[-20.02,-33.57],[-27.88,-32.15],[-29.62,-31.55],[-31.22,-29],[-35.01,-24.59],[-35.46,-22.73],[-35.24,-20.86],[-35.94,-18.38],[-29.16,-21.08],[-22.44,-23.09],[-13.31,-24.46]]]}},{"type":"Feature","properties":{},"geometry":{"type":"Polygon","coordinates":[[[-23.94,-35.66],[-24.53,-35.51],[-24.01,-36.08],[-24.32,-36.04],[-24.01,-37.63],[-26.59,-37.95],[-26.2,-39.16],[-25.59,-39.44],[-25.01,-38.97],[-24.72,-39.63],[-26.01,-39.72],[-25.3,-39.94],[-26.07,-40.74],[-25.9,-42.03],[-27.19,-42.61],[-27.53,-43.48],[-26.48,-44.24],[-25.46,-44.28],[-25.26,-45.01],[-27.46,-48.04],[-27.19,-49.17],[-26.17,-49.67],[-28.33,-50.42],[-28.22,-51.6],[-29.54,-51.3],[-28.85,-51.3],[-28.49,-50.61],[-29.02,-50.35],[-30.26,-50.51],[-30.13,-51.01],[-30.6,-51.07],[-30.25,-50.54],[-30.98,-50.85],[-31.26,-50.18],[-30.36,-50.28],[-30.38,-49.95],[-30.06,-50.16],[-30.38,-50.47],[-29.98,-50.42],[-30.16,-49.73],[-30.94,-49.3],[-30.24,-49.71],[-31.01,-49.66],[-30.55,-49.88],[-30.76,-50.16],[-31.08,-49.74],[-30.8,-50.25],[-31.58,-49.8],[-31.47,-49.34],[-32.13,-49.16],[-31.42,-48.81],[-31.7,-48.55],[-31.96,-49.07],[-32.1,-48.6],[-32.82,-48.54],[-32,-48.5],[-32.67,-47.93],[-32.02,-47.91],[-32.57,-47.34],[-32.84,-47.71],[-33.07,-47.13],[-32.73,-47.02],[-33.1,-46.94],[-32.67,-46.68],[-33.53,-46.4],[-32.22,-46.21],[-32.8,-45.82],[-33.69,-46.13],[-33.19,-45.92],[-33.6,-45.8],[-33.22,-45.47],[-33.57,-45.11],[-34.92,-45.36],[-34.3,-44.27],[-33.7,-44.17],[-33.22,-44.89],[-32.85,-43.89],[-33.21,-44.06],[-33.23,-43.72],[-32.59,-43.6],[-33.34,-43.47],[-32.65,-42.66],[-33.43,-42.44],[-33.15,-40.75],[-33.52,-40.55],[-33.04,-40.66],[-33.66,-40.17],[-33.21,-39.68],[-34.55,-40.14],[-34.96,-38.43],[-34.62,-37.74],[-35.59,-35.81],[-35.13,-35.51],[-34.45,-31.76],[-35.32,-27.27],[-35.03,-23.34],[-31.25,-27.72],[-28.12,-32.58],[-23.94,-35.66]]]}},{"type":"Feature","properties":{},"geometry":{"type":"Polygon","coordinates":[[[-37.32,11.34],[-35.34,11.63],[-34.13,11.16],[-32.74,11.78],[-33.38,11.88],[-30.99,12.25],[-32.01,11.89],[-31.36,11.25],[-29.85,11.07],[-29.86,10.18],[-28.93,10.3],[-27.44,9.49],[-27.24,8.31],[-26.98,8.81],[-25.7,7.88],[-23.63,8.3],[-21.46,7.99],[-19.62,6.85],[-19.07,5.25],[-17.98,4.31],[-19.28,2.24],[-18.64,2.81],[-18.92,2.09],[-18.34,2.74],[-16.28,2.75],[-16.63,1.56],[-18.13,0.92],[-17.04,1.26],[-17.1,0.8],[-16.11,1.59],[-15.79,2.55],[-14.7,2.51],[-13.15,2.06],[-13.12,1.63],[-12.68,2],[-12.39,1.7],[-12.5,1.18],[-12.09,1.15],[-12.4,0.13],[-12.02,1],[-11.88,0.64],[-11.11,1.25],[-9.92,0.88],[-7.66,1.07],[-4.67,-0.75],[-2.74,-1.11],[-2.09,-3.59],[-4.79,-8.43],[-5.27,-8.92],[-5.49,-8.55],[-5.4,-13.63],[-6.76,-18.1],[-7.65,-19.18],[-9.97,-19.36],[-13.36,-22.25],[-13.88,-22.21],[-13.48,-22.37],[-13.88,-23],[-13.54,-23.03],[-13.45,-24.95],[-22.54,-23.3],[-29.19,-21.08],[-35.87,-18.17],[-37.24,-16.7],[-41.95,-14.62],[-45.75,-8.64],[-46.94,-7.26],[-48.14,-6.71],[-47.95,-6.16],[-48.49,-4.95],[-47.41,-3.96],[-47.17,-3.08],[-47.44,-2.85],[-47.68,-3.31],[-48.5,-2.85],[-47.93,0.18],[-46.91,0.72],[-46.66,1.67],[-42.45,4.21],[-41.34,7.78],[-38.57,10.89],[-37.32,11.34]]]}},{"type":"Feature","properties":{},"geometry":{"type":"Polygon","coordinates":[[[-47.05,7.4],[-46.21,6.66],[-46.43,7.29],[-45.19,8.25],[-44.95,9.67],[-43.02,10.31],[-41.51,11.61],[-40.93,11.25],[-41.74,10.69],[-41.28,9.87],[-41.75,8.93],[-41.27,8.21],[-40.65,8.93],[-41.3,9.96],[-39.82,10.73],[-39.86,11.48],[-39.39,10.78],[-37.96,10.31],[-39.2,9.63],[-42.07,6.62],[-43.31,3.09],[-47.62,0.71],[-46.12,2.66],[-46.67,2.91],[-46.66,5.27],[-47.49,6.08],[-47.05,7.4]]]}},{"type":"Feature","properties":{},"geometry":{"type":"Polygon","coordinates":[[[-20.38,-32.81],[-19.71,-33.43],[-20.27,-34.74],[-24.1,-36.25],[-27.92,-33.63],[-29.95,-30.93],[-20.38,-32.81]]]}},{"type":"Feature","properties":{},"geometry":{"type":"Polygon","coordinates":[[[-70.34,33.32],[-69.96,33.24],[-70.03,33.8],[-70.75,33.8],[-71.66,36.21],[-70.52,36.79],[-68.97,35.91],[-67.03,32.74],[-66.65,31.31],[-67.02,30.22],[-70.34,33.32]]]}},{"type":"Feature","properties":{},"geometry":{"type":"Polygon","coordinates":[[[-71.66,36.21],[-71.17,37.42],[-71.42,38.76],[-70.31,42.06],[-69.81,42.05],[-70.36,42.11],[-70.28,42.74],[-69.86,42.75],[-70.31,42.77],[-70.53,44.26],[-68.77,43.84],[-69.29,43.09],[-68.68,43.63],[-68.66,43.18],[-69.13,42.73],[-68.39,43.12],[-68.61,44.48],[-67.7,44.79],[-67.66,43.35],[-65.96,43.13],[-65.08,41.92],[-63,41.56],[-63.72,39.92],[-68.15,38.27],[-71.66,36.21]]]}},{"type":"Feature","properties":{},"geometry":{"type":"Polygon","coordinates":[[[-76.44,26.37],[-76.74,26.65],[-76.15,26.7],[-76.44,26.37]]]}},{"type":"Feature","properties":{},"geometry":{"type":"Polygon","coordinates":[[[-75.78,27.14],[-76.73,26.79],[-76.83,27.65],[-76.8,27.18],[-77.3,27.12],[-77.13,27.81],[-77.51,27.37],[-77.91,27.71],[-77.5,28.14],[-78.07,28],[-77.49,28.6],[-77.91,28.89],[-78.12,28.07],[-78.92,28.23],[-78.38,28.76],[-78.83,28.37],[-78.81,28.93],[-79.68,28.68],[-79.13,28.92],[-79.92,29.09],[-79.08,29.56],[-79.9,29.29],[-79.93,29.68],[-79.37,30.06],[-79.07,29.68],[-79.25,30.04],[-78.78,30.13],[-79.42,30.27],[-78.94,30.29],[-76.44,28.4],[-75.78,27.14]]]}},{"type":"Feature","properties":{},"geometry":{"type":"Polygon","coordinates":[[[-79.24,30.43],[-80.23,30.07],[-79.85,30.53],[-80.28,30.87],[-79.24,30.43]]]}},{"type":"Feature","properties":{},"geometry":{"type":"Polygon","coordinates":[[[-64.37,31.36],[-64.54,30.83],[-66.74,30.67],[-66.74,32.02],[-68.54,35.36],[-70.52,36.79],[-68.15,38.27],[-63.72,39.92],[-63,41.56],[-62.38,41.52],[-61.6,41.24],[-64.37,31.36]]]}},{"type":"Feature","properties":{},"geometry":{"type":"Polygon","coordinates":[[[-64.48,31.27],[-64.37,30.6],[-64.95,30.73],[-66.05,31.99],[-67.09,32.32],[-64.01,42.71],[-62.15,42.21],[-62.49,40.89],[-60.57,39.49],[-62.15,35.81],[-63.79,34.12],[-64.48,31.27]]]}},{"type":"Feature","properties":{},"geometry":{"type":"Polygon","coordinates":[[[-60.71,28.37],[-63.43,29.08],[-64.37,30.32],[-65.82,31.15],[-65,34.64],[-63.23,36.24],[-61.59,38.89],[-61.35,39.84],[-63.17,41.33],[-62.72,42.63],[-61.66,42.68],[-59.33,38.55],[-58.58,35.82],[-58.7,32.5],[-60.44,30.21],[-60.71,28.37]]]}},{"type":"Feature","properties":{},"geometry":{"type":"Polygon","coordinates":[[[-39.74,24.11],[-40.69,23.97],[-39.79,23.83],[-40.19,23.44],[-39.68,22.73],[-40.36,23.38],[-40.67,22.96],[-41.46,23.16],[-42.07,23.9],[-42.56,23.66],[-43.96,24.31],[-44.91,23.8],[-44.6,23.95],[-45.05,24.16],[-44.96,23.8],[-46.58,23.05],[-46.17,23.26],[-46.81,23.41],[-46.6,23.09],[-47.42,22.86],[-47.75,22.12],[-48.07,22.3],[-47.7,20.75],[-48.22,19.86],[-48.03,20.23],[-48.39,20.24],[-48.87,16.9],[-47.9,14.08],[-46.74,13.15],[-46.26,12.02],[-46.87,12.18],[-48.38,13.57],[-49.99,17.47],[-50.6,22.98],[-44.44,25.61],[-41.92,25.23],[-39.74,24.11]]]}},{"type":"Feature","properties":{},"geometry":{"type":"Polygon","coordinates":[[[-45.81,10.18],[-46.89,11],[-48.35,10.44],[-49.82,10.94],[-56.25,15.26],[-56.79,16.44],[-56.34,16.55],[-56.13,17.41],[-56.55,18.71],[-58.29,21.42],[-59.31,22.07],[-59.19,23.02],[-61.16,25.28],[-62.05,27.71],[-59.16,24.73],[-57.54,23.72],[-53.39,21.36],[-50.65,20.85],[-48.86,14.49],[-44.87,10.39],[-45.81,10.18]]]}},{"type":"Feature","properties":{},"geometry":{"type":"Polygon","coordinates":[[[-47.06,15.48],[-44.85,14.88],[-43.04,16.85],[-42.49,16.91],[-39.7,16.05],[-41.16,14.74],[-40.91,14.54],[-41.79,13.41],[-41.73,14.08],[-42.23,13.74],[-42.56,12.36],[-43.66,11.59],[-43.43,11.39],[-46.61,12.48],[-47.54,14.46],[-47.06,15.48]]]}},{"type":"Feature","properties":{},"geometry":{"type":"Polygon","coordinates":[[[-60.61,25.83],[-60.55,23.99],[-58.06,20.42],[-57.44,18],[-56.31,17.01],[-56.78,16.47],[-58.83,18.62],[-58.64,19.48],[-59.55,20.83],[-60.01,20.61],[-61.23,21.74],[-60.22,21.56],[-60.24,22.43],[-61.64,23.81],[-62.8,27.35],[-63.79,28.33],[-65.69,29.05],[-67.01,32.21],[-64.54,29.61],[-62.16,28.23],[-60.61,25.83]]]}},{"type":"Feature","properties":{},"geometry":{"type":"Polygon","coordinates":[[[-62.05,27.71],[-61.9,28.15],[-63.5,29.1],[-64.89,31.6],[-66.44,32.58],[-66.11,33],[-65.32,33.3],[-63.32,32.88],[-61.84,31.29],[-59.84,30.28],[-58.93,29.02],[-56.23,28.27],[-54.53,27.13],[-53.95,26.08],[-53.91,21.78],[-59.16,24.73],[-62.05,27.71]]]}},{"type":"Feature","properties":{},"geometry":{"type":"Polygon","coordinates":[[[-59.9,81.87],[-59.35,82.27],[-60.43,82.69],[-57.7,82.62],[-59.24,82.78],[-54.81,83.38],[-39.4,83.26],[-44.9,81.64],[-48.63,81.86],[-52.88,80.99],[-59.9,81.87]]]}},{"type":"Feature","properties":{},"geometry":{"type":"Polygon","coordinates":[[[-52.57,80.93],[-33.7,80.64],[-34.46,80.46],[-33.53,80.05],[-37.46,79.44],[-36.48,78.69],[-36.49,78.2],[-40.18,76.84],[-40.17,76.13],[-42.49,76.5],[-43.04,76.29],[-42.26,76.01],[-48.06,75.55],[-59.71,71.6],[-62.81,72.27],[-65.41,74.51],[-65.59,74.97],[-65.03,75.24],[-61.27,76.12],[-56.53,78.7],[-50.87,80.02],[-52.57,80.93]]]}},{"type":"Feature","properties":{},"geometry":{"type":"Polygon","coordinates":[[[-24.17,32.59],[-25.14,31.16],[-25.74,31.88],[-25.37,30.68],[-26.35,29.44],[-25.96,30.27],[-26.52,31.2],[-26.03,31.89],[-26.69,31.63],[-26.57,30.39],[-27.43,30.89],[-26.52,30.23],[-27.11,30.38],[-26.69,29.36],[-27.25,29.64],[-26.42,29.26],[-26.15,28.09],[-26.43,29.05],[-26.35,28.39],[-27.21,28.36],[-26.34,27.94],[-27.46,27.87],[-27.06,27.64],[-27.56,27.43],[-26.98,27.27],[-31.44,25.3],[-32.22,24],[-31.4,19.58],[-31.99,17.99],[-32.64,18.06],[-33.11,18.87],[-33.03,19.68],[-33.34,19.53],[-33.82,20.52],[-33.48,20.96],[-33.92,20.93],[-33.55,21.92],[-34.85,23.4],[-36.03,22.98],[-36.15,23.65],[-37.01,23.83],[-36.7,23.9],[-38.45,23.83],[-38.33,24.41],[-38.54,23.93],[-39.61,24.06],[-41.92,25.23],[-34.26,26.4],[-31.22,28.07],[-27.2,31.36],[-24.17,32.59]]]}},{"type":"Feature","properties":{},"geometry":{"type":"Polygon","coordinates":[[[-52.43,12.03],[-49.35,10.21],[-48.4,8.36],[-51.12,5.33],[-52.63,5.16],[-52.84,5.7],[-52.95,5.09],[-53.24,6.01],[-52.67,6.48],[-53.27,9.11],[-52.88,8.93],[-52.75,9.38],[-53.76,9.75],[-55.65,12.05],[-56.42,14.75],[-55.48,14.5],[-54.66,13.36],[-52.43,12.03]]]}},{"type":"Feature","properties":{},"geometry":{"type":"Polygon","coordinates":[[[-29.86,62.77],[-30.52,62.66],[-30.06,62.1],[-30.5,61.58],[-28.77,62.32],[-28.29,61.72],[-29.03,61.04],[-28.64,60.07],[-26.6,61.5],[-25.62,61.68],[-26.18,62],[-25.92,62.59],[-23.66,62.1],[-24.44,62.09],[-23.19,61.48],[-23.87,61.35],[-23.4,61.04],[-24.53,60.97],[-23.9,59.89],[-24.3,59.46],[-25.99,58.99],[-26.17,59.59],[-27.17,59.67],[-26.66,59.67],[-26.43,58.83],[-28.5,59.48],[-27.99,59.03],[-29.51,58.35],[-31.12,59.25],[-32.41,59.38],[-29.29,58.24],[-30.54,57.3],[-32.06,57.53],[-32.94,56.87],[-35.42,57.73],[-33.67,57.24],[-33.03,56.58],[-36.12,55.76],[-35.73,55.47],[-36.74,55.27],[-36.33,55.14],[-37.72,53.93],[-38.22,53.06],[-36.8,52.56],[-36.64,51.11],[-37.04,50.72],[-35.16,50.78],[-31.1,48.27],[-28.8,47.91],[-29.29,45.72],[-28.02,43.95],[-27.52,43.73],[-27.01,44.18],[-26.73,43.64],[-26.76,44.26],[-26.14,44.79],[-26.21,46.44],[-26.75,47.15],[-24.94,47.6],[-23.64,48.65],[-23.66,50.26],[-24.81,51.04],[-23.37,52.23],[-23.69,52.66],[-23.35,53.09],[-23.94,53.09],[-23.13,53.76],[-23.48,54.54],[-22.78,54.8],[-20.64,54.1],[-19.87,54.41],[-18.98,53.4],[-18.41,53.4],[-18.58,52.95],[-16.91,52.72],[-17.23,51.74],[-18.33,51.84],[-17.33,51.64],[-17.5,51],[-17.02,50.71],[-18.16,50.39],[-16.79,50.55],[-16.38,50.14],[-17.53,49.4],[-16.24,50.16],[-16.12,49.48],[-14.87,50.33],[-14.68,49.76],[-14.55,50.37],[-13.96,50.45],[-14.28,50.71],[-13.69,50.79],[-14.03,51.17],[-13.02,51.6],[-13.31,51.4],[-12.38,50.5],[-12.97,50.36],[-12.06,49.98],[-12.72,49.61],[-11.86,49.74],[-12.57,49.28],[-11.82,49.43],[-12.03,49.19],[-11.44,48.86],[-12,48.76],[-11.09,48.3],[-11.42,47.84],[-12.14,48.05],[-10.73,46.72],[-10.4,46.94],[-10.8,46.17],[-10,46.48],[-9.73,46.29],[-10.2,45.89],[-9.5,46.35],[-9.52,45.93],[-8.08,45.61],[-11.07,44.44],[-8.22,45.24],[-8.17,44.49],[-7.04,44.52],[-6.97,43.82],[-7.31,43.83],[-6.95,43.6],[-7.61,43.61],[-6.88,43.18],[-8.08,42.45],[-9.56,42.56],[-9.87,41.86],[-10.91,41.37],[-16.26,41.79],[-17.17,40.91],[-18.71,40.48],[-20.82,38.73],[-17.97,40.29],[-16.22,40.71],[-14.49,40.14],[-14.88,40.26],[-14.57,39.9],[-15.51,39.47],[-16.84,39.55],[-15.05,39.16],[-15.52,38.5],[-19.77,36.39],[-22.54,33.27],[-23.78,33.11],[-27.2,31.36],[-31.22,28.07],[-34.26,26.4],[-39.44,25.37],[-45.03,25.49],[-50.6,22.98],[-50.65,20.85],[-53.39,21.36],[-54.08,22.85],[-54.16,26.67],[-55.97,28],[-56.27,28.72],[-55.91,30.11],[-54.01,32.89],[-54.32,37.48],[-56.49,41.42],[-59.11,49.15],[-62.93,52.65],[-63.7,53.91],[-64.81,57.96],[-63.4,59.28],[-63.03,61.69],[-64.84,63.17],[-67.87,64.66],[-67.56,66.6],[-66.51,67.53],[-67.11,68.12],[-65.82,67.68],[-65.78,68.3],[-63.89,68.53],[-63.45,68.25],[-64.17,68.07],[-59.13,68.1],[-62.32,67.72],[-61.15,67.9],[-61.56,67.41],[-60.42,67.87],[-57.29,67.88],[-57.84,68.06],[-57.47,68.33],[-56.79,66.81],[-55.09,67.49],[-55.9,66.68],[-53.27,66.73],[-50.96,65.45],[-48.8,64.94],[-48.34,64.37],[-50.23,64.16],[-49.86,63.96],[-45.62,63.49],[-44.5,62.54],[-45.11,62.5],[-44.54,61.56],[-44.73,62.04],[-43.91,62.3],[-44.2,63.02],[-41.7,63.53],[-44.46,63.57],[-41.87,63.88],[-41.06,62.63],[-40.35,62.83],[-39.67,62.21],[-36.79,61.84],[-36.55,62.51],[-35.87,62.57],[-34.85,62.17],[-35.3,61.92],[-34.49,62.1],[-35.43,61.36],[-34.72,60.95],[-34.31,61.83],[-32.35,62.16],[-32.69,62.18],[-32.43,62.63],[-33.25,62.4],[-31.95,63.04],[-33.74,63.92],[-32.78,64.4],[-33.32,64.55],[-32.88,65],[-31.08,65.36],[-31.42,65.51],[-30.52,65.18],[-30.7,64.24],[-30.05,63.46],[-31.46,63.13],[-29.86,62.77]]]}},{"type":"Feature","properties":{},"geometry":{"type":"Polygon","coordinates":[[[-83.54,33.32],[-83.78,32.86],[-84.11,33.21],[-83.87,33.88],[-84.06,33.6],[-84.36,34.09],[-84.14,33.36],[-84.62,33.23],[-85.08,36.4],[-86.33,37.82],[-87.99,39.01],[-89.71,39.23],[-89.25,39.48],[-90.77,39.64],[-93.46,39.01],[-93.15,38.47],[-94.22,38.2],[-97.82,38.28],[-98.19,37.92],[-100.27,38.43],[-100.24,38.76],[-101.91,38.78],[-100.14,39.05],[-99.38,38.39],[-99.01,38.83],[-96.53,38.81],[-94.96,39.73],[-95.93,39.87],[-95.68,40.31],[-96.49,39.94],[-96.37,40.61],[-96.76,40.85],[-93.24,41.71],[-87.94,41.01],[-86.61,40.48],[-84.44,38.47],[-83.54,33.32]]]}},{"type":"Feature","properties":{},"geometry":{"type":"Polygon","coordinates":[[[-91.74,38.72],[-90.76,39.39],[-89.99,39.34],[-91.74,38.72]]]}},{"type":"Feature","properties":{},"geometry":{"type":"Polygon","coordinates":[[[-71.73,40.84],[-71.31,40.95],[-71.72,40.86],[-71.8,42.6],[-74.08,45.49],[-75.27,46.26],[-75.07,46.51],[-74.33,45.79],[-75.05,46.53],[-74.43,47.09],[-75.51,46.49],[-75.87,47.18],[-74.97,47.32],[-75.92,47.65],[-75.56,47.47],[-75.67,47.87],[-74.43,48.41],[-75.24,48.13],[-74.55,48.96],[-75.85,48.06],[-75.22,49.12],[-75.98,49.41],[-76.4,49.06],[-75.48,49.58],[-76.35,51],[-75.94,50.97],[-76.14,51.43],[-75.72,51.06],[-76.13,51.68],[-75.63,51.74],[-76.2,51.84],[-75.59,52.18],[-76.5,52.29],[-76.1,53.41],[-76.59,52.69],[-76.67,54.41],[-77.9,57.83],[-73.57,56.45],[-72.71,55.62],[-73.43,54.45],[-73.37,53.65],[-72.39,51.64],[-70.53,50.34],[-69.82,46.47],[-69.96,44.89],[-69.25,42.46],[-70.57,38.96],[-72.08,39.43],[-71.73,40.84]]]}},{"type":"Feature","properties":{},"geometry":{"type":"Polygon","coordinates":[[[-70.92,55.82],[-69.8,54.15],[-69.57,50.67],[-71.07,51.84],[-71.83,53.89],[-71.79,54.69],[-70.92,55.82]]]}},{"type":"Feature","properties":{},"geometry":{"type":"Polygon","coordinates":[[[-73.81,65.85],[-73.53,64.3],[-70.64,63.12],[-68.72,61.67],[-68.93,59.25],[-70.26,57.91],[-69.17,54.47],[-68.12,52.63],[-64.16,49.2],[-61.66,42.68],[-67.58,43.88],[-68.54,44.47],[-68.86,45.34],[-68.11,48.33],[-68.26,49.61],[-69.43,51.28],[-70.13,54.06],[-72.7,58.76],[-73.76,60.11],[-76.54,62.15],[-85.15,66.73],[-83.39,67.22],[-75.54,67.31],[-73.37,68.03],[-72.71,67.45],[-73.81,65.85]]]}},{"type":"Feature","properties":{},"geometry":{"type":"Polygon","coordinates":[[[9.89,58.2],[10.64,57.86],[9.12,58.09],[9.89,58.2]]]}},{"type":"Feature","properties":{},"geometry":{"type":"Polygon","coordinates":[[[63.29,71.18],[64.03,70.88],[63.13,70.85],[63.29,71.18]]]}},{"type":"Feature","properties":{},"geometry":{"type":"Polygon","coordinates":[[[-43.78,69],[-44.02,68.43],[-44.79,68.28],[-43.19,68.49],[-42.15,68],[-42.98,67.66],[-40.8,68],[-40.43,67.6],[-40.85,66.56],[-40.15,66.78],[-39.54,68.06],[-38.22,67.9],[-37.88,67.36],[-38.93,65.68],[-37.01,64.47],[-37.2,64.08],[-39.27,64.3],[-39.47,63.68],[-38.49,63.97],[-38.32,63.57],[-39.48,63.36],[-41.12,63.71],[-40.79,63.86],[-41.87,64.13],[-41.77,64.46],[-44.24,64.04],[-47.78,64.34],[-47.26,65.01],[-49.76,66.06],[-49.17,66.37],[-44.76,65.79],[-46.21,66.5],[-49.21,66.9],[-49.41,67.36],[-46.28,67.4],[-49.18,68.04],[-47.75,68.73],[-43.78,69]]]}},{"type":"Feature","properties":{},"geometry":{"type":"Polygon","coordinates":[[[44.82,68.43],[46.06,68.36],[45.5,68.06],[46.01,68.15],[45.58,67.93],[45.96,67.69],[45.53,67.68],[46.22,67.06],[49.12,66.09],[46.01,65.83],[45.73,66.11],[46.27,66.21],[45.33,66.54],[43.93,66.33],[43.45,66.82],[44.1,66.9],[44.24,67.47],[43.76,67.46],[44.46,67.59],[43.45,67.66],[44.82,68.43]]]}},{"type":"Feature","properties":{},"geometry":{"type":"Polygon","coordinates":[[[9.01,58.57],[10.07,58.3],[8.49,58.33],[9.01,58.57]]]}},{"type":"Feature","properties":{},"geometry":{"type":"Polygon","coordinates":[[[56.8,70.29],[57.23,70.23],[56.08,69.88],[55.68,70.2],[56.8,70.29]]]}},{"type":"Feature","properties":{},"geometry":{"type":"Polygon","coordinates":[[[-36.76,68.24],[-36.5,67.96],[-37.75,67.41],[-38.36,68.18],[-36.76,68.24]]]}},{"type":"Feature","properties":{},"geometry":{"type":"Polygon","coordinates":[[[-20.07,65.96],[-18.06,65.48],[-17.66,64.77],[-20.1,64.91],[-20.62,65.57],[-20.07,65.96]]]}},{"type":"Feature","properties":{},"geometry":{"type":"Polygon","coordinates":[[[-19.51,56.62],[-21.68,56.31],[-22.77,56.95],[-21.75,57.64],[-18.83,57.32],[-19.35,58.09],[-17.27,59.02],[-17.65,60.19],[-18.19,60.27],[-17.87,60.5],[-19.05,60.98],[-20.02,60.73],[-19.05,61.19],[-19.68,61.59],[-19.28,61.66],[-20.02,61.71],[-19.7,62.04],[-20.29,61.85],[-20.11,62.29],[-20.79,62.88],[-21.4,62.6],[-20.95,62.5],[-21.07,62.07],[-23.05,62.53],[-22.67,62.07],[-23.87,62.82],[-23.12,62.35],[-26.03,62.76],[-26.44,63.05],[-26.14,63.31],[-27.42,63.18],[-28.05,64.14],[-26.29,63.82],[-28.12,64.43],[-27.88,65],[-25.18,66.44],[-23.05,66.32],[-25.01,65.44],[-25.24,64.74],[-24.6,63.9],[-26.17,63.8],[-24.74,63.84],[-24.87,63.56],[-24.11,64.23],[-24.98,64.72],[-23.75,64.68],[-24.34,65.1],[-24.16,65.54],[-20.82,66],[-20.55,64.94],[-21.54,64.18],[-20.39,64.68],[-19.94,64.4],[-20.28,64.12],[-19.39,63.8],[-19.92,64.36],[-19.06,64.25],[-19.55,64.59],[-18.75,64.77],[-17.28,64.36],[-18.29,63.64],[-16.79,63.77],[-17.78,63.58],[-17.28,63.5],[-17.81,63.06],[-16.52,63.55],[-17.19,63.23],[-16.61,63.35],[-17.04,62.85],[-15.88,63.36],[-15.06,62.89],[-16.31,62.34],[-14.77,62.66],[-15.98,62.11],[-15.36,62.19],[-15.83,61.7],[-14.33,62.44],[-15.02,62.07],[-14.06,62.33],[-13.35,61.99],[-15.15,61.45],[-13.73,61.67],[-14.88,61.2],[-13.33,61.79],[-12.8,61.37],[-14.95,61.13],[-12.63,60.67],[-14.29,60.89],[-13.65,60.7],[-14.4,60.51],[-13.75,60.64],[-13.44,60.48],[-14.06,60.41],[-13.56,60.25],[-14.73,60.38],[-12.87,59.86],[-13.8,59.75],[-12.7,59.52],[-12.85,59.17],[-12.46,59.41],[-12.65,58.98],[-11.59,59.3],[-12.05,58.98],[-11.48,59.11],[-11.19,58.62],[-11.81,58.69],[-11.22,58.54],[-11.83,58.33],[-10.57,58.56],[-11.24,58.1],[-9.85,58.24],[-9.38,57.77],[-10.65,57.57],[-10.01,57.2],[-10.82,57.35],[-10.32,57.01],[-10.72,57.15],[-10.65,56.8],[-11.22,57.19],[-11.46,56.16],[-12.74,57.11],[-11.73,57.66],[-12.98,57.33],[-12.56,57.75],[-13.01,57.5],[-14.33,58.13],[-13.77,57.9],[-14.39,58.01],[-13.9,57.48],[-14.8,57.6],[-14.45,57.28],[-14.79,56.96],[-14.12,57.14],[-13.92,56.17],[-13.76,56.47],[-13.63,56.04],[-13.26,56.3],[-12.71,55.84],[-13.22,55.69],[-12.47,55.32],[-12.55,54.58],[-13.03,55.17],[-12.69,54.25],[-13.18,54.41],[-13.21,53.95],[-14.06,54.86],[-14.16,54.46],[-15.04,55.3],[-14.92,54.91],[-15.88,55.35],[-13.83,53.63],[-13.95,53.3],[-17.93,54.81],[-18.38,55.25],[-17.63,55.33],[-18.67,55.68],[-18.93,56.53],[-19.67,56.26],[-19.51,56.62]]]}},{"type":"Feature","properties":{},"geometry":{"type":"Polygon","coordinates":[[[141.68,81.65],[145.33,81.14],[138.24,80.99],[141.68,81.65]]]}},{"type":"Feature","properties":{},"geometry":{"type":"Polygon","coordinates":[[[-32.89,67.82],[-31.14,67.36],[-32.88,66.83],[-31.73,66.4],[-32.39,65.58],[-33.34,65.43],[-33.66,65.78],[-34.48,65.24],[-36.07,66.94],[-35.4,67.3],[-34.94,66.8],[-34.02,66.87],[-34.21,67.17],[-33.77,67.35],[-34.58,67.61],[-32.89,67.82]]]}},{"type":"Feature","properties":{},"geometry":{"type":"Polygon","coordinates":[[[-28.41,67.43],[-26.43,66.87],[-28.63,65.95],[-30.16,66.19],[-29.83,65.8],[-31.42,65.52],[-30.34,67.18],[-28.41,67.43]]]}},{"type":"Feature","properties":{},"geometry":{"type":"Polygon","coordinates":[[[138.78,81.61],[137.18,81.77],[139.11,81.69],[138.78,81.61]]]}},{"type":"Feature","properties":{},"geometry":{"type":"Polygon","coordinates":[[[89.48,77.3],[90.58,77.38],[90.94,76.99],[89.01,77.03],[89.48,77.3]]]}},{"type":"Feature","properties":{},"geometry":{"type":"Polygon","coordinates":[[[-47.11,70.92],[-46.6,70.31],[-45.96,70.33],[-46.27,70.15],[-44.73,70.13],[-44.21,69.2],[-52.72,68.04],[-53.31,69.13],[-54.15,69.29],[-49.99,70.54],[-49.85,71.2],[-47.11,70.92]]]}},{"type":"Feature","properties":{},"geometry":{"type":"Polygon","coordinates":[[[12.59,60.5],[12.74,60.12],[12.05,60.21],[12.59,60.5]]]}},{"type":"Feature","properties":{},"geometry":{"type":"Polygon","coordinates":[[[-28.61,69.28],[-28.89,69.5],[-27.86,69.46],[-28.61,69.28]]]}},{"type":"Feature","properties":{},"geometry":{"type":"Polygon","coordinates":[[[147.5,83.42],[156.51,83.48],[151.27,82.98],[145.98,83.26],[145.63,83.64],[147.5,83.42]]]}},{"type":"Feature","properties":{},"geometry":{"type":"Polygon","coordinates":[[[-22.77,68.1],[-22.76,67.62],[-23.66,67.19],[-24.85,67.82],[-22.77,68.1]]]}},{"type":"Feature","properties":{},"geometry":{"type":"Polygon","coordinates":[[[-33.24,72.43],[-35.14,72.57],[-32.89,72.48],[-33.24,72.43]]]}},{"type":"Feature","properties":{},"geometry":{"type":"Polygon","coordinates":[[[128.82,83.49],[133.48,83.16],[134.55,83.19],[132.99,83.57],[143.65,83.46],[142.72,83.35],[143.41,83.21],[142.86,82.96],[141.07,82.89],[141.57,82.74],[133.93,82.38],[134.5,82.34],[134.16,82.08],[128.36,82.41],[126.82,83.07],[128.82,83.49]]]}},{"type":"Feature","properties":{},"geometry":{"type":"Polygon","coordinates":[[[70.3,76.2],[71.13,76.19],[69.92,76.09],[70.3,76.2]]]}},{"type":"Feature","properties":{},"geometry":{"type":"Polygon","coordinates":[[[-25.24,70.42],[-25.22,70.07],[-26.12,70.22],[-25.24,70.42]]]}},{"type":"Feature","properties":{},"geometry":{"type":"Polygon","coordinates":[[[-22.61,69.49],[-25.51,68.19],[-26.74,68.6],[-25.22,68.97],[-26.99,69.35],[-25.8,69.28],[-24.68,69.88],[-24.84,69.16],[-24.08,69.27],[-24.48,69.48],[-24.17,69.77],[-22.61,69.49]]]}},{"type":"Feature","properties":{},"geometry":{"type":"Polygon","coordinates":[[[-26.99,71.29],[-29.05,70.52],[-27.77,70.44],[-27.66,70.09],[-29.62,69.64],[-34.56,70.47],[-34.84,71],[-31.74,70.68],[-33.73,71.14],[-32.85,71.42],[-34.53,71.3],[-34.15,71.46],[-34.86,71.43],[-34.63,71.68],[-35.2,72],[-32.82,71.77],[-34.13,72.12],[-32.15,71.84],[-33.05,72.23],[-30.58,72.25],[-30.97,71.87],[-30.28,71.58],[-31.26,70.92],[-30.21,70.48],[-28.91,71.32],[-26.99,71.29]]]}},{"type":"Feature","properties":{},"geometry":{"type":"Polygon","coordinates":[[[48.59,73.1],[49.95,73],[50.2,72.51],[46.82,70.89],[46.34,70.43],[46.87,70.25],[46.21,70.2],[46.71,70.04],[46.03,70.1],[46.45,69.83],[45.66,69.86],[46.4,69.6],[45.47,69.3],[46.23,69.02],[45.27,69.05],[46.3,68.9],[45.3,68.9],[46.08,68.47],[44.15,68.26],[44.2,68.63],[45.11,68.75],[43.32,68.6],[44.14,68.9],[43.86,69.13],[44.96,69.14],[43.82,69.22],[44.33,69.57],[43.8,69.7],[44.61,69.82],[43.28,70.13],[44.46,70.5],[44.11,70.83],[45.51,71.42],[45.31,71.7],[47.64,72.18],[48.59,73.1]]]}},{"type":"Feature","properties":{},"geometry":{"type":"Polygon","coordinates":[[[-20.54,69.31],[-19.93,68.91],[-20.82,68.51],[-19.28,68.39],[-19.2,68.08],[-19.71,68.27],[-18.93,67.76],[-20.11,67.98],[-19.77,67.72],[-20.33,67.75],[-19.73,67.35],[-20.17,67.03],[-16.22,66.39],[-15.41,65.62],[-16.35,65.43],[-15.96,65.18],[-17.82,65.17],[-18.3,65.41],[-18.14,65.79],[-19.07,65.57],[-22.38,66.79],[-21.97,66.89],[-22.76,66.84],[-20.67,68.4],[-22.01,68.66],[-21.4,68.97],[-21.8,69.28],[-20.54,69.31]]]}},{"type":"Feature","properties":{},"geometry":{"type":"Polygon","coordinates":[[[-28.4,73.11],[-31.98,72.53],[-32.32,72.78],[-31.07,72.98],[-34.75,72.82],[-35.05,72.92],[-34.2,73.16],[-35.93,73.4],[-30.22,73.5],[-28.4,73.11]]]}},{"type":"Feature","properties":{},"geometry":{"type":"Polygon","coordinates":[[[-17.24,69.01],[-17.27,68.62],[-17.87,68.61],[-17.24,69.01]]]}},{"type":"Feature","properties":{},"geometry":{"type":"Polygon","coordinates":[[[64.16,43.7],[63.09,43.39],[63.26,45.84],[60.41,50.02],[61.7,52.55],[61.72,53.82],[58.47,60.58],[59.05,61.83],[60.32,62.79],[65.08,60.84],[70.07,57.06],[74.79,55.2],[78.47,51.09],[91.92,45.8],[83.69,42.22],[75.66,36.71],[70.34,36.82],[65.21,38.74],[63.5,40.16],[64.95,41.96],[63.92,42.46],[64.16,43.7]]]}},{"type":"Feature","properties":{},"geometry":{"type":"Polygon","coordinates":[[[94.07,41.67],[95.3,41.4],[96.52,40.28],[94.77,38.6],[87.24,36.37],[85.41,34.83],[82.61,35.34],[78.4,38.34],[76.26,38.69],[81.93,41.38],[86.83,42.86],[94.07,41.67]]]}},{"type":"Feature","properties":{},"geometry":{"type":"Polygon","coordinates":[[[97.52,44.1],[93.77,43.04],[85.49,42.97],[91.92,45.8],[95.2,44.47],[97.52,44.1]]]}},{"type":"Feature","properties":{},"geometry":{"type":"Polygon","coordinates":[[[100.83,35.17],[106.35,33.17],[104.26,32.82],[98.51,33.88],[91.83,33.96],[83.12,32.4],[83.68,33.25],[90.38,36.5],[92.91,37.22],[100.83,35.17]]]}},{"type":"Feature","properties":{},"geometry":{"type":"Polygon","coordinates":[[[140.15,55.23],[141.32,55.36],[140.66,54.98],[141.42,54.97],[142.06,55.38],[141.94,54.91],[142.14,55.68],[143.31,55.68],[144.99,54.69],[144.29,54.5],[145.12,53.54],[144.17,52.62],[143.7,49.84],[138.54,44.9],[137.09,44.2],[135.65,44.23],[135.63,44.72],[134.52,43.94],[130.46,44.97],[126.47,44.85],[116.82,44.38],[107.13,42.74],[103.55,43.38],[97.17,43.17],[95.01,43.84],[93.22,45.22],[98.9,45.01],[103.89,45.95],[108.28,47.87],[112.12,48.67],[114.97,50.36],[119.65,51.23],[122.73,53.95],[125.65,55.3],[132.1,54.77],[140.15,55.23]]]}},{"type":"Feature","properties":{},"geometry":{"type":"Polygon","coordinates":[[[86.58,75.63],[86.34,74.73],[86.94,74.89],[86.6,75.23],[88.88,75.49],[88.2,75.58],[89.96,76.35],[88.29,76.48],[89.69,76.76],[91.82,76.86],[93.62,76.38],[93.97,76.57],[93,76.61],[98.46,77.44],[100.86,77.12],[105.2,77.56],[103.58,78.23],[104.38,78.51],[112.68,78.55],[112.27,78.46],[114.73,77.79],[113.73,77.48],[117.13,76.89],[119.43,76.69],[119.87,76.97],[119.28,77.73],[119.78,77.54],[121.85,76.52],[122.84,74.45],[123.67,74.24],[140.41,73.33],[150.43,71.82],[154.49,70.08],[155.3,67.85],[144.53,66.73],[137.55,61.94],[139.61,61.85],[139.76,61.05],[130.7,59.8],[123.31,59.6],[120.65,57.93],[118.31,54.89],[113.63,53.47],[111.2,51.44],[107.47,50.16],[103.55,47.71],[98.77,46.13],[93.06,45.59],[84,48.6],[78.47,51.09],[74.79,55.2],[68.31,58.17],[63.67,61.61],[61.49,64.07],[64.71,63.9],[65.74,65.62],[64.56,66.55],[65.64,67.03],[67.18,66.75],[68.53,65.71],[70.82,65.87],[68.01,66.08],[67.69,66.42],[68.13,66.65],[67.02,67.17],[63.56,66.87],[62.73,67.39],[62.47,68.26],[60.48,68.81],[61.14,69.77],[60.14,70.3],[61.19,70.18],[62.25,69.12],[63.07,69.02],[65.48,69.09],[62.31,69.65],[64.04,69.92],[63.05,70.14],[63.89,70.36],[63.6,70.44],[68.45,70.51],[68.68,70.2],[68.25,69.96],[69.17,68.96],[72.25,68.81],[70.09,69.2],[70.57,69.47],[69.2,69.97],[68.93,70.5],[65.49,70.82],[63.59,71.74],[68.35,72.94],[65.69,73.61],[66.87,73.56],[66.31,73.91],[66.72,74],[65.81,73.97],[69.74,75.69],[68.58,75.7],[71.23,75.83],[72.67,76.63],[73.75,76.6],[72.12,76.8],[73.7,77.19],[72.27,77.66],[72,78.32],[72.33,78.51],[75.28,78.58],[74.59,78.06],[77.88,78.42],[78.48,77.95],[79.37,78.13],[79.04,78.41],[82.38,78.89],[86.99,78.6],[87.67,78.28],[85.46,78.33],[88.6,78.01],[88.17,77.54],[88.46,77.3],[87.03,76.62],[87.6,76.71],[87.35,75.93],[85.41,75.59],[86.58,75.63]]]}},{"type":"Feature","properties":{},"geometry":{"type":"Polygon","coordinates":[[[59.99,65.37],[59.86,66.02],[57.47,66.3],[56.79,67.43],[56.04,67.48],[55.87,67.89],[56.47,68.54],[55.78,69.72],[58.76,69.95],[59.47,68.73],[60.97,68.3],[62.53,66.63],[64.06,66.19],[64.35,65.43],[63.94,64.48],[61.47,64.09],[59.99,65.37]]]}},{"type":"Feature","properties":{},"geometry":{"type":"Polygon","coordinates":[[[82.81,17.11],[87.58,17.34],[91.47,16.46],[93.31,14.85],[95.36,11.39],[90.31,13.92],[82.59,13.99],[79.52,14.7],[76.02,16.6],[72.81,19.51],[72.06,20.95],[77.56,17.98],[82.81,17.11]]]}},{"type":"Feature","properties":{},"geometry":{"type":"Polygon","coordinates":[[[41.64,-45.07],[42.28,-44.93],[42.09,-44.15],[41.72,-44.91],[41.99,-43.97],[41.61,-43.46],[41.67,-44.51],[41.04,-44.94],[38.56,-44.27],[39.03,-43.93],[38.13,-43.88],[38.82,-43.39],[37.09,-42.8],[36.41,-43.18],[35.17,-42.91],[29.72,-40.24],[29.15,-40.39],[27.35,-38.76],[20.44,-39.59],[20.09,-38.99],[19.17,-38.79],[18.95,-39.19],[18.6,-38.39],[17.6,-38.16],[17.15,-37.46],[17.97,-36.59],[26.34,-32.05],[31.45,-30.29],[32.17,-30.59],[31.94,-30.09],[32.62,-30.13],[32.59,-29.74],[31.3,-29.83],[30.4,-28.72],[31.68,-26.7],[32.28,-27.75],[32.94,-27.89],[32.32,-26.81],[32.75,-25.94],[33.34,-26.16],[32.89,-25.82],[33.28,-25.72],[33.04,-25.01],[33.98,-24.79],[33.83,-24.06],[34.67,-23.76],[34.21,-23.17],[38.14,-22.54],[40.91,-22.95],[46.74,-24.83],[48.04,-26.01],[48.15,-26.97],[47.01,-28.21],[45.42,-32.2],[45.14,-36.94],[45.92,-39.04],[50.81,-45.61],[51.03,-46.84],[41.64,-45.07]]]}},{"type":"Feature","properties":{},"geometry":{"type":"Polygon","coordinates":[[[73.59,25.63],[75.74,24.47],[77.25,24.22],[78.31,24.35],[79.12,25.27],[84.89,26.71],[91.08,25.39],[95.4,23.35],[96.43,21],[96.64,18.54],[94.15,21.52],[91.94,22.64],[88.68,22.93],[83.79,22.31],[78.3,22.69],[71.86,25.26],[70.76,25.21],[69.62,27.02],[71.53,26.92],[73.59,25.63]]]}},{"type":"Feature","properties":{},"geometry":{"type":"Polygon","coordinates":[[[101.6,26.46],[101.42,26.06],[100.11,28.31],[98.18,29.21],[89.67,30.83],[95.97,31.78],[100.65,31.38],[104.8,31.73],[103.28,29.99],[101.6,26.46]]]}},{"type":"Feature","properties":{},"geometry":{"type":"Polygon","coordinates":[[[61.47,64.09],[63.67,61.61],[60.32,62.79],[60.97,64.58],[61.47,64.09]]]}},{"type":"Feature","properties":{},"geometry":{"type":"Polygon","coordinates":[[[57.64,36.61],[57.02,37.53],[57.09,38.51],[55.63,38.74],[54.35,40.01],[55.55,40.11],[54.85,40.33],[55.26,40.93],[56.67,41.15],[56.51,42.18],[55.99,42.57],[54.7,42.53],[53.4,41.6],[52.95,41.74],[52.74,40.85],[52.5,41.16],[52.47,40.78],[51.77,40.74],[51.13,39.56],[52.23,39.05],[52.16,38.14],[53.91,36.76],[48.47,37.88],[53.49,42.69],[60.22,45.38],[60.84,46.99],[60.41,50.02],[63.26,45.84],[62.87,42.81],[62.5,42.99],[62.6,42.46],[61.84,42.41],[61.63,41.33],[62.07,40.33],[63.08,40.6],[65.21,38.74],[69.29,37.03],[76.23,36.81],[73.87,34.6],[65.02,33.41],[57.6,36.11],[57.64,36.61]]]}},{"type":"Feature","properties":{},"geometry":{"type":"Polygon","coordinates":[[[43.95,-4.13],[43.44,-3.74],[42.01,-3.88],[41.21,-3.33],[39.81,-1.39],[39.7,1.13],[39.2,1.17],[39.06,1.81],[38.7,1.43],[37.96,1.83],[37.93,1.27],[37.48,1.3],[37.62,-0.74],[38.28,-2.1],[37.87,-2.63],[37.98,-4.08],[38.68,-3.01],[39.13,-3.28],[38.24,-4.67],[38.62,-5.21],[40.78,-5.83],[43.39,-4.59],[42.79,-6.37],[44.28,-7.97],[44.69,-9.57],[42.96,-10.8],[42.3,-10.74],[41.84,-11.89],[40.85,-11.75],[40.08,-12.37],[39.21,-12.13],[38.53,-12.73],[35.97,-12.29],[35.4,-12.93],[31.57,-12.9],[28.57,-12.2],[27.72,-12.44],[26.4,-11.79],[26.79,-9.13],[27.62,-7.86],[27.45,-4.36],[26.82,-2.44],[27.55,0.25],[27.04,1.21],[27.22,5.39],[26.76,5.72],[31.04,10.06],[32.51,12.37],[34.73,12.65],[37.57,11.86],[39.12,7.3],[42.6,-0.27],[43.01,-2.25],[44.34,-2.9],[43.95,-4.13]]]}},{"type":"Feature","properties":{},"geometry":{"type":"Polygon","coordinates":[[[48.15,-15.38],[46.89,-18.44],[45.03,-19],[38.11,-16.23],[35.93,-15.98],[36.92,-13.04],[38.83,-11.73],[40.34,-12.66],[43.37,-11.9],[44.95,-12.16],[48.46,-14.33],[48.15,-15.38]]]}},{"type":"Feature","properties":{},"geometry":{"type":"Polygon","coordinates":[[[78.35,22.91],[67.35,26.58],[69.48,29.95],[75.71,24.98],[78.93,24.92],[78.35,22.91]]]}},{"type":"Feature","properties":{},"geometry":{"type":"Polygon","coordinates":[[[66.79,18.57],[66.4,18.94],[67.44,20.81],[69.39,22.61],[70.15,22.67],[77.76,17.22],[71.85,17.68],[69.17,17.29],[66.79,18.57]]]}},{"type":"Feature","properties":{},"geometry":{"type":"Polygon","coordinates":[[[50.34,32.22],[51,31.73],[54.56,32.17],[57.99,28.51],[62.37,27.76],[62.75,26.92],[61.24,26.29],[59.21,27.19],[44.59,29.88],[44.17,30.68],[44.49,32.22],[47.77,33.3],[50.34,32.22]]]}},{"type":"Feature","properties":{},"geometry":{"type":"Polygon","coordinates":[[[20.72,75.9],[17.06,76.55],[15.05,77.5],[13.15,77.51],[14.37,78.01],[13.55,78.38],[14.16,78.71],[11.33,78.81],[10.22,78.32],[10.78,78.2],[8.8,77.85],[-3.61,80.21],[-0.26,81.85],[4.75,83.45],[6.81,83.17],[21.57,79.59],[23.09,78.49],[22.74,77.51],[20.72,75.9]]]}},{"type":"Feature","properties":{},"geometry":{"type":"Polygon","coordinates":[[[-157.2,80.55],[-148.1,78.41],[-134.35,76.86],[-149.55,74.04],[-155.76,73.56],[-156.19,73.01],[-161,71.88],[-160.65,72.16],[-161.67,72.07],[-161.32,72.25],[-161.65,72.38],[-160.68,73.07],[-161.76,72.81],[-162,73.56],[-169.18,77],[-169.4,77.96],[-166.57,79.25],[-157.2,80.55]]]}},{"type":"Feature","properties":{},"geometry":{"type":"Polygon","coordinates":[[[129.83,78.9],[133.1,78.51],[142.04,79.21],[140.2,79.57],[141.35,79.86],[139.32,79.86],[142.4,80.35],[141.13,80.59],[155.44,80.59],[158.88,80.22],[157.18,79.99],[164.02,79.29],[174.92,79.52],[177.44,78.86],[176.71,78.47],[178.54,78.24],[171.78,76.65],[169.66,75.34],[169.95,74.38],[170.88,73.64],[176.49,71.01],[176.79,70.27],[173.09,70.23],[169.57,68.61],[169.17,67.95],[170.7,67.73],[165.6,67.3],[165.24,67.56],[166.84,67.72],[164.4,67.92],[163.97,70.28],[160.23,72.1],[150.36,73.81],[133.21,75.03],[132.39,75.26],[131.93,77.34],[129.6,78.58],[129.83,78.9]]]}},{"type":"Feature","properties":{},"geometry":{"type":"Polygon","coordinates":[[[133.7,43.4],[132.4,42.52],[132.22,41.56],[129.94,40.17],[130.96,39.44],[132.07,37.37],[129.07,36.9],[128.76,37.66],[129.65,37.76],[129.24,37.92],[129.25,38.6],[128.16,38.81],[127.91,38.45],[127.22,38.9],[128.14,39.47],[127.7,39.64],[128.02,40.33],[126.94,40.76],[123.67,39.5],[124.48,40.18],[123.78,40.16],[124.01,40.57],[124.83,41.25],[124.35,41.73],[123.5,41.6],[121.49,39.98],[120.31,39.95],[120.15,39.21],[121.34,38.99],[121.62,37.99],[123.26,38.62],[125.25,38.17],[125.05,37.68],[122.63,36.98],[121.68,35.71],[122.73,35.12],[119.69,32.24],[115.18,33.85],[108.35,34.59],[96.28,40.02],[106.7,42.35],[116.36,43.89],[129.87,44.37],[133.7,43.4]]]}},{"type":"Feature","properties":{},"geometry":{"type":"Polygon","coordinates":[[[129.57,40.82],[129.93,39.41],[128.39,38.77],[128.58,38.47],[128.33,38.69],[128.34,38.22],[128.11,38.51],[127.59,37.86],[127.17,38.18],[127.55,38.21],[126.99,38.57],[127.31,39.5],[126.89,39.58],[129.57,40.82]]]}},{"type":"Feature","properties":{},"geometry":{"type":"Polygon","coordinates":[[[121.38,36.26],[122.64,34.79],[124,34.19],[122.34,34.01],[124.31,33.48],[122.95,32.41],[124.93,32.53],[124.37,31.95],[124.89,32.22],[125,31.92],[124.5,31.78],[125.01,30.94],[124.11,30.38],[124.07,28.9],[123.49,28.91],[124,28.61],[124.04,27.55],[123.63,27.71],[123.33,26.53],[122.72,26.43],[122.92,26.12],[121.63,24.89],[121.73,24.41],[120.11,23.86],[119.83,23.18],[118.74,23.76],[119.14,22.93],[118.74,22.7],[118.47,23.07],[118.62,22.43],[118.05,22.51],[118.11,22.15],[116.26,21.35],[116.58,20.2],[115.78,20.68],[115.89,21.3],[115.45,21.46],[115.15,21.01],[114.34,21.35],[113.55,20.16],[112.85,20.01],[113.12,19.7],[112.64,18.84],[105.48,22.56],[104.81,23.47],[104.28,25.9],[105.17,28.38],[107.46,31.66],[109.48,32.43],[113.69,33.02],[119.57,32.74],[121.38,36.26]]]}},{"type":"Feature","properties":{},"geometry":{"type":"Polygon","coordinates":[[[109.64,18.77],[109.75,17.73],[110.27,17.34],[114.69,16.21],[116.54,14.25],[116.84,12.92],[115.35,11],[115.64,10.14],[114.74,8.43],[114.04,9.81],[112.65,9.46],[112.25,9.99],[112.04,9.53],[110.89,10.42],[109.18,9.91],[108.85,10.69],[108.16,10.49],[106.59,13.43],[106.08,16.63],[102.23,20.2],[109.64,18.77]]]}},{"type":"Feature","properties":{},"geometry":{"type":"Polygon","coordinates":[[[107.15,10.05],[108.46,6.93],[109.25,6.17],[109.67,6.62],[111.93,5.52],[113.29,5.85],[116.28,2.96],[113.95,3.18],[110.79,5.02],[109.49,5.15],[109.27,4.77],[106.47,8.47],[104.39,9.37],[103.15,10.46],[103.48,10.48],[101.9,10.5],[98.57,13.09],[96.77,15.07],[95.57,17.71],[98.6,18.59],[102.65,16.55],[103.68,15.7],[104.86,12.68],[107.15,10.05]]]}},{"type":"Feature","properties":{},"geometry":{"type":"Polygon","coordinates":[[[112.37,6.03],[114.48,5.92],[115.78,4.57],[117.46,4.03],[116.97,3.43],[115.45,3.24],[112.37,6.03]]]}},{"type":"Feature","properties":{},"geometry":{"type":"Polygon","coordinates":[[[26.94,-6.27],[29.09,-10.13],[28.99,-10.61],[28.03,-10.79],[28.66,-10.9],[29.36,-12.37],[34.57,-12.99],[36.07,-12.72],[36.51,-13],[35.87,-14.29],[36.26,-14.38],[35.72,-14.37],[35.4,-15.21],[31.05,-19.18],[28.44,-20.51],[23.27,-22.16],[18.88,-24.85],[17.91,-25.93],[18.27,-27.16],[17.34,-28.66],[17.15,-29.96],[17.82,-30.96],[17.23,-31.45],[15.73,-35.18],[14.24,-35.95],[10.96,-36.02],[7.12,-36.98],[9.61,-32.9],[11.33,-26.76],[13.88,-25.91],[14.71,-23.77],[18.03,-19.13],[19.07,-15.87],[20.28,-14.42],[21.53,-14.79],[22.35,-13.35],[26.59,-11.02],[26.94,-6.27]]]}},{"type":"Feature","properties":{},"geometry":{"type":"Polygon","coordinates":[[[7.07,-36.7],[6.44,-37.33],[6.28,-39.2],[4.87,-40.81],[0.47,-40.82],[0.38,-41.28],[0.89,-41.17],[-1.55,-42.87],[-6.15,-43.85],[-10.19,-44.08],[-12.5,-43.67],[-15.1,-42],[-17.99,-41.28],[-18.35,-40.05],[-18.84,-40.09],[-18.1,-38.58],[-17.5,-38.63],[-16.87,-37.87],[-16.06,-35.11],[-16.06,-32.89],[-13.4,-28.4],[-12.86,-23.23],[-11.66,-21.59],[-9.56,-19.98],[-7.54,-19.3],[-6.91,-18.33],[-6.7,-16.57],[-5.96,-16.17],[-5.71,-13.69],[-4.98,-13.87],[-5.57,-13.42],[-5.28,-12.14],[-6,-9.14],[-5.88,-7.17],[-5.29,-7.29],[-4.78,-6.64],[-4.37,-7.09],[-4.73,-6.48],[-2.81,-4.64],[-2.51,-3.64],[-3.01,-3.51],[-3.33,-2.25],[-4.5,-2.08],[-5.69,-1.1],[-2.38,-0.76],[-1.53,0.17],[1.13,0.26],[6.83,-4.16],[9.63,-4.38],[14.76,-5.68],[16.92,-12.29],[17.23,-14.53],[12.58,-17.42],[10.77,-20.23],[10.35,-22.19],[12.25,-26.96],[11.98,-28.21],[10.02,-32.98],[7.07,-36.7]]]}},{"type":"Feature","properties":{},"geometry":{"type":"Polygon","coordinates":[[[-6.37,27.14],[-5.97,28.11],[-4.82,28.84],[-1.94,29.05],[-0.12,30.16],[0.43,29.98],[0.66,28.97],[2,28.6],[2.58,27.86],[6.04,27.76],[8.25,27.04],[9.22,26.22],[10.32,26.18],[11.33,25.38],[13.08,25.08],[2.87,25.19],[-2.54,26.99],[-6.37,27.14]]]}},{"type":"Feature","properties":{},"geometry":{"type":"Polygon","coordinates":[[[12.26,32.58],[11.94,31.83],[9.25,31.71],[7.84,30.93],[7.88,30.08],[4.92,29.18],[3.06,30.02],[1.68,29.85],[1.39,30.8],[1.87,30.96],[1.48,30.85],[1.38,31.46],[-0.54,32.04],[0.56,33.11],[0.19,33.58],[0.9,33.76],[0.07,33.77],[1.97,35.12],[2.97,36.52],[2.8,37.22],[3.28,37.45],[4.64,37.4],[7.98,35.26],[9.3,34.96],[12.26,32.58]]]}},{"type":"Feature","properties":{},"geometry":{"type":"Polygon","coordinates":[[[-4.39,-2.47],[-4.47,-0.9],[-5.16,-0.06],[-7.48,0.81],[-11.26,1.09],[-12.72,2.4],[-16.34,3.23],[-19.33,8.16],[-19.19,10.95],[-20.16,13.02],[-19.43,13.37],[-20.37,13.58],[-20.59,14.07],[-20.26,14.15],[-20.78,14.55],[-20.37,14.51],[-20.7,14.69],[-20.23,15.45],[-19.2,14.95],[-20.09,15.26],[-19.85,15.71],[-20.32,16.96],[-18.95,17.4],[-17.51,18.92],[-17.12,20.59],[-16.39,21.16],[-16.41,22.38],[-16.86,22.11],[-15.86,23.17],[-12.87,24.49],[-11.64,25.61],[-10.62,25.66],[-9.42,26.41],[-6.75,26.28],[-5.21,27.06],[-1.38,26.93],[4.04,25.16],[14.26,25],[14.31,24.37],[14.99,24.21],[14.1,23.83],[14.18,22.75],[12.85,22.31],[10.71,19.61],[6.48,10.61],[5.76,7.14],[6.72,2.03],[3.19,0.9],[2.25,-0.43],[-0.39,-0.79],[-1.13,-1.8],[-4.39,-2.47]]]}},{"type":"Feature","properties":{},"geometry":{"type":"Polygon","coordinates":[[[27.57,8.95],[27.28,8.08],[27.78,2.34],[27.39,1.45],[28.07,-0.87],[27.41,-2.32],[13.79,-5.62],[8.62,-4.45],[5.83,-4.31],[0.01,-0.03],[1.04,1.22],[4.65,2.07],[4.09,7.24],[5.08,10.65],[10.03,19.29],[12.21,21.41],[13.28,19.62],[15.25,17.98],[15.14,16.9],[17.05,14.57],[18.19,14.61],[18.9,15.76],[20.71,15.66],[21.37,14.44],[22.56,13.62],[22.52,13.15],[25.22,11.05],[26.55,11.19],[27.52,10.68],[27.57,8.95]]]}},{"type":"Feature","properties":{},"geometry":{"type":"Polygon","coordinates":[[[28.11,11.17],[27.25,12.08],[25.62,12.54],[24.92,14.38],[24.5,14.09],[23.84,14.42],[23.71,15.65],[22.95,16.12],[23.76,15.84],[23.1,16.41],[23.87,17.08],[23.61,17.78],[26.59,17.07],[27.28,16.51],[27.62,15.16],[28.93,14.79],[31.79,12.67],[32.94,9.7],[30.33,11.03],[28.11,11.17]]]}},{"type":"Feature","properties":{},"geometry":{"type":"Polygon","coordinates":[[[12.37,-26.63],[11.8,-26.92],[9.7,-22.22],[10.04,-20.25],[11.74,-17.37],[16.27,-14.32],[21.13,-14.82],[19.88,-16.23],[18.74,-19.47],[15.27,-24.02],[14.38,-26.13],[12.37,-26.63]]]}},{"type":"Feature","properties":{},"geometry":{"type":"Polygon","coordinates":[[[28.75,7.57],[27.47,6.53],[27.21,10.82],[28.18,9.85],[29.6,9.87],[31.98,11.86],[33,13.6],[32.24,11.85],[28.75,7.57]]]}},{"type":"Feature","properties":{},"geometry":{"type":"Polygon","coordinates":[[[27.14,-2.17],[27.09,-2.95],[27.78,-3.97],[27.72,-7.1],[28.07,-6.87],[27.59,-11.61],[23.28,-13.82],[22.41,-15.24],[19.75,-14.54],[16.32,-14.33],[13.91,-6.62],[13.98,-5.48],[27.14,-2.17]]]}},{"type":"Feature","properties":{},"geometry":{"type":"Polygon","coordinates":[[[44.85,37.86],[41.88,39.03],[43.11,40],[42.57,40.65],[43.37,40.7],[43.8,41.38],[40.99,40.42],[40.27,39.76],[40.35,40.18],[40.32,39.44],[40.9,39.02],[41.89,39.23],[41.7,38.88],[39.24,38.2],[38.83,39],[38.16,38.82],[39.21,39.48],[37.35,39.66],[37.08,39.9],[37.9,39.9],[37.46,40.24],[35.55,38.99],[35.69,38.03],[35.12,37.85],[32.65,39.23],[30.5,41.58],[24.55,44.89],[21.4,46.03],[24.25,47.04],[24.85,46.59],[25.6,46.94],[25.24,46.51],[26.03,47.03],[25.59,47.24],[26.2,47.44],[26.4,48.11],[26.08,47.31],[26.66,47.33],[26.18,48.93],[26.55,49.98],[27.26,50.24],[28.28,49.53],[28.86,49.87],[28.76,50.95],[28.06,50.91],[27.68,51.76],[32.97,52.91],[31.57,53.27],[31.52,53.69],[27.06,52.29],[27.02,52.81],[25.67,52.97],[25.68,53.93],[24.89,55.12],[27,57.35],[27.6,57.42],[27.13,58.18],[24.55,58.09],[24.95,57.91],[24.32,57.68],[24.6,57.36],[24.24,57.14],[24.83,56.78],[24.28,56.08],[22.53,54.9],[22.03,55.27],[22.45,54.79],[21.97,54.56],[22.21,52.77],[23.97,51.97],[23.12,51.59],[23.58,51.35],[23.18,51],[22.93,51.31],[22.87,50.91],[21.83,50.69],[22.47,50.58],[21.95,50.55],[22.45,50.27],[22.33,48.75],[21.98,48.11],[20.74,47.91],[20.7,47.33],[19.55,47.25],[19.12,48.14],[19.49,48.45],[18.31,49.52],[18.38,50.17],[17.83,50.13],[17.21,51.66],[17.07,51.26],[16.8,51.47],[16.95,50.77],[16.32,50.82],[15.42,49.76],[14.47,49.57],[13.29,50.08],[13.15,50.57],[13.74,50.4],[14.01,50.63],[13.39,50.61],[13.91,51.13],[12.8,51.02],[14.19,52.07],[13.19,51.52],[13.13,51.93],[12.67,51.88],[13.12,52.26],[12.74,52.06],[12.44,52.31],[12.94,52.4],[12.49,52.57],[14.16,52.45],[14.57,52.84],[12.62,52.62],[12.91,52.9],[12.36,53.25],[13.8,53.44],[12.38,53.7],[13.35,53.61],[13.04,53.76],[13.62,54.02],[14.05,53.69],[13.25,54.13],[14.7,54.31],[13.79,54.3],[13.98,54.6],[15.02,54.31],[14.45,54.64],[15.1,54.46],[14.66,54.75],[15.78,55.34],[15.93,55.01],[16.73,55.21],[16.98,55.87],[16.1,55.2],[15.61,55.39],[17.93,57.14],[17.21,57],[17.76,57.28],[17.58,57.73],[18.01,57.66],[17.57,57.89],[18.63,58.21],[17.79,58],[18.17,58.16],[17.67,58.35],[18.23,58.46],[17.79,58.55],[18.37,58.67],[17.96,58.8],[19.41,59.04],[18.49,59.14],[19.56,59.33],[18.69,59.74],[19.49,59.87],[19,59.98],[19.45,60.22],[19.99,59.81],[19.58,60.29],[20.84,60.48],[19.74,60.49],[20.59,60.72],[20.24,60.78],[20.66,60.8],[20.33,61.03],[20.68,61.53],[21.78,61.37],[21.28,61.86],[21.78,61.57],[22.08,62.14],[22.03,61.44],[22.68,61.7],[22.24,61.96],[22.71,62.25],[23.47,62.04],[22.78,62.57],[24.33,62.36],[24.03,62.57],[24.93,63.08],[24.73,63.43],[25.7,63.39],[25.4,62.53],[26.12,63.51],[26.38,62.93],[26.99,63.45],[26.56,63.64],[27.22,63.78],[27.54,63.68],[27.09,63.46],[27.51,63.39],[27.31,63.1],[27.87,63.62],[29.66,63.28],[27.94,62.91],[28.87,62.47],[30.63,62.95],[31.5,62.82],[30.75,62.76],[30.99,62.45],[31.96,62.53],[31.79,62.16],[33.79,62.53],[38.5,61.56],[39.14,60.74],[37.54,59.75],[31.78,60.19],[33.51,59.64],[33.04,59.43],[34.61,59.23],[34.39,58.68],[35.13,57.89],[37.54,57.42],[37.8,58.01],[36.44,58.24],[36.48,58.68],[37.84,58.54],[37.67,58.26],[39.7,58.44],[38.69,59.16],[39.19,59.88],[40.12,60.55],[41.96,60.14],[41.69,61.16],[40.91,61.42],[40.92,62.23],[39.69,62.73],[42.55,62.54],[42.85,62.26],[41.7,61.58],[42.87,61.22],[44.12,61.47],[43.9,62.17],[44.83,62.33],[44.28,62.56],[47.01,63.38],[46.72,63.62],[47.69,64.15],[48.23,64.24],[47.53,64.06],[48.16,63.62],[47.69,63.28],[48.47,63.24],[49.17,63.93],[51.63,64.76],[52.8,64.28],[52.66,64.63],[53.63,64.87],[52.17,65.45],[52.43,65.82],[55.57,65.91],[60.33,65.24],[60.97,64.58],[60.87,63.98],[58.47,60.58],[61.72,53.82],[61.7,52.55],[60.47,50.63],[60.84,46.99],[60.54,45.81],[59.18,44.65],[53.49,42.69],[48.47,37.88],[44.85,37.86]]]}},{"type":"Feature","properties":{},"geometry":{"type":"Polygon","coordinates":[[[16.13,46.79],[15.59,47.2],[15.58,48.4],[17.45,49.49],[17.2,48.44],[17.87,48.21],[16.79,47.42],[17.06,46.65],[16.13,46.79]]]}},{"type":"Feature","properties":{},"geometry":{"type":"Polygon","coordinates":[[[34.66,35.03],[34.58,36.02],[33.77,35.82],[33.76,36.35],[37.11,37.61],[36.46,37.59],[41.94,38.74],[45.11,38.37],[40.89,37.32],[39.62,36.48],[37.99,36.94],[36.95,36.69],[34.66,35.03]]]}},{"type":"Feature","properties":{},"geometry":{"type":"Polygon","coordinates":[[[23.46,24.07],[23.06,22.68],[22.28,22.78],[22.92,21.66],[22.71,21.2],[22.04,21.79],[22.11,21.18],[21.61,21.63],[21.44,20.95],[20.79,21.01],[20.88,21.45],[20.44,21.48],[20.74,22.66],[21.49,22.66],[22.33,21.89],[20.97,23],[21.04,23.59],[21.43,23.56],[21.1,23.67],[21.09,25.51],[22.21,26.48],[21,29.46],[21.47,31.21],[21.33,31.63],[20.62,31.37],[21.18,32.32],[20.31,32.63],[19.24,31.66],[19.53,30.57],[19.13,29.78],[19.32,28.63],[19.99,28.13],[19.55,27.87],[20.34,25.62],[19.98,25.52],[19.47,26.62],[18.74,26.29],[18.66,25.33],[17,25.14],[17.94,25.68],[18.36,26.88],[17.01,30.87],[17.61,32.5],[17.08,33.52],[15.84,33.59],[15.75,34.25],[16.82,35.65],[20.79,35.09],[25.01,32.77],[22.96,31.53],[23.54,27.6],[23.46,24.07]]]}},{"type":"Feature","properties":{},"geometry":{"type":"Polygon","coordinates":[[[16.3,35.44],[15.05,34.62],[13.18,35.07],[12.32,34.15],[8.27,34.92],[8.49,36.85],[9.02,36.39],[8.4,37.02],[8.47,37.63],[7.03,38.94],[5.59,39.06],[5.26,39.3],[5.73,39.57],[5.22,39.79],[8.15,39.97],[7.6,41.05],[9.09,40.63],[9.85,41.23],[12.21,40.36],[14.49,40.33],[18.38,43.06],[21.29,43.95],[25.97,43.97],[28.79,42.28],[25.98,41.63],[23.83,40.38],[19.04,39.58],[16.71,38.7],[15.15,37.45],[15.66,35.85],[16.3,35.44]]]}},{"type":"Feature","properties":{},"geometry":{"type":"Polygon","coordinates":[[[9.85,41.23],[10.67,41.6],[10.55,42.28],[12.77,42.85],[12.07,43.01],[13.08,43.22],[12.53,43.45],[13.06,44.48],[13.45,43.86],[13.87,44.16],[13.77,44.86],[15.12,44.85],[14.99,45.2],[15.62,45.36],[16.19,45.03],[16.27,45.57],[17.29,45.26],[16.15,45.97],[16.53,46.17],[15.85,46.4],[16.13,46.79],[17.06,46.65],[17.45,46.06],[18.28,46.18],[18.04,45.66],[19.44,46.35],[21.29,45.56],[21.4,46.03],[22.25,45.79],[25.97,43.97],[19.95,43.67],[17.53,42.56],[14.49,40.33],[12.21,40.36],[9.85,41.23]]]}},{"type":"Feature","properties":{},"geometry":{"type":"Polygon","coordinates":[[[35.07,37.64],[34.98,36.65],[34.42,36.16],[30.25,35.83],[29.44,36.72],[29.56,37.43],[32.18,38.36],[32.65,39.23],[35.07,37.64]]]}},{"type":"Feature","properties":{},"geometry":{"type":"Polygon","coordinates":[[[-23.66,71.15],[-24.64,70.93],[-23.44,71.38],[-23.66,71.15]]]}},{"type":"Feature","properties":{},"geometry":{"type":"Polygon","coordinates":[[[-18.99,69.79],[-18.23,69.35],[-19.83,69.62],[-18.99,69.79]]]}},{"type":"Feature","properties":{},"geometry":{"type":"Polygon","coordinates":[[[-24.25,72.32],[-25.86,72],[-27.25,72.31],[-26.04,72.75],[-24.25,72.32]]]}},{"type":"Feature","properties":{},"geometry":{"type":"Polygon","coordinates":[[[19.35,70.37],[20.55,69.8],[18.65,69.5],[18.75,69.99],[18.18,70.11],[19.35,70.37]]]}},{"type":"Feature","properties":{},"geometry":{"type":"Polygon","coordinates":[[[18.16,70.63],[18.78,70.35],[17.52,70.47],[18.16,70.63]]]}},{"type":"Feature","properties":{},"geometry":{"type":"Polygon","coordinates":[[[-22.64,72.75],[-23.49,72.33],[-25.05,72.94],[-22.64,72.75]]]}},{"type":"Feature","properties":{},"geometry":{"type":"Polygon","coordinates":[[[-17.66,70.64],[-17.51,70.14],[-18.21,69.91],[-19.69,70.06],[-18.7,70.73],[-17.66,70.64]]]}},{"type":"Feature","properties":{},"geometry":{"type":"Polygon","coordinates":[[[12.04,70.37],[13.03,69.86],[11.71,70.48],[12.04,70.37]]]}},{"type":"Feature","properties":{},"geometry":{"type":"Polygon","coordinates":[[[-18.64,72.09],[-19.45,71.59],[-18.62,71.62],[-19.09,71.34],[-18.69,71.23],[-18.93,70.95],[-20.28,70.41],[-21.03,70.63],[-20.59,70.81],[-20.99,71.19],[-20.7,71.3],[-21.67,71.5],[-20.07,71.62],[-19.74,71.9],[-20.54,71.91],[-19.87,72.22],[-18.64,72.09]]]}},{"type":"Feature","properties":{},"geometry":{"type":"Polygon","coordinates":[[[64.91,79.44],[70.76,79.02],[68.3,78.02],[64.91,79.44]]]}},{"type":"Feature","properties":{},"geometry":{"type":"Polygon","coordinates":[[[14.18,71.84],[18.08,70.72],[16.83,70.4],[16.82,69.42],[14.11,71.45],[14.18,71.84]]]}},{"type":"Feature","properties":{},"geometry":{"type":"Polygon","coordinates":[[[16.82,69.42],[16.85,68.53],[16.39,68.42],[15.75,68.69],[16.28,68.86],[14.45,69.26],[15.88,69.26],[14.86,69.42],[16.05,69.79],[14.37,69.45],[13.97,69.76],[15.73,70.21],[16.82,69.42]]]}},{"type":"Feature","properties":{},"geometry":{"type":"Polygon","coordinates":[[[15.26,70.54],[14.79,70.24],[14.49,70.61],[14.09,70.41],[14.47,70.12],[13.53,69.88],[12.16,70.58],[12.84,70.57],[12.41,70.93],[11.46,71.11],[12.96,71.56],[12.39,71.21],[13.51,70.97],[13.5,71.51],[15.26,70.54]]]}},{"type":"Feature","properties":{},"geometry":{"type":"Polygon","coordinates":[[[55.74,78.47],[57.76,78.38],[55.22,78.34],[55.74,78.47]]]}},{"type":"Feature","properties":{},"geometry":{"type":"Polygon","coordinates":[[[58.49,79.21],[60.71,78.84],[59.69,79.3],[61.76,79.36],[65.16,78.63],[58.71,78.22],[57.39,78.88],[58.49,79.21]]]}},{"type":"Feature","properties":{},"geometry":{"type":"Polygon","coordinates":[[[22.98,72.93],[23.3,72.85],[22.3,72.65],[22.98,72.93]]]}},{"type":"Feature","properties":{},"geometry":{"type":"Polygon","coordinates":[[[35.65,74.81],[36.26,74.57],[35.18,74.67],[35.65,74.81]]]}},{"type":"Feature","properties":{},"geometry":{"type":"Polygon","coordinates":[[[33.65,74.51],[34.24,74.43],[33.28,74.3],[33.65,74.51]]]}},{"type":"Feature","properties":{},"geometry":{"type":"Polygon","coordinates":[[[35.95,75.01],[36.95,75],[36.64,74.67],[35.45,74.89],[35.95,75.01]]]}},{"type":"Feature","properties":{},"geometry":{"type":"Polygon","coordinates":[[[17.41,72.49],[20.19,72.2],[18.91,71.36],[14.89,71.96],[15.89,72.05],[15.61,72.4],[17.45,72.02],[17.41,72.49]]]}},{"type":"Feature","properties":{},"geometry":{"type":"Polygon","coordinates":[[[29.78,74.43],[30.7,74.36],[28.76,74.01],[29.78,74.43]]]}},{"type":"Feature","properties":{},"geometry":{"type":"Polygon","coordinates":[[[37.29,75.68],[37.84,75.21],[36.08,75.4],[37.29,75.68]]]}},{"type":"Feature","properties":{},"geometry":{"type":"Polygon","coordinates":[[[31.27,74.77],[32.16,74.66],[31.2,74.12],[31.74,73.97],[30.24,73.89],[30.95,74],[30.33,74.08],[31.17,74.28],[30.59,74.49],[31.27,74.77]]]}},{"type":"Feature","properties":{},"geometry":{"type":"Polygon","coordinates":[[[36.08,75.82],[36.53,75.63],[35.84,75.6],[36.08,75.82]]]}},{"type":"Feature","properties":{},"geometry":{"type":"Polygon","coordinates":[[[37.8,76.21],[38.79,75.82],[37.6,75.68],[37.8,76.21]]]}},{"type":"Feature","properties":{},"geometry":{"type":"Polygon","coordinates":[[[50.83,79.09],[51.54,78.98],[50.49,78.97],[50.83,79.09]]]}},{"type":"Feature","properties":{},"geometry":{"type":"Polygon","coordinates":[[[53.24,79.69],[58.22,79.27],[57.07,78.66],[54.77,78.53],[55.22,78.74],[53.55,78.97],[52.69,79.61],[53.24,79.69]]]}},{"type":"Feature","properties":{},"geometry":{"type":"Polygon","coordinates":[[[-10.11,71.91],[-11.46,70.53],[-10.46,70.59],[-12.2,69.93],[-11.36,69.78],[-11.7,69.42],[-14.01,69.31],[-13.54,69.64],[-15.45,69.1],[-15.03,69.6],[-15.69,69.2],[-16.72,69.59],[-15.86,69.78],[-16.46,70.04],[-16,70.46],[-14.11,70.14],[-14.79,70.42],[-14.23,70.53],[-15.68,70.79],[-14.4,70.94],[-15.1,71.13],[-14.81,71.38],[-13.74,71.16],[-13.21,71.23],[-13.73,71.67],[-12.31,71.42],[-12.15,71.82],[-10.11,71.91]]]}},{"type":"Feature","properties":{},"geometry":{"type":"Polygon","coordinates":[[[33.14,75.66],[34.05,75.68],[32.87,75.44],[33.48,75.53],[33.14,75.66]]]}},{"type":"Feature","properties":{},"geometry":{"type":"Polygon","coordinates":[[[33.22,76.23],[33.6,76.14],[32.78,76.09],[33.22,76.23]]]}},{"type":"Feature","properties":{},"geometry":{"type":"Polygon","coordinates":[[[1.8,68.11],[2.17,67.77],[1.78,67.51],[1.23,68.15],[1.8,68.11]]]}},{"type":"Feature","properties":{},"geometry":{"type":"Polygon","coordinates":[[[0.67,70.88],[1.4,70.47],[0.16,70.4],[1.82,70.35],[2.08,70.18],[1.49,69.85],[2.15,69.7],[0.05,69.32],[-1.64,69.72],[-1.05,69.33],[-2.92,69.26],[-0.25,69.19],[-4.07,68.9],[-4.36,68.54],[-5.21,68.77],[-4.66,68.48],[-5.58,68.28],[-6.45,68.7],[-6.79,68.73],[-6.28,68.51],[-6.54,68.31],[-8.84,68.68],[-7.58,68.18],[-8.98,68.54],[-8.44,68.25],[-9.47,68.33],[-8.33,67.89],[-10.18,67.63],[-9.73,67.41],[-10.1,67.3],[-11.25,67.57],[-12.07,67.12],[-13.98,67.55],[-12.73,67.11],[-13.07,66.71],[-12.48,66.8],[-13.4,66.36],[-15.17,66.46],[-14.61,66.65],[-15,67.13],[-16.83,67.11],[-18.33,67.69],[-17.87,68.01],[-18.65,68.03],[-16.2,68.06],[-16.39,68.35],[-15.73,68.8],[-14.97,68.54],[-15.42,68.14],[-15.02,67.85],[-12.76,68.18],[-14.44,67.93],[-14.79,68.08],[-14.49,68.51],[-13.37,68.72],[-14.93,68.91],[-13.47,69.28],[-12.44,69.19],[-11.95,68.57],[-11.09,68.74],[-12.1,69.22],[-11.62,69.07],[-11.11,69.7],[-11.34,69.98],[-10.28,70.38],[-9.44,70.05],[-9.77,69.31],[-9.05,69.12],[-9.57,69.36],[-9.04,70.01],[-6.73,69.63],[-7.33,69.87],[-5.63,69.69],[-6.45,69.97],[-4.63,70.17],[-9.37,70.37],[-9.74,70.61],[-7.02,70.54],[-9.96,70.72],[-9.94,71.15],[-7.55,70.87],[-9.81,71.24],[-7.92,71.29],[-9.18,71.55],[-8.3,71.63],[-9.01,71.9],[-6.71,71.78],[-6.86,71.5],[-6.2,71.26],[-6.12,71.73],[-4.99,71.73],[-5.38,71.24],[-4.73,71.35],[-4.68,70.68],[-4.5,71.44],[-3.21,71.62],[-1.92,71.37],[-2.51,70.88],[-1.7,71.38],[-0.77,71.17],[-0.91,70.76],[0.67,70.88]]]}},{"type":"Feature","properties":{},"geometry":{"type":"Polygon","coordinates":[[[-9.17,50.66],[-8.43,51.16],[-9.13,51.02],[-8.83,51.51],[-9.21,51.58],[-7.77,51.79],[-9.15,51.62],[-9.5,52.03],[-8.44,52.23],[-9.58,52.33],[-7.29,52.87],[-9.61,52.4],[-9.25,52.55],[-9.53,52.81],[-8.73,52.75],[-9.38,52.93],[-8.51,53.02],[-9.55,53.41],[-7.21,53.21],[-9.45,53.53],[-8.56,53.96],[-6.92,53.52],[-7.66,53.81],[-6.87,53.86],[-7.38,54.05],[-9.25,53.81],[-8.66,54.29],[-8.03,54.12],[-8.74,54.43],[-6.83,53.94],[-7.57,54.3],[-7.08,54.55],[-8.75,54.58],[-7.19,54.65],[-7.03,55.19],[-6.54,54.96],[-6.55,55.35],[-7.04,55.26],[-6.2,56],[-8.57,56.94],[-6.28,56.32],[-6.68,56.6],[-6.27,56.89],[-6.85,57.1],[-6.25,57.03],[-6.99,57.22],[-6.49,57.34],[-7.14,57.28],[-6.33,57.51],[-7.29,57.56],[-6.4,57.75],[-7.35,58.16],[-7.8,57.65],[-8.73,57.8],[-7.98,58.24],[-8.54,58.32],[-7.98,58.59],[-8.34,58.76],[-7.56,59.04],[-8.07,59.38],[-7.56,59.6],[-7.96,59.95],[-7.67,60.54],[-8.39,60.48],[-7.58,60.66],[-8.36,61.78],[-7.98,62.11],[-9.99,63.13],[-12.72,63.31],[-13.01,63.68],[-11.92,63.8],[-13.24,64.43],[-10.6,64.18],[-10.27,64.49],[-11.78,64.62],[-12.77,65.62],[-8.49,65.92],[-6.75,66.6],[-8.16,66.78],[-8,67.07],[-5.69,67.53],[-5.76,67.12],[-3.88,68.03],[-2.89,67.29],[-3.32,68.07],[-1.24,68.17],[-1.71,67.36],[-0.99,67.78],[-0.25,67.25],[-0.45,67.61],[0.13,67.54],[0.04,68.16],[1.73,67.2],[2.05,67.71],[2.82,67.59],[1.97,68.22],[3.85,67.8],[2.28,68.57],[4.33,68.02],[5.05,68.38],[4.55,68.7],[5.88,68.81],[8.67,68.43],[5.35,67.99],[8.81,68.3],[8.58,67.9],[10.14,67.74],[6.04,66.94],[9.06,67.12],[8.39,66.56],[10.22,67.22],[10.27,66.6],[9.3,65.7],[12.29,67.03],[14,66.75],[12.67,65.83],[10.54,65.7],[12.63,65.63],[10.73,65.26],[11,64.88],[12.13,65.2],[11.24,64.76],[11.54,64.31],[10.64,63.91],[10.38,63.25],[10.44,62.62],[10.82,63.13],[11.74,62.76],[10.75,62.65],[12,62.46],[12.09,61.91],[10.37,62.16],[11.05,62.04],[10.02,61.82],[11.51,61.27],[10.47,61.11],[11.75,60.89],[11.7,60.31],[10.17,60.69],[11.22,60.29],[10.21,60.3],[11.16,60.21],[10.94,59.81],[12.08,59.66],[10.42,59.74],[11.5,59.36],[10.25,59.44],[10.59,58.79],[10.64,59.2],[11.45,59.03],[11.42,58.69],[10.3,58.4],[9.39,58.8],[10.38,58.78],[8.5,59.09],[9.06,58.66],[7.63,58.64],[8.15,58.37],[7.4,58.27],[8.86,58.19],[7.56,58],[9.07,57.81],[8.16,57.53],[8.76,57.53],[8.59,57.16],[9.11,57.56],[10.33,57.04],[9.98,56.76],[10.67,56.88],[10.3,56.6],[10.82,56.55],[10.46,56.19],[10.83,56.22],[10.85,55.58],[10.36,56],[9.86,55.58],[9.12,56.47],[6.78,57.24],[7.55,56.85],[6.9,56.69],[8.65,56.46],[6.91,56.13],[7.02,55.78],[6.43,55.54],[8.1,55.5],[6.78,55.19],[8.74,55.55],[10.46,55.12],[8.05,53.8],[5.51,53.24],[4.26,53.82],[4.5,53.13],[3.73,52.91],[2.7,51.63],[1.93,51.74],[2.07,51.42],[0.97,51.45],[0.95,51.1],[0.55,51.26],[1.06,51.65],[0.62,51.81],[0.28,51.02],[-1.72,50.63],[-1.36,49.85],[-2.15,49.8],[-1.53,49.62],[-1.55,49.18],[-2.19,49.39],[-1.72,49.08],[-2.54,49.03],[-2.27,48.65],[-2.8,48.67],[-2.45,48.45],[-3.51,48.37],[-2.88,47.96],[-3.43,48.14],[-2.92,47.58],[-3.49,47.39],[-3.05,47.28],[-3.66,47.22],[-3.21,47.09],[-3.83,46.98],[-3.44,46.7],[-4.12,46.8],[-3.49,46.68],[-4.1,46.5],[-3.67,46.19],[-4.61,46.33],[-3.95,45.72],[-4.58,46.08],[-5.39,45.85],[-4.81,46.29],[-5.41,45.9],[-4.89,46.47],[-5.9,46.39],[-5.31,46.67],[-6.02,46.58],[-5.22,46.95],[-5.87,46.73],[-5.6,47.13],[-7.42,46.78],[-7.09,47.27],[-7.88,47.42],[-7.27,47.49],[-7.99,47.59],[-7.48,47.62],[-7.87,47.74],[-7.52,47.98],[-8.03,47.87],[-7.56,48.07],[-8.19,48.07],[-7.83,48.3],[-8.49,48.6],[-7.92,49.1],[-8.45,48.88],[-8.12,49.3],[-8.81,49.49],[-8.14,49.46],[-9.01,49.88],[-8.19,50.3],[-9.01,50.37],[-7.87,50.51],[-8.15,50.78],[-7.51,50.37],[-7.74,50.89],[-8.23,51.35],[-8.1,50.84],[-9.17,50.66]]]}}]}
