{"type":"FeatureCollection","features":[{"type":"Feature","properties":{},"geometry":{"type":"Polygon","coordinates":[[[100.57,-74.27],[101.02,-73.68],[102.27,-73.34],[104.03,-73.71],[100.57,-74.27]]]}},{"type":"Feature","properties":{},"geometry":{"type":"Polygon","coordinates":[[[102.77,-70.25],[103.27,-70.61],[101.42,-70.38],[102.93,-69.94],[102.77,-70.25]]]}},{"type":"Feature","properties":{},"geometry":{"type":"Polygon","coordinates":[[[-17.93,-87.5],[1.26,-86.93],[8.96,-87.64],[-7.84,-87.96],[-17.93,-87.5]]]}},{"type":"Feature","properties":{},"geometry":{"type":"Polygon","coordinates":[[[113.01,-75.69],[113.22,-75.32],[113.85,-75.49],[113.01,-75.69]]]}},{"type":"Feature","properties":{},"geometry":{"type":"Polygon","coordinates":[[[131.02,-79.23],[129.99,-79.24],[131.28,-79.01],[131.02,-79.23]]]}},{"type":"Feature","properties":{},"geometry":{"type":"Polygon","coordinates":[[[138.97,-83.03],[137.26,-82.69],[140.6,-83.04],[138.97,-83.03]]]}},{"type":"Feature","properties":{},"geometry":{"type":"Polygon","coordinates":[[[139.21,-81.28],[139.92,-81.88],[139.52,-82.09],[140.14,-82.28],[135.46,-82.06],[134.73,-81.62],[139.21,-81.28]]]}},{"type":"Feature","properties":{},"geometry":{"type":"Polygon","coordinates":[[[-75.2,-85.68],[-77.26,-85.64],[-74.79,-85.56],[-75.2,-85.68]]]}},{"type":"Feature","properties":{},"geometry":{"type":"Polygon","coordinates":[[[-65.84,-84.76],[-64.47,-84.99],[-66.43,-84.81],[-65.84,-84.76]]]}},{"type":"Feature","properties":{},"geometry":{"type":"Polygon","coordinates":[[[140.39,-80.22],[137.07,-80.64],[138.39,-80.87],[136.81,-81.11],[135.22,-80.89],[138.13,-80.22],[137.23,-80.12],[140.39,-80.22]]]}},{"type":"Feature","properties":{},"geometry":{"type":"Polygon","coordinates":[[[-72.04,-84.78],[-64.34,-85.32],[-71.18,-85.32],[-72.6,-85.14],[-71.01,-85.03],[-72.93,-84.85],[-72.04,-84.78]]]}},{"type":"Feature","properties":{},"geometry":{"type":"Polygon","coordinates":[[[-87.3,-89.07],[-86.09,-89.26],[-102.37,-89.14],[-87.3,-89.07]]]}},{"type":"Feature","properties":{},"geometry":{"type":"Polygon","coordinates":[[[-79.06,-85.04],[-77.38,-85.23],[-82.18,-85.46],[-79.06,-85.04]]]}},{"type":"Feature","properties":{},"geometry":{"type":"Polygon","coordinates":[[[-145.93,-88.73],[-147.62,-88.67],[-143.37,-88.65],[-145.93,-88.73]]]}},{"type":"Feature","properties":{},"geometry":{"type":"Polygon","coordinates":[[[-122.53,-89.42],[-127.96,-89.36],[-121.34,-89.05],[-125.57,-88.85],[-111.53,-89.11],[-122.53,-89.42]]]}},{"type":"Feature","properties":{},"geometry":{"type":"Polygon","coordinates":[[[174.61,-87.06],[175.85,-87.34],[173.41,-87.03],[174.61,-87.06]]]}},{"type":"Feature","properties":{},"geometry":{"type":"Polygon","coordinates":[[[-157.64,-88.46],[-166.48,-88.36],[-155.82,-88.39],[-157.64,-88.46]]]}},{"type":"Feature","properties":{},"geometry":{"type":"Polygon","coordinates":[[[179.99,-86.47],[179.99,-87.31],[173.48,-86.47],[179.99,-86.47]]]}},{"type":"Feature","properties":{},"geometry":{"type":"Polygon","coordinates":[[[-179.99,-87.31],[-179.99,-86.47],[-173.25,-87.17],[-166.64,-87.13],[-172.89,-87.27],[-170.35,-87.26],[-170.72,-87.39],[-165.71,-87.19],[-169.4,-87.55],[-160.95,-87.34],[-156.58,-87.56],[-167.1,-87.61],[-156.5,-87.79],[-168.95,-88.12],[-179.99,-87.31]]]}},{"type":"Feature","properties":{},"geometry":{"type":"Polygon","coordinates":[[[-79.17,-82.64],[-78.75,-82.67],[-82.76,-83.02],[-79.17,-82.64]]]}},{"type":"Feature","properties":{},"geometry":{"type":"Polygon","coordinates":[[[-84.81,-81.83],[-83.09,-82.02],[-87.27,-82.11],[-84.81,-81.83]]]}},{"type":"Feature","properties":{},"geometry":{"type":"Polygon","coordinates":[[[-80.25,-81.3],[-78.7,-81.43],[-80.54,-81.47],[-80.25,-81.3]]]}},{"type":"Feature","properties":{},"geometry":{"type":"Polygon","coordinates":[[[-76.63,-80.52],[-62.6,-82.54],[-59.93,-83.31],[-64.92,-84.09],[-67.97,-84.04],[-64.53,-83.52],[-66.04,-83.3],[-73.26,-83.59],[-71.57,-83.64],[-71.75,-83.96],[-80.42,-83.69],[-74.55,-83.44],[-77.48,-83.26],[-70.88,-82.46],[-74.87,-82.09],[-72.21,-81.7],[-77.51,-81.64],[-80.06,-81.07],[-76.63,-80.52]]]}},{"type":"Feature","properties":{},"geometry":{"type":"Polygon","coordinates":[[[-77.23,-78.11],[-76.01,-78.58],[-76.53,-78.84],[-75.93,-79.03],[-78.07,-79.09],[-77.75,-78.86],[-78.07,-78.41],[-77.23,-78.11]]]}},{"type":"Feature","properties":{},"geometry":{"type":"Polygon","coordinates":[[[90.49,-53.36],[90.69,-54.26],[89.87,-54.19],[90.49,-53.36]]]}},{"type":"Feature","properties":{},"geometry":{"type":"Polygon","coordinates":[[[-75.77,-76.78],[-75.36,-77.07],[-75.93,-77.17],[-75.77,-76.78]]]}},{"type":"Feature","properties":{},"geometry":{"type":"Polygon","coordinates":[[[-73.85,-75.22],[-72.59,-75.41],[-74.72,-75.77],[-73.85,-75.22]]]}},{"type":"Feature","properties":{},"geometry":{"type":"Polygon","coordinates":[[[-72.68,-74.83],[-71.99,-74.89],[-72.05,-75.24],[-72.66,-75.35],[-72.68,-74.83]]]}},{"type":"Feature","properties":{},"geometry":{"type":"Polygon","coordinates":[[[-66.19,-73.83],[-64.58,-74.26],[-66.74,-74.18],[-66.19,-73.83]]]}},{"type":"Feature","properties":{},"geometry":{"type":"Polygon","coordinates":[[[-19.11,-88.28],[-2.14,-88.25],[-14.02,-88.48],[-8.66,-88.74],[22.77,-87.85],[32.57,-87.17],[34.85,-86.58],[30.37,-86.94],[27.89,-86.63],[36.12,-86.35],[33.99,-86.07],[36.03,-85.83],[54.69,-84.89],[54.15,-83.91],[54.73,-83.05],[57.1,-82.09],[72.58,-82],[83.65,-82.76],[87.4,-83.87],[84.4,-84.45],[87.06,-85.62],[84.32,-87.48],[75.08,-88.43],[94.54,-89.39],[66.21,-89.83],[-56.23,-89.81],[-22.04,-89.58],[-29.05,-89.34],[-42.35,-87.97],[-24.22,-87.58],[-19.11,-88.28]]]}},{"type":"Feature","properties":{},"geometry":{"type":"Polygon","coordinates":[[[-66.26,-73.21],[-65.03,-73.45],[-66.84,-73.78],[-67.14,-74.18],[-66.54,-74.67],[-68.11,-74.65],[-70.32,-76],[-69.16,-76.1],[-69.66,-76.23],[-69.46,-76.6],[-66.73,-76.27],[-66.61,-76.61],[-69.7,-76.94],[-68.28,-77.35],[-70.97,-77],[-70.58,-77.2],[-71.1,-77.27],[-70.53,-77.43],[-71.04,-77.46],[-70.77,-77.65],[-69.77,-77.68],[-71.53,-77.94],[-70.98,-78.31],[-71.8,-78.41],[-70.01,-78.93],[-70.28,-79.14],[-68.74,-78.95],[-69.48,-79.27],[-68,-79.49],[-65.84,-79.43],[-66.57,-79.27],[-64.71,-78.92],[-65.72,-79.27],[-49.78,-81.12],[-50.6,-81.52],[-48.42,-81.27],[-46.53,-81.56],[-47.37,-81.81],[-43.54,-82.05],[-42.75,-81.69],[-36.8,-82.95],[-35.25,-82.77],[-34.6,-82.93],[-35.16,-83.15],[-32,-83.6],[-32.6,-83.96],[-32.15,-84.07],[-30.57,-83.78],[-28.97,-84.1],[-25.18,-85.69],[-13.89,-85.3],[-4.43,-86.51],[-25.88,-87.08],[-24.22,-87.58],[-42.35,-87.97],[-94.02,-87.68],[-92.98,-86.65],[-83.21,-86.44],[-87.4,-86.1],[-83.26,-86.01],[-86.22,-85.7],[-68.98,-85.93],[-63.45,-85.4],[-56.28,-83.93],[-55.18,-83.34],[-72.53,-80.81],[-69.88,-80.48],[-69.71,-80.12],[-71.68,-80.06],[-70.76,-79.92],[-72.51,-79.52],[-71.67,-79.38],[-73.57,-79.26],[-72.87,-79.14],[-73.69,-79.05],[-73.21,-78.71],[-75,-78.94],[-75.85,-78.59],[-75.12,-78.26],[-73.56,-78.53],[-75.11,-77.95],[-73.62,-77.85],[-74.58,-77.34],[-72.86,-77.02],[-73.61,-76.8],[-72.34,-76.42],[-73.43,-76.01],[-72.05,-76],[-72.63,-75.84],[-70.48,-75.27],[-70.87,-75.08],[-70.06,-74.84],[-70.5,-74.62],[-66.26,-73.21]]]}},{"type":"Feature","properties":{},"geometry":{"type":"Polygon","coordinates":[[[37.15,-79.11],[31.08,-78.14],[23.46,-75.77],[23.48,-75.31],[25.01,-75.19],[24.24,-75.06],[21,-74.7],[17.73,-75.68],[14.25,-75.15],[13.54,-74.12],[11.8,-73.17],[12.03,-72.03],[10.18,-70.93],[10.05,-69.32],[11.69,-67.01],[9.58,-66.48],[10.98,-66.49],[10.1,-65.81],[10.62,-65.58],[12.33,-66.03],[13.06,-65.74],[11.65,-65.15],[11.84,-64.87],[12.58,-64.66],[13.52,-65.25],[15.05,-64.56],[14.4,-64.56],[13.76,-63.76],[15.82,-64.56],[16.29,-64.2],[17.14,-64.4],[18.28,-62.32],[21.31,-61.38],[23.14,-61.36],[23.19,-60.99],[25.38,-60.26],[29.84,-59.52],[35.29,-57.41],[34.71,-56.56],[35.09,-56.31],[38.77,-57.19],[39.22,-56.65],[38.87,-56.02],[40.29,-54.85],[42.03,-54.27],[42.27,-53.74],[43.5,-53.93],[44.07,-53.49],[43.35,-53.29],[43.87,-53.02],[44.35,-53.43],[45.03,-53.26],[44.58,-52.41],[46.49,-51.72],[47.75,-51.74],[48.99,-52.23],[48.36,-52.53],[50.33,-52.96],[57.09,-52.84],[57.36,-53.75],[56.79,-54.04],[57.34,-53.98],[56.77,-54.2],[57.27,-54.31],[56.56,-54.39],[56.96,-54.92],[56.34,-55.38],[58.46,-56.47],[59.59,-54.82],[60.96,-54.68],[62.26,-54.07],[63.02,-53.1],[66.34,-52.06],[71.09,-51.66],[74.76,-52.05],[75.62,-51.95],[75.6,-51.27],[76.47,-51.25],[76.53,-51.8],[78.34,-51.63],[81.81,-53.15],[85.05,-52.35],[85.6,-53.21],[86.66,-53.29],[87.41,-54.06],[89.69,-54.24],[89.54,-54.56],[93.24,-54.39],[93.95,-55.33],[94.84,-55.52],[95.78,-54.88],[95.62,-54.54],[98.52,-55.47],[99.61,-54.71],[99.78,-55.15],[99.32,-55.43],[99.91,-55.99],[104.66,-58.04],[106.17,-58.08],[104.72,-58.54],[106.61,-59.33],[105.68,-59.71],[107.79,-60.19],[107.6,-60.63],[109.59,-60.74],[109.89,-61.12],[109.51,-61.53],[111.72,-62.56],[111.78,-63.79],[112.8,-64.09],[112.82,-64.59],[114.85,-65.18],[114.55,-65.29],[115.24,-65.53],[114.91,-65.89],[115.33,-66.71],[115.94,-66.43],[115.52,-67],[111.61,-67.79],[109.95,-67.41],[108.1,-67.48],[107.44,-67.98],[106.21,-67.89],[106.75,-67.51],[105.51,-67.64],[105.02,-67.9],[105.72,-68.39],[104.14,-68.22],[101.51,-69.07],[100.47,-69.78],[100.77,-69.96],[99.13,-70.14],[100.54,-70.28],[99.68,-70.97],[98.72,-70.47],[95.94,-70.29],[90.76,-71.64],[89.33,-72.49],[88.3,-72.28],[87.93,-72.65],[89.03,-72.69],[86.26,-73.5],[86.83,-73.61],[86.66,-73.93],[85.54,-74.04],[86.18,-74.12],[84.67,-74.99],[80.12,-75.13],[85.14,-75.07],[83.2,-76.24],[79.92,-76.63],[78.48,-77.31],[79.77,-77.72],[77.25,-78.36],[84.23,-77.73],[92.1,-77.87],[91.05,-79.29],[73.47,-79.26],[66.1,-80.64],[37.15,-79.11]]]}},{"type":"Feature","properties":{},"geometry":{"type":"Polygon","coordinates":[[[179.99,-88.85],[179.99,-89.99],[-179.99,-89.99],[-179.99,-88.85],[-111.53,-89.55],[-81.45,-89.18],[-94.85,-88.81],[-89.67,-88.72],[-43.42,-88.71],[-50.54,-88.31],[-35.31,-88.36],[-24.11,-87.74],[13.25,-88.04],[43.41,-87.41],[61.85,-86.32],[62.97,-85.95],[61.86,-85.49],[69.31,-84.72],[76.4,-83.01],[77.22,-82.45],[76.73,-82.12],[77.02,-81.82],[79.98,-81.32],[80.04,-80.88],[78.88,-80.09],[90.24,-77.55],[90.76,-77.22],[90.16,-77.04],[90.65,-76.98],[90.66,-75.54],[96.33,-75.61],[98.57,-76.89],[100.34,-76.44],[100.32,-75.89],[105.11,-74.45],[110.49,-73.83],[110.08,-74.18],[111.48,-74.51],[110.84,-75.09],[111.6,-75.12],[110.39,-75.8],[114.24,-76.48],[116.15,-75.99],[115.57,-75.6],[116.09,-75.36],[117.25,-75.55],[116.59,-76.26],[118.71,-76.01],[124.88,-77.83],[128.56,-78.1],[128.87,-78.43],[127.39,-78.59],[133.7,-81.97],[133.36,-82.08],[136.82,-82.67],[134.75,-82.92],[136.25,-83.25],[135.26,-83.31],[135.52,-83.54],[141.49,-83.66],[132.09,-84.07],[133.69,-84.47],[139.07,-84.42],[132.41,-85.11],[135.14,-85.5],[125.31,-85.71],[132.73,-86.12],[130.3,-86.6],[120.69,-86.72],[120.3,-87.15],[140.46,-87.37],[151.25,-86.85],[151.95,-87.38],[158.38,-87.44],[161.23,-87.11],[154.08,-86.71],[161.66,-86.35],[163.93,-86.67],[160.53,-86.88],[164.06,-87.14],[161.68,-87.41],[172.92,-87.86],[167.05,-88.56],[179.99,-88.85]]]}},{"type":"Feature","properties":{},"geometry":{"type":"Polygon","coordinates":[[[-63.87,-72.8],[-63,-72.86],[-65.09,-73.2],[-63.87,-72.8]]]}},{"type":"Feature","properties":{},"geometry":{"type":"Polygon","coordinates":[[[-69.84,-73.53],[-69.35,-73.56],[-71.61,-73.7],[-69.84,-73.53]]]}},{"type":"Feature","properties":{},"geometry":{"type":"Polygon","coordinates":[[[-67.06,-72.68],[-66.43,-72.73],[-68.45,-73.08],[-67.06,-72.68]]]}},{"type":"Feature","properties":{},"geometry":{"type":"Polygon","coordinates":[[[-49.71,-74.43],[-49.01,-74.62],[-50.13,-74.51],[-48.89,-74.94],[-52.56,-74.17],[-49.01,-74.31],[-49.71,-74.43]]]}},{"type":"Feature","properties":{},"geometry":{"type":"Polygon","coordinates":[[[-48.42,-74.27],[-46.48,-74.66],[-49.02,-74.26],[-48.42,-74.27]]]}},{"type":"Feature","properties":{},"geometry":{"type":"Polygon","coordinates":[[[-51.53,-73.96],[-50.59,-74.15],[-52.21,-74.09],[-51.53,-73.96]]]}},{"type":"Feature","properties":{},"geometry":{"type":"Polygon","coordinates":[[[-40.44,-74.63],[-39.28,-74.67],[-41.4,-74.67],[-40.44,-74.63]]]}},{"type":"Feature","properties":{},"geometry":{"type":"Polygon","coordinates":[[[-54.16,-72.74],[-53.26,-72.99],[-54.66,-72.99],[-54.16,-72.74]]]}},{"type":"Feature","properties":{},"geometry":{"type":"Polygon","coordinates":[[[-54.71,-72.59],[-54.3,-72.71],[-55.04,-73.08],[-55.58,-72.73],[-54.71,-72.59]]]}},{"type":"Feature","properties":{},"geometry":{"type":"Polygon","coordinates":[[[-51.74,-72.58],[-51.96,-73.05],[-52.49,-72.89],[-52.42,-73.24],[-53,-73.04],[-51.74,-72.58]]]}},{"type":"Feature","properties":{},"geometry":{"type":"Polygon","coordinates":[[[-56.31,-71.92],[-55.08,-72.5],[-56.76,-72.66],[-57.1,-72.57],[-56.11,-72.45],[-57.73,-72.15],[-56.31,-71.92]]]}},{"type":"Feature","properties":{},"geometry":{"type":"Polygon","coordinates":[[[-58.47,-70.98],[-56.37,-71.88],[-58.29,-71.41],[-58.47,-70.98]]]}},{"type":"Feature","properties":{},"geometry":{"type":"Polygon","coordinates":[[[-53.92,-71.41],[-52.64,-71.61],[-55.16,-71.71],[-54.56,-71.9],[-55.55,-71.93],[-55.3,-72.2],[-56.55,-71.65],[-55.61,-71.9],[-55.68,-71.42],[-53.92,-71.41]]]}},{"type":"Feature","properties":{},"geometry":{"type":"Polygon","coordinates":[[[-54.6,-73.2],[-51.99,-73.59],[-53.15,-73.03],[-50.17,-73.64],[-50.76,-73.87],[-49.72,-73.71],[-51.44,-72.9],[-49.43,-72.57],[-51.5,-72.39],[-50.4,-72.04],[-50.88,-71.83],[-48.72,-71.69],[-47.37,-72.02],[-46.96,-72.54],[-47.7,-72.61],[-45.98,-73.59],[-42.01,-74.46],[-45.3,-74.66],[-55.7,-73.28],[-54.6,-73.2]]]}},{"type":"Feature","properties":{},"geometry":{"type":"Polygon","coordinates":[[[-28.63,-71.66],[-28.27,-71.73],[-30.82,-72.44],[-32.19,-72.23],[-29.98,-72.02],[-31.13,-71.59],[-28.63,-71.66]]]}},{"type":"Feature","properties":{},"geometry":{"type":"Polygon","coordinates":[[[-27.59,-71.63],[-25.36,-72.06],[-27.84,-72.12],[-27.16,-72.36],[-28.53,-72.31],[-28.09,-72.59],[-28.73,-72.67],[-29.52,-72.43],[-27.96,-72.15],[-28.26,-71.91],[-27.59,-71.63]]]}},{"type":"Feature","properties":{},"geometry":{"type":"Polygon","coordinates":[[[-56.42,-69.08],[-56.35,-69.49],[-57.23,-69.28],[-56.42,-69.08]]]}},{"type":"Feature","properties":{},"geometry":{"type":"Polygon","coordinates":[[[-55.98,-68.86],[-55.76,-69.3],[-56.32,-69.03],[-55.98,-68.86]]]}},{"type":"Feature","properties":{},"geometry":{"type":"Polygon","coordinates":[[[-56.88,-68.29],[-56.17,-68.52],[-57.51,-68.58],[-56.88,-68.29]]]}},{"type":"Feature","properties":{},"geometry":{"type":"Polygon","coordinates":[[[-56.82,-67.86],[-56.6,-68.2],[-57.23,-68.07],[-56.82,-67.86]]]}},{"type":"Feature","properties":{},"geometry":{"type":"Polygon","coordinates":[[[-56.3,-67.12],[-55.91,-67.37],[-56.64,-67.22],[-56.3,-67.12]]]}},{"type":"Feature","properties":{},"geometry":{"type":"Polygon","coordinates":[[[-55.51,-67.86],[-55.21,-67.76],[-56.44,-68.24],[-56.27,-67.84],[-56.67,-67.78],[-54.6,-67.19],[-55.34,-68.35],[-56.22,-68.35],[-55.51,-67.86]]]}},{"type":"Feature","properties":{},"geometry":{"type":"Polygon","coordinates":[[[-54.51,-66.61],[-54.47,-67.13],[-55.31,-66.99],[-54.51,-66.61]]]}},{"type":"Feature","properties":{},"geometry":{"type":"Polygon","coordinates":[[[-55.3,-66.45],[-54.65,-66.64],[-55.25,-66.86],[-55.3,-66.45]]]}},{"type":"Feature","properties":{},"geometry":{"type":"Polygon","coordinates":[[[-55.45,-66.42],[-55.33,-66.88],[-55.75,-67.06],[-55.54,-66.69],[-56.06,-66.68],[-55.45,-66.42]]]}},{"type":"Feature","properties":{},"geometry":{"type":"Polygon","coordinates":[[[-53.42,-66.38],[-52.8,-66.53],[-53.98,-66.42],[-53.42,-66.38]]]}},{"type":"Feature","properties":{},"geometry":{"type":"Polygon","coordinates":[[[144.59,-71.37],[143.41,-71.65],[142.67,-71.16],[144.59,-71.37]]]}},{"type":"Feature","properties":{},"geometry":{"type":"Polygon","coordinates":[[[-51.3,-63.31],[-50.96,-63.45],[-51.8,-63.32],[-51.3,-63.31]]]}},{"type":"Feature","properties":{},"geometry":{"type":"Polygon","coordinates":[[[-49.47,-63.28],[-49.09,-63.48],[-50.33,-63.65],[-49.47,-63.28]]]}},{"type":"Feature","properties":{},"geometry":{"type":"Polygon","coordinates":[[[-49.58,-60.6],[-48.98,-60.72],[-48.96,-61.17],[-49.79,-61.36],[-49.6,-62.01],[-51.05,-61.93],[-49.58,-60.6]]]}},{"type":"Feature","properties":{},"geometry":{"type":"Polygon","coordinates":[[[115.79,-67],[119.78,-68.24],[119.38,-67.83],[122.46,-68.07],[121.67,-69.24],[120.04,-69.8],[120.39,-69.81],[120.2,-70.16],[118.92,-69.52],[118.96,-69.86],[117.5,-70.32],[115.86,-70.07],[116.48,-69.89],[115.7,-69.79],[115.18,-69.01],[115.37,-68.57],[115.98,-68.81],[115.46,-68.6],[115.22,-67.74],[115.79,-67]]]}},{"type":"Feature","properties":{},"geometry":{"type":"Polygon","coordinates":[[[134.67,-70.4],[135.22,-70.57],[134.35,-70.52],[134.84,-70.85],[134.36,-71.31],[137.17,-71.43],[135.9,-71.53],[136.84,-71.63],[135.89,-71.72],[135.92,-72.08],[132.92,-72.46],[118.28,-71.61],[127.12,-71.62],[134.67,-70.4]]]}},{"type":"Feature","properties":{},"geometry":{"type":"Polygon","coordinates":[[[160.96,-74.28],[158.56,-73.93],[156.64,-74.41],[153.9,-73.3],[148.22,-73.2],[145.44,-72.52],[144.91,-71.67],[146.22,-71.15],[145.63,-70.55],[146.68,-70.43],[146.18,-70.28],[149.44,-70.55],[157.61,-72.78],[161.32,-74.24],[160.96,-74.28]]]}},{"type":"Feature","properties":{},"geometry":{"type":"Polygon","coordinates":[[[122.46,-66.76],[122.91,-67.31],[122,-66.87],[122.46,-66.76]]]}},{"type":"Feature","properties":{},"geometry":{"type":"Polygon","coordinates":[[[107.6,-60.37],[108.19,-60.77],[105.7,-60.34],[107.6,-60.37]]]}},{"type":"Feature","properties":{},"geometry":{"type":"Polygon","coordinates":[[[142.45,-65.07],[142.35,-65.66],[144.17,-66.18],[143.65,-66.97],[144.02,-67.45],[143.36,-67.99],[144.54,-68.42],[144.96,-67.71],[145.53,-68.07],[145.08,-68.16],[145.41,-68.2],[145.27,-69.01],[147.24,-69.69],[150.26,-69.73],[147.57,-70.93],[145.4,-70.72],[143.87,-71.53],[140.32,-72.24],[138.19,-72.31],[137.76,-72.04],[138.02,-71.85],[137.36,-71.8],[140.14,-71.15],[138.48,-69.71],[140.66,-69.6],[142.8,-68.31],[142.54,-67.32],[143.44,-67.22],[142.41,-67.21],[141.73,-64.99],[142.45,-65.07]]]}},{"type":"Feature","properties":{},"geometry":{"type":"Polygon","coordinates":[[[142.97,-50.46],[143.05,-50.84],[142.58,-50.75],[142.97,-50.46]]]}},{"type":"Feature","properties":{},"geometry":{"type":"Polygon","coordinates":[[[138.92,-48.78],[141.71,-51.88],[139.43,-50.28],[138.92,-48.78]]]}},{"type":"Feature","properties":{},"geometry":{"type":"Polygon","coordinates":[[[116.17,-39.11],[116.28,-39.8],[115.54,-39.6],[116.17,-39.11]]]}},{"type":"Feature","properties":{},"geometry":{"type":"Polygon","coordinates":[[[35.22,-44.81],[35.74,-42.64],[37.04,-41.51],[39.33,-41.62],[39.68,-42.03],[39.78,-41.54],[40.72,-41.74],[40.71,-41.38],[42.29,-40.81],[42.34,-40.17],[42.69,-40.49],[43.54,-40.23],[43.79,-39.32],[44.65,-39.1],[45.03,-40.24],[44.72,-42.72],[44.22,-43.14],[44.02,-42.49],[43.64,-42.55],[43.37,-43.84],[42.28,-44.97],[35.76,-50.56],[32.75,-50.46],[31.74,-49.57],[32.33,-46.76],[35.22,-44.81]]]}},{"type":"Feature","properties":{},"geometry":{"type":"Polygon","coordinates":[[[109.39,-35.27],[109.53,-35.82],[108.87,-35.67],[109.39,-35.27]]]}},{"type":"Feature","properties":{},"geometry":{"type":"Polygon","coordinates":[[[109.51,-35.12],[110.73,-35.72],[109.89,-36.03],[109.51,-35.12]]]}},{"type":"Feature","properties":{},"geometry":{"type":"Polygon","coordinates":[[[113.06,-64.26],[110.3,-63.34],[109.77,-62.47],[110.31,-61.5],[109.57,-60.71],[110.38,-61.62],[110.29,-61.27],[109.48,-60.66],[108.28,-60.56],[109.55,-59.91],[109.29,-59.16],[108.12,-59.98],[106.61,-59.87],[107.78,-59.7],[108.29,-58.98],[109.46,-58.57],[109.82,-57.44],[109.52,-58],[105.76,-58.91],[105.46,-59.36],[104.5,-58.72],[105.08,-58.86],[105.13,-58.19],[104.88,-57.28],[104.18,-56.97],[104.65,-56.58],[104.07,-56.42],[104.11,-55.96],[102.11,-55.43],[101.04,-54.57],[93.71,-53.54],[90.88,-53.54],[89.27,-54.08],[84.76,-52.64],[81.67,-52.87],[80.1,-52.24],[79.05,-50.72],[79.52,-50.24],[80.47,-50.32],[81.68,-49.08],[82.65,-46.34],[82.72,-43],[83.18,-43.69],[83.5,-42.59],[83.31,-43.29],[83.63,-43.12],[83.8,-43.6],[84.04,-41.58],[86.31,-39.51],[86.01,-40.19],[90.01,-39.42],[90.85,-39.91],[95.3,-40.11],[97.46,-39.23],[97.63,-38.37],[98.88,-37.81],[99.06,-39.18],[99.86,-38.58],[99.42,-38.25],[99.7,-37.82],[101.19,-38.48],[100.59,-38.25],[101.35,-37.74],[100.85,-37.96],[100.96,-37.5],[101.38,-37.32],[101.94,-37.85],[101.6,-37.28],[102.37,-37.5],[102.12,-36.98],[102.86,-36.64],[103.07,-37.14],[103.45,-36.48],[103.56,-36.87],[104.5,-36.58],[105.07,-36.93],[105.7,-37.93],[104.91,-38.69],[105.39,-38.33],[105.53,-38.68],[106.02,-38.04],[107.1,-38.79],[107.62,-38.19],[107.17,-37.87],[108.93,-36.56],[109.38,-36.72],[109.29,-36.37],[109.65,-36.73],[110.24,-36.21],[111.94,-36.71],[112.07,-36.17],[111.04,-35.64],[111.35,-35.51],[113.61,-37.04],[114.83,-37.48],[115.73,-37.27],[115.34,-37.45],[115.85,-37.41],[115.7,-37.82],[116.53,-37.34],[116.89,-37.89],[116.15,-38.2],[116.32,-38.46],[115.33,-38.56],[115.03,-39.45],[113.72,-39.82],[114.51,-40.27],[114.08,-40.44],[114.55,-40.31],[115.57,-41.1],[115.12,-41.26],[115.87,-41.33],[118.7,-43.53],[119.77,-43.8],[122.02,-41.68],[122.01,-40.28],[123.03,-39.09],[122.47,-39.02],[124.05,-37.35],[124.84,-39.63],[124.79,-41.19],[125.78,-41.1],[126.68,-42],[126.44,-43.47],[127.07,-44],[127.06,-45.99],[130.19,-47.68],[130.01,-48.12],[130.95,-49.05],[130.97,-50.11],[131.56,-50.23],[131.63,-49.7],[132.38,-50.29],[132.49,-49.99],[132.59,-51.14],[132,-50.95],[133.81,-51.75],[135.31,-53.11],[135.66,-53.78],[135.18,-55.11],[135.95,-56.51],[134.33,-59.28],[133.22,-59.93],[133.45,-60.21],[131.94,-60.47],[131.28,-61.17],[130.37,-61.03],[131.11,-61.21],[129.47,-62.4],[129.82,-62.62],[128.3,-63.15],[127.38,-64.91],[122.96,-64.88],[122.47,-65.08],[123.46,-64.98],[119.87,-65.44],[120.29,-65.58],[119.94,-65.9],[118.45,-65.11],[118.85,-64.85],[117.32,-64.74],[118.24,-64.69],[118.12,-64.32],[115.01,-65.02],[113.06,-64.26]]]}},{"type":"Feature","properties":{},"geometry":{"type":"Polygon","coordinates":[[[120.33,-33.42],[120.66,-33.66],[120.2,-34.16],[119.06,-33.84],[120.33,-33.42]]]}},{"type":"Feature","properties":{},"geometry":{"type":"Polygon","coordinates":[[[115.32,-31.28],[115.63,-31.73],[115.16,-31.99],[115.32,-31.28]]]}},{"type":"Feature","properties":{},"geometry":{"type":"Polygon","coordinates":[[[115.86,-31.14],[115.79,-31.54],[115.45,-31.22],[115.86,-31.14]]]}},{"type":"Feature","properties":{},"geometry":{"type":"Polygon","coordinates":[[[115.85,-30.72],[116.03,-31.18],[115.52,-31.13],[115.85,-30.72]]]}},{"type":"Feature","properties":{},"geometry":{"type":"Polygon","coordinates":[[[107.93,-1.42],[108.41,-1.09],[108.67,-1.53],[108.47,-1.87],[107.93,-1.42]]]}},{"type":"Feature","properties":{},"geometry":{"type":"Polygon","coordinates":[[[106.26,-2.83],[107.26,-2.79],[107.62,-2.33],[108.05,-2.62],[106.54,-3.75],[106.26,-2.83]]]}},{"type":"Feature","properties":{},"geometry":{"type":"Polygon","coordinates":[[[130.06,-34.06],[131.74,-36.58],[132.6,-36.59],[132.45,-37.06],[133.45,-37.33],[133.16,-37.64],[134.4,-37.94],[133.73,-38],[134.11,-38.27],[130.69,-37.41],[128.54,-35.08],[127.07,-34.43],[126.55,-34.73],[125.97,-34.13],[126.26,-34.91],[125.48,-34.69],[125.84,-35.1],[124.1,-34.85],[125.2,-35.23],[125.41,-35.82],[122.66,-35.66],[121.52,-34.44],[121.81,-34.14],[120.31,-34.31],[120.68,-33.66],[120.24,-33.22],[121.39,-33.36],[120.15,-32.95],[120.93,-33.12],[120.13,-32.32],[120.32,-31.76],[119.59,-30.74],[116.47,-29.41],[122.39,-30.5],[130.06,-34.06]]]}},{"type":"Feature","properties":{},"geometry":{"type":"Polygon","coordinates":[[[103.24,-3.06],[103.64,-3.2],[103.26,-3.45],[103.24,-3.06]]]}},{"type":"Feature","properties":{},"geometry":{"type":"Polygon","coordinates":[[[1.45,-28.87],[1.25,-29.25],[1,-29.01],[1.45,-28.87]]]}},{"type":"Feature","properties":{},"geometry":{"type":"Polygon","coordinates":[[[96.48,-9.55],[97.64,-7.88],[98.97,-7.78],[100.46,-6.67],[102.15,-6.14],[101.79,-5.84],[103.08,-5.18],[107.29,-7.4],[102.92,-8.4],[101.42,-8.13],[100.52,-8.85],[98.81,-9.1],[97.16,-9.96],[96.42,-9.87],[96.48,-9.55]]]}},{"type":"Feature","properties":{},"geometry":{"type":"Polygon","coordinates":[[[102.75,-5.26],[103.43,-4.71],[103.5,-5.18],[103.81,-4.2],[104.63,-4.89],[105.27,-4.07],[106.85,-4.31],[107,-3.42],[107.73,-3.23],[110.32,-4.57],[109.73,-4.82],[110.03,-5.06],[109.53,-5.55],[109.92,-5.68],[106.49,-7.35],[102.75,-5.26]]]}},{"type":"Feature","properties":{},"geometry":{"type":"Polygon","coordinates":[[[38.93,-54.46],[35.62,-56.44],[33.42,-56.44],[32.32,-55.53],[32.8,-54.94],[35.86,-54.31],[36.28,-54.35],[35.5,-54.46],[38.93,-54.46]]]}},{"type":"Feature","properties":{},"geometry":{"type":"Polygon","coordinates":[[[-25.4,-10.92],[-25.44,-11.63],[-26.38,-11.65],[-25.89,-11.43],[-26.07,-11],[-25.4,-10.92]]]}},{"type":"Feature","properties":{},"geometry":{"type":"Polygon","coordinates":[[[-49.65,-27.66],[-49.19,-29.04],[-50.29,-27.84],[-49.65,-27.66]]]}},{"type":"Feature","properties":{},"geometry":{"type":"Polygon","coordinates":[[[-50.89,-22.19],[-49.88,-24.7],[-49.88,-25.56],[-50.31,-25.26],[-50.17,-26.58],[-50.71,-26.48],[-51.73,-24.38],[-52.59,-24.37],[-52.25,-23.55],[-53.24,-22.06],[-53.15,-21.44],[-52.73,-21.5],[-52.08,-23.17],[-51.32,-22.48],[-51.41,-21.74],[-50.89,-22.19]]]}},{"type":"Feature","properties":{},"geometry":{"type":"Polygon","coordinates":[[[100.96,14.33],[101.73,14.81],[101.99,13.57],[101.48,12.58],[100.56,12.48],[100.12,13.23],[100.96,14.33]]]}},{"type":"Feature","properties":{},"geometry":{"type":"Polygon","coordinates":[[[-47.61,-21.87],[-47.21,-23.91],[-48.09,-29.77],[-49.74,-26.7],[-48.68,-26.84],[-48.91,-26.05],[-48.18,-25.23],[-48.59,-22.36],[-48.09,-22.14],[-49.82,-19.66],[-49.47,-20.21],[-48.68,-20.24],[-47.61,-21.87]]]}},{"type":"Feature","properties":{},"geometry":{"type":"Polygon","coordinates":[[[109.81,41.02],[110.72,40.73],[110.52,40.34],[111.13,39.97],[110.21,38.44],[109.44,38.1],[109.64,38.79],[109.38,38.27],[108.87,38.54],[109.52,39.88],[109.09,40.32],[109.22,39.8],[108.54,39.71],[108.5,40.24],[108.85,39.97],[108.39,40.48],[109.81,41.02]]]}},{"type":"Feature","properties":{},"geometry":{"type":"Polygon","coordinates":[[[113.51,41.3],[114.11,40.76],[113.44,40.19],[112.6,40.42],[111.75,39.83],[111.54,40.49],[111.09,40.39],[112.1,41.13],[113.51,41.3]]]}},{"type":"Feature","properties":{},"geometry":{"type":"Polygon","coordinates":[[[24.5,-6.29],[26.13,-7.5],[24.91,-7.17],[24.22,-6.44],[24.5,-6.29]]]}},{"type":"Feature","properties":{},"geometry":{"type":"Polygon","coordinates":[[[30.32,-10.32],[29.45,-10.21],[28.75,-9.59],[28.79,-8.98],[29.5,-9.18],[30.32,-10.32]]]}},{"type":"Feature","properties":{},"geometry":{"type":"Polygon","coordinates":[[[20.15,-0.67],[18.93,-1.81],[17.79,0.32],[18.21,0.5],[20.15,-0.67]]]}},{"type":"Feature","properties":{},"geometry":{"type":"Polygon","coordinates":[[[25.78,-3.05],[26.14,-4.38],[25.32,-3.01],[25.78,-3.05]]]}},{"type":"Feature","properties":{},"geometry":{"type":"Polygon","coordinates":[[[31.92,16.56],[32.29,16.33],[31.71,16.17],[31.92,16.56]]]}},{"type":"Feature","properties":{},"geometry":{"type":"Polygon","coordinates":[[[15.25,5.1],[15.26,4.4],[14.68,4.58],[15.25,5.1]]]}},{"type":"Feature","properties":{},"geometry":{"type":"Polygon","coordinates":[[[18.09,8.97],[17.94,8.44],[16.58,7.67],[15.8,8.09],[17.39,9.48],[18.09,8.97]]]}},{"type":"Feature","properties":{},"geometry":{"type":"Polygon","coordinates":[[[113.64,41.64],[111.52,41.39],[111.25,40.87],[109.87,41.04],[110.01,41.53],[112.42,42.6],[115.73,42.51],[116.64,44.16],[117.31,44.27],[116.73,43.9],[117.09,43.51],[118.61,44.07],[120.2,45.52],[120.44,47.22],[121.06,47.83],[121.88,47.39],[121.73,48.08],[122.34,47.93],[122.74,45.93],[121.99,44.77],[121.27,44.59],[121.25,43.55],[120.71,42.84],[121,42.28],[120.39,41.77],[119.7,41.59],[120.02,42.3],[118.57,41.37],[118.61,41.82],[117.98,41.34],[116.66,41.37],[117.04,41.55],[116.37,41.87],[116.13,41.43],[116.51,41.08],[114.95,40.39],[114.46,40.78],[114.96,41.58],[113.64,41.64]]]}},{"type":"Feature","properties":{},"geometry":{"type":"Polygon","coordinates":[[[19.68,9.79],[18.17,9.07],[18.78,10],[19.68,9.79]]]}},{"type":"Feature","properties":{},"geometry":{"type":"Polygon","coordinates":[[[123.64,46.23],[125.66,44.4],[126.74,44.65],[126.34,44.16],[126.58,43.57],[124.99,43.37],[124.17,42.62],[121.63,43.48],[121.52,44.25],[122.6,44.12],[123.64,46.23]]]}},{"type":"Feature","properties":{},"geometry":{"type":"Polygon","coordinates":[[[121.54,49.13],[121.13,48.82],[122.08,48.31],[120.79,48.01],[120.66,49.21],[121.54,49.13]]]}},{"type":"Feature","properties":{},"geometry":{"type":"Polygon","coordinates":[[[-1.64,7.44],[-1.94,6.1],[-1.45,6.78],[-1.01,6.46],[-2.01,5.93],[-2.25,6.41],[-1.64,7.44]]]}},{"type":"Feature","properties":{},"geometry":{"type":"Polygon","coordinates":[[[-4.01,7.06],[-3.83,6.64],[-2.58,6.78],[-3.07,6.22],[-4.07,6.58],[-4.01,7.06]]]}},{"type":"Feature","properties":{},"geometry":{"type":"Polygon","coordinates":[[[-4.36,10.11],[-2.66,9.46],[-3.95,9.58],[-4.36,10.11]]]}},{"type":"Feature","properties":{},"geometry":{"type":"Polygon","coordinates":[[[-63.13,-7.48],[-61.62,-8.37],[-60.73,-10.36],[-61.78,-9.92],[-61.43,-9.51],[-61.96,-9.74],[-62.51,-9.16],[-62.18,-8.9],[-63.23,-8.24],[-62.8,-7.83],[-63.23,-7.9],[-63.13,-7.48]]]}},{"type":"Feature","properties":{},"geometry":{"type":"Polygon","coordinates":[[[1.46,10.08],[1.98,10.58],[2.69,10.41],[2.39,9.46],[3.13,9.83],[2.57,9.29],[2.91,8.68],[3.33,9.36],[3.47,7.9],[3.11,7.83],[3.05,8.4],[2.68,7.93],[2.56,8.98],[1.63,7.76],[1.99,8.82],[1.63,8.32],[1.22,8.35],[1.41,8.86],[0.77,8.31],[-0.91,8.15],[1.46,10.08]]]}},{"type":"Feature","properties":{},"geometry":{"type":"Polygon","coordinates":[[[0.7,12.45],[1,12.27],[0.62,12.14],[0.89,11.93],[0.36,10.49],[1.21,10.89],[0.86,10.4],[1.54,10.48],[1.46,10.08],[-0.89,8.28],[-0.33,9.13],[-0.97,9.06],[-0.15,9.62],[-0.44,9.93],[-0.11,11.38],[0.7,12.45]]]}},{"type":"Feature","properties":{},"geometry":{"type":"Polygon","coordinates":[[[-15.21,13.55],[-14.86,12.98],[-15.66,13.4],[-15.21,13.55]]]}},{"type":"Feature","properties":{},"geometry":{"type":"Polygon","coordinates":[[[-64.74,-4.57],[-64.7,-5.77],[-65.23,-4.6],[-64.74,-4.57]]]}},{"type":"Feature","properties":{},"geometry":{"type":"Polygon","coordinates":[[[-65.15,-3.47],[-64.72,-3.78],[-65.03,-4.16],[-64.38,-3.72],[-65,-4.61],[-65.15,-3.47]]]}},{"type":"Feature","properties":{},"geometry":{"type":"Polygon","coordinates":[[[127.06,54.78],[127.1,53.25],[126.44,52.2],[127.25,48.97],[126.7,49.65],[125.62,49.65],[124.81,48.39],[125.52,46.86],[125.23,46.54],[124.69,47.35],[123.87,46.57],[124.39,49.43],[125.49,51.72],[125.14,52.49],[125.81,53.98],[126.67,53.99],[126.54,54.81],[127.06,54.78]]]}},{"type":"Feature","properties":{},"geometry":{"type":"Polygon","coordinates":[[[-77.88,7.23],[-78.02,6.69],[-78.73,7.49],[-77.88,7.23]]]}},{"type":"Feature","properties":{},"geometry":{"type":"Polygon","coordinates":[[[38.83,82.19],[38.44,82.47],[42.29,82.45],[41.21,82.2],[42.36,82.13],[38.83,82.19]]]}},{"type":"Feature","properties":{},"geometry":{"type":"Polygon","coordinates":[[[4.4,14.61],[5.07,15.07],[4.29,14.76],[4.76,15.57],[3.93,15.55],[4.22,16.03],[3.77,16.38],[4.72,16.59],[4.83,17.06],[4.42,17.01],[5.05,17.88],[5.17,17.45],[5.86,17.91],[6.44,17.34],[6.01,16.88],[6.23,16.43],[4.4,14.61]]]}},{"type":"Feature","properties":{},"geometry":{"type":"Polygon","coordinates":[[[5.47,14.37],[4.68,13.71],[4.7,14.17],[4.19,14],[4.51,14.4],[4.06,14.32],[6.23,16.43],[6.59,14.98],[5.47,14.37]]]}},{"type":"Feature","properties":{},"geometry":{"type":"Polygon","coordinates":[[[14.92,21.78],[15.35,21.4],[14.55,21.53],[14.92,21.78]]]}},{"type":"Feature","properties":{},"geometry":{"type":"Polygon","coordinates":[[[-56.45,18.72],[-56.57,17.98],[-56.58,18.44],[-56.89,18.29],[-56.45,18.72]]]}},{"type":"Feature","properties":{},"geometry":{"type":"Polygon","coordinates":[[[15.72,22.74],[16.11,21.65],[15.09,22.03],[15.45,22.48],[15.78,22.27],[15.72,22.74]]]}},{"type":"Feature","properties":{},"geometry":{"type":"Polygon","coordinates":[[[-64.79,-1.3],[-64.44,-3.17],[-64.93,-2.39],[-64.79,-1.3]]]}},{"type":"Feature","properties":{},"geometry":{"type":"Polygon","coordinates":[[[-13.59,16.82],[-13.41,16.48],[-13.98,16.01],[-13.59,16.82]]]}},{"type":"Feature","properties":{},"geometry":{"type":"Polygon","coordinates":[[[4.95,20.28],[5.33,19.67],[4.78,19.93],[4.95,20.28]]]}},{"type":"Feature","properties":{},"geometry":{"type":"Polygon","coordinates":[[[-65.7,-2.55],[-65.83,-3.49],[-66.26,-2.69],[-65.7,-2.55]]]}},{"type":"Feature","properties":{},"geometry":{"type":"Polygon","coordinates":[[[-64.8,0.77],[-64.57,-0.21],[-65.1,-0.5],[-64.8,0.77]]]}},{"type":"Feature","properties":{},"geometry":{"type":"Polygon","coordinates":[[[19.39,27.79],[19.85,27.89],[19.59,27.04],[19.11,27.47],[19.39,27.79]]]}},{"type":"Feature","properties":{},"geometry":{"type":"Polygon","coordinates":[[[6.24,21.66],[5.68,19.22],[5.3,19.34],[5.65,19.85],[5.18,20.5],[5.59,20.58],[5.36,21.36],[6.24,21.66]]]}},{"type":"Feature","properties":{},"geometry":{"type":"Polygon","coordinates":[[[6.3,20.58],[7.42,20.94],[7.01,19.5],[7.47,19.54],[6.82,19.15],[7.85,19.28],[8.41,18.82],[6.73,17.58],[6.53,18.87],[6.29,19.1],[6.08,18.67],[6.11,19.08],[5.98,18.06],[5.75,19.03],[6.3,20.58]]]}},{"type":"Feature","properties":{},"geometry":{"type":"Polygon","coordinates":[[[8.41,18.82],[9.67,18],[9.99,17.55],[9.46,17.48],[10.05,17.45],[10.17,16.86],[11.22,17.07],[11.4,16.45],[10.9,15.58],[11.64,15.54],[7.63,13.03],[9.14,15.36],[8.67,14.76],[7.3,14.89],[7.93,15.76],[7.74,16.09],[7.36,15.84],[7.51,16.23],[8.39,16.71],[7.49,17.95],[8.41,18.82]]]}},{"type":"Feature","properties":{},"geometry":{"type":"Polygon","coordinates":[[[-13.11,22.55],[-13.4,21.77],[-13.56,22.22],[-13.11,22.55]]]}},{"type":"Feature","properties":{},"geometry":{"type":"Polygon","coordinates":[[[-14.42,23.32],[-15.28,22.56],[-15.08,23.24],[-14.42,23.32]]]}},{"type":"Feature","properties":{},"geometry":{"type":"Polygon","coordinates":[[[-18.34,53.19],[-20.69,53.14],[-20.26,53.64],[-18.53,53.59],[-18.34,53.19]]]}},{"type":"Feature","properties":{},"geometry":{"type":"Polygon","coordinates":[[[-15.43,26.42],[-15.3,25.69],[-15.06,25.91],[-13.98,24.83],[-14.14,24.27],[-13.29,23.96],[-13.78,23.68],[-14.63,24.54],[-15.95,23.64],[-15.97,24.3],[-16.7,24.27],[-16.11,24.67],[-15.43,26.42]]]}},{"type":"Feature","properties":{},"geometry":{"type":"Polygon","coordinates":[[[-10.95,28.38],[-10.7,27.46],[-11.5,27.32],[-11.41,28.15],[-10.95,28.38]]]}},{"type":"Feature","properties":{},"geometry":{"type":"Polygon","coordinates":[[[9.56,34.53],[10.11,34.36],[9.75,33.8],[9.56,34.53]]]}},{"type":"Feature","properties":{},"geometry":{"type":"Polygon","coordinates":[[[-11.45,48.98],[-14.26,49.9],[-15.32,51.11],[-15.69,50.93],[-14.87,50.43],[-15.42,50.27],[-18.3,50.74],[-18.01,51.32],[-17.34,51.23],[-17.8,51.52],[-16.51,51.55],[-17.35,52.02],[-16.78,52.45],[-17.61,52.68],[-16.7,52.94],[-15.27,52.7],[-14.61,52.12],[-12.93,52.28],[-12.73,51.39],[-12.02,51.69],[-12.37,52.37],[-11.91,52.17],[-11.45,48.98]]]}},{"type":"Feature","properties":{},"geometry":{"type":"Polygon","coordinates":[[[19.6,43.59],[20.15,43.52],[20.04,42.85],[19.26,43.31],[19.6,43.59]]]}},{"type":"Feature","properties":{},"geometry":{"type":"Polygon","coordinates":[[[-19.28,31.25],[-18.73,30.16],[-19.43,29.93],[-20.4,30.84],[-19.28,31.25]]]}},{"type":"Feature","properties":{},"geometry":{"type":"Polygon","coordinates":[[[-5.17,47.81],[-5.49,48.31],[-4.82,47.98],[-5.17,47.81]]]}},{"type":"Feature","properties":{},"geometry":{"type":"Polygon","coordinates":[[[-3.65,25.78],[-2.93,24.97],[-3.44,24.73],[-3.73,24.89],[-3.37,25.08],[-4,25.19],[-3.65,25.78]]]}},{"type":"Feature","properties":{},"geometry":{"type":"Polygon","coordinates":[[[20.19,46.95],[21.48,47.13],[20.64,46.65],[20.19,46.95]]]}},{"type":"Feature","properties":{},"geometry":{"type":"Polygon","coordinates":[[[6.39,28.47],[6.7,28.17],[5.8,27.62],[6.39,28.47]]]}},{"type":"Feature","properties":{},"geometry":{"type":"Polygon","coordinates":[[[-10.71,47.02],[-10.25,46.93],[-10.62,46.53],[-10.71,47.02]]]}},{"type":"Feature","properties":{},"geometry":{"type":"Polygon","coordinates":[[[-11.23,46.28],[-12.02,46.69],[-10.92,46.93],[-10.83,46.38],[-11.23,46.28]]]}},{"type":"Feature","properties":{},"geometry":{"type":"Polygon","coordinates":[[[-4.8,7.17],[-4.01,6.2],[-2.86,5.88],[-2.49,6.22],[-1.75,5.73],[-4.04,4.75],[-4.8,3.58],[-5.37,4.52],[-4.24,5.5],[-3.99,5.13],[-3.42,5.6],[-4.55,5.47],[-4.32,6.14],[-6.9,4.24],[-7.43,4.45],[-7.52,3.94],[-8.28,3.71],[-8.85,2.29],[-8.32,1.7],[-8.12,2.04],[-8.06,1.55],[-8.96,1.45],[-9.09,1.79],[-9.17,1.35],[-9.79,1.27],[-7.86,4.61],[-4.8,7.17]]]}},{"type":"Feature","properties":{},"geometry":{"type":"Polygon","coordinates":[[[-11.66,-49.67],[-14.43,-52.84],[-16.11,-53.86],[-14.1,-52.09],[-15.15,-51.66],[-15.08,-52.47],[-16.34,-53.43],[-16.13,-53.86],[-16.87,-54.82],[-19.02,-56.4],[-22.02,-56.66],[-24.53,-56.18],[-25.34,-55.49],[-24.71,-54.6],[-25.29,-54.77],[-25.56,-56.1],[-23.58,-57.01],[-23.64,-57.9],[-34.65,-54.95],[-36.79,-53.95],[-37.74,-51.11],[-40.66,-45.9],[-40.43,-44],[-39.43,-42.27],[-39.35,-39.71],[-31.99,-43.95],[-25.5,-46.64],[-18.35,-48.63],[-11.66,-49.67]]]}},{"type":"Feature","properties":{},"geometry":{"type":"Polygon","coordinates":[[[-30.58,-59.2],[-31.4,-58.94],[-30.9,-59.59],[-31.35,-59.49],[-30.95,-59.65],[-31.79,-60.49],[-31.34,-60.8],[-31.73,-61.09],[-33.95,-61.24],[-35.94,-60.8],[-36.13,-62.05],[-35.34,-62.46],[-34.13,-62.15],[-34.08,-62.85],[-36.21,-62.63],[-35.22,-63],[-37.03,-63.58],[-37.07,-64.3],[-38.06,-64.73],[-37.76,-64.83],[-40.34,-65.04],[-41.69,-65.75],[-40.67,-66.74],[-38.97,-67.05],[-39.33,-67.79],[-43,-68.64],[-44.16,-69.54],[-45.33,-69.3],[-45.08,-69.64],[-46.64,-69.92],[-47.18,-70.29],[-47.1,-70.89],[-47.74,-70.99],[-47.22,-70.96],[-46.66,-71.75],[-51.67,-71.72],[-53.55,-72.75],[-55.27,-72.05],[-53.98,-72],[-54.68,-72.27],[-54.11,-72.29],[-52.31,-71.74],[-55.1,-71.14],[-56.17,-71.64],[-56.64,-71.27],[-55.15,-71.12],[-56.85,-71.17],[-56.16,-70.99],[-56.18,-70.52],[-54.88,-70.91],[-54.38,-70.63],[-54.2,-70.92],[-55.21,-71.06],[-54.48,-71.16],[-53.66,-70.52],[-54.48,-70.11],[-54.26,-69.88],[-54.81,-70.09],[-53.75,-70.47],[-54.94,-70.17],[-54.61,-70.43],[-55.1,-70.49],[-54.54,-70.51],[-55.34,-70.68],[-55.17,-70.21],[-55.54,-70.73],[-55.81,-70.35],[-55.31,-70.23],[-56.07,-70.09],[-55.18,-69.73],[-55.94,-69.36],[-54.29,-69.3],[-54.8,-69.12],[-54.37,-68.98],[-55.54,-69.33],[-55.66,-68.92],[-55.07,-68.89],[-56.1,-68.59],[-54.76,-68.84],[-55.35,-68.45],[-54.36,-68.4],[-55.14,-68.38],[-54.56,-68.25],[-54.99,-68.11],[-53.97,-68.33],[-54.52,-68.03],[-53.95,-67.98],[-54.06,-67.65],[-54.95,-67.87],[-54.54,-67.3],[-53.87,-67.32],[-54.33,-67.12],[-53.35,-67.04],[-54.31,-66.5],[-52.06,-66.78],[-52.66,-66.69],[-52.49,-66.24],[-54.2,-66.21],[-53.2,-66.2],[-53.66,-65.96],[-52.72,-65.8],[-52.83,-65.36],[-55.09,-65.12],[-52.96,-64.37],[-51.97,-64.49],[-51.68,-64.96],[-52.04,-65.29],[-50.41,-64.52],[-51.13,-64.55],[-50.8,-64.24],[-49.72,-64.34],[-50.71,-63.99],[-48.88,-63.47],[-49.81,-63.03],[-48.91,-62.56],[-49.15,-62.36],[-48.31,-61.51],[-47.88,-61.59],[-48.23,-61.29],[-47.64,-61.54],[-47.47,-61.03],[-48.12,-60.9],[-47.06,-60.6],[-49.35,-60.59],[-49.33,-59.95],[-47.54,-58.38],[-47.48,-56.29],[-46.67,-56.16],[-43.44,-52.86],[-42.89,-51.74],[-42.87,-49.94],[-42.12,-49.29],[-42.26,-48.36],[-41.16,-47.09],[-40.16,-44.69],[-37.21,-49.88],[-35.2,-55.31],[-32.91,-57.68],[-30.58,-59.2]]]}},{"type":"Feature","properties":{},"geometry":{"type":"Polygon","coordinates":[[[-32.62,-10.55],[-30.63,-10.7],[-29.55,-11.41],[-28.06,-11.08],[-28.67,-10.86],[-26.26,-10.95],[-27.32,-11.11],[-26.81,-11.86],[-25.35,-12.31],[-25.53,-13.18],[-24.58,-13.22],[-23.23,-14.27],[-23.23,-15.46],[-22.87,-15],[-21.73,-16.12],[-18.51,-16.2],[-16.2,-17.43],[-15.45,-18.16],[-15.02,-19.9],[-14.16,-20.61],[-15.77,-22.53],[-15.03,-22.04],[-15.4,-22.72],[-14.71,-22.13],[-12.49,-22.31],[-12.98,-23.47],[-14.68,-23.97],[-13.45,-23.73],[-13.56,-24.18],[-12.73,-23.31],[-12.41,-23.48],[-12.15,-22.66],[-11.47,-22.56],[-9.16,-23.22],[-9.15,-23.65],[-8.65,-23.3],[-8.19,-23.87],[-8.5,-24.14],[-8.05,-24.19],[-8.46,-25.18],[-7.99,-24.34],[-7.68,-24.24],[-7.86,-24.7],[-6.98,-24.13],[-4.82,-24.61],[-3.21,-24.4],[0.1,-26.22],[2.26,-26.55],[3,-28.15],[2.86,-29.92],[-0.26,-34.29],[-0.77,-34.02],[-1.03,-35.31],[-0.62,-39.1],[-1.23,-39.96],[-1.18,-41.12],[-2.51,-43.07],[-2.35,-43.58],[-3.53,-44.18],[-3.54,-44.65],[-6.63,-44.76],[-11.45,-47.46],[-12.16,-47.38],[-11.63,-47.57],[-12.26,-48.16],[-11.79,-48.22],[-11.91,-50.14],[-18.59,-48.95],[-24.07,-47.39],[-32.03,-43.94],[-39.19,-39.52],[-39.06,-39.1],[-40.27,-37.75],[-44.14,-35.33],[-45.2,-33.9],[-44.92,-33.15],[-46.1,-30.82],[-47.4,-26.34],[-48.71,-25.01],[-48.31,-24.55],[-48.46,-23.23],[-47.01,-22.63],[-46.47,-21.86],[-47.67,-21.41],[-47.41,-20.15],[-46.7,-19.87],[-46.19,-18.52],[-44.99,-18.32],[-44.45,-17.48],[-39.49,-16.22],[-37.42,-13.06],[-33.94,-10.71],[-32.62,-10.55]]]}},{"type":"Feature","properties":{},"geometry":{"type":"Polygon","coordinates":[[[-43.12,-11.88],[-42.51,-12.83],[-42.54,-12.17],[-41.07,-11.59],[-40.43,-10.29],[-38.4,-10.19],[-36.61,-9.31],[-36.14,-9.8],[-37.06,-10.15],[-36.83,-11.05],[-37.53,-11.84],[-37.25,-12.66],[-36.45,-12.12],[-36.82,-10.96],[-35.2,-10.58],[-35.04,-9.83],[-34.77,-10.63],[-33.49,-11.41],[-38.46,-14],[-40.67,-17.07],[-45.71,-18.12],[-43.61,-16.7],[-44.08,-16.29],[-43.36,-14.04],[-43.93,-13.02],[-43.12,-11.88]]]}},{"type":"Feature","properties":{},"geometry":{"type":"Polygon","coordinates":[[[-23.91,-57.1],[-23.2,-57.32],[-23.12,-57.81],[-24.47,-59.01],[-31.12,-59.74],[-35.45,-56.36],[-36.93,-53.27],[-33.74,-54.61],[-23.91,-57.1]]]}},{"type":"Feature","properties":{},"geometry":{"type":"Polygon","coordinates":[[[-49.16,6.28],[-48.89,6.11],[-48.75,6.65],[-49.32,6.85],[-49.21,9.37],[-48.13,9.6],[-47.23,8.37],[-46.7,4.85],[-46.83,3.39],[-47.46,2.45],[-49.16,6.28]]]}},{"type":"Feature","properties":{},"geometry":{"type":"Polygon","coordinates":[[[-49.21,9.37],[-48.41,10.37],[-48.14,11.7],[-46.17,14.52],[-45.81,14.38],[-46.19,14.57],[-45.61,15.06],[-45.92,15.18],[-45.55,16.64],[-44.46,15.81],[-45.09,14.85],[-44.43,15.05],[-44.12,16.38],[-43.38,16.47],[-43.83,15.1],[-42.69,14.5],[-42.42,13.15],[-41,12.36],[-41.53,11.28],[-49.21,9.37]]]}},{"type":"Feature","properties":{},"geometry":{"type":"Polygon","coordinates":[[[-60.14,-10.2],[-60.14,-9.77],[-59.83,-9.9],[-60.14,-10.2]]]}},{"type":"Feature","properties":{},"geometry":{"type":"Polygon","coordinates":[[[-59.46,-9.49],[-60.35,-9.75],[-60.33,-8.89],[-60.36,-9.36],[-60.82,-9.36],[-60.58,-8.69],[-60.98,-9.09],[-61.29,-8.71],[-60.87,-8.33],[-61.39,-8.4],[-60.8,-7.87],[-61.13,-7.54],[-61.43,-8.33],[-62.11,-8.07],[-61.56,-7.61],[-62.01,-7.94],[-61.92,-7.39],[-62.71,-7.53],[-62.2,-7.36],[-62.86,-7.09],[-62.06,-6.73],[-62.81,-6.89],[-62.78,-6.51],[-62.24,-6.21],[-62.04,-6.62],[-62.13,-6.24],[-61.72,-6.2],[-62.25,-5.99],[-59.91,-8.18],[-59.46,-9.49]]]}},{"type":"Feature","properties":{},"geometry":{"type":"Polygon","coordinates":[[[-62.08,-5.86],[-62.98,-6.08],[-62.58,-5.67],[-62.9,-5.28],[-62.08,-5.86]]]}},{"type":"Feature","properties":{},"geometry":{"type":"Polygon","coordinates":[[[-44.95,2.87],[-45.24,2.41],[-47.09,2.8],[-46.68,4.1],[-47.08,7.74],[-48.13,9.6],[-42.01,10.94],[-41,12.36],[-40.56,12.2],[-40.06,11.77],[-44.95,2.87]]]}},{"type":"Feature","properties":{},"geometry":{"type":"Polygon","coordinates":[[[-45.06,2.82],[-45.16,2.15],[-46.88,4.47],[-41.41,13.68],[-40.2,12.82],[-40.81,11.62],[-39.74,9.88],[-41.94,6.64],[-43.7,5.39],[-45.06,2.82]]]}},{"type":"Feature","properties":{},"geometry":{"type":"Polygon","coordinates":[[[-42.69,-0.86],[-44.8,0.46],[-46.2,3.03],[-44.51,6.17],[-42.67,7.29],[-40.68,9.5],[-40.25,10.37],[-41.19,12.18],[-40.49,13.33],[-39.7,13.17],[-39.12,5.94],[-40,2.72],[-41.99,0.87],[-42.69,-0.86]]]}},{"type":"Feature","properties":{},"geometry":{"type":"Polygon","coordinates":[[[-41.45,-18.61],[-42,-17.37],[-43.59,-17.15],[-44.62,-15.98],[-47.33,-10.67],[-47.72,-9],[-47.5,-7.72],[-47.08,-7.87],[-46.44,-7.25],[-46.07,-5.95],[-45.95,-2.79],[-46.38,-1.71],[-45.76,-0.99],[-45.97,1.89],[-45.23,4.34],[-44.77,0.41],[-44.1,-1.24],[-42.12,-5.29],[-40.18,-7.03],[-41.92,-13.4],[-41.86,-14.92],[-40.49,-18.88],[-41.45,-18.61]]]}},{"type":"Feature","properties":{},"geometry":{"type":"Polygon","coordinates":[[[-31.74,-5.47],[-30.8,-7.48],[-28.15,-7.47],[-27.75,-7.82],[-26.55,-10.37],[-28.5,-10.23],[-28.48,-10.54],[-29.92,-10.67],[-29.38,-10.26],[-29.96,-10.13],[-31.23,-10.81],[-32.54,-10.51],[-32.55,-10.81],[-33.76,-7.74],[-32.83,-5.77],[-31.74,-5.47]]]}},{"type":"Feature","properties":{},"geometry":{"type":"Polygon","coordinates":[[[-45.24,2.06],[-46.24,0.51],[-46.35,-3.95],[-47.17,-6.08],[-46.8,-7.5],[-47.48,-7.7],[-47.93,-4.83],[-47.3,-4.21],[-47.25,-2.62],[-47.73,-2.56],[-48.03,-0.98],[-47.36,-1.66],[-46.88,-0.94],[-47.17,0.93],[-45.98,4.43],[-46.12,5.74],[-47.04,7.31],[-46.04,10.51],[-45.9,7.16],[-45.01,4.82],[-45.24,2.06]]]}},{"type":"Feature","properties":{},"geometry":{"type":"Polygon","coordinates":[[[-44,-1.19],[-43.76,-0.8],[-44.85,0.5],[-45.3,3.23],[-46.28,4.55],[-45.88,4.87],[-45.16,4.97],[-43.66,4.09],[-41.01,-0.6],[-38.87,-1.87],[-37.64,-3.3],[-37.33,-4.43],[-38.15,-8.65],[-42.23,-4.72],[-44,-1.19]]]}},{"type":"Feature","properties":{},"geometry":{"type":"Polygon","coordinates":[[[-24.03,50.21],[-23.63,51],[-23.16,50.8],[-22.22,51.39],[-19.48,50.89],[-21.23,49.27],[-21.68,49.72],[-22.96,49.04],[-24.03,50.21]]]}},{"type":"Feature","properties":{},"geometry":{"type":"Polygon","coordinates":[[[-22.92,48.96],[-21.67,48.8],[-22.57,48.92],[-22.14,48.46],[-20.93,48.79],[-18.48,48.23],[-18.45,47.65],[-19.52,47.07],[-19.35,45.81],[-20.63,44.52],[-20.72,43.82],[-21.42,44.24],[-21.43,43.75],[-23.48,43.52],[-27.96,40.89],[-29.13,40.58],[-29.87,41.09],[-29.59,44.33],[-27.58,44.97],[-24.91,47.05],[-23.12,47.81],[-22.92,48.96]]]}},{"type":"Feature","properties":{},"geometry":{"type":"Polygon","coordinates":[[[-11.09,0.47],[-11.8,-1.02],[-12.37,-0.33],[-11.97,-1.51],[-12.74,-2.8],[-12.46,-1.96],[-12.99,-1.05],[-12.61,-0.34],[-13.16,-0.63],[-12.99,-1.86],[-13.75,-1.41],[-12.94,-2.03],[-13.45,-1.9],[-13.03,-2.9],[-13.53,-2.65],[-12.79,-2.99],[-12.48,-4.14],[-12.78,-3.2],[-12.68,-3.85],[-13.43,-3.92],[-12.64,-4.3],[-13.63,-4.42],[-13.27,-4.63],[-13.7,-4.87],[-13.17,-5],[-17.13,-7.1],[-17.83,-8.4],[-17.02,-12.82],[-17.58,-14.41],[-18.22,-14.35],[-18.68,-13.54],[-18.6,-12.73],[-18.89,-12.87],[-19.36,-11.87],[-19.03,-11.45],[-19.45,-11.47],[-19.08,-10.48],[-20.27,-8.99],[-21.39,-9.38],[-21.97,-8.44],[-23.59,-8.43],[-23.45,-7.85],[-23.67,-8.32],[-24.65,-8.14],[-26.67,-6.81],[-23.64,-6.81],[-19.68,-5.99],[-16.96,-4.33],[-13.58,-0.92],[-11.09,0.47]]]}},{"type":"Feature","properties":{},"geometry":{"type":"Polygon","coordinates":[[[-46.29,-13.72],[-44.6,-16.85],[-44.74,-18.91],[-48.87,-20.07],[-50.31,-19.41],[-50.18,-18.84],[-50.63,-19.29],[-50.36,-18.37],[-49.59,-18.27],[-48.62,-15.74],[-48.39,-16.1],[-48.02,-15.8],[-48.69,-14.95],[-49.01,-12],[-48.14,-9.33],[-47.5,-10.04],[-47.45,-11.42],[-46.29,-13.72]]]}},{"type":"Feature","properties":{},"geometry":{"type":"Polygon","coordinates":[[[-16.75,30.38],[-17.09,30.27],[-17.06,29.18],[-16.15,29.95],[-15.97,27.71],[-14.93,29.19],[-14.54,29.13],[-14.65,30.3],[-13.39,29.9],[-13.81,29.85],[-13.07,29.3],[-13.74,28.73],[-13.47,27.24],[-14.49,26.71],[-14.96,27.5],[-14.64,26.53],[-15.86,27.12],[-15.55,26.68],[-16.39,25.97],[-18.09,26.98],[-16.23,25.76],[-16.97,24.91],[-17.88,25.13],[-18.4,24.46],[-19.86,25.35],[-18.84,24.83],[-18.49,24.07],[-19.39,24.06],[-19.36,23.61],[-20.36,23.39],[-20.13,23.1],[-20.75,22.91],[-21.81,20.75],[-20.91,20.21],[-21.16,18.37],[-19.9,18.4],[-17.16,15.87],[-15.5,15.49],[-15.82,13.35],[-14.83,11.61],[-14.45,11.41],[-14.1,11.88],[-13.86,11.36],[-13.5,12.53],[-14.08,14.86],[-12.84,15.39],[-12.04,16.51],[-12.2,18.11],[-13.03,18.83],[-12.23,19.9],[-12.27,20.94],[-12.64,20.91],[-12.19,21.63],[-12.49,22.38],[-12.08,22.67],[-11.25,22.13],[-10.22,22.48],[-9.15,21.6],[-9.19,21.14],[-8.09,21.06],[-8.13,20.07],[-8.86,20.06],[-8.18,19.96],[-7.83,19.06],[-8.54,18.64],[-7.65,18.92],[-7.31,18.56],[-7.97,17.72],[-7.22,18.6],[-7.03,17.94],[-6.34,18.91],[-6.11,18.38],[-5.64,19.5],[-5.94,19.83],[-5.37,20.38],[-4.72,19.37],[-5.08,19.16],[-4.4,18.9],[-4.77,18.45],[-4.21,18.7],[-4.6,18.15],[-4.12,18.4],[-3.75,17.89],[-4.1,17.72],[-3.39,17.39],[-3.51,16.89],[-4.05,17],[-2.79,15.89],[-2.61,16.15],[-2.73,15.34],[-2.24,15.76],[-2.25,15.16],[-1.85,15.71],[-1.78,15.3],[-0.68,15.21],[-2.56,13.61],[-0.7,14.83],[-0.48,14.11],[0.32,14.33],[0.61,13.45],[0.13,13.34],[0.74,12.92],[0.06,12.13],[-1.05,12],[-1.8,10.62],[-5.88,10.33],[-6.43,9.36],[-7.54,8.77],[-8.96,6.83],[-5.68,9.27],[-4.83,9.33],[-4.27,8.79],[-4.94,8.13],[-5.98,8.05],[-4.54,7.88],[-4.8,7.17],[-7.86,4.61],[-9.79,1.27],[-13.58,-0.92],[-18.52,-5.38],[-23.64,-6.81],[-30.03,-6.37],[-34.88,-8.03],[-35.29,-10.12],[-36.53,-9.8],[-38.15,-8.65],[-37.33,-4.43],[-37.64,-3.3],[-38.87,-1.87],[-38.21,-0.13],[-36.26,1.76],[-35.44,4.99],[-35.43,7.79],[-36.22,11.01],[-36.17,18.96],[-37.72,23.66],[-37.15,27.85],[-35.67,29.37],[-34.58,31.61],[-35.8,35.15],[-33.82,37.6],[-33.8,38.23],[-33.36,37.62],[-33.13,38.21],[-32.2,38.17],[-32.49,37.74],[-30.24,37.37],[-31.61,37.4],[-31.87,37.18],[-31.26,37.24],[-31.64,36.82],[-30.95,37.12],[-29.53,36.78],[-29.45,37.23],[-29.66,35.69],[-28.66,36.18],[-29.29,35.48],[-28.04,35.27],[-27.27,33.82],[-26.31,33.15],[-26.2,32.55],[-27.06,32.26],[-24.97,31.5],[-24.7,29.52],[-24.31,30.95],[-22.94,31.32],[-24.36,31.51],[-22.98,31.68],[-22.7,30.4],[-22.3,30.57],[-22,29.92],[-20.47,29.48],[-19.94,30.2],[-19.41,29.78],[-19.66,29.53],[-19.22,29.7],[-19.75,28.98],[-19.37,28.56],[-19.13,29.44],[-18.07,29.75],[-18.11,30.22],[-18.55,30],[-17.86,30.63],[-18.79,31.51],[-17.62,33.11],[-17.16,32.79],[-16.87,31.07],[-17.6,30.73],[-16.75,30.38]]]}},{"type":"Feature","properties":{},"geometry":{"type":"Polygon","coordinates":[[[-65.2,-2.4],[-65.49,-2.81],[-65.32,-2.08],[-65.73,-1.52],[-65.69,-2.27],[-66.11,-2.32],[-65.85,0.87],[-66.53,2.47],[-67.54,3.91],[-68.78,4.44],[-68.37,4.6],[-71.21,5.08],[-71.73,4.89],[-71.58,4.42],[-72.46,4.4],[-75.13,5.34],[-75.53,5.1],[-77.95,6.95],[-76.59,6.67],[-76.26,5.85],[-75.84,6.17],[-74.01,5.53],[-72.56,6.03],[-73.23,6.39],[-72.91,6.75],[-73.62,6.59],[-73.53,7.52],[-70.72,7.54],[-67.03,5.85],[-64.94,2.79],[-65.2,-2.4]]]}},{"type":"Feature","properties":{},"geometry":{"type":"Polygon","coordinates":[[[-51.38,11.37],[-51.1,11.57],[-51.38,11.4],[-51.96,13.04],[-55.46,15.87],[-54.68,15.59],[-55.38,16.17],[-55.12,16.82],[-55.69,16.05],[-56.12,16.65],[-55.55,16.94],[-56.28,17.09],[-55.49,18.09],[-55.96,17.68],[-55.73,18.6],[-56.35,17.51],[-56.22,18.63],[-56.81,18.78],[-56.99,18.37],[-56.53,19.03],[-57.5,20.26],[-57.48,20.71],[-57.1,20.42],[-57.54,20.95],[-57.24,21.09],[-57.63,21.09],[-57.34,21.52],[-57.95,21.48],[-58.02,22.62],[-58.12,21.85],[-60.38,26.62],[-57.43,25.95],[-56.65,25.3],[-56.4,23.31],[-55.14,21.56],[-53.52,20.68],[-50.07,13.47],[-49.96,9.83],[-51.23,9.94],[-51.38,11.37]]]}},{"type":"Feature","properties":{},"geometry":{"type":"Polygon","coordinates":[[[-41.33,27.53],[-41.35,25.74],[-42.55,22.43],[-43.06,23.85],[-42.69,25.93],[-41.33,27.53]]]}},{"type":"Feature","properties":{},"geometry":{"type":"Polygon","coordinates":[[[-38,37.25],[-38.71,35.81],[-37.58,32.52],[-38.74,30.31],[-40.06,29.33],[-40.93,25.31],[-40.9,23.96],[-39.53,19.91],[-39.7,13.17],[-43.6,15.58],[-44.13,16.74],[-42.22,20.48],[-41.04,30.61],[-42.49,40.3],[-41.38,40.32],[-37.93,38.87],[-36.56,39.13],[-36.61,38.49],[-38,37.25]]]}},{"type":"Feature","properties":{},"geometry":{"type":"Polygon","coordinates":[[[19.18,53.2],[19.41,52.74],[18.93,52.99],[19.18,53.2]]]}},{"type":"Feature","properties":{},"geometry":{"type":"Polygon","coordinates":[[[6.23,30.63],[6.82,30.49],[5.86,30.36],[6.23,30.63]]]}},{"type":"Feature","properties":{},"geometry":{"type":"Polygon","coordinates":[[[-23.19,36.86],[-23.76,36.19],[-23,36.32],[-22.6,35.79],[-23.03,35.48],[-21.98,35.74],[-22.16,34.31],[-21.28,35.85],[-20.69,35.29],[-21.32,33.36],[-20.45,32.12],[-20.66,31.61],[-21.61,32],[-21.76,31.39],[-21.24,31.65],[-21.29,31.1],[-22.61,31.48],[-22.86,32.25],[-24.18,31.96],[-25.93,32.48],[-25.54,33.1],[-26.52,33.89],[-26.19,34.58],[-24.16,33.72],[-26.08,35.1],[-26.07,35.57],[-24.6,35.41],[-25.72,35.84],[-25.35,35.99],[-25.73,36.35],[-24.81,36.86],[-23.19,36.86]]]}},{"type":"Feature","properties":{},"geometry":{"type":"Polygon","coordinates":[[[15.58,46.91],[16.12,47.19],[17.55,46.33],[19.75,46.43],[18.71,45.4],[17.72,45.71],[17.35,45.17],[16.68,45.39],[16.32,46.22],[15.85,46],[15.58,46.91]]]}},{"type":"Feature","properties":{},"geometry":{"type":"Polygon","coordinates":[[[5.56,30.77],[6.28,30.76],[5.39,30.44],[5.56,30.77]]]}},{"type":"Feature","properties":{},"geometry":{"type":"Polygon","coordinates":[[[17.56,51.2],[17.87,50.77],[17.25,50.94],[17.56,51.2]]]}},{"type":"Feature","properties":{},"geometry":{"type":"Polygon","coordinates":[[[-20.11,35.87],[-20.62,35.06],[-20.84,35.85],[-20.11,35.87]]]}},{"type":"Feature","properties":{},"geometry":{"type":"Polygon","coordinates":[[[-12.09,33.91],[-11.02,33.56],[-10.69,32.9],[-11.93,32.88],[-12.09,33.91]]]}},{"type":"Feature","properties":{},"geometry":{"type":"Polygon","coordinates":[[[-10.32,24.7],[-11.58,24.25],[-12.31,24.81],[-11.79,25.56],[-10.02,25.45],[-10.44,26.17],[-9.39,27.25],[-10,28.66],[-10.73,29.05],[-11.23,28.74],[-10.76,29.26],[-11.96,30.82],[-12,30],[-13.12,30.36],[-12.85,29.92],[-13.23,30.47],[-13.58,30.61],[-13.32,30.04],[-15.77,31.2],[-15.87,31.79],[-14.94,31.51],[-15.91,32.32],[-14.63,34.16],[-13.55,34.07],[-14.44,33.17],[-14.08,31.65],[-14.88,31.49],[-14.1,31.37],[-13.86,31.99],[-14.36,32.45],[-13.73,32.47],[-14.1,33.05],[-13.63,33.2],[-13.88,33.51],[-13.47,33.35],[-13.74,33.67],[-12.46,33.91],[-12.16,32.88],[-12.54,32.07],[-12.04,32.63],[-11.39,31.82],[-11.75,32.34],[-11.29,32.29],[-11.46,32.73],[-10.41,32.52],[-10.79,31.73],[-10.04,31.97],[-10.51,31.71],[-10.43,31.19],[-9.86,31.77],[-9.99,31.05],[-9.49,31.64],[-8.96,31.25],[-9.5,30.6],[-8.76,31.05],[-9.11,30.01],[-8.47,30.87],[-8.76,30.45],[-7.85,30.52],[-8.58,30.02],[-7.97,30.17],[-8.49,29.6],[-7.79,30.32],[-7.4,29.96],[-8.52,29.53],[-7.13,29.22],[-8.1,29.35],[-7.56,28.8],[-8.23,28.81],[-7.08,28.48],[-7.58,28.28],[-6.91,27.81],[-6.74,28.08],[-6.75,27.64],[-6.23,28.07],[-6.41,27.72],[-5.83,27.46],[-6.13,27.1],[-5.46,27.47],[-5.73,26.94],[-4.97,27.25],[-4.57,26.85],[-5.26,26.49],[-4.79,26.21],[-5.3,26.26],[-5.07,25.75],[-5.5,26.06],[-5.4,25.03],[-6.38,25.81],[-5.91,26.45],[-6.56,26],[-6.42,26.45],[-6.62,26.16],[-7.53,26.64],[-7.14,26.05],[-7.69,26.08],[-7.56,25.44],[-7.2,25.69],[-6.87,24.75],[-6.84,25.07],[-6.08,24.56],[-6.35,24.36],[-5.81,24.08],[-5.7,23.35],[-6.13,23.88],[-5.71,23.01],[-6.05,23.11],[-5.97,22.65],[-6.69,23.46],[-6.67,23.05],[-7.9,23.75],[-6.31,21.94],[-9.07,23.03],[-9.42,23.43],[-8.97,23.58],[-9.67,23.83],[-9.96,24.66],[-10.36,24.33],[-10.32,24.7]]]}},{"type":"Feature","properties":{},"geometry":{"type":"Polygon","coordinates":[[[-11.6,66.52],[-12.71,67.13],[-9.88,67.01],[-11.6,66.52]]]}},{"type":"Feature","properties":{},"geometry":{"type":"Polygon","coordinates":[[[-18.34,35.41],[-17.55,35.09],[-18.34,34.42],[-17.83,33.65],[-19.14,32.85],[-19.85,34.68],[-18.88,34.47],[-19.13,35.22],[-18.34,35.41]]]}},{"type":"Feature","properties":{},"geometry":{"type":"Polygon","coordinates":[[[-16.24,35.07],[-15.27,34.55],[-16.27,33.59],[-17.02,33.79],[-16.85,33.41],[-17.62,33.12],[-17.14,34.79],[-16.24,35.07]]]}},{"type":"Feature","properties":{},"geometry":{"type":"Polygon","coordinates":[[[-10.56,66.45],[-10.13,66.22],[-10.75,66.2],[-10.56,66.45]]]}},{"type":"Feature","properties":{},"geometry":{"type":"Polygon","coordinates":[[[10.08,61.68],[9.87,61.92],[10.69,62.03],[10.81,61.61],[10.08,61.68]]]}},{"type":"Feature","properties":{},"geometry":{"type":"Polygon","coordinates":[[[-24.25,38.92],[-24.06,38.11],[-23.41,38.02],[-23.35,37.07],[-25.73,36.89],[-26.37,36.4],[-27.53,36.61],[-27.67,37.83],[-25.54,38.73],[-25.31,39.36],[-24.25,38.92]]]}},{"type":"Feature","properties":{},"geometry":{"type":"Polygon","coordinates":[[[6.5,33.3],[6.78,33],[6.38,32.92],[6.5,33.3]]]}},{"type":"Feature","properties":{},"geometry":{"type":"Polygon","coordinates":[[[-14.13,64.9],[-16.54,65.11],[-15.13,65.37],[-13.67,65.04],[-13.7,64.67],[-14.13,64.9]]]}},{"type":"Feature","properties":{},"geometry":{"type":"Polygon","coordinates":[[[-13.7,35.9],[-13.84,35.12],[-14.37,35.08],[-14.63,35.67],[-13.7,35.9]]]}},{"type":"Feature","properties":{},"geometry":{"type":"Polygon","coordinates":[[[-7.58,64.93],[-7.28,65],[-7.5,64.5],[-7.58,64.93]]]}},{"type":"Feature","properties":{},"geometry":{"type":"Polygon","coordinates":[[[-10.04,65.6],[-8.82,65.65],[-8.18,64.81],[-9.45,64.22],[-10.26,64.75],[-10.69,64.23],[-13.12,64.8],[-12.19,65.46],[-10.04,65.6]]]}},{"type":"Feature","properties":{},"geometry":{"type":"Polygon","coordinates":[[[-15.08,38.12],[-15.03,37.77],[-15.43,37.9],[-15.08,38.12]]]}},{"type":"Feature","properties":{},"geometry":{"type":"Polygon","coordinates":[[[-13.82,37.29],[-14.5,36.09],[-15.52,36.2],[-14.91,36.68],[-15.68,37.14],[-15.2,36.98],[-14.78,37.61],[-14.76,36.88],[-14.54,37.51],[-13.82,37.29]]]}},{"type":"Feature","properties":{},"geometry":{"type":"Polygon","coordinates":[[[-15.9,38.94],[-16.7,38.14],[-16.08,37.73],[-16.9,37.25],[-19.04,38.07],[-19.14,38.61],[-17.84,38.28],[-18.67,38.74],[-18.31,39.02],[-19,38.9],[-19.25,39.61],[-18.3,39.37],[-18.82,39.72],[-18.02,39.44],[-18.39,39.82],[-17.41,39.85],[-17.65,38.52],[-17.19,38.08],[-16.69,38.94],[-15.9,38.94]]]}},{"type":"Feature","properties":{},"geometry":{"type":"Polygon","coordinates":[[[11.48,50.91],[12.68,50.93],[13.6,49.09],[14.67,48.29],[14.36,48.11],[16.01,47.27],[15.48,47.11],[15.8,47.09],[15.51,46.62],[15.35,47.21],[14.84,46.64],[14.49,47.15],[14.89,47.44],[14.39,47.2],[14.03,47.82],[13.23,47.71],[13.24,48.25],[12.18,49.26],[12.16,50.44],[11.48,50.91]]]}},{"type":"Feature","properties":{},"geometry":{"type":"Polygon","coordinates":[[[-12.89,37.21],[-12.54,36.84],[-12.87,36.4],[-12.16,36.36],[-11.88,35.77],[-12.46,35.91],[-12.32,34.97],[-10.12,34.49],[-9.92,33.43],[-10.84,33.28],[-11.12,33.87],[-11.53,33.59],[-13.52,34.65],[-12.79,36.3],[-13.43,36.49],[-13.44,37.12],[-12.89,37.21]]]}},{"type":"Feature","properties":{},"geometry":{"type":"Polygon","coordinates":[[[-16.6,40.74],[-17.96,40.12],[-17.62,40.58],[-19.04,40.42],[-18.82,40.76],[-19.47,41.01],[-16.6,40.74]]]}},{"type":"Feature","properties":{},"geometry":{"type":"Polygon","coordinates":[[[48.69,36.04],[48.86,35.69],[48.2,35.3],[46.35,37.24],[40.99,39.1],[39.06,41.9],[29.77,45.77],[28.14,47.86],[32.52,48.42],[39.37,48.09],[44.04,48.98],[50.95,48.07],[66.17,51.31],[63.99,45.16],[62.58,36.35],[58.46,33.74],[53.24,32.71],[50.96,32.99],[50.61,35.08],[49.5,34.97],[48.69,36.04]]]}},{"type":"Feature","properties":{},"geometry":{"type":"Polygon","coordinates":[[[77.93,41.08],[78.95,40.52],[79.62,39.15],[77.3,38],[69.22,37.75],[66.85,36.74],[64.3,37.93],[61.33,41.82],[59.34,42.68],[66.17,43.82],[71.6,43.99],[77.93,41.08]]]}},{"type":"Feature","properties":{},"geometry":{"type":"Polygon","coordinates":[[[72.61,53.07],[72.64,52.51],[70.8,50.38],[69.7,50.02],[64.46,46.03],[66.17,51.31],[70.29,52.11],[72.61,53.07]]]}},{"type":"Feature","properties":{},"geometry":{"type":"Polygon","coordinates":[[[120.86,55.02],[122.03,55.01],[121.26,54.71],[121.99,54.61],[122.76,54.95],[122.48,54.5],[122.95,55.23],[124.07,55.1],[125.35,53.93],[124.61,53.82],[125.11,52.79],[123.9,52],[122.63,49.32],[116.33,45.05],[114.73,44.52],[113.31,44.72],[113.4,45.21],[112.89,45.27],[112.11,44.56],[107.6,46.14],[94.23,47.01],[83.74,46.41],[80.08,47.4],[74.42,47.56],[70.99,48.63],[69.29,50.15],[75.42,49.45],[80.97,49.91],[86.09,51.36],[90.35,51.75],[93.81,53.12],[98.94,53.46],[102.99,55.78],[106.45,56.77],[112.75,55.51],[120.86,55.02]]]}},{"type":"Feature","properties":{},"geometry":{"type":"Polygon","coordinates":[[[13.5,60.89],[15.45,61],[14.4,61.02],[13.9,61.6],[12.07,61.85],[12.5,61.59],[11.68,61.51],[11.22,61.76],[11.52,62.16],[10.84,62.09],[11.87,62.7],[10.13,62.93],[9.14,63.6],[9.81,63.77],[9.56,64.2],[7.89,64.96],[5.98,64.46],[4.11,65.91],[5.15,66.22],[5.15,66.67],[6.1,66.65],[5.7,67.05],[6.29,66.98],[6.34,67.61],[5.77,67.89],[5.96,68.15],[4.04,67.69],[5.38,68.7],[9.59,70.17],[9.45,70.67],[3.63,73.11],[-14.16,77.96],[-16.06,79.09],[-17.19,80.57],[-2.65,81.09],[5.68,80.51],[30.55,81.59],[45.32,81.04],[46.43,81.46],[43.93,81.99],[49.43,82.28],[52.48,81.76],[54.9,81.04],[58.25,78.78],[58.85,77.92],[57.57,75.71],[57.49,74.58],[57.9,74.19],[70,70.2],[70.35,69.7],[70.09,67.12],[72.48,64.8],[71.88,62.14],[72.75,59.2],[72.19,57.01],[71.05,55.09],[69.13,52.95],[66.17,51.31],[50.95,48.07],[44.04,48.98],[37.19,48.04],[30.97,48.35],[27.11,49.06],[28.6,50.1],[26.74,51.43],[25.07,51.54],[24.78,52.15],[27.6,52.45],[27.32,52.83],[28.16,53.34],[26.91,52.46],[25.03,52.68],[24.33,52.15],[24.3,51.37],[22.05,51.77],[20.68,51.46],[19.55,52.17],[18.43,52.21],[21.18,52.36],[21.79,53.14],[20.08,52.45],[20.18,53.11],[19.31,53.23],[20.52,54.21],[20.45,54.7],[23.04,54.24],[22.63,54.37],[23.32,54.37],[24.1,55.18],[22.92,54.64],[20.59,54.84],[19.23,53.96],[17.37,53.84],[16.5,55.68],[14.93,55.21],[15.25,55.5],[14.36,55.39],[12.1,56.94],[12.37,56.65],[11.93,56.67],[11.51,57.36],[12.05,57.33],[10.92,58.1],[10.41,57.78],[9.83,58.21],[7.17,58.33],[7.31,58.77],[8.26,58.56],[7.74,59.27],[8.68,59.34],[6.93,60.01],[7.56,60.5],[7.06,60.42],[7.6,60.73],[7.07,60.72],[7.44,61.08],[8.09,61.24],[8.03,60.79],[8.18,61.35],[10.11,61.46],[13.5,60.89]]]}},{"type":"Feature","properties":{},"geometry":{"type":"Polygon","coordinates":[[[24.92,49.33],[24.07,49.67],[22.84,49.07],[20.89,49.34],[17.99,50.59],[18.6,51.57],[20.46,51.11],[25.37,51.17],[27.56,50.17],[27.07,49.06],[24.92,49.33]]]}},{"type":"Feature","properties":{},"geometry":{"type":"Polygon","coordinates":[[[65.4,-0.29],[69.85,0.68],[73.68,0.52],[75.73,-0.71],[78.41,-3.68],[73.06,-2.19],[65.66,-3.41],[63.47,-3.35],[59.03,-1.67],[55.67,0.89],[54.83,2.25],[60.31,-0.13],[65.4,-0.29]]]}},{"type":"Feature","properties":{},"geometry":{"type":"Polygon","coordinates":[[[66.61,-52.59],[67.16,-52.26],[66.37,-51.63],[66.58,-52.42],[66.12,-51.51],[65.36,-51.18],[66.21,-52.09],[65.9,-52.68],[62.77,-52.92],[63.03,-52.46],[62.05,-52.71],[62.41,-52.05],[60.14,-52.09],[59.69,-52.66],[58.16,-52.82],[50.23,-52.11],[49.68,-52.42],[46.58,-51.46],[43.47,-52.92],[40.83,-53.32],[38.82,-54.18],[38.04,-53.72],[36.79,-53.77],[36.74,-54.2],[35.85,-53.53],[34.47,-53.57],[33.54,-53.02],[34.12,-51.99],[36.97,-50.13],[41.85,-45.47],[46.74,-42.34],[47.66,-42.41],[47.18,-42.01],[47.95,-41.84],[47.73,-41.49],[46.37,-41.95],[44.88,-41.17],[45.41,-38.89],[46.51,-39.71],[47.28,-39.64],[46.15,-38.8],[46.26,-37.86],[46.98,-37.9],[46.35,-37.71],[46.73,-37.5],[46.18,-36.89],[47.09,-36.41],[46.65,-35.76],[47.42,-35.23],[46.7,-34.81],[51.59,-32.72],[60.3,-32.45],[61.66,-32.82],[62.65,-33.97],[62.07,-35.5],[62.4,-39.71],[64.7,-44.14],[66.74,-45.78],[76.05,-49.94],[77.21,-50.94],[66.61,-52.59]]]}},{"type":"Feature","properties":{},"geometry":{"type":"Polygon","coordinates":[[[57.14,5.43],[59.22,4.51],[60.62,4.43],[61.57,4.68],[62.17,5.7],[67.1,7.94],[72.86,7.7],[77.17,6.57],[78.65,4.51],[79.42,2.16],[77.2,4.04],[75.03,5.06],[72,5],[66.86,3.43],[61.78,3.04],[55.62,4.91],[54.63,4.76],[53.45,6.48],[55.17,6.52],[57.14,5.43]]]}},{"type":"Feature","properties":{},"geometry":{"type":"Polygon","coordinates":[[[27.07,49.06],[30.97,48.35],[28.14,47.86],[26.28,49.19],[27.07,49.06]]]}},{"type":"Feature","properties":{},"geometry":{"type":"Polygon","coordinates":[[[49.09,27.53],[47.41,28.79],[46.22,28.29],[44.44,28.72],[45.21,29.35],[44.57,29.21],[44.44,29.88],[45.27,30.7],[43.78,31.51],[42.93,30.89],[42.7,29.56],[42.29,29.48],[42.75,28.67],[42.38,28.81],[42.61,28.49],[42.15,28.15],[42.48,26.9],[43.59,26.98],[44.13,26.21],[46.29,25.89],[41.65,24.34],[42,30.47],[44.05,33.92],[44.47,35.6],[43.56,37.1],[40.7,39.16],[46.09,37.35],[47.94,35.5],[48.29,34.83],[47.91,34.75],[48.38,34.48],[47.9,34.09],[48.57,33.16],[49.63,32.59],[50.14,33.28],[53.06,32.89],[57.34,33.59],[62.73,36.98],[62.65,34.06],[56.75,28.59],[49.39,27.11],[49.09,27.53]]]}},{"type":"Feature","properties":{},"geometry":{"type":"Polygon","coordinates":[[[52.92,-19.9],[52.27,-19.72],[50.9,-20.34],[49.89,-20.09],[47.81,-18.72],[46.84,-16.38],[46.34,-16.5],[46,-15.94],[45.77,-16.42],[44.89,-16.26],[45.05,-16.81],[44.59,-16.92],[45.4,-18.81],[46.52,-19.9],[46.29,-20.53],[46.9,-21.87],[47.24,-20.63],[47.79,-20.74],[47.37,-22.34],[47.95,-22.73],[50.37,-22.6],[52.53,-20.53],[52.6,-22.4],[54.72,-23.38],[55.77,-24.72],[54.51,-26.49],[53.81,-26.66],[53.8,-27.9],[52.72,-28.12],[52.17,-28.97],[51.17,-29.04],[50.69,-29.84],[47.81,-30.27],[47.44,-31.06],[43.28,-32.24],[37.61,-32.86],[36.96,-32.06],[36.76,-29.99],[37.26,-28.54],[36.04,-25.22],[34.82,-23.53],[34.85,-20.74],[34.06,-19.94],[33.15,-15.85],[32.6,-15.64],[35.69,-10.37],[36.68,-7.53],[38.49,-6.88],[41.4,-6.83],[44.28,-10.71],[50.18,-16.74],[51.3,-18.47],[52.85,-18.62],[53.19,-19.06],[52.92,-19.9]]]}},{"type":"Feature","properties":{},"geometry":{"type":"Polygon","coordinates":[[[61.42,-28.57],[61.56,-31.86],[59.9,-33.08],[51.37,-32.99],[48.92,-33.49],[48.69,-32.96],[48.8,-30.39],[50.3,-28.53],[52.25,-28.89],[55.07,-27.11],[56.79,-26.79],[61.27,-27.49],[61.42,-28.57]]]}},{"type":"Feature","properties":{},"geometry":{"type":"Polygon","coordinates":[[[61.79,3.26],[51.45,5.88],[53.07,9.39],[59.13,5],[62.04,5.33],[61.79,3.26]]]}},{"type":"Feature","properties":{},"geometry":{"type":"Polygon","coordinates":[[[50.09,-0.52],[49.69,-0.17],[50.54,1.76],[52.21,3.69],[52.91,3.8],[60.6,-0.86],[54.95,-1.02],[52.43,-1.63],[50.09,-0.52]]]}},{"type":"Feature","properties":{},"geometry":{"type":"Polygon","coordinates":[[[37.34,9.35],[38,8.99],[40.88,10.1],[44.7,7.29],[48.66,7.62],[49.22,6.91],[48.1,5.93],[46.1,6.3],[37.74,5.88],[32.91,6.12],[32.41,6.85],[32.42,8.41],[34.97,9.98],[37.34,9.35]]]}},{"type":"Feature","properties":{},"geometry":{"type":"Polygon","coordinates":[[[-1.31,47.81],[-4.82,48.03],[-5.63,49.12],[-6.4,48.88],[-6.25,47.8],[-10.57,48.55],[-11.03,48.79],[-11.74,52.21],[-3.68,50.25],[-1.31,47.81]]]}},{"type":"Feature","properties":{},"geometry":{"type":"Polygon","coordinates":[[[-34.6,60.44],[-39.42,59.24],[-40.93,58.04],[-42.03,56.23],[-48.01,59.74],[-49.03,60.8],[-48.89,61.49],[-50.02,61.65],[-52.18,63.19],[-49.6,62.94],[-50.05,63.29],[-39.79,63.91],[-36.62,63],[-34.56,60.95],[-34.29,60.5],[-34.6,60.44]]]}},{"type":"Feature","properties":{},"geometry":{"type":"Polygon","coordinates":[[[-3.47,68.51],[-4.35,68.27],[-3.94,68.41],[-5.02,68.92],[-6.55,68.73],[-8.32,69.2],[-8.49,68.84],[-10.19,68.91],[-9.56,68.47],[-10.32,68.24],[-9.39,68.14],[-11.11,67.81],[-10.72,67.53],[-17.61,67.77],[-18.47,68.03],[-17.78,68.29],[-21.47,68.72],[-24.9,67.78],[-27.51,67.75],[-28.43,68.33],[-29.65,68.36],[-28.85,70.43],[-29.62,71.82],[-33.61,73.06],[-46.64,74.17],[-45.21,74.27],[-43.7,75.38],[-45.16,76.19],[-44.98,76.86],[-45.69,77.23],[-45.14,77.17],[-45.87,77.27],[-45.5,77.37],[-46.86,77.73],[-49.39,77.44],[-46.39,78.11],[-46.82,78.51],[-44.22,79.15],[-42.8,79.04],[-44.61,78.52],[-40.3,78.95],[-32.03,76.77],[-8.66,73.88],[0.2,71.94],[0.36,71.63],[-2.76,69.82],[-3.47,68.51]]]}},{"type":"Feature","properties":{},"geometry":{"type":"Polygon","coordinates":[[[111.17,44.13],[109.68,43.41],[109.3,42.48],[106.71,41.38],[107.6,40.54],[108.31,38.36],[105.21,38.24],[105.04,39.02],[105.96,39.03],[105.58,39.23],[105.72,39.9],[104.66,40.24],[104.34,39.9],[104.01,40.2],[104.33,40.32],[103.72,40.43],[104.76,40.89],[104.35,41.11],[104.82,41.76],[103.81,42.3],[100.24,41.43],[101.19,42.01],[100.48,42.07],[100.8,42.45],[101.77,43.03],[101.38,43.56],[100.49,43.53],[98.11,42.14],[96.89,42.25],[96.59,41.53],[97.77,41.19],[97.86,40.16],[99.65,40.61],[101.59,39.93],[101.3,39.47],[98.71,39.05],[97.51,37.9],[98.48,37.19],[94.91,34.68],[90.55,36.76],[83.6,38.2],[71.72,44.72],[83.21,46.07],[93.64,46.58],[107.56,45.53],[111.17,44.13]]]}},{"type":"Feature","properties":{},"geometry":{"type":"Polygon","coordinates":[[[107.16,37.49],[108.01,36.22],[106.82,35.26],[107.09,35.02],[106.8,35.18],[106.97,34.73],[106.65,34.95],[106.4,34.22],[105.6,34.77],[105.58,35.72],[105.17,35.72],[107.16,37.49]]]}},{"type":"Feature","properties":{},"geometry":{"type":"Polygon","coordinates":[[[101.25,31.33],[102.85,30.18],[104.28,29.89],[102.81,29.36],[104.78,29.28],[103.84,27.95],[105.63,28.49],[105.29,27.81],[105.69,28.19],[105.88,27.92],[105.45,27.67],[106.17,26.98],[105.49,26.24],[105.87,24.79],[105.33,24.68],[105.89,24.5],[106.22,23.49],[105.78,23.55],[105.82,22.34],[105.28,22.11],[105.55,21.85],[104.65,20.37],[104.87,19.93],[103.73,18.84],[103.49,19.05],[103.39,18.32],[102.22,18.65],[102.81,17.93],[102.49,17.62],[102.13,17.92],[102.44,17.34],[101.88,17.29],[102.03,16.95],[100.47,15.78],[101.04,14.72],[100.17,15.03],[100.13,15.66],[99.68,15.72],[99.5,15.22],[98.66,15.38],[98.18,14.06],[97.56,13.77],[97.89,13.52],[97.62,12.57],[90.08,14.8],[88.25,17.84],[88.53,20.44],[89.86,24.07],[91.5,25.2],[95.17,26.6],[100.63,27.54],[101.25,31.33]]]}},{"type":"Feature","properties":{},"geometry":{"type":"Polygon","coordinates":[[[94.8,11.91],[95.13,10.91],[95.7,10.63],[100.15,10.43],[102.36,8.92],[102.95,7.69],[101.94,5.5],[102.4,4.71],[101.91,2.86],[100.93,4.05],[99.67,3.42],[99.17,3.86],[99.06,3.36],[97.77,4],[96.22,3.15],[95.74,3.84],[95.12,3.51],[93.01,6.08],[91.87,9.11],[87.52,11.89],[94.8,11.91]]]}},{"type":"Feature","properties":{},"geometry":{"type":"Polygon","coordinates":[[[91.21,-1.95],[93.63,-4.3],[94.66,-4.69],[94.86,-4.11],[97.36,-4.21],[98.47,-3.36],[102.39,-4.75],[100.18,-5.52],[96.53,-5.12],[95.29,-5.53],[95.24,-5.97],[91.21,-3.67],[88.96,-3.62],[87.41,-3.08],[87.71,-2.94],[86.26,-3.5],[82.27,-2.28],[79.94,-1.05],[77.94,1.03],[80.33,2.86],[84.68,2.38],[85.91,1.97],[88.12,-0.39],[91.21,-1.95]]]}},{"type":"Feature","properties":{},"geometry":{"type":"Polygon","coordinates":[[[97.56,-3.56],[99.52,-2.8],[101.26,-3.49],[103.01,-3.28],[102.82,-4.04],[101.52,-4.85],[97.56,-3.56]]]}},{"type":"Feature","properties":{},"geometry":{"type":"Polygon","coordinates":[[[36.05,-27.2],[39.6,-30.31],[39.64,-30.81],[38.65,-31.24],[39.38,-31.18],[40.66,-32.38],[46.57,-31.38],[48.08,-30.65],[48.66,-30.76],[48.48,-32.19],[48.94,-32.14],[48.35,-32.31],[48.35,-33.21],[45.17,-38.34],[42.73,-40.4],[34.52,-45.32],[32.33,-47.85],[31.97,-48.85],[32.96,-49.53],[32.3,-50.79],[32.69,-52.49],[34.08,-53.28],[33.5,-53.9],[33.71,-55.34],[33.29,-55.51],[33.6,-55.55],[33.28,-56.08],[33.56,-57.59],[31.56,-58.92],[26.57,-59.71],[20.91,-61.35],[20.65,-61.18],[21.72,-60.03],[23.13,-56.93],[23.65,-53.81],[23.45,-50.61],[26.63,-49.29],[27.01,-47.04],[28.51,-44.86],[29.72,-41.82],[30.27,-37.86],[30.99,-36.73],[32.56,-36.79],[33.07,-35.19],[37.14,-31.86],[36.05,-27.2]]]}},{"type":"Feature","properties":{},"geometry":{"type":"Polygon","coordinates":[[[20.72,-61.08],[19.95,-61.8],[20.54,-62.14],[20.1,-63.6],[20.51,-63.66],[18.8,-65.45],[10.81,-65.99],[10.77,-66.46],[11.69,-66.3],[7.52,-68.2],[-1.58,-69.33],[-9.87,-69.43],[-14.38,-68.84],[-18.71,-66.9],[-23.64,-65.77],[-24.1,-65.18],[-23.67,-64.88],[-24.18,-64.72],[-23.66,-64.52],[-24.53,-64.48],[-22.54,-63.12],[-21.54,-63.25],[-20.18,-62.6],[-17.92,-59.97],[-17.29,-57.79],[-12.34,-53.59],[-10.87,-48.47],[-9.06,-46.91],[-6.12,-45.4],[-3.89,-45.05],[-2.7,-44.14],[-2.26,-42.05],[-1.31,-41.65],[-1,-39.17],[-0.09,-39.34],[-0.83,-38.89],[-0.48,-37.61],[-1.37,-34.62],[-1.23,-32.65],[-0.54,-32.77],[0.06,-32.11],[0.55,-32.55],[0.12,-31.95],[0.43,-32.11],[0.55,-31.41],[2.3,-30.07],[2.61,-29.07],[2.03,-28.95],[1.64,-27.7],[0.32,-27.55],[-1.03,-26.58],[2.66,-26.18],[3.56,-25.23],[6.49,-25],[13.29,-28.92],[22.49,-29.3],[27.41,-37.5],[22.49,-41.23],[20.88,-44.3],[20.82,-46.3],[24.78,-50.64],[24.83,-51.91],[23.79,-56.94],[21.96,-59.98],[20.72,-61.08]]]}},{"type":"Feature","properties":{},"geometry":{"type":"Polygon","coordinates":[[[-3.22,1.8],[-2.85,2.76],[-1.82,3.48],[0.71,3.69],[2.27,4.82],[2.75,4.65],[2.98,3.65],[4.17,3.33],[4.72,2.6],[7.78,2.68],[12.71,0.74],[14.31,0.61],[5.1,-0.05],[0.19,1.62],[-3.22,1.8]]]}},{"type":"Feature","properties":{},"geometry":{"type":"Polygon","coordinates":[[[16.44,6.48],[16.35,5.69],[14.15,5.05],[13.12,4.04],[13.34,3.22],[10.98,1.84],[9.24,2.38],[8.09,2.02],[7.7,2.92],[8.07,3.14],[7.76,2.98],[7.58,3.57],[5.88,3.91],[6.65,5.1],[6.27,5.52],[6.83,5.78],[6.15,5.69],[7.5,7.27],[8.16,9.74],[9.25,9.88],[12.34,8.3],[13.47,8.24],[16.44,6.48]]]}},{"type":"Feature","properties":{},"geometry":{"type":"Polygon","coordinates":[[[0.44,-27.94],[0.33,-26.37],[-0.44,-25.53],[-3.01,-24.66],[-7.16,-24.28],[-8.68,-22.9],[-12.52,-21.83],[-12.98,-21.3],[-15.17,-16.65],[-14.73,-13.88],[-15.48,-11.73],[-14.72,-11.45],[-15.63,-11.15],[-15.79,-10.64],[-15.46,-10.59],[-15.92,-10.14],[-15.53,-10.22],[-15.82,-10.01],[-15.29,-9.3],[-14.34,-9.9],[-15.17,-9.5],[-15.22,-7.79],[-13.85,-7.48],[-12.34,-6.09],[-11.83,-4.47],[-11.11,-3.95],[-11.03,-2.73],[-11.47,-2.96],[-10.8,-2.21],[-4.47,0.97],[-3.2,0.63],[-0.7,1.58],[1.93,1.6],[7.67,0.03],[16.89,0.92],[17.03,0.3],[17.66,0.47],[16.92,-0.26],[17.15,-1.32],[16,-1.93],[14.37,-4.87],[11.27,-14.27],[10.88,-17.79],[12.42,-22.78],[8.7,-24.22],[7.78,-25.62],[4.87,-26.14],[4.09,-27.17],[0.44,-27.94]]]}},{"type":"Feature","properties":{},"geometry":{"type":"Polygon","coordinates":[[[32.6,-12.31],[32.54,-13.22],[34.52,-18.66],[34.35,-19.62],[35.7,-21.69],[35.41,-23.26],[30.83,-25.5],[21.38,-29.41],[12.16,-29.17],[5.27,-25.36],[6.33,-24.05],[10.18,-22.93],[9.18,-18.91],[9.19,-16.67],[11.39,-10.3],[14.46,-4.01],[15.54,-2.9],[16.78,-4.54],[18.88,-5.88],[18.94,-6.96],[21.17,-8.96],[22.26,-8.73],[22.72,-7.47],[24.47,-7.24],[25.35,-8.31],[26.66,-8.87],[26.72,-9.34],[29.8,-10.81],[31.06,-10.37],[32.12,-10.64],[32.6,-12.31]]]}},{"type":"Feature","properties":{},"geometry":{"type":"Polygon","coordinates":[[[32.57,-10.02],[31.52,-9.35],[29.84,-9.27],[28.75,-7.63],[28.41,-8.01],[27.71,-7.83],[27.32,-6.65],[26.5,-6.35],[27.33,-6.45],[26.58,-6.04],[27.16,-5.22],[26.77,-4.6],[29.7,-4.65],[30.48,-5.04],[31.13,-6.27],[32.45,-6.32],[35.71,-7.66],[37.62,-10.21],[34.75,-9.61],[32.57,-10.02]]]}},{"type":"Feature","properties":{},"geometry":{"type":"Polygon","coordinates":[[[24.83,-50.29],[24.14,-50.68],[19.96,-46.43],[19.93,-44.43],[20.99,-42.08],[21.99,-40.8],[26.21,-37.49],[32.1,-36.92],[31.06,-38.58],[30.7,-41.98],[29.4,-45],[27.83,-47.17],[27.37,-49.41],[24.83,-50.29]]]}},{"type":"Feature","properties":{},"geometry":{"type":"Polygon","coordinates":[[[34.11,-13.36],[33.11,-14.68],[31.78,-10.58],[32.97,-11.29],[34.34,-10.92],[36.11,-8.38],[36.59,-6.44],[36.14,-8.93],[34.11,-13.36]]]}},{"type":"Feature","properties":{},"geometry":{"type":"Polygon","coordinates":[[[35.08,-23.18],[35.25,-23.95],[36.27,-24.76],[37.15,-27.79],[37.44,-27.47],[38.44,-32.16],[34.28,-35.42],[33.74,-37.01],[26.27,-37.49],[21.71,-30.37],[21.56,-29.23],[35.08,-23.18]]]}},{"type":"Feature","properties":{},"geometry":{"type":"Polygon","coordinates":[[[9.93,25.15],[9.53,25.46],[10.63,25.71],[10.73,26.16],[9.6,25.53],[9.19,26.07],[10,26.55],[9.02,26.49],[9.66,26.61],[9.65,27.05],[10.06,26.84],[9.38,27.07],[10.2,27.56],[9.51,27.5],[10.39,27.62],[9.9,27.81],[10.38,27.79],[10.06,28.31],[10.82,28.58],[11.1,29.25],[10.84,29.49],[10.66,28.69],[10.28,28.76],[10.83,30.88],[10.48,30.59],[10.63,31.37],[10.26,31.48],[10.7,32],[10.33,31.63],[10.04,32.39],[10.71,32.93],[10.16,32.82],[10.65,33.22],[9.96,33.4],[10.12,34],[10.63,33.75],[10.15,34.09],[10.72,34.54],[10.13,34.3],[10.46,34.69],[10.05,35.44],[10.72,35.53],[10.18,35.86],[10.6,35.71],[10.43,36.28],[10.81,35.65],[10.68,36.52],[11.19,36.51],[10.53,36.81],[11.44,36.98],[10.97,38],[11.46,38.19],[11.87,37.38],[11.59,38.39],[12.1,37.95],[11.94,38.87],[12.44,38.32],[12.37,38.89],[13.47,39.03],[12.89,38.3],[13.64,38.16],[14.26,38.54],[14.17,39],[15.31,38.64],[16.02,39.47],[19.08,40],[20.05,39.53],[19.99,38.26],[16.67,36.99],[18.83,36.98],[20.05,36.02],[21.69,36.37],[21.41,36.93],[20.5,36.71],[20.21,37.08],[21.16,37.09],[22.11,37.87],[21.03,38.13],[20.74,38.86],[20.69,39.67],[21.95,39.91],[19.72,41.23],[18.71,41.26],[20.23,41.94],[20.61,41.82],[20.63,40.96],[21.51,41.03],[21.91,41.61],[21.2,42.07],[21.49,42.48],[21.02,42.49],[21.18,43.97],[21.53,43.93],[21.09,44.69],[21.94,44.06],[22.33,44.28],[21.96,44.98],[22.41,45.62],[22.16,46.33],[23.17,46.38],[22.74,46.56],[22.88,47.03],[21.34,47.29],[24.86,49.42],[26.89,48.86],[30.23,45.5],[38.89,41.88],[40.3,39.54],[44.33,35.93],[44.32,34.42],[41.86,30.36],[41.38,24.23],[39.03,22.73],[35.96,22.46],[36.29,23.78],[35.53,24.12],[36.07,24.48],[35.97,25.23],[34.4,22.44],[34.22,22.84],[34.61,22.19],[35.26,22.06],[35.85,22.63],[35.91,22.26],[34.5,20.7],[33.78,21.23],[33.39,20.81],[33.79,21.79],[32.36,21.23],[32.04,21.34],[32.63,21.65],[32.13,21.77],[31.41,19.97],[32,19.18],[31.75,18.83],[29.19,19.11],[26.49,20.44],[18.1,21.61],[19.56,23.35],[20.18,23.12],[20.52,23.66],[20.48,23.16],[20.48,24.95],[20.65,24.14],[21.04,24.33],[19.64,26.66],[19.96,27.1],[20.98,26.78],[21.17,27.26],[20.53,28.18],[20.11,27.93],[19.42,28.57],[22,31.16],[20.67,31.39],[18.75,28.86],[18.45,29.31],[17.53,29.07],[15.92,30.76],[16.18,33.51],[15.71,33.99],[14.08,33.3],[15.04,31.45],[14.64,29.96],[14.15,30.16],[15.51,27.96],[16.99,27.71],[16.65,27.13],[16.98,26.62],[16.67,26.83],[16.83,26.45],[16.27,25.97],[16.73,26.04],[16.41,25.88],[16.87,25.76],[17.5,24.35],[17.56,23.68],[16.82,23.15],[17.05,22.61],[16.31,22.23],[15.75,23.31],[12.89,25.68],[13.1,24.8],[11.98,23.1],[10.81,23.45],[11.27,23.98],[10.87,23.83],[11.01,24.42],[10.33,24.07],[10.81,25.37],[10.39,24.63],[9.93,25.15]]]}},{"type":"Feature","properties":{},"geometry":{"type":"Polygon","coordinates":[[[14.18,20.91],[13.17,22.27],[13.96,23.75],[14.24,22.71],[14.78,22.67],[14.38,21.66],[14.88,21.02],[14.18,20.91]]]}},{"type":"Feature","properties":{},"geometry":{"type":"Polygon","coordinates":[[[32.72,16.15],[32.18,16.99],[31.67,16.51],[31.41,16.97],[33.26,19.36],[32.79,19.09],[36.16,22.24],[38.67,23.22],[36.18,20.59],[35.7,19.35],[34.25,19.11],[33.61,18.49],[32.72,16.15]]]}},{"type":"Feature","properties":{},"geometry":{"type":"Polygon","coordinates":[[[26.02,-1.45],[25.85,-2.88],[25.12,-2.87],[25.86,-3.9],[25.72,-4.39],[25.03,-3.88],[25.16,-4.49],[24.65,-4.09],[24.58,-4.79],[23.96,-4.8],[23.99,-4.36],[23.59,-4.37],[23.72,-3.16],[24.41,-3.08],[25.28,-3.75],[23.9,-2.8],[24.24,-2.2],[23.71,-0.3],[24.59,0.79],[23.17,3.61],[23.19,5.8],[22.61,5.48],[22.98,6.47],[22.21,6.7],[21.41,5.63],[21.77,4.57],[21.51,3.75],[21.79,2.63],[22.44,2.19],[22.08,1.89],[23.02,-0.27],[22.71,-0.4],[22.14,0.64],[21.53,0.25],[21.55,-0.72],[20.07,-1.04],[20.87,-0.43],[21.13,0.8],[19.58,4.67],[19.94,6.34],[19.41,7.31],[18.36,7.3],[18.23,7.95],[19,9.42],[22.33,9.19],[26.14,7.35],[24.58,5.88],[26.02,-1.45]]]}},{"type":"Feature","properties":{},"geometry":{"type":"Polygon","coordinates":[[[18.53,10.36],[17.84,9.23],[16.22,9.15],[15.85,8.05],[12.4,7.76],[12.04,9.73],[12.55,9.35],[11.76,10.41],[10.27,11.33],[9.14,11.13],[8.66,11.77],[10.82,12.57],[10.08,13.48],[11.32,13.41],[11.69,14.16],[13.72,13.9],[15.42,14.45],[17.22,18.04],[18.91,19.68],[22.17,21.1],[24.94,20.49],[22.95,18.62],[22.25,17.18],[17.66,13.52],[16.93,11.92],[17.88,10.56],[18.53,10.36]]]}},{"type":"Feature","properties":{},"geometry":{"type":"Polygon","coordinates":[[[11.69,14.16],[12.17,14.7],[11.86,15.32],[13.28,16.39],[12.73,16.36],[13.38,16.81],[12.9,16.9],[12.92,17.99],[13.35,17.89],[13.17,17.49],[13.6,17.89],[13.28,18.52],[14.23,18.85],[14.39,19.45],[14.91,19.29],[14.76,19.81],[15.58,19.79],[14.52,20.16],[14.18,20.91],[15.38,20.57],[15.9,20.9],[15.94,20.36],[16.62,21.36],[18.22,21.16],[18.1,21.61],[18.78,21.64],[22.17,21.1],[18.09,19.04],[15.42,14.45],[13.72,13.9],[11.69,14.16]]]}},{"type":"Feature","properties":{},"geometry":{"type":"Polygon","coordinates":[[[31.75,18.6],[32,17.06],[29.03,15.22],[28.01,15.73],[27.78,16.41],[29.27,18.18],[29.19,19.11],[31.75,18.6]]]}},{"type":"Feature","properties":{},"geometry":{"type":"Polygon","coordinates":[[[-12.3,37.76],[-11.88,37.37],[-12.64,37.55],[-12.3,37.76]]]}},{"type":"Feature","properties":{},"geometry":{"type":"Polygon","coordinates":[[[-14.91,40.04],[-15.51,39.68],[-16.09,39.96],[-15.66,40.43],[-14.91,40.04]]]}},{"type":"Feature","properties":{},"geometry":{"type":"Polygon","coordinates":[[[4,42.95],[4.66,42.88],[4.88,42.2],[3.7,42.53],[4,42.95]]]}},{"type":"Feature","properties":{},"geometry":{"type":"Polygon","coordinates":[[[-14.34,40.53],[-14.61,40.08],[-15.3,40.64],[-14.34,40.53]]]}},{"type":"Feature","properties":{},"geometry":{"type":"Polygon","coordinates":[[[-11.92,38.67],[-11.99,37.92],[-12.66,37.99],[-12.16,38.91],[-11.92,38.67]]]}},{"type":"Feature","properties":{},"geometry":{"type":"Polygon","coordinates":[[[-12.65,40.05],[-12.52,38.91],[-13.26,38.34],[-13.32,39.17],[-13.75,39.32],[-13.12,39.51],[-13.16,40.12],[-12.65,40.05]]]}},{"type":"Feature","properties":{},"geometry":{"type":"Polygon","coordinates":[[[4.98,57.01],[5.94,57.33],[5.07,57.35],[5.71,57.95],[7.82,57.27],[4.98,57.01]]]}},{"type":"Feature","properties":{},"geometry":{"type":"Polygon","coordinates":[[[1.02,43.44],[3.13,43.18],[2.97,42.57],[3.66,41.78],[1.02,43.44]]]}},{"type":"Feature","properties":{},"geometry":{"type":"Polygon","coordinates":[[[3.59,41.7],[4.04,40.75],[2.69,41.18],[3.29,41.41],[2.77,41.39],[3.04,41.9],[2.54,41.34],[2.19,41.56],[2.65,42.22],[3.59,41.7]]]}},{"type":"Feature","properties":{},"geometry":{"type":"Polygon","coordinates":[[[2.25,42.45],[2.25,42.11],[1.9,42.39],[1.94,41.6],[0.35,42.76],[0.72,43.02],[0.7,42.63],[1.29,42.58],[0.96,43.05],[2.25,42.45]]]}},{"type":"Feature","properties":{},"geometry":{"type":"Polygon","coordinates":[[[5.48,55.03],[5.51,55.41],[6.19,55.16],[5.48,55.03]]]}},{"type":"Feature","properties":{},"geometry":{"type":"Polygon","coordinates":[[[4.66,55.82],[5.55,56.08],[4.65,56.06],[4.79,56.44],[6.68,56.66],[6.77,55.97],[6.16,55.39],[4.66,55.82]]]}},{"type":"Feature","properties":{},"geometry":{"type":"Polygon","coordinates":[[[1.8,44.49],[2.88,44.78],[3.15,43.74],[1.22,43.65],[1.53,43.88],[1.19,44.15],[2.14,44.08],[1.8,44.49]]]}},{"type":"Feature","properties":{},"geometry":{"type":"Polygon","coordinates":[[[4.41,48.07],[4.76,48.18],[4.83,47.72],[4.49,47.57],[4.41,48.07]]]}},{"type":"Feature","properties":{},"geometry":{"type":"Polygon","coordinates":[[[5.29,50.3],[5.88,49.84],[5.26,49.89],[5.29,50.3]]]}},{"type":"Feature","properties":{},"geometry":{"type":"Polygon","coordinates":[[[4.54,48.59],[5.47,47.79],[5.07,47.73],[4.54,48.59]]]}},{"type":"Feature","properties":{},"geometry":{"type":"Polygon","coordinates":[[[3.2,55.14],[4.54,55.79],[5.36,55.35],[5.24,54.88],[3.2,55.14]]]}},{"type":"Feature","properties":{},"geometry":{"type":"Polygon","coordinates":[[[-9.23,40.46],[-9.31,39.01],[-8.91,39.15],[-9.43,38.37],[-9.06,37.92],[-10.95,37.47],[-11.19,38.61],[-10.3,38.42],[-11.13,38.95],[-10.65,39.18],[-10.93,39.58],[-10.44,39.44],[-10.58,39.94],[-9.94,39.8],[-10,40.2],[-9.23,40.46]]]}},{"type":"Feature","properties":{},"geometry":{"type":"Polygon","coordinates":[[[-4.52,40.62],[-4.02,40.34],[-4.48,40.11],[-3.78,40.28],[-3.32,39.53],[-4,39.09],[-4.89,39.25],[-4.46,38.96],[-5.23,38.67],[-4.06,38.87],[-5.57,38.19],[-5.55,37.81],[-6.02,37.94],[-5.66,37.73],[-5.98,37.43],[-7.57,37.46],[-6.84,37.11],[-7.58,37.31],[-7.07,36.75],[-7.83,36.32],[-7.69,36.01],[-8.3,36.16],[-8.54,35.64],[-9.55,35.9],[-8.85,35.57],[-8.73,34.93],[-9.83,34.74],[-9.92,35.41],[-10.77,35.26],[-11.59,35.73],[-11.44,36.08],[-11.71,35.81],[-11.59,36.27],[-10.69,36.23],[-10.66,37],[-10.1,36.12],[-9.16,36.62],[-9.86,36.24],[-10.03,36.81],[-9.59,37.09],[-10.33,37.16],[-9.79,37.64],[-8.91,37.07],[-8.58,37.31],[-9.18,37.69],[-8.77,38.96],[-8.03,37.86],[-8.12,38.72],[-6.56,38.76],[-7.02,38.94],[-6.34,39.32],[-7.51,38.86],[-8.54,39.12],[-7.47,39.43],[-8.75,39.32],[-8.89,39.73],[-7.82,39.69],[-8.87,39.84],[-8.13,40.05],[-8.79,40.54],[-7.84,40.64],[-7.43,40.2],[-7.59,40.64],[-7.15,40.77],[-6.58,39.81],[-6.83,40.54],[-6.41,40.85],[-5.78,40.76],[-5.78,40.23],[-5.7,40.79],[-5.09,40.31],[-4.52,40.62]]]}},{"type":"Feature","properties":{},"geometry":{"type":"Polygon","coordinates":[[[-2.64,19.96],[-2.28,20.55],[-2.7,20.31],[-2.89,20.85],[-2.02,21.26],[-2.86,20.89],[-3.19,21.24],[-2.56,21.59],[-3.31,21.52],[-1.99,22.38],[-3.35,21.59],[-3.4,22],[-2.87,22.06],[-3.33,22.14],[-2.81,22.35],[-3.56,22.59],[-2.04,22.72],[-3.52,22.72],[-3.08,23.26],[-1.94,23.07],[-2.37,23.52],[-3.48,23.09],[-2.79,23.49],[-3.31,23.69],[-2,23.49],[-2.55,23.72],[-2.32,24.04],[-3.35,23.83],[-2.41,24.12],[-2.47,24.67],[-2.1,24.52],[-2.49,24.74],[-2.2,25.57],[-3.87,26.14],[-2.34,25.87],[-2.91,26.54],[-2.54,26.56],[-3.13,26.68],[-2.72,27.01],[-3.3,26.92],[-2.84,27.23],[-3.4,27.21],[-3.22,27.5],[-4.2,26.96],[-3.88,28.32],[-4.39,29.74],[-4.76,29.6],[-4.38,29.87],[-5.03,31.23],[-6.38,31.98],[-7.35,31.98],[-7.31,31.61],[-7.84,31.87],[-8.09,32.21],[-7.56,32.43],[-8.39,32.91],[-6.99,32.93],[-6.92,33.26],[-7.71,33.24],[-8.47,34.12],[-6.49,34.84],[-5.89,35.69],[-6.64,36],[-5.75,36.7],[-5.62,36.29],[-5.13,37.39],[-4.38,36.82],[-4.89,37.49],[-4.02,37.85],[-3.87,37.04],[-3.74,37.52],[-3.16,37.12],[-3.45,38.02],[-2.25,37.37],[-2.35,37.89],[-1.95,37.89],[-2.64,38.35],[-1.6,38.24],[-2.68,38.71],[-1.51,38.51],[-1.77,39.17],[-1.27,39.47],[0.13,39.58],[-1.01,38.63],[0.27,39.49],[0.4,39.1],[1.17,39.23],[-0.18,37.81],[1.07,38.48],[1.09,37.86],[1.52,38.78],[1.99,37.26],[2.55,39],[3.48,39.08],[3.46,38.02],[2.56,37.49],[3.57,37.84],[2.91,37.14],[3.26,36.85],[3.59,37.36],[4.09,34.87],[4.16,35.26],[4.66,35.21],[4.39,34.82],[5.12,34.91],[5.47,34.44],[4.46,34.3],[4.87,34.34],[4.46,33.93],[5.41,33.85],[5.07,33.38],[6.03,33.2],[6.02,32.9],[5.16,33.09],[5.89,32.81],[5.35,32.6],[6.69,32.43],[5.75,32.14],[6.53,32.03],[5.81,31.83],[6.82,31.32],[6.36,30.9],[5.66,31.06],[6.22,31.26],[5.03,31.14],[5.55,30.86],[4.77,30.54],[5.18,30.41],[4.81,30.16],[5.66,30.39],[5.03,29.94],[5.96,30.09],[5.58,29.64],[5.99,29.39],[6.1,29.87],[7.04,29.67],[6.98,29.34],[7.31,29.6],[8.03,28.59],[7.56,28.73],[7.46,28.24],[6.62,28.88],[4.93,29.08],[5.55,28.88],[5.24,28.6],[6.35,28.76],[6.06,28.23],[5.59,28.29],[5.41,27.49],[6.32,27.83],[5.78,27.24],[6.27,27.26],[6.83,27.95],[8.03,27.96],[7.18,26.19],[5.94,25.16],[4.87,25.37],[5.3,24.78],[4.73,22.99],[4.2,22.94],[4.41,22.66],[3.69,22.46],[3.81,22.13],[3.35,22.73],[3.4,21.93],[2.23,21.16],[2.72,20.49],[2.21,20.29],[2.8,19.81],[2.31,19.9],[2.72,19.68],[2.19,19.48],[2.43,18.94],[1.74,18.67],[2.28,18.39],[1.85,18.46],[2.37,18.02],[1.92,17.27],[2.26,17.08],[1.77,17.04],[2.24,17.04],[1.86,16.76],[2.25,16.54],[1.56,16.5],[2.19,16.04],[1.65,16.27],[1.15,15.9],[1.43,16.42],[1.12,15.94],[1.33,16.59],[0.65,16.33],[0.98,16.71],[0.51,16.49],[0.97,17],[0.58,16.67],[0.66,17.1],[-0.51,16.45],[-0.4,16.98],[-0.98,17.01],[-0.59,17.17],[-1.1,17.15],[-0.88,17.6],[-1.09,17.31],[-0.93,17.69],[-1.69,18.05],[-1.43,18.63],[-1.73,18.33],[-1.61,18.79],[-2.12,18.87],[-1.67,18.95],[-2.35,19.22],[-1.9,19.75],[-2.47,19.7],[-1.75,20.01],[-2,20.23],[-1.48,19.93],[-2.03,20.75],[-1.99,20.3],[-2.64,19.96]]]}}]}
