{"type":"FeatureCollection","features":[{"type":"Feature","properties":{},"geometry":{"type":"Polygon","coordinates":[[[52.74,-64.31],[54.48,-63.91],[55.63,-64.27],[53.64,-64.63],[52.74,-64.31]]]}},{"type":"Feature","properties":{},"geometry":{"type":"Polygon","coordinates":[[[59.64,-61.71],[59.44,-62.09],[58.73,-61.52],[60.14,-61.49],[59.64,-61.71]]]}},{"type":"Feature","properties":{},"geometry":{"type":"Polygon","coordinates":[[[10.14,-70.5],[11.82,-69.57],[13.37,-70.16],[13.14,-70.57],[10.14,-70.5]]]}},{"type":"Feature","properties":{},"geometry":{"type":"Polygon","coordinates":[[[51.53,-72.7],[51.15,-72.57],[52.28,-72.69],[51.53,-72.7]]]}},{"type":"Feature","properties":{},"geometry":{"type":"Polygon","coordinates":[[[38.68,-74.34],[39.97,-74.14],[38.24,-74.49],[38.68,-74.34]]]}},{"type":"Feature","properties":{},"geometry":{"type":"Polygon","coordinates":[[[45.19,-74.4],[41.12,-74.47],[43.78,-73.76],[44.61,-73.78],[45.19,-74.4]]]}},{"type":"Feature","properties":{},"geometry":{"type":"Polygon","coordinates":[[[49.19,-74.52],[45.6,-73.8],[50.05,-74.34],[49.19,-74.52]]]}},{"type":"Feature","properties":{},"geometry":{"type":"Polygon","coordinates":[[[-2.2,-72.12],[0.02,-71.61],[-0.42,-72.15],[-2.2,-72.12]]]}},{"type":"Feature","properties":{},"geometry":{"type":"Polygon","coordinates":[[[17.12,-75.32],[16.75,-75.3],[17.77,-75.08],[15.58,-75.12],[14.81,-74.9],[16.48,-74.82],[14.82,-74.68],[16.35,-74.31],[22.07,-75.62],[17.12,-75.32]]]}},{"type":"Feature","properties":{},"geometry":{"type":"Polygon","coordinates":[[[-9.58,-72.44],[-8.22,-72.83],[-9.89,-72.58],[-9.58,-72.44]]]}},{"type":"Feature","properties":{},"geometry":{"type":"Polygon","coordinates":[[[-12.77,-73.04],[-11.32,-72.87],[-11.09,-73.2],[-12.77,-73.04]]]}},{"type":"Feature","properties":{},"geometry":{"type":"Polygon","coordinates":[[[-15.83,-71.49],[-6.93,-70.38],[-4.39,-70.61],[-3.68,-71.27],[-4.99,-71.45],[-5.43,-71.01],[-6.9,-71.52],[-4.75,-71.9],[-6.24,-72.76],[-6.67,-72.72],[-5.99,-72.42],[-7.31,-72.56],[-6.65,-72.07],[-7.44,-72.36],[-7.88,-71.8],[-8.36,-72.14],[-9.6,-71.59],[-9.22,-71.36],[-10.85,-71.75],[-11.63,-71.27],[-12.59,-71.97],[-14.72,-72.18],[-16.09,-71.67],[-15.83,-71.49]]]}},{"type":"Feature","properties":{},"geometry":{"type":"Polygon","coordinates":[[[-22.79,-70.64],[-19.36,-70.99],[-20.3,-71.2],[-22.79,-70.64]]]}},{"type":"Feature","properties":{},"geometry":{"type":"Polygon","coordinates":[[[65.67,-44.28],[65.32,-45.15],[64.73,-44.9],[65.67,-44.28]]]}},{"type":"Feature","properties":{},"geometry":{"type":"Polygon","coordinates":[[[-28.76,-68.48],[-27.83,-68.34],[-27.28,-68.75],[-27.84,-68.98],[-28.76,-68.48]]]}},{"type":"Feature","properties":{},"geometry":{"type":"Polygon","coordinates":[[[-28.26,-66.02],[-26.73,-65.98],[-26.97,-66.37],[-28.26,-66.02]]]}},{"type":"Feature","properties":{},"geometry":{"type":"Polygon","coordinates":[[[9.66,-70.73],[11.47,-71.15],[12.78,-70.87],[12.19,-71.23],[12.96,-71.38],[17.06,-69.11],[15.97,-69.43],[16.25,-68.95],[17.4,-68.91],[17.15,-68.61],[18.46,-68.24],[22.28,-67.99],[25.91,-65.56],[30.58,-66.55],[31.26,-67.66],[32.2,-68.08],[30.77,-69.15],[18.92,-71.48],[16.9,-72.27],[14.37,-72.43],[9.2,-71.51],[9.66,-70.73]]]}},{"type":"Feature","properties":{},"geometry":{"type":"Polygon","coordinates":[[[-29.4,-65.61],[-28.4,-65.52],[-28.88,-65.74],[-28.64,-66.12],[-26.83,-66.65],[-27.56,-66.95],[-25.65,-68.22],[-24.02,-68.4],[-23.34,-68.25],[-23.88,-67.98],[-23.43,-67.72],[-22.52,-68.23],[-23.29,-68.26],[-23.35,-68.64],[-21.92,-68.61],[-23.65,-68.91],[-21.66,-69.06],[-21.57,-69.52],[-20.09,-69.84],[-17.13,-69.76],[-16.32,-69.33],[-17.25,-69.19],[-17.19,-68.88],[-15.66,-69.21],[-14.31,-68.72],[-11.67,-68.7],[-11.58,-68.37],[-4.74,-68.03],[-5.22,-67.7],[-1.32,-67.77],[1.73,-68.5],[1.55,-68.17],[5.96,-69.32],[6.49,-68.66],[7.38,-68.5],[10.54,-69.3],[9.67,-70.13],[8.47,-70.4],[9.66,-70.73],[7.69,-73.37],[0.62,-73.35],[0.91,-72.75],[1.66,-72.61],[0.5,-72.23],[1.63,-72.11],[-4.33,-69.98],[-14.26,-70.98],[-15.54,-70.27],[-21.48,-70.55],[-21.81,-70.32],[-20.67,-70.17],[-22.62,-70.17],[-22.44,-69.85],[-24.01,-69.77],[-25.47,-68.85],[-26.8,-68.85],[-26.26,-68.63],[-28.65,-67.43],[-28.98,-66.91],[-28.55,-66.76],[-29.24,-66.44],[-29.4,-65.61]]]}},{"type":"Feature","properties":{},"geometry":{"type":"Polygon","coordinates":[[[20.85,-61.8],[15.66,-58.48],[15.52,-57.77],[16.25,-57.67],[14.33,-57.17],[12.82,-58.18],[11.11,-57.7],[9.57,-55.78],[9.5,-54.65],[8.32,-53.61],[7.96,-52.02],[8.67,-49.99],[8.24,-49.31],[7.22,-49.21],[8.08,-49.17],[7.47,-48.42],[9.03,-48.67],[9.25,-48.35],[8.4,-47.52],[8.83,-47.28],[9.48,-47.84],[10.38,-47.12],[9.49,-46.35],[10.87,-47.1],[11.14,-46.72],[11.69,-46.91],[11.96,-45.29],[13.61,-44.13],[15.51,-43.83],[17.02,-42.75],[20.09,-42.09],[24.06,-40.18],[23.84,-39.17],[26.54,-40.15],[27.25,-38.51],[29.58,-36.97],[30.57,-37.19],[30.95,-36.86],[30.46,-36.6],[30.89,-36.38],[31.17,-36.83],[31.7,-36.71],[31.39,-35.97],[32.22,-35.47],[34.01,-35.47],[34.84,-36.07],[34.32,-36.3],[35.68,-36.93],[40.73,-37.62],[40.69,-38.54],[40.19,-38.75],[40.6,-38.76],[40.12,-38.91],[40.46,-39.08],[39.91,-39.06],[40.06,-39.63],[39.47,-40],[40.67,-41.33],[42,-39.88],[43.05,-39.94],[45.08,-38.71],[47.91,-38.23],[51.64,-38.66],[54.28,-39.71],[54.98,-39.78],[55.24,-39.13],[55.92,-39.28],[55.73,-39.82],[57.19,-40.01],[59.15,-42.16],[62.01,-42.11],[62.01,-43.03],[62.77,-43.34],[62.94,-44.23],[64.57,-44.91],[64.28,-45.16],[67.18,-45.87],[67.16,-46.9],[67.72,-47.28],[68.92,-46.58],[70.54,-48.13],[71.88,-47.72],[71.19,-48.3],[71.25,-48.95],[73.32,-51.41],[73.34,-51.97],[74.45,-52.39],[72.99,-52.42],[73.75,-53.59],[72.74,-53.68],[73.87,-54.63],[73.33,-54.96],[74.68,-55.56],[73.86,-56.21],[74.07,-56.91],[74.52,-56.92],[74.41,-57.64],[73.05,-58.94],[73.46,-58.94],[72.91,-59.58],[73.29,-59.53],[73.58,-60.57],[71.91,-61.89],[72.69,-61.82],[71.64,-62.16],[68.1,-61.8],[67.58,-61.11],[66.52,-61.12],[66.34,-60.73],[65.3,-60.96],[65.46,-60.66],[64.67,-60.61],[65.48,-60.43],[64.85,-60.27],[63.94,-60.34],[63.75,-60.89],[63.02,-60.4],[57.76,-60.86],[58.36,-61.26],[57.01,-61.63],[57.13,-61.04],[55.81,-60.33],[49.71,-60.91],[49.42,-60.57],[48.82,-60.81],[49.33,-61.03],[46.99,-61.24],[44.46,-62.22],[42.17,-61.69],[44.58,-62.35],[42.25,-63.03],[40.36,-62.92],[38.94,-63.3],[38.92,-63.8],[37.12,-64.03],[40.66,-64.36],[43.43,-65.56],[40.64,-66.44],[38.63,-65.4],[34.58,-64.37],[30.35,-64.88],[27.3,-63.48],[20.85,-61.8]]]}},{"type":"Feature","properties":{},"geometry":{"type":"Polygon","coordinates":[[[46.4,-63.58],[48.75,-64.55],[47.56,-65.84],[54.5,-65.29],[58.03,-65.94],[55.81,-66.84],[56.09,-67],[54.23,-67.2],[54.64,-67.27],[54.27,-67.39],[54.59,-67.82],[53.86,-68.02],[54.98,-68.51],[57.19,-67.98],[57.47,-68.4],[55.63,-68.68],[56.98,-68.96],[56.36,-69.87],[55.26,-70.21],[55.66,-70.59],[54.36,-71.06],[55.09,-71.42],[54.53,-71.88],[52.79,-71.83],[40.03,-74.08],[36.89,-73.91],[37.17,-74.31],[36.24,-74.56],[35.88,-74.48],[36.47,-74.22],[35.48,-74.38],[35.86,-74.03],[35.06,-73.53],[33.56,-73.71],[34.07,-73.82],[33.67,-73.94],[33.91,-74.15],[32.54,-74.11],[31.83,-73.61],[29.37,-73.42],[29.87,-72.96],[27.83,-73.43],[26.24,-73.21],[25.92,-72.65],[24.47,-72.64],[24.76,-73.35],[23.2,-73.55],[24.2,-73.97],[24.07,-74.26],[21.52,-74.21],[24.52,-74.67],[23.84,-75.07],[21.26,-74.34],[18.88,-74.3],[17.94,-73.62],[15.72,-73.73],[15.79,-73.34],[13.89,-72.78],[10.95,-72.91],[10.69,-72.56],[11.71,-72.47],[11.19,-71.9],[9.79,-71.9],[10.61,-71.54],[9.99,-70.85],[21.68,-69.5],[22.93,-68.8],[33.76,-66.68],[35.33,-65.6],[43.25,-65.05],[46.4,-63.58]]]}},{"type":"Feature","properties":{},"geometry":{"type":"Polygon","coordinates":[[[-28.95,-64.83],[-28.42,-64.69],[-28.62,-65.32],[-29.18,-65.1],[-28.95,-64.83]]]}},{"type":"Feature","properties":{},"geometry":{"type":"Polygon","coordinates":[[[-30.5,-66.59],[-30.12,-66.77],[-30.98,-67.09],[-30.5,-66.59]]]}},{"type":"Feature","properties":{},"geometry":{"type":"Polygon","coordinates":[[[-30.71,-65.43],[-30.32,-65.32],[-30.69,-65.99],[-30.71,-65.43]]]}},{"type":"Feature","properties":{},"geometry":{"type":"Polygon","coordinates":[[[-19.78,-63.09],[-19.47,-63.2],[-20.33,-63.36],[-18.52,-63.67],[-21.39,-63.64],[-19.78,-63.09]]]}},{"type":"Feature","properties":{},"geometry":{"type":"Polygon","coordinates":[[[-19.33,-62.99],[-17.9,-62.97],[-19.62,-63.09],[-19.33,-62.99]]]}},{"type":"Feature","properties":{},"geometry":{"type":"Polygon","coordinates":[[[-22.02,-63.47],[-22.36,-63.66],[-21.72,-63.67],[-22.71,-63.66],[-22.02,-63.47]]]}},{"type":"Feature","properties":{},"geometry":{"type":"Polygon","coordinates":[[[-24.71,-62.83],[-24.17,-63.27],[-25.08,-62.97],[-24.71,-62.83]]]}},{"type":"Feature","properties":{},"geometry":{"type":"Polygon","coordinates":[[[-23.24,-62.26],[-22.66,-62.9],[-23.44,-62.69],[-23.24,-62.26]]]}},{"type":"Feature","properties":{},"geometry":{"type":"Polygon","coordinates":[[[-26.47,-62.63],[-25.07,-63.1],[-26.88,-63.09],[-26.47,-62.63]]]}},{"type":"Feature","properties":{},"geometry":{"type":"Polygon","coordinates":[[[-25.91,-61.76],[-24.91,-61.74],[-26.15,-62.25],[-25.56,-62.65],[-26.97,-62.48],[-26.13,-62.48],[-26.82,-62.12],[-25.91,-61.76]]]}},{"type":"Feature","properties":{},"geometry":{"type":"Polygon","coordinates":[[[-23.78,-63.28],[-21.96,-63.09],[-23.31,-62.88],[-20.71,-62.78],[-22.66,-62.46],[-22.09,-61.83],[-23.36,-62.07],[-23.26,-61.59],[-23.77,-61.51],[-22.81,-61],[-19.07,-62.04],[-16.09,-62.1],[-17.36,-62.78],[-24.33,-63.47],[-23.78,-63.28]]]}},{"type":"Feature","properties":{},"geometry":{"type":"Polygon","coordinates":[[[-12.26,-57.72],[-12.74,-58.72],[-13.63,-58.73],[-12.67,-58.23],[-13.64,-58.01],[-12.26,-57.72]]]}},{"type":"Feature","properties":{},"geometry":{"type":"Polygon","coordinates":[[[-11.73,-57.55],[-10.21,-57.65],[-11.46,-58.03],[-10.9,-58.28],[-11.82,-58.61],[-11.73,-57.55]]]}},{"type":"Feature","properties":{},"geometry":{"type":"Polygon","coordinates":[[[-30.23,-60.43],[-29.69,-60.74],[-30.45,-60.76],[-30.23,-60.43]]]}},{"type":"Feature","properties":{},"geometry":{"type":"Polygon","coordinates":[[[-31.44,-59.89],[-30.75,-59.93],[-31.27,-60.31],[-31.44,-59.89]]]}},{"type":"Feature","properties":{},"geometry":{"type":"Polygon","coordinates":[[[-31.12,-59.25],[-31.45,-59.34],[-31.24,-59.76],[-32.11,-59.25],[-31.34,-59.22],[-31.88,-58.74],[-31.3,-58.5],[-30.46,-59.61],[-30.97,-59.8],[-30.68,-59.71],[-31.12,-59.25]]]}},{"type":"Feature","properties":{},"geometry":{"type":"Polygon","coordinates":[[[-31.86,-58],[-31.28,-58.42],[-31.95,-58.48],[-31.86,-58]]]}},{"type":"Feature","properties":{},"geometry":{"type":"Polygon","coordinates":[[[-32.64,-58.05],[-32,-58.51],[-32.75,-58.4],[-32.64,-58.05]]]}},{"type":"Feature","properties":{},"geometry":{"type":"Polygon","coordinates":[[[-31.41,-57.57],[-30.88,-57.55],[-31.72,-57.72],[-31.41,-57.57]]]}},{"type":"Feature","properties":{},"geometry":{"type":"Polygon","coordinates":[[[80.5,-72.73],[79.06,-72.55],[80.04,-72.09],[80.5,-72.73]]]}},{"type":"Feature","properties":{},"geometry":{"type":"Polygon","coordinates":[[[-32.35,-54.8],[-32.1,-55.05],[-32.77,-55.04],[-32.35,-54.8]]]}},{"type":"Feature","properties":{},"geometry":{"type":"Polygon","coordinates":[[[-31.7,-54.04],[-31.28,-54.14],[-31.79,-54.63],[-32.11,-54.38],[-31.7,-54.04]]]}},{"type":"Feature","properties":{},"geometry":{"type":"Polygon","coordinates":[[[-33.88,-51.71],[-33.02,-52.08],[-33.45,-52.43],[-32.9,-52.69],[-33.11,-53.3],[-33.88,-53.21],[-33.88,-51.71]]]}},{"type":"Feature","properties":{},"geometry":{"type":"Polygon","coordinates":[[[71.8,-62.23],[72.18,-63.59],[72.82,-63.76],[72.49,-64.16],[72.88,-63.76],[74.61,-64.57],[69.56,-65.63],[70.07,-65.35],[69.43,-65.17],[69.9,-64.87],[67.75,-65.09],[67.24,-64.52],[67.9,-64.53],[67.61,-64.28],[68.52,-63.58],[69.29,-63.31],[68.89,-63.67],[69.29,-63.63],[70.41,-62.64],[71.8,-62.23]]]}},{"type":"Feature","properties":{},"geometry":{"type":"Polygon","coordinates":[[[77.37,-69.5],[75.08,-69.95],[76.4,-70.4],[75.31,-70.34],[76.3,-70.76],[71.94,-70.4],[69.89,-68.47],[65.9,-66.16],[70.52,-68.29],[77.37,-69.5]]]}},{"type":"Feature","properties":{},"geometry":{"type":"Polygon","coordinates":[[[76.78,-78.27],[76.6,-77.98],[77.68,-77.55],[74.94,-77.16],[78.56,-76.11],[77.55,-75.49],[76.98,-74.45],[76.53,-74.55],[77.4,-74.19],[77.5,-73.51],[83.91,-72.56],[83.91,-72.87],[84.95,-72.73],[84.28,-73.05],[85.56,-73.27],[84.55,-73.33],[85.68,-73.48],[85.27,-73.53],[85.76,-73.79],[85.21,-73.81],[85.68,-73.88],[85.05,-74.27],[85.37,-74.28],[84.82,-75.15],[82.28,-76.94],[76.78,-78.27]]]}},{"type":"Feature","properties":{},"geometry":{"type":"Polygon","coordinates":[[[73.57,-54.74],[73.3,-54.98],[73.63,-55.23],[72.1,-54.45],[72.42,-54.18],[73.57,-54.74]]]}},{"type":"Feature","properties":{},"geometry":{"type":"Polygon","coordinates":[[[93.87,-68.18],[92.66,-68.57],[93.29,-68.61],[92.42,-69.35],[93.05,-69.46],[88.47,-70.43],[88.86,-70.55],[88.3,-71.04],[90.28,-70.71],[87.33,-71.61],[86.87,-72.57],[88.84,-72.99],[88.74,-73.46],[82.93,-73.25],[83.59,-73.09],[82.82,-72.61],[78.39,-72.46],[74.55,-71.5],[75.46,-71.02],[79.44,-71.26],[81.24,-70.11],[82.87,-70.65],[87.34,-70.47],[89.39,-69.75],[89.11,-70.03],[90.25,-69.95],[90.24,-69.51],[89.52,-69.64],[93.43,-67.91],[93.87,-68.18]]]}},{"type":"Feature","properties":{},"geometry":{"type":"Polygon","coordinates":[[[110.25,-53.71],[110.65,-55.03],[110.46,-57.28],[109.85,-56.86],[109.57,-55.19],[110.25,-53.71]]]}},{"type":"Feature","properties":{},"geometry":{"type":"Polygon","coordinates":[[[94.67,-38.1],[94.44,-38.77],[93.86,-38.36],[94.67,-38.1]]]}},{"type":"Feature","properties":{},"geometry":{"type":"Polygon","coordinates":[[[25.25,-27.62],[25.85,-25.49],[27.02,-24.44],[28.89,-24.71],[29.13,-25.13],[29.26,-24.66],[30.01,-24.93],[31.41,-24.13],[31.53,-23.5],[31.78,-23.85],[32.51,-23.67],[32.84,-22.79],[33.54,-22.57],[33.75,-23.81],[33.14,-26.25],[32.68,-26.62],[32.29,-25.98],[31.89,-27.24],[25.14,-33.38],[22.87,-33.15],[22.17,-32.21],[22.82,-29.43],[25.25,-27.62]]]}},{"type":"Feature","properties":{},"geometry":{"type":"Polygon","coordinates":[[[90.26,-32.54],[90.15,-33.09],[89.62,-32.76],[90.26,-32.54]]]}},{"type":"Feature","properties":{},"geometry":{"type":"Polygon","coordinates":[[[90.43,-32.44],[91.28,-33.35],[90.39,-33.39],[90.43,-32.44]]]}},{"type":"Feature","properties":{},"geometry":{"type":"Polygon","coordinates":[[[73.47,-59.38],[72.72,-58.84],[72.58,-57.92],[73.12,-57.06],[74.47,-56.39],[74.69,-55.54],[74.41,-56.51],[74.69,-56.19],[74.68,-55.47],[73.89,-55.07],[75.42,-54.85],[75.9,-54.14],[74.3,-54.53],[73.28,-54.06],[76.54,-53.68],[77.76,-52.79],[77.07,-53.2],[72.87,-53.32],[72.69,-52.52],[73,-52.79],[73.58,-52.22],[74.49,-49.99],[73.32,-49],[73.07,-47.96],[68.04,-45.21],[65.86,-44.53],[64.33,-44.66],[61.64,-42.31],[59.1,-41.83],[58.06,-40.42],[58.12,-39.3],[60.54,-38.56],[62.51,-36.26],[64.1,-32.78],[64.23,-33.54],[64.9,-32.57],[64.48,-33.19],[64.81,-33.1],[64.77,-33.59],[65.72,-31.73],[68.39,-30.31],[67.89,-30.87],[71.57,-31.13],[72.1,-31.8],[75.82,-33.15],[78.05,-32.89],[78.55,-32.13],[79.87,-31.94],[79.46,-33.28],[80.4,-32.94],[80.15,-32.51],[80.58,-32.18],[81.61,-33.21],[81.17,-32.82],[82.05,-32.56],[81.52,-32.62],[81.81,-32.23],[82.26,-32.17],[82.53,-32.82],[82.46,-32.2],[83.05,-32.62],[83.05,-32.06],[83.84,-31.95],[83.82,-32.48],[84.43,-31.97],[84.36,-32.36],[85.33,-32.36],[85.68,-32.85],[85.81,-33.96],[84.78,-34.44],[86.05,-34.15],[86.67,-35.16],[87.41,-34.75],[87.15,-34.33],[89.3,-33.61],[89.63,-33.89],[89.7,-33.53],[89.87,-33.98],[90.63,-33.67],[91.95,-34.63],[92.3,-34.16],[91.59,-33.37],[91.93,-33.33],[93.31,-35.42],[94,-35.6],[94.22,-36.2],[95.14,-36.27],[94.7,-36.32],[95.19,-36.43],[94.86,-36.77],[95.84,-36.57],[95.92,-37.19],[95.12,-37.55],[94.18,-37.34],[93.48,-38.08],[92.11,-38.03],[92.6,-38.68],[92.13,-38.71],[92.62,-38.73],[93.15,-39.76],[92.65,-39.78],[93.29,-40.06],[94.67,-42.91],[95.49,-43.48],[98.72,-42.2],[99.45,-40.92],[101.02,-40.14],[100.53,-39.9],[102.84,-38.83],[102.43,-41.18],[101.56,-42.59],[102.55,-42.8],[102.9,-43.9],[101.83,-45.17],[102.1,-45.85],[100.85,-47.64],[102.65,-50.1],[102.17,-50.44],[102.38,-51.55],[101.59,-52.5],[102.06,-52.78],[102.53,-52.33],[102.78,-53.08],[103.11,-52.85],[102.3,-53.89],[101.89,-53.55],[102.44,-54.68],[102.93,-54.79],[102.81,-56.17],[103.15,-56.42],[102.56,-57.06],[102.86,-57.11],[101.12,-58.1],[100.39,-59.51],[93.89,-61.81],[92.3,-61.57],[90.86,-61.94],[90.3,-61.57],[90.67,-61.93],[87.78,-62.66],[85.88,-62.64],[82.67,-63.73],[79.57,-62.48],[76.66,-62.08],[76.06,-62.46],[76.4,-62.12],[76.01,-62.02],[76.36,-61.81],[76.12,-61.46],[76.74,-61.35],[75.82,-60.87],[76.91,-60.75],[73.89,-60.48],[73.47,-59.38]]]}},{"type":"Feature","properties":{},"geometry":{"type":"Polygon","coordinates":[[[101.14,-34.06],[101.35,-34.39],[100.7,-34.71],[99.77,-34.07],[101.14,-34.06]]]}},{"type":"Feature","properties":{},"geometry":{"type":"Polygon","coordinates":[[[111.87,6.37],[111.64,5.83],[110.8,5.59],[111.87,6.37]]]}},{"type":"Feature","properties":{},"geometry":{"type":"Polygon","coordinates":[[[97.35,-30.56],[97.46,-31.07],[96.92,-31.18],[97.35,-30.56]]]}},{"type":"Feature","properties":{},"geometry":{"type":"Polygon","coordinates":[[[97.92,-30.58],[97.69,-30.94],[97.5,-30.55],[97.92,-30.58]]]}},{"type":"Feature","properties":{},"geometry":{"type":"Polygon","coordinates":[[[104.44,3.43],[106.58,4.21],[107.21,3.91],[108.74,4.58],[108.93,5.34],[110.59,5.71],[111.33,5.19],[112.69,5.77],[113.16,5.05],[105.5,2.31],[105.39,2.72],[104.17,2.3],[104.44,3.43]]]}},{"type":"Feature","properties":{},"geometry":{"type":"Polygon","coordinates":[[[98.07,-30.19],[98.06,-30.68],[97.61,-30.48],[98.07,-30.19]]]}},{"type":"Feature","properties":{},"geometry":{"type":"Polygon","coordinates":[[[105.02,7.21],[105.61,7.23],[105.6,6.72],[105.24,6.54],[105.02,7.21]]]}},{"type":"Feature","properties":{},"geometry":{"type":"Polygon","coordinates":[[[102.85,6.88],[103.73,6.39],[104.27,6.6],[104.49,6.12],[102.6,5.95],[102.85,6.88]]]}},{"type":"Feature","properties":{},"geometry":{"type":"Polygon","coordinates":[[[110.16,-37.59],[110.61,-40.43],[111.44,-40.7],[111.07,-41.09],[111.91,-41.64],[111.48,-41.84],[112.55,-42.48],[111.85,-42.34],[112.09,-42.71],[109.18,-40.89],[108.21,-38.07],[107.09,-37.03],[106.46,-37.15],[106.18,-36.42],[106.1,-37.23],[105.45,-36.8],[105.61,-37.28],[104.07,-36.53],[104.93,-37.21],[104.87,-37.82],[102.33,-36.85],[101.81,-35.36],[102.22,-35.18],[100.74,-34.88],[101.37,-34.39],[101.14,-33.84],[102.16,-34.33],[101.18,-33.57],[101.83,-33.96],[101.42,-32.98],[101.84,-32.51],[101.47,-32.27],[101.58,-31.34],[101.28,-31.48],[99.18,-29.14],[104.33,-31.95],[110.16,-37.59]]]}},{"type":"Feature","properties":{},"geometry":{"type":"Polygon","coordinates":[[[100.14,8.26],[100.4,7.93],[99.95,7.91],[100.14,8.26]]]}},{"type":"Feature","properties":{},"geometry":{"type":"Polygon","coordinates":[[[-3.68,-12.35],[-3.81,-12.75],[-4.06,-12.54],[-3.68,-12.35]]]}},{"type":"Feature","properties":{},"geometry":{"type":"Polygon","coordinates":[[[90.99,6.03],[92.82,6.92],[94.03,6.35],[98.89,6.52],[101.32,2.46],[98.71,3.64],[97.09,3.84],[95.95,4.83],[91.38,5.34],[90.78,5.78],[90.99,6.03]]]}},{"type":"Feature","properties":{},"geometry":{"type":"Polygon","coordinates":[[[98.56,6.62],[99.44,6.75],[99.25,6.31],[100.02,6.99],[100.37,5.97],[101.35,6.34],[102.57,5.31],[103.17,6],[103.89,5.78],[105.38,3.27],[104.75,3.37],[104.87,3.01],[104.19,2.85],[104.46,2.54],[100.67,2.91],[98.56,6.62]]]}},{"type":"Feature","properties":{},"geometry":{"type":"Polygon","coordinates":[[[107.61,19.9],[107.79,19.52],[107.92,20.09],[108.74,19.87],[109.35,19.28],[110.71,19.64],[109.91,18.68],[110.6,18.54],[109.66,18.01],[110.19,17.43],[109.53,17.04],[110.13,17.23],[109.78,17.03],[111.16,16.4],[111.15,15.87],[112.63,15.61],[111.54,15.26],[112.22,13.45],[111.42,11.91],[111.75,11.9],[111.52,11.42],[112.02,11.57],[111.9,9.95],[111.15,9.04],[110.67,9.74],[109.92,9.21],[109.13,9.39],[108.42,8.28],[107.89,8.87],[106.73,7.99],[105.55,9.5],[104.8,9.38],[104.99,9.63],[103.87,10.23],[103.42,11.84],[105.51,12.29],[105.09,12.34],[104.91,13.55],[106.1,14.74],[106.25,16.44],[107.37,17.4],[107.61,19.9]]]}},{"type":"Feature","properties":{},"geometry":{"type":"Polygon","coordinates":[[[27.04,-37.45],[24.41,-39.24],[22.84,-39.14],[22.14,-38.19],[22.54,-37.61],[24.82,-37.13],[25.13,-37.19],[24.55,-37.26],[27.04,-37.45]]]}},{"type":"Feature","properties":{},"geometry":{"type":"Polygon","coordinates":[[[-31.65,1.04],[-31.53,0.35],[-32.42,0.12],[-32.01,0.44],[-32.27,0.82],[-31.65,1.04]]]}},{"type":"Feature","properties":{},"geometry":{"type":"Polygon","coordinates":[[[-50.21,-20.18],[-49.37,-21.39],[-50.73,-20.51],[-50.21,-20.18]]]}},{"type":"Feature","properties":{},"geometry":{"type":"Polygon","coordinates":[[[-52.95,-15.24],[-51.29,-17.4],[-51.04,-18.22],[-51.52,-18.05],[-51.01,-19.27],[-51.53,-19.32],[-53.08,-17.56],[-53.88,-17.77],[-53.81,-16.9],[-55.15,-15.73],[-55.25,-15.1],[-54.85,-15.06],[-53.76,-16.49],[-53.26,-15.64],[-53.56,-14.94],[-52.95,-15.24]]]}},{"type":"Feature","properties":{},"geometry":{"type":"Polygon","coordinates":[[[100.88,25.48],[101.86,25.55],[101.46,24.34],[100.47,23.71],[99.56,24.03],[99.52,24.9],[100.88,25.48]]]}},{"type":"Feature","properties":{},"geometry":{"type":"Polygon","coordinates":[[[-50.02,-14.1],[-49.08,-15.97],[-48.16,-21.82],[-50.58,-19.28],[-49.57,-19.15],[-50.01,-18.45],[-49.59,-17.48],[-50.78,-14.82],[-50.39,-14.48],[-52.67,-12.53],[-52.2,-12.98],[-51.46,-12.8],[-50.02,-14.1]]]}},{"type":"Feature","properties":{},"geometry":{"type":"Polygon","coordinates":[[[126.22,45.11],[127.09,44.69],[126.78,44.34],[127.32,43.89],[125.97,42.52],[125.08,42.3],[125.46,42.95],[125.05,42.47],[124.58,42.81],[125.61,44.03],[125.27,44.53],[125.27,44],[124.54,44.01],[124.63,44.53],[124.93,44.22],[124.58,44.78],[126.22,45.11]]]}},{"type":"Feature","properties":{},"geometry":{"type":"Polygon","coordinates":[[[130.16,44.85],[130.63,44.22],[129.78,43.76],[128.97,44.12],[127.93,43.66],[127.88,44.34],[127.39,44.31],[128.65,44.88],[130.16,44.85]]]}},{"type":"Feature","properties":{},"geometry":{"type":"Polygon","coordinates":[[[17.45,11.56],[19.08,10.33],[17.85,10.69],[17.17,11.42],[17.45,11.56]]]}},{"type":"Feature","properties":{},"geometry":{"type":"Polygon","coordinates":[[[22.88,7.05],[22.02,7.19],[21.35,7.84],[21.41,8.44],[22.11,8.22],[22.88,7.05]]]}},{"type":"Feature","properties":{},"geometry":{"type":"Polygon","coordinates":[[[12.95,17.17],[11.7,16.01],[10.45,18.1],[10.89,18.3],[12.95,17.17]]]}},{"type":"Feature","properties":{},"geometry":{"type":"Polygon","coordinates":[[[18.8,14.79],[19.15,13.45],[18.33,14.84],[18.8,14.79]]]}},{"type":"Feature","properties":{},"geometry":{"type":"Polygon","coordinates":[[[26.73,32.71],[27.16,32.52],[26.45,32.34],[26.73,32.71]]]}},{"type":"Feature","properties":{},"geometry":{"type":"Polygon","coordinates":[[[7.82,21.84],[7.84,21.14],[7.22,21.31],[7.82,21.84]]]}},{"type":"Feature","properties":{},"geometry":{"type":"Polygon","coordinates":[[[10.89,25.73],[10.72,25.19],[9.24,24.42],[8.38,24.84],[10.12,26.23],[10.89,25.73]]]}},{"type":"Feature","properties":{},"geometry":{"type":"Polygon","coordinates":[[[130.39,45.16],[128.11,45.23],[127.69,44.76],[126.29,45.13],[126.58,45.59],[129.4,46.28],[132.8,45.7],[134.24,47.18],[134.97,47.18],[134.25,46.91],[134.51,46.47],[136.24,46.78],[138.34,47.96],[139.15,49.57],[140,50.07],[140.68,49.51],[140.96,49.88],[140.42,49.86],[140.78,50.21],[141.34,49.97],[141.04,47.96],[139.91,46.95],[139.12,46.88],[138.01,45.26],[138.13,44.66],[137.37,44.26],[136.61,44.19],[137.14,44.84],[135.4,44.15],[135.57,44.58],[134.78,44.2],[133.43,44.44],[133.88,44.56],[133.28,44.98],[132.9,44.58],[133.2,44.18],[131.4,43.74],[131,44.2],[131.74,44.9],[130.39,45.16]]]}},{"type":"Feature","properties":{},"geometry":{"type":"Polygon","coordinates":[[[12.64,26.52],[10.97,25.82],[11.65,26.75],[12.64,26.52]]]}},{"type":"Feature","properties":{},"geometry":{"type":"Polygon","coordinates":[[[142.06,48.11],[143.49,46.02],[144.65,46.09],[144.1,45.67],[144.16,45.06],[142.5,45.12],[141.45,44.51],[140.16,45.53],[139.3,45.53],[139.27,46.52],[140.32,46.22],[142.06,48.11]]]}},{"type":"Feature","properties":{},"geometry":{"type":"Polygon","coordinates":[[[140.97,51.26],[140.44,51.02],[141.21,50.38],[139.79,50.29],[140.1,51.48],[140.97,51.26]]]}},{"type":"Feature","properties":{},"geometry":{"type":"Polygon","coordinates":[[[49.69,47.48],[50.18,47.18],[49.42,47.63],[49.69,47.48]]]}},{"type":"Feature","properties":{},"geometry":{"type":"Polygon","coordinates":[[[-10.48,23.22],[-10.24,22.54],[-10.66,21.85],[-10.21,22.58],[-9.7,22.3],[-10.71,21.68],[-11.01,22.13],[-10.48,23.22]]]}},{"type":"Feature","properties":{},"geometry":{"type":"Polygon","coordinates":[[[-12.97,22.58],[-12.72,22.18],[-11.41,22.46],[-11.86,21.85],[-12.97,22.1],[-12.97,22.58]]]}},{"type":"Feature","properties":{},"geometry":{"type":"Polygon","coordinates":[[[-13.74,25.58],[-11.81,25.11],[-13.22,25.1],[-13.74,25.58]]]}},{"type":"Feature","properties":{},"geometry":{"type":"Polygon","coordinates":[[[-68.67,-4.45],[-66.97,-4.87],[-65.56,-6.54],[-66.68,-6.41],[-66.47,-5.91],[-66.91,-6.29],[-67.6,-5.89],[-67.35,-5.55],[-68.54,-5.21],[-68.25,-4.7],[-68.64,-4.88],[-68.67,-4.45]]]}},{"type":"Feature","properties":{},"geometry":{"type":"Polygon","coordinates":[[[-7.39,26.13],[-6.88,26.68],[-6.08,26.57],[-6.33,25.6],[-5.55,26.03],[-6.11,25.44],[-5.69,24.86],[-5.29,25.57],[-5.02,24.13],[-5.4,24.02],[-5.52,24.59],[-5.87,24.09],[-6.1,25.14],[-6.99,23.84],[-6.7,24.92],[-7.04,24.4],[-7.49,24.39],[-7.34,24.91],[-7.98,24.31],[-9.77,24],[-7.39,26.13]]]}},{"type":"Feature","properties":{},"geometry":{"type":"Polygon","coordinates":[[[-8.48,28.42],[-8.13,28.27],[-8.53,28.11],[-8.21,27.93],[-8.65,26.44],[-7.75,26.92],[-8.08,26.4],[-7.35,26.54],[-7.39,26.13],[-9.76,24.13],[-9.25,25.03],[-9.94,24.9],[-9.49,25.63],[-9.11,25.53],[-9.46,25.81],[-9.11,26.03],[-9.25,27.29],[-8.48,28.42]]]}},{"type":"Feature","properties":{},"geometry":{"type":"Polygon","coordinates":[[[-26.04,27.42],[-25.55,26.91],[-26.49,27.19],[-26.04,27.42]]]}},{"type":"Feature","properties":{},"geometry":{"type":"Polygon","coordinates":[[[-71.04,-2.12],[-70.65,-3.26],[-71.49,-2.29],[-71.04,-2.12]]]}},{"type":"Feature","properties":{},"geometry":{"type":"Polygon","coordinates":[[[-71.74,-1.18],[-71.24,-1.36],[-71.43,-1.81],[-70.94,-1.21],[-71.28,-2.23],[-71.74,-1.18]]]}},{"type":"Feature","properties":{},"geometry":{"type":"Polygon","coordinates":[[[148.94,55.86],[148.26,54.38],[147.14,53.47],[147.44,53.57],[146.65,50.21],[146.37,50.96],[145.29,51.13],[144,50.03],[144.16,48.43],[143.77,48.17],[143.95,48.64],[143.51,49.03],[142.41,48.41],[143.97,51.11],[145.99,53.15],[145.89,53.85],[147.32,55.28],[148.18,55.16],[148.43,55.97],[148.94,55.86]]]}},{"type":"Feature","properties":{},"geometry":{"type":"Polygon","coordinates":[[[-87.01,5.41],[-86.98,4.85],[-87.9,5.42],[-87.01,5.41]]]}},{"type":"Feature","properties":{},"geometry":{"type":"Polygon","coordinates":[[[171.68,79.91],[172.91,79.72],[169.47,79.63],[171.68,79.91]]]}},{"type":"Feature","properties":{},"geometry":{"type":"Polygon","coordinates":[[[-4.56,30.88],[-3.85,31.39],[-4.7,31.03],[-4.24,31.87],[-5.18,31.79],[-4.9,32.28],[-5.44,32.6],[-4.38,32.88],[-4.29,33.36],[-4.76,33.28],[-4.12,34.19],[-3.76,34.15],[-3.94,33.77],[-3.19,34.28],[-2.47,33.75],[-2.93,33.26],[-2.64,32.83],[-4.56,30.88]]]}},{"type":"Feature","properties":{},"geometry":{"type":"Polygon","coordinates":[[[-3.34,30.72],[-4.18,30.01],[-4.06,30.34],[-4.5,30.09],[-4.19,30.46],[-4.74,30.26],[-4.42,30.68],[-4.91,30.57],[-2.64,32.83],[-2.13,31.4],[-3.34,30.72]]]}},{"type":"Feature","properties":{},"geometry":{"type":"Polygon","coordinates":[[[7.19,38.51],[7.7,38.14],[6.75,38.25],[7.19,38.51]]]}},{"type":"Feature","properties":{},"geometry":{"type":"Polygon","coordinates":[[[-69.91,22.54],[-69.79,21.79],[-69.95,22.23],[-70.2,22],[-69.91,22.54]]]}},{"type":"Feature","properties":{},"geometry":{"type":"Polygon","coordinates":[[[8.12,39.49],[8.61,38.4],[7.38,38.77],[7.8,39.22],[8.2,39.02],[7.86,39.23],[8.12,39.49]]]}},{"type":"Feature","properties":{},"geometry":{"type":"Polygon","coordinates":[[[-72.02,1],[-71.15,-0.69],[-71.84,-0.08],[-72.02,1]]]}},{"type":"Feature","properties":{},"geometry":{"type":"Polygon","coordinates":[[[-24.93,30.91],[-24.66,30.6],[-25.19,30.04],[-24.93,30.91]]]}},{"type":"Feature","properties":{},"geometry":{"type":"Polygon","coordinates":[[[-4.45,36.58],[-3.96,35.99],[-4.62,36.22],[-4.45,36.58]]]}},{"type":"Feature","properties":{},"geometry":{"type":"Polygon","coordinates":[[[10.88,42.8],[11.3,42.47],[11.17,41.8],[10.71,42.32],[10.88,42.8]]]}},{"type":"Feature","properties":{},"geometry":{"type":"Polygon","coordinates":[[[-72.53,-0.46],[-72.39,-1.4],[-73.02,-0.75],[-72.53,-0.46]]]}},{"type":"Feature","properties":{},"geometry":{"type":"Polygon","coordinates":[[[-72.62,2.98],[-72.11,2.11],[-72.54,1.68],[-72.62,2.98]]]}},{"type":"Feature","properties":{},"geometry":{"type":"Polygon","coordinates":[[[-4.78,37.33],[-4.87,36.47],[-5.14,36.93],[-4.78,37.33]]]}},{"type":"Feature","properties":{},"geometry":{"type":"Polygon","coordinates":[[[12.6,44.54],[13.17,44.63],[12.83,43.78],[12.24,44.22],[12.6,44.54]]]}},{"type":"Feature","properties":{},"geometry":{"type":"Polygon","coordinates":[[[-3.08,38.04],[-3.2,35.9],[-3.96,35.67],[-3.6,36.2],[-4.21,36.81],[-3.73,36.92],[-4.07,37.68],[-3.08,38.04]]]}},{"type":"Feature","properties":{},"geometry":{"type":"Polygon","coordinates":[[[-2.91,36.97],[-1.62,37.4],[-1.56,36.29],[-1.99,35.94],[-1.46,36],[-2.19,35.58],[-1,35.77],[-0.32,35.34],[-2.24,34.01],[-2.93,35.52],[-3.06,34.43],[-3.41,35.39],[-2.91,36.97]]]}},{"type":"Feature","properties":{},"geometry":{"type":"Polygon","coordinates":[[[-0.32,35.34],[1.19,34.58],[1.59,34.15],[0.98,34.05],[1.65,34.04],[1.82,33.47],[3.03,33.72],[3.26,33.1],[2.72,32.21],[3.57,32.2],[-0.82,29.52],[-0.29,30.92],[0.53,31.22],[0.73,31.91],[0.24,31.3],[-1.32,31.36],[-0.67,32.26],[-0.9,32.58],[-1.32,32.31],[-1.17,32.7],[-0.2,33.23],[-1.32,34.42],[-0.32,35.34]]]}},{"type":"Feature","properties":{},"geometry":{"type":"Polygon","coordinates":[[[12.22,44.92],[12.71,44.86],[12.03,44.63],[12.22,44.92]]]}},{"type":"Feature","properties":{},"geometry":{"type":"Polygon","coordinates":[[[-25.62,36.62],[-25.77,35.81],[-26.05,36.23],[-25.62,36.62]]]}},{"type":"Feature","properties":{},"geometry":{"type":"Polygon","coordinates":[[[-27.28,37.15],[-27.09,36.87],[-28.06,36.26],[-28.01,36.96],[-27.28,37.15]]]}},{"type":"Feature","properties":{},"geometry":{"type":"Polygon","coordinates":[[[-45.99,65.07],[-49.12,64.6],[-48.92,65.02],[-46.63,65.39],[-45.99,65.07]]]}},{"type":"Feature","properties":{},"geometry":{"type":"Polygon","coordinates":[[[-29.21,40.01],[-28.87,39.32],[-28.65,39.58],[-27.15,38.72],[-27.2,38.14],[-26.15,37.98],[-26.64,37.63],[-27.82,38.31],[-29.09,37.19],[-29.27,37.84],[-30.1,37.68],[-29.53,38.17],[-29.21,40.01]]]}},{"type":"Feature","properties":{},"geometry":{"type":"Polygon","coordinates":[[[26.42,66.44],[27.01,66.38],[26.53,66.05],[26.42,66.44]]]}},{"type":"Feature","properties":{},"geometry":{"type":"Polygon","coordinates":[[[-24.52,42.71],[-24.05,42.58],[-24,41.85],[-24.9,41.58],[-25.01,42.41],[-24.52,42.71]]]}},{"type":"Feature","properties":{},"geometry":{"type":"Polygon","coordinates":[[[-0.17,51.08],[0.24,50.74],[0.1,51.16],[0.5,51.04],[0.42,50.55],[0.14,50.36],[-0.17,51.08]]]}},{"type":"Feature","properties":{},"geometry":{"type":"Polygon","coordinates":[[[-33.44,62.64],[-37.85,62.93],[-40.2,63.84],[-40.64,63.66],[-39.07,63.3],[-41.2,62.7],[-43.8,62.81],[-43.54,63.25],[-43.91,63.42],[-42.95,63.49],[-43.8,63.66],[-42.14,63.98],[-43.64,64.22],[-43.28,64.76],[-44.58,64.78],[-43.89,64.92],[-44.16,65.14],[-43.41,64.94],[-43.61,65.23],[-40.07,64.94],[-37.93,65.46],[-36.93,64.67],[-36.18,65.1],[-37.22,65.66],[-36.41,65.57],[-33.14,62.61],[-33.44,62.64]]]}},{"type":"Feature","properties":{},"geometry":{"type":"Polygon","coordinates":[[[-0.5,51],[-0.12,50.62],[-0.53,50.56],[-0.5,51]]]}},{"type":"Feature","properties":{},"geometry":{"type":"Polygon","coordinates":[[[13.35,60.33],[14.05,60.35],[14.09,59.65],[12.84,60.05],[13.35,60.33]]]}},{"type":"Feature","properties":{},"geometry":{"type":"Polygon","coordinates":[[[0.14,51.91],[0.6,51.77],[0.39,51.42],[-0.09,51.65],[0.14,51.91]]]}},{"type":"Feature","properties":{},"geometry":{"type":"Polygon","coordinates":[[[-35.07,43.98],[-34.29,42.85],[-36.18,43.21],[-35.07,43.98]]]}},{"type":"Feature","properties":{},"geometry":{"type":"Polygon","coordinates":[[[-24,62.66],[-24.86,62.82],[-23.59,62.88],[-24,62.66]]]}},{"type":"Feature","properties":{},"geometry":{"type":"Polygon","coordinates":[[[-15.32,41.2],[-14.2,40.69],[-15.26,40.31],[-14.85,40.4],[-15.63,40.57],[-15.32,41.2]]]}},{"type":"Feature","properties":{},"geometry":{"type":"Polygon","coordinates":[[[14.43,63.67],[16.43,63.81],[15.1,63.37],[14.43,63.67]]]}},{"type":"Feature","properties":{},"geometry":{"type":"Polygon","coordinates":[[[1.05,54.21],[1.2,53.86],[0.69,53.74],[1.05,54.21]]]}},{"type":"Feature","properties":{},"geometry":{"type":"Polygon","coordinates":[[[-3.56,44.85],[-3.15,44.57],[-4.2,43.96],[-3.56,44.85]]]}},{"type":"Feature","properties":{},"geometry":{"type":"Polygon","coordinates":[[[-31.22,60.91],[-30.82,61.12],[-30.58,60.69],[-30.83,60.46],[-31.22,60.91]]]}},{"type":"Feature","properties":{},"geometry":{"type":"Polygon","coordinates":[[[-31.5,60.11],[-32.79,60.34],[-31.45,60.79],[-31.02,60.27],[-31.5,60.11]]]}},{"type":"Feature","properties":{},"geometry":{"type":"Polygon","coordinates":[[[-65.05,81],[-66.27,81.07],[-64.58,81.16],[-65.05,81]]]}},{"type":"Feature","properties":{},"geometry":{"type":"Polygon","coordinates":[[[-13.83,22.6],[-12.87,21.73],[-11.6,21.53],[-11.24,21.91],[-10.41,21.5],[-12.72,20.28],[-13.38,19.03],[-14.1,19.9],[-13.02,21.01],[-12.72,20.67],[-12.17,21.2],[-13.35,20.94],[-13.19,21.63],[-15.67,19.44],[-16.25,19.58],[-16.28,19.07],[-17.04,18.73],[-17.44,17.25],[-16.8,16.74],[-16.65,17.1],[-16.51,16.62],[-17.43,16.4],[-17.62,16.73],[-17.64,16.28],[-18.26,16.11],[-16.73,19.68],[-13.83,22.6]]]}},{"type":"Feature","properties":{},"geometry":{"type":"Polygon","coordinates":[[[-11.05,-34.42],[-12.3,-37.89],[-13.23,-39.12],[-12.26,-37.12],[-13.18,-36.84],[-12.84,-37.15],[-13.54,-38.73],[-13.49,-40.16],[-14.51,-42],[-16.56,-42.71],[-18.56,-42.65],[-19.42,-42.14],[-19.31,-41.18],[-19.68,-41.44],[-19.33,-42.76],[-17.53,-43.3],[-17.21,-44.15],[-26.5,-43.35],[-28.57,-42.85],[-35.17,-36.13],[-35.76,-34.28],[-35.58,-32.41],[-36.45,-29.96],[-28.86,-32.37],[-22.73,-33.68],[-16.5,-34.38],[-11.05,-34.42]]]}},{"type":"Feature","properties":{},"geometry":{"type":"Polygon","coordinates":[[[-21.47,-46.56],[-22.18,-46.46],[-21.49,-46.99],[-21.86,-46.97],[-21.5,-47.05],[-21.26,-48.53],[-22.68,-49.08],[-24.29,-49.04],[-23.66,-50.22],[-22.88,-50.45],[-22.26,-49.94],[-21.8,-50.58],[-23.35,-50.76],[-22.45,-50.93],[-23.27,-51.78],[-22.85,-53.05],[-24.35,-53.72],[-24.63,-54.62],[-23.19,-55.3],[-21.9,-55.26],[-21.51,-55.97],[-22.91,-57.38],[-22.7,-58.37],[-23.6,-58.39],[-23.12,-58.62],[-23.7,-59.15],[-23.12,-60.24],[-21.66,-60.67],[-22.74,-60.71],[-24.33,-61.57],[-23.69,-62.41],[-23.9,-62.74],[-25.75,-62.53],[-24.82,-62.49],[-24.5,-61.77],[-25.27,-61.55],[-26.89,-61.79],[-26.55,-61.88],[-26.78,-62.39],[-27.54,-62.2],[-26.94,-61.78],[-27.79,-62.17],[-28.29,-61.52],[-27.06,-61.57],[-27.16,-61.24],[-26.69,-61.43],[-27.05,-61.75],[-26.53,-61.68],[-26.9,-61.01],[-28.02,-60.62],[-27.01,-60.99],[-28.04,-60.99],[-27.39,-61.18],[-27.62,-61.47],[-28.13,-61.07],[-27.66,-61.56],[-28.78,-61.16],[-28.37,-61.09],[-29.62,-60.55],[-28.73,-60.16],[-29.15,-59.91],[-29.42,-60.45],[-29.98,-60.14],[-29.4,-60.14],[-29.68,-59.99],[-30.63,-59.96],[-29.55,-59.88],[-30.52,-59.34],[-29.67,-59.3],[-30.47,-58.76],[-30.41,-59.22],[-30.77,-59.13],[-31.15,-58.57],[-30.72,-58.45],[-31.21,-58.38],[-30.69,-58.1],[-31.84,-57.86],[-30.17,-57.61],[-30.97,-57.25],[-32.08,-57.6],[-31.45,-57.37],[-32,-57.26],[-31.55,-56.92],[-32.04,-56.58],[-33.74,-56.88],[-32.89,-56.12],[-33.46,-55.91],[-33.06,-55.77],[-32.3,-55.65],[-31.61,-56.34],[-31.26,-55.32],[-31.7,-55.51],[-31.76,-55.17],[-30.96,-55.02],[-31.92,-54.93],[-31.14,-54.09],[-32.14,-53.9],[-32.31,-52.23],[-31.96,-52.21],[-32.43,-52.02],[-31.83,-52.11],[-32.64,-51.65],[-32.12,-51.14],[-33.73,-51.65],[-34.36,-49.96],[-33.99,-49.26],[-35.29,-47.36],[-34.76,-47.05],[-34.17,-43.41],[-35.41,-38.82],[-35.26,-34.88],[-30.75,-39.11],[-26.73,-43.79],[-21.47,-46.56]]]}},{"type":"Feature","properties":{},"geometry":{"type":"Polygon","coordinates":[[[-38.64,-0.27],[-36.7,0.06],[-35.5,-0.37],[-34.16,0.29],[-34.79,0.37],[-32.47,0.83],[-33.45,0.43],[-32.79,-0.18],[-31.3,-0.3],[-31.27,-1.19],[-30.36,-1.02],[-28.85,-1.76],[-28.59,-2.92],[-28.36,-2.4],[-27.04,-3.27],[-25.02,-2.71],[-22.85,-2.87],[-20.94,-3.86],[-20.26,-5.41],[-19.09,-6.26],[-20.22,-8.43],[-19.63,-7.81],[-19.84,-8.55],[-19.32,-7.85],[-17.25,-7.66],[-17.49,-8.88],[-18.95,-9.65],[-17.88,-9.21],[-17.9,-9.68],[-16.97,-8.8],[-16.74,-7.81],[-15.65,-7.75],[-14.04,-8.04],[-13.97,-8.47],[-13.56,-8.05],[-13.24,-8.32],[-13.29,-8.85],[-12.88,-8.84],[-13.09,-9.88],[-12.79,-8.98],[-12.53,-8.84],[-12.62,-9.32],[-11.91,-8.63],[-10.67,-8.87],[-8.42,-8.42],[-5.19,-9.86],[-3.2,-9.97],[-2.2,-12.33],[-4.28,-17.49],[-4.72,-18.03],[-4.99,-17.69],[-4.18,-22.72],[-4.94,-27.33],[-5.79,-28.05],[-5.72,-28.51],[-8.18,-28.97],[-11.42,-32.23],[-11.99,-32.25],[-11.53,-32.37],[-11.88,-33.03],[-11.51,-33.02],[-11.13,-34.92],[-16.6,-34.73],[-22.82,-33.85],[-28.89,-32.37],[-36.38,-29.74],[-37.92,-28.31],[-43.06,-26.29],[-47.09,-20.3],[-48.32,-18.9],[-49.57,-18.33],[-49.36,-17.79],[-49.9,-16.57],[-48.77,-15.6],[-48.5,-14.72],[-48.78,-14.49],[-49.03,-14.95],[-49.87,-14.47],[-49.23,-11.45],[-48.17,-10.93],[-47.91,-9.98],[-43.64,-7.46],[-42.55,-3.88],[-39.85,-0.74],[-38.64,-0.27]]]}},{"type":"Feature","properties":{},"geometry":{"type":"Polygon","coordinates":[[[-48.23,-4.24],[-47.4,-4.99],[-47.61,-4.36],[-46.38,-3.42],[-46.12,-2],[-44.22,-1.36],[-42.75,-0.06],[-42.18,-0.41],[-42.96,-0.98],[-42.51,-1.8],[-42.97,-2.74],[-42.48,-3.46],[-41.87,-2.74],[-42.53,-1.71],[-41.08,-0.93],[-41.12,-0.17],[-40.66,-0.87],[-39.25,-1.31],[-40.46,-2.02],[-43.27,-5.05],[-44.51,-8.59],[-48.9,-10.93],[-47.35,-9],[-47.9,-8.74],[-47.86,-6.38],[-48.69,-5.56],[-48.23,-4.24]]]}},{"type":"Feature","properties":{},"geometry":{"type":"Polygon","coordinates":[[[-17.74,-43.43],[-16.88,-43.98],[-17.31,-45.34],[-21.57,-47.17],[-26.39,-44.82],[-29,-42.24],[-17.74,-43.43]]]}},{"type":"Feature","properties":{},"geometry":{"type":"Polygon","coordinates":[[[-59.04,12.63],[-58.72,12.54],[-58.74,13.1],[-59.35,13.14],[-59.95,15.59],[-58.96,16.11],[-57.72,15.16],[-56.23,11.91],[-55.96,10.47],[-56.32,9.4],[-59.04,12.63]]]}},{"type":"Feature","properties":{},"geometry":{"type":"Polygon","coordinates":[[[-59.95,15.59],[-59.45,16.77],[-59.57,18.12],[-58.43,21.36],[-58.04,21.32],[-58.47,21.41],[-58.03,22.03],[-58.39,22.07],[-58.45,23.57],[-57.11,23.06],[-57.46,21.97],[-56.85,22.34],[-56.94,23.7],[-56.22,23.98],[-56.26,22.54],[-54.94,22.27],[-54.28,21.03],[-52.63,20.65],[-52.85,19.46],[-59.95,15.59]]]}},{"type":"Feature","properties":{},"geometry":{"type":"Polygon","coordinates":[[[-64.59,-5.35],[-65.37,-5.85],[-65.6,-5.02],[-65.5,-5.47],[-65.93,-5.61],[-65.89,-4.9],[-66.16,-5.39],[-66.56,-5.11],[-66.27,-4.63],[-66.75,-4.84],[-66.34,-4.17],[-66.75,-3.95],[-66.8,-4.79],[-67.53,-4.73],[-67.13,-4.14],[-67.47,-4.58],[-67.54,-4.02],[-68.26,-4.38],[-67.81,-4.07],[-68.52,-4],[-67.86,-3.43],[-68.53,-3.8],[-68.61,-3.42],[-68.18,-2.98],[-67.87,-3.32],[-68.07,-2.98],[-67.68,-2.83],[-68.25,-2.78],[-65.39,-4.22],[-64.59,-5.35]]]}},{"type":"Feature","properties":{},"geometry":{"type":"Polygon","coordinates":[[[-68.12,-2.6],[-68.92,-3.07],[-68.66,-2.57],[-69.07,-2.28],[-68.12,-2.6]]]}},{"type":"Feature","properties":{},"geometry":{"type":"Polygon","coordinates":[[[-53.98,10.47],[-54.14,9.94],[-56.06,9.84],[-56.01,11.19],[-57.39,14.59],[-58.96,16.11],[-56.92,17.48],[-53.24,19.01],[-52.63,20.65],[-52.13,20.6],[-51.51,20.31],[-53.98,10.47]]]}},{"type":"Feature","properties":{},"geometry":{"type":"Polygon","coordinates":[[[-54.07,10.38],[-54,9.71],[-56.3,11.5],[-53.41,21.81],[-51.94,21.29],[-52.22,19.97],[-50.68,18.56],[-52.01,14.88],[-53.42,13.22],[-54.07,10.38]]]}},{"type":"Feature","properties":{},"geometry":{"type":"Polygon","coordinates":[[[-50.8,7.44],[-53.2,8.17],[-54,9.43],[-55.25,10.29],[-54.43,13.76],[-52.91,15.32],[-51.51,17.96],[-51.32,18.91],[-52.76,20.42],[-52.38,21.71],[-51.54,21.75],[-49.67,17.62],[-49.01,14.91],[-49.07,11.58],[-50.56,9.28],[-50.8,7.44]]]}},{"type":"Feature","properties":{},"geometry":{"type":"Polygon","coordinates":[[[-45.18,-9.45],[-46,-8.38],[-47.55,-8.55],[-48.82,-7.67],[-52.75,-3.23],[-53.56,-1.72],[-53.69,-0.43],[-53.24,-0.46],[-52.79,0.3],[-52.77,1.65],[-53.47,4.74],[-54.17,5.66],[-53.76,6.52],[-54.72,9.25],[-54.65,11.81],[-53.16,8.13],[-52.08,6.71],[-49.14,3.29],[-46.84,2.07],[-46.93,-4.52],[-46.5,-5.97],[-44.22,-9.49],[-45.18,-9.45]]]}},{"type":"Feature","properties":{},"geometry":{"type":"Polygon","coordinates":[[[-39.04,4.88],[-37.64,3.15],[-35.08,3.78],[-34.62,3.54],[-32.88,1.32],[-34.78,1.02],[-34.69,0.72],[-36.03,0.26],[-35.61,0.79],[-36.2,0.78],[-37.25,-0.18],[-38.56,-0.2],[-38.5,-0.5],[-40.42,2.18],[-40.01,4.31],[-39.04,4.88]]]}},{"type":"Feature","properties":{},"geometry":{"type":"Polygon","coordinates":[[[-54.05,9.6],[-54.62,7.85],[-53.59,3.72],[-53.8,1.24],[-53.08,-0.03],[-53.67,-0.4],[-54.85,2.25],[-54.41,3.01],[-54.78,4.56],[-55.26,4.49],[-55.97,5.94],[-55.14,5.46],[-54.87,6.28],[-55.63,8.01],[-55.41,11.69],[-55.9,12.92],[-57.24,14.19],[-57.14,17.54],[-56.07,14.35],[-54.56,12.33],[-54.05,9.6]]]}},{"type":"Feature","properties":{},"geometry":{"type":"Polygon","coordinates":[[[-52,6.78],[-51.86,7.22],[-53.26,8.19],[-54.42,10.72],[-55.73,11.73],[-55.43,12.15],[-54.75,12.43],[-53.03,11.97],[-51.78,10.36],[-50.04,9.36],[-49.23,8.1],[-46.82,7.39],[-45.27,6.3],[-44.7,5.28],[-44.49,0.98],[-49.39,3.81],[-52,6.78]]]}},{"type":"Feature","properties":{},"geometry":{"type":"Polygon","coordinates":[[[-50.54,60.94],[-50.7,61.76],[-49.96,61.7],[-50.38,61.85],[-49.31,62.48],[-45.44,62.68],[-46.37,60.76],[-47.27,61.06],[-48.33,60.12],[-50.54,60.94]]]}},{"type":"Feature","properties":{},"geometry":{"type":"Polygon","coordinates":[[[-48.22,60.06],[-46.55,60.21],[-47.76,60.11],[-46.89,59.79],[-45.64,60.39],[-42.17,60.43],[-41.73,59.89],[-42.68,59.1],[-41.68,57.95],[-42.48,56.44],[-42.19,55.75],[-43.28,55.99],[-43.01,55.53],[-45.34,54.83],[-49.12,51.26],[-50.29,50.67],[-51.39,50.96],[-52.94,54.07],[-51.02,55.19],[-49.25,57.79],[-47.61,58.94],[-48.22,60.06]]]}},{"type":"Feature","properties":{},"geometry":{"type":"Polygon","coordinates":[[[-19.48,15.14],[-19.99,13.56],[-20.67,14.16],[-20.09,13.05],[-20.68,11.67],[-20.51,12.54],[-21.19,13.36],[-20.92,14.12],[-21.43,13.75],[-21.07,12.56],[-21.91,12.89],[-20.99,12.4],[-21.53,12.45],[-20.95,11.52],[-21.5,11.7],[-20.7,11.47],[-20.22,10.38],[-20.66,11.26],[-20.45,10.64],[-21.2,10.45],[-20.35,10.2],[-21.32,9.93],[-20.93,9.78],[-21.32,9.48],[-20.77,9.43],[-24.37,6.73],[-24.84,5.34],[-23.33,1.11],[-23.6,-0.55],[-24.22,-0.59],[-24.8,0.14],[-24.86,0.95],[-25.12,0.76],[-25.73,1.66],[-25.49,2.14],[-25.89,2.04],[-25.71,3.08],[-27.13,4.34],[-28.14,3.77],[-28.89,4.58],[-30.46,4.29],[-30.44,4.88],[-30.56,4.38],[-31.55,4.38],[-33.79,5.29],[-30.82,5.88],[-27.08,7.4],[-24.66,9.5],[-21.81,13.4],[-19.48,15.14]]]}},{"type":"Feature","properties":{},"geometry":{"type":"Polygon","coordinates":[[[-50.98,-5.91],[-48.57,-8.51],[-48.16,-10.54],[-51.68,-12.69],[-53.2,-12.42],[-53.24,-11.84],[-53.54,-12.39],[-53.54,-11.43],[-52.85,-11.14],[-52.63,-8.45],[-52.32,-8.74],[-52.05,-8.36],[-52.9,-7.7],[-53.99,-4.95],[-53.88,-2.15],[-53.08,-2.67],[-52.67,-3.99],[-50.98,-5.91]]]}},{"type":"Feature","properties":{},"geometry":{"type":"Polygon","coordinates":[[[-31.87,43.64],[-32.23,43.46],[-31.86,42.41],[-31.04,43.33],[-30.19,41.18],[-28.85,43.12],[-29.39,43.95],[-27.8,43.79],[-28.28,43.67],[-27.25,43.26],[-27.63,43.04],[-27.2,42.82],[-27.89,42.58],[-27.17,41.17],[-28.21,40.47],[-28.96,41.16],[-28.33,40.26],[-29.9,40.62],[-29.42,40.25],[-30.19,39.4],[-32.4,40.06],[-29.95,39.22],[-30.56,38.25],[-31.65,38.29],[-32.06,37.54],[-33.94,38.12],[-32.64,37.82],[-32.05,37.14],[-33.06,36.96],[-32.9,36.53],[-33.95,36.11],[-33.61,35.87],[-34.26,35.56],[-33.95,35.48],[-34.84,33.24],[-33.73,32.89],[-33.53,31.05],[-32.18,31.32],[-28.63,29.36],[-26.75,29.27],[-26.66,27.12],[-25.26,25.57],[-24.82,25.44],[-24.53,25.96],[-24.17,25.48],[-23.99,26.58],[-25.08,28.89],[-23.83,29.62],[-23.16,30.85],[-23.65,32.41],[-24.72,32.98],[-24.05,34.16],[-24.31,35.18],[-24.73,35.09],[-24.38,35.87],[-24.88,36.56],[-24.48,36.92],[-23.42,36.51],[-22.32,37.03],[-20.92,36.32],[-20.88,35.86],[-19.61,35.94],[-19.47,34.95],[-20.3,34.84],[-19.5,34.83],[-18.94,34],[-19.66,33.48],[-18.72,33.89],[-18.28,33.58],[-18.86,32.66],[-18.17,33.63],[-17.85,33],[-17.23,34.06],[-16.89,33.55],[-17.02,34.15],[-16.61,34.35],[-16.95,34.53],[-16.55,34.72],[-16.94,35.02],[-16.38,35.63],[-15.47,34.71],[-15.86,34.47],[-15.04,34.29],[-15.38,33.8],[-14.79,34.11],[-15.14,33.52],[-14.64,33.82],[-14.14,33.37],[-14.52,33.16],[-13.66,32.91],[-13.73,32.4],[-14.35,32.45],[-12.79,31.5],[-12.62,31.77],[-12.64,30.96],[-12.14,31.42],[-12.07,30.82],[-11.71,31.41],[-11.57,31.02],[-10.33,31.04],[-12.22,29.25],[-10.3,30.66],[-9.97,29.96],[-9.11,30.26],[-8.69,29.41],[-9.21,29.26],[-8.48,28.9],[-9.15,28.05],[-10.36,27.81],[-10.36,27.07],[-11.02,26.36],[-15.41,25.61],[-15.87,24.57],[-16.98,23.85],[-18.21,21.74],[-15.05,24.58],[-14.14,24.75],[-13.47,24.28],[-14.11,23.53],[-15.2,23.33],[-13.64,23.33],[-13.83,22.6],[-16.73,19.68],[-18.26,16.11],[-19.28,15.72],[-21.81,13.4],[-26.03,8.21],[-30.82,5.88],[-37.16,5.02],[-41.49,2.34],[-41.41,0.21],[-43.99,0.58],[-44.69,2.04],[-44.92,5.86],[-46.87,7.85],[-46.59,9.24],[-45.13,11.55],[-45.28,15.71],[-47.42,20.54],[-49.6,28.23],[-52.89,33],[-53.52,37.06],[-52.54,38.36],[-52.24,40.77],[-55.03,43.82],[-54.68,45.76],[-54.02,46.66],[-54.3,47.26],[-53.62,46.79],[-53.55,47.41],[-52.51,47.61],[-52.62,47.14],[-49.96,47.36],[-51.49,47.04],[-51.68,46.76],[-51.03,46.97],[-51.26,46.48],[-50.63,46.94],[-48.9,46.97],[-49.02,47.42],[-48.57,45.9],[-47.66,46.61],[-48.06,45.79],[-46.57,45.89],[-45.11,44.69],[-43.77,44.27],[-43.42,43.72],[-44.52,43.43],[-44.27,43.25],[-41.65,42.99],[-40.8,42.11],[-41.17,42.04],[-40.65,41.14],[-40.7,42.61],[-39.28,43.28],[-40.96,43.14],[-39.46,43.61],[-38.7,42.44],[-38.3,42.68],[-37.74,42.12],[-35.86,42.02],[-35.89,42.69],[-35.49,42.82],[-34.75,42.53],[-34.96,42.23],[-34.5,42.49],[-34.89,41.67],[-34.33,41.34],[-34.32,42.25],[-33.2,42.77],[-33.4,43.21],[-33.83,42.91],[-33.23,43.66],[-34.6,44.34],[-34.18,44.9],[-34.56,45],[-34.44,45.47],[-34.01,45.46],[-33.77,46.12],[-33.13,45.9],[-32.23,44.29],[-32.97,43.81],[-31.87,43.64]]]}},{"type":"Feature","properties":{},"geometry":{"type":"Polygon","coordinates":[[[-72.1,-0.18],[-72.25,-0.65],[-72.3,0.1],[-72.85,0.52],[-72.6,-0.18],[-72.99,-0.35],[-73.65,2.77],[-74.77,4.11],[-76.15,5.2],[-77.49,5.35],[-77.15,5.62],[-80.01,5.26],[-80.45,4.94],[-80.17,4.53],[-81.01,4.25],[-83.83,4.38],[-84.14,4.04],[-86.99,5.12],[-85.61,5.24],[-85.06,4.55],[-84.75,4.97],[-82.81,4.89],[-81.57,5.78],[-82.32,5.94],[-82.12,6.38],[-82.75,6.01],[-82.94,6.93],[-80.26,7.76],[-76.23,7.2],[-73.34,4.87],[-72.1,-0.18]]]}},{"type":"Feature","properties":{},"geometry":{"type":"Polygon","coordinates":[[[-62.66,16.92],[-62.45,17.19],[-62.67,16.95],[-63.73,18.36],[-68.04,20.1],[-67.18,20.05],[-68.05,20.41],[-68,21.1],[-68.32,20.2],[-68.93,20.65],[-68.46,21.1],[-69.23,21.03],[-68.91,21.01],[-69.2,21.31],[-68.77,22.21],[-69.1,21.68],[-69.17,22.62],[-69.42,21.41],[-69.66,22.52],[-70.28,22.49],[-70.33,22.05],[-70.09,22.81],[-71.44,23.7],[-71.57,24.14],[-71.11,23.97],[-71.71,24.35],[-71.47,24.57],[-71.84,24.46],[-71.71,24.95],[-72.29,24.74],[-72.74,25.8],[-72.58,25.04],[-76.46,28.92],[-73.35,29.13],[-72.35,28.74],[-71.41,26.92],[-69.57,25.61],[-67.68,25.23],[-62,19.3],[-60.82,15.83],[-62.1,15.59],[-62.66,16.92]]]}},{"type":"Feature","properties":{},"geometry":{"type":"Polygon","coordinates":[[[-57.79,35.11],[-57.16,33.4],[-57.26,29.92],[-58.26,31.15],[-58.6,33.23],[-57.79,35.11]]]}},{"type":"Feature","properties":{},"geometry":{"type":"Polygon","coordinates":[[[-58.35,45.23],[-58.43,43.68],[-55.81,40.87],[-56.15,38.46],[-57.14,37.17],[-56.58,33.1],[-53.35,28.3],[-51.54,21.75],[-56.17,23.07],[-56.89,23.69],[-57.08,24.57],[-56.29,28.14],[-58.66,38.13],[-60.62,41.7],[-64.62,46.85],[-63.48,47.18],[-59.07,46.77],[-57.74,47.38],[-57.47,46.77],[-58.35,45.23]]]}},{"type":"Feature","properties":{},"geometry":{"type":"Polygon","coordinates":[[[13.24,70.07],[13.59,69.6],[12.78,69.86],[13.24,70.07]]]}},{"type":"Feature","properties":{},"geometry":{"type":"Polygon","coordinates":[[[-4.25,46.69],[-3.15,46.69],[-2.95,46.32],[-4.25,46.69]]]}},{"type":"Feature","properties":{},"geometry":{"type":"Polygon","coordinates":[[[-4.02,46.99],[-3.26,46.89],[-4.45,46.69],[-4.02,46.99]]]}},{"type":"Feature","properties":{},"geometry":{"type":"Polygon","coordinates":[[[-41.72,48.55],[-42.1,47.78],[-41.28,48.08],[-40.59,47.66],[-40.96,47.26],[-40.06,47.32],[-40.3,47.85],[-39.85,47.75],[-39.5,46.33],[-39.08,48.01],[-38.18,47.6],[-38.17,45.6],[-36.72,44.58],[-36.78,44.04],[-38.01,44.21],[-37.98,43.6],[-37.46,43.96],[-37.33,43.42],[-38.97,43.5],[-39.53,44.19],[-40.92,43.61],[-43.08,43.71],[-42.88,44.41],[-44.29,44.94],[-44.2,45.67],[-41.57,45.32],[-44.3,46.2],[-44.48,46.65],[-42.74,46.83],[-44.19,46.99],[-43.84,47.22],[-44.42,47.47],[-43.59,48.18],[-41.72,48.55]]]}},{"type":"Feature","properties":{},"geometry":{"type":"Polygon","coordinates":[[[7.34,63.65],[8.16,63.93],[10.35,63.08],[13.73,63.16],[12.09,62.14],[10.61,62.46],[10.06,61.92],[9.05,62.15],[9.32,62.38],[8.27,62.69],[8.48,62.97],[7.78,62.74],[7.98,63.04],[7.35,63.02],[7.34,63.65]]]}},{"type":"Feature","properties":{},"geometry":{"type":"Polygon","coordinates":[[[-4.87,47.08],[-3.96,47.12],[-5.05,46.74],[-4.87,47.08]]]}},{"type":"Feature","properties":{},"geometry":{"type":"Polygon","coordinates":[[[10.31,68.09],[10.95,67.8],[9.79,67.83],[10.31,68.09]]]}},{"type":"Feature","properties":{},"geometry":{"type":"Polygon","coordinates":[[[-37.71,48.28],[-38,47.39],[-38.57,48.1],[-37.71,48.28]]]}},{"type":"Feature","properties":{},"geometry":{"type":"Polygon","coordinates":[[[-27.45,47.94],[-26.05,47.79],[-25.44,47.19],[-26.94,46.96],[-27.57,47.5],[-27.45,47.94]]]}},{"type":"Feature","properties":{},"geometry":{"type":"Polygon","coordinates":[[[-22.91,39.19],[-23.26,39.36],[-23.08,38.87],[-23.89,39.02],[-24.26,38.55],[-25.23,38.99],[-24.81,39.81],[-22.73,39.98],[-23.39,40.62],[-22.42,41.85],[-23.05,42.76],[-24.13,43.38],[-24.94,43.02],[-24.53,43.61],[-26.38,44.94],[-26.62,44.58],[-26.18,44.13],[-27.61,44.28],[-27.17,43.9],[-28.23,44.45],[-27.58,44.03],[-29.53,44.1],[-29.81,44.61],[-30.69,44.42],[-31.28,45.18],[-30.1,45.08],[-31.44,45.45],[-31.07,47.27],[-29.99,47.94],[-29.27,47.84],[-30.04,46.79],[-29.13,45.38],[-30.02,45.08],[-29.07,45.1],[-28.97,45.75],[-29.7,46.11],[-28.96,46.24],[-29.58,46.74],[-29.07,46.98],[-29.48,47.23],[-28.93,47.15],[-29.37,47.41],[-27.9,47.87],[-27.22,46.92],[-27.43,46.06],[-26.99,46.7],[-25.97,46.01],[-26.56,46.46],[-25.99,46.49],[-26.32,46.9],[-25,46.87],[-25.23,46.03],[-24.4,46.39],[-24.89,46.06],[-24.55,46.06],[-24.65,45.56],[-24.12,46.22],[-24.08,45.49],[-23.64,46.16],[-22.89,45.85],[-23.37,45.13],[-22.59,45.69],[-23.06,44.97],[-22.71,45.15],[-22.76,44.61],[-22.21,45.56],[-22.44,45.1],[-21.98,45.5],[-21.37,45.3],[-22.12,44.7],[-21.43,44.94],[-21.91,44.3],[-21.25,45.12],[-20.69,44.83],[-21.92,44.23],[-20.19,44.14],[-21.38,44.12],[-20.6,43.65],[-21.41,43.56],[-19.96,43.41],[-20.51,43.14],[-19.68,43.13],[-19.61,42.77],[-19.47,43.07],[-19.39,42.63],[-18.85,43.13],[-18.99,42.75],[-18.25,42.57],[-18.69,42.52],[-18.23,42.5],[-18.53,42.18],[-17.81,42.64],[-18.02,42.08],[-17.56,42.32],[-17.48,41.99],[-17.17,42.48],[-16.63,42.14],[-17.37,41.7],[-16.76,41.48],[-17.38,41.47],[-17,40.99],[-17.57,41.24],[-17.25,40.23],[-18.55,40.87],[-18.13,41.57],[-18.81,41.03],[-18.73,41.5],[-18.92,41.18],[-20.09,41.53],[-19.5,41],[-20.16,40.95],[-19.86,40.34],[-19.5,40.64],[-18.92,39.76],[-18.95,40.08],[-17.95,39.68],[-18.24,39.45],[-17.55,39.24],[-17.29,38.53],[-17.88,38.99],[-17.24,38.19],[-17.65,38.25],[-17.47,37.81],[-18.46,38.5],[-18.36,38.1],[-19.92,38.62],[-17.73,37.05],[-21.12,37.75],[-21.6,38.08],[-21.12,38.3],[-21.97,38.44],[-22.48,39.21],[-22.88,38.83],[-22.91,39.19]]]}},{"type":"Feature","properties":{},"geometry":{"type":"Polygon","coordinates":[[[-61.04,78.42],[-64.73,78.54],[-60.24,79.24],[-60.7,79],[-59.95,78.64],[-61.04,78.42]]]}},{"type":"Feature","properties":{},"geometry":{"type":"Polygon","coordinates":[[[-35.46,48.21],[-34.4,48.05],[-35.08,47.25],[-34.21,46.6],[-35.46,45.56],[-36.95,47.19],[-35.74,47.18],[-36.31,47.85],[-35.46,48.21]]]}},{"type":"Feature","properties":{},"geometry":{"type":"Polygon","coordinates":[[[-32.83,48.29],[-31.49,47.98],[-32.34,46.85],[-33.31,46.9],[-32.97,46.57],[-33.78,46.13],[-33.8,47.85],[-32.83,48.29]]]}},{"type":"Feature","properties":{},"geometry":{"type":"Polygon","coordinates":[[[-6.75,78.32],[-7.42,78.53],[-5.58,78.71],[-5,78.3],[-6.75,78.32]]]}},{"type":"Feature","properties":{},"geometry":{"type":"Polygon","coordinates":[[[-43.88,50.28],[-43.28,49.55],[-42.48,49.61],[-41.99,48.72],[-44.66,48],[-45.18,47.37],[-46.58,47.29],[-46.61,47.94],[-47.29,48.43],[-45.28,49.8],[-45.31,50.45],[-43.88,50.28]]]}},{"type":"Feature","properties":{},"geometry":{"type":"Polygon","coordinates":[[[-4,49.67],[-3.6,49.38],[-4.38,49.52],[-4,49.67]]]}},{"type":"Feature","properties":{},"geometry":{"type":"Polygon","coordinates":[[[-33.76,50.04],[-34.01,50.22],[-33.55,50.4],[-33.76,50.04]]]}},{"type":"Feature","properties":{},"geometry":{"type":"Polygon","coordinates":[[[-59.71,76.52],[-63.55,76.01],[-62.39,76.6],[-58.45,76.45],[-59.71,76.52]]]}},{"type":"Feature","properties":{},"geometry":{"type":"Polygon","coordinates":[[[-30.06,49.59],[-30.09,48.62],[-31.11,49.19],[-30.06,49.59]]]}},{"type":"Feature","properties":{},"geometry":{"type":"Polygon","coordinates":[[[-55.71,78.14],[-52.18,78.38],[-49.97,77.63],[-50.86,77.19],[-54.08,77.36],[-52.84,76.89],[-57.99,76.71],[-58.69,77.19],[-55.71,78.14]]]}},{"type":"Feature","properties":{},"geometry":{"type":"Polygon","coordinates":[[[-1.78,73.96],[-2.13,74.05],[-1.43,74.13],[-1.78,73.96]]]}},{"type":"Feature","properties":{},"geometry":{"type":"Polygon","coordinates":[[[-32.59,51.48],[-32.39,51.16],[-32.93,51.2],[-32.59,51.48]]]}},{"type":"Feature","properties":{},"geometry":{"type":"Polygon","coordinates":[[[-30.73,50.92],[-31.59,49.35],[-32.46,49.6],[-31.82,50.12],[-32.94,50.28],[-32.29,50.35],[-32.02,51.04],[-31.72,50.34],[-31.38,50.53],[-31.69,50.99],[-30.73,50.92]]]}},{"type":"Feature","properties":{},"geometry":{"type":"Polygon","coordinates":[[[-33.92,52.12],[-34.57,51.18],[-33.65,50.91],[-34.45,50.28],[-37.36,50.63],[-37.71,51.12],[-36.01,51.08],[-37.21,51.35],[-36.89,51.69],[-37.67,51.44],[-38.29,52.06],[-37.03,52.03],[-37.81,52.26],[-36.73,52.16],[-37.34,52.45],[-36.16,52.69],[-35.69,52.07],[-35.88,51.36],[-35.14,51.02],[-34.89,51.95],[-33.92,52.12]]]}},{"type":"Feature","properties":{},"geometry":{"type":"Polygon","coordinates":[[[0.34,67.52],[2.31,67.6],[4.05,65.78],[5.83,65.02],[5.35,64.83],[7.98,64.02],[7.16,63.85],[7.65,63.83],[7.23,63.36],[6.67,63.62],[6.97,63.95],[6.2,63.37],[5.64,63.87],[6.23,64.17],[5.47,63.92],[4.64,64.24],[4.86,64.53],[3.63,64.39],[3.97,64.51],[3.33,64.72],[3.59,64.93],[1.76,65.9],[2.14,66.23],[1.88,66.77],[0.34,67.52]]]}},{"type":"Feature","properties":{},"geometry":{"type":"Polygon","coordinates":[[[-29.54,51.01],[-28.99,50.72],[-29.24,50.23],[-28.35,50.32],[-27.8,49.79],[-28.56,49.83],[-28.07,48.94],[-25.23,48.84],[-24.61,48.4],[-25.03,48],[-24.67,47.84],[-25.74,47.54],[-26.26,48.07],[-26.68,47.73],[-29.42,48.4],[-29.09,50.15],[-29.96,50.21],[-30.19,50.83],[-29.54,51.01]]]}},{"type":"Feature","properties":{},"geometry":{"type":"Polygon","coordinates":[[[-35.58,53.71],[-35.51,53.38],[-36.96,52.83],[-37.24,53.04],[-36.75,53.34],[-38.41,52.89],[-38.3,53.26],[-39.21,53.36],[-35.58,53.71]]]}},{"type":"Feature","properties":{},"geometry":{"type":"Polygon","coordinates":[[[50.27,49.65],[50.35,49.28],[49.42,49.02],[47.85,51.26],[41.74,53.98],[40.63,56.56],[39.38,57.63],[28.5,62],[27.17,63.13],[26.69,64.23],[33.54,64.32],[43.43,63.01],[49.06,63.18],[59.14,60.72],[80.02,59.85],[72.4,54.3],[66.62,46.87],[59.65,45.22],[54.48,45.5],[51.9,46.24],[52.23,48.33],[50.87,48.45],[50.27,49.65]]]}},{"type":"Feature","properties":{},"geometry":{"type":"Polygon","coordinates":[[[89.42,50.56],[90.58,49.95],[91.24,48.56],[88.44,47.51],[78.99,47.47],[76.21,46.48],[73.23,47.66],[69.64,51.52],[67.21,52.34],[75.44,53.56],[82.04,53.67],[89.42,50.56]]]}},{"type":"Feature","properties":{},"geometry":{"type":"Polygon","coordinates":[[[88.57,59.6],[84.29,57.73],[82.81,57.71],[74.04,55.49],[80.02,59.85],[88.57,59.6]]]}},{"type":"Feature","properties":{},"geometry":{"type":"Polygon","coordinates":[[[91.75,43.36],[96.57,39.91],[94.26,40.18],[88.69,42.79],[81.46,44.64],[70.96,45.24],[71.93,45.92],[74.72,46.41],[80.98,47.42],[84.16,47.45],[85.2,47.27],[91.75,43.36]]]}},{"type":"Feature","properties":{},"geometry":{"type":"Polygon","coordinates":[[[142.84,57.06],[144.03,56.87],[143.1,56.71],[143.79,56.5],[144.73,56.7],[144.23,56.31],[145.06,56.93],[146.12,56.63],[146.83,55.31],[146.05,55.32],[146.07,54.25],[144.52,53.67],[142.15,51.27],[134.2,48.09],[132.38,47.81],[130.96,48.22],[131.22,48.69],[130.7,48.82],[129.66,48.25],[126.11,50.27],[112.89,52.8],[107.63,53.44],[99.04,53.69],[95.02,55.02],[87.6,55.8],[84.48,56.97],[82.71,58.59],[89.98,57.46],[96.72,57.42],[103.19,58.34],[108.28,58.23],[112.78,59.15],[118.73,58.8],[124.34,60.5],[128.66,60.95],[134.72,58.78],[142.84,57.06]]]}},{"type":"Feature","properties":{},"geometry":{"type":"Polygon","coordinates":[[[-179.99,81.57],[-179.99,89.99],[179.99,89.99],[179.99,81.57],[163.17,80.02],[168.05,79.58],[166.73,78.81],[131.29,78.94],[122.06,78.22],[118.28,76.74],[115.15,73.54],[107.15,71.59],[104.3,69.27],[99.05,67.42],[95.57,64.8],[91.51,62.79],[84.76,60.49],[80.02,59.85],[59.14,60.72],[50.53,63.02],[41.59,63.17],[25.46,65.51],[28.16,66.41],[25.66,67.89],[22.93,68.12],[22.76,68.92],[27.49,68.82],[27.18,69.22],[28.82,69.65],[26.33,68.9],[23.25,69.26],[21.89,68.78],[21.61,68.01],[17.96,68.54],[15.58,68.28],[13.77,69.02],[11.84,69.08],[16.26,69.01],[17.8,69.91],[14.7,69.29],[14.3,69.59],[14.97,69.94],[13.54,69.98],[13.65,70.4],[15.76,71.04],[15.74,71.53],[20.28,70.95],[19.58,71.09],[22.67,71.71],[20.19,71.35],[16.02,71.66],[13.42,70.82],[10.08,70.73],[8.6,72.54],[7.1,72.14],[6.63,72.29],[7.23,72.45],[6.63,72.5],[6.18,72.05],[5.54,72.12],[6.17,72.38],[4.53,72.25],[-0.09,73.73],[0.51,73.46],[-0.34,73.45],[-1.37,74.12],[-0.31,74.12],[-3.03,74.58],[-2.83,74.83],[-3.71,74.47],[-5.06,74.86],[-10.14,74.63],[-10.73,75.02],[-8.4,75.08],[-9.95,75.74],[-8.07,75.89],[-12.2,76.38],[-12.22,76.79],[-11.32,76.93],[-12.31,76.81],[-11.44,77.16],[-12.56,77.09],[-11.82,77.44],[-12.13,77.49],[-10.84,77.71],[-11.23,77.63],[-10.58,77.26],[-10.18,77.58],[-10.91,77.76],[-6.5,78.1],[0.22,78.04],[1.94,77.57],[1.59,77.73],[6.03,77.88],[3.6,77.88],[2.26,78.44],[-2.2,78.61],[-2.52,78.55],[-1.05,78.38],[-2.9,78.25],[-4.14,78.48],[-3.2,78.67],[-3.71,78.89],[-5.27,78.77],[-3.24,79.45],[-7.73,79.55],[-10.97,80.12],[-9.49,80.35],[-12.68,81],[-16.39,81.29],[-20.31,80.56],[-26.73,81.23],[-26.42,81.33],[-28.69,81.68],[-26.81,82.08],[-28.25,82.48],[-25.56,82.62],[-27.09,82.6],[-28.06,82.92],[-26.1,82.95],[-29.76,83.73],[-33.71,83.7],[-34.9,82.95],[-36.48,84.27],[-35.29,85.12],[-31.63,86.32],[-33.99,86.59],[-66.65,86.76],[-90.98,86.05],[-105.32,84.85],[-129.83,80.76],[-141.02,79.57],[-142,80.06],[-145.56,79.99],[-149.57,81.1],[-152.08,81.04],[-150.94,81.26],[-158.25,82.2],[-157.89,82.22],[-179.99,81.57]]]}},{"type":"Feature","properties":{},"geometry":{"type":"Polygon","coordinates":[[[168.61,78.92],[168.14,79.04],[170.33,79.13],[168.61,78.92]]]}},{"type":"Feature","properties":{},"geometry":{"type":"Polygon","coordinates":[[[22.09,65.94],[20.81,66.34],[18.71,65.81],[15.63,66.16],[11.01,67.48],[12.1,68.45],[13.25,68.38],[15.17,67.94],[23.33,67.74],[26.53,66.57],[25.41,65.52],[22.09,65.94]]]}},{"type":"Feature","properties":{},"geometry":{"type":"Polygon","coordinates":[[[65.44,23.76],[70.39,24.36],[74.53,23.76],[76.56,22.27],[78.91,18.93],[73.5,21.15],[65.5,20.63],[62.26,21.07],[58.45,22.63],[54.79,25.2],[53.83,26.55],[59.89,24.15],[65.44,23.76]]]}},{"type":"Feature","properties":{},"geometry":{"type":"Polygon","coordinates":[[[47.93,-38.78],[48.46,-38.55],[48.07,-37.81],[47.96,-38.61],[47.46,-37.22],[47.8,-38.23],[47.36,-38.75],[44.97,-38.5],[45.29,-38.09],[44.47,-38.19],[44.95,-37.59],[43.23,-37.31],[42.73,-37.79],[41.54,-37.74],[35.8,-36.08],[35.31,-36.33],[33.19,-35.08],[27,-37.16],[26.48,-36.66],[25.56,-36.63],[25.48,-37.06],[24.9,-36.35],[23.88,-36.32],[23.25,-35.73],[23.77,-34.73],[30.46,-28.73],[34.85,-26.07],[35.58,-26.24],[35.26,-25.79],[35.91,-25.7],[35.78,-25.33],[34.6,-25.64],[33.49,-24.72],[34.25,-22.51],[35.05,-23.44],[35.7,-23.45],[34.88,-22.5],[35.1,-21.58],[35.71,-21.69],[35.2,-21.44],[35.56,-21.27],[35.18,-20.61],[36.02,-20.23],[35.73,-19.54],[36.46,-19.1],[35.9,-18.6],[39.51,-17.29],[42.22,-17.22],[48.08,-18.13],[49.51,-19.09],[49.79,-20.02],[48.95,-21.41],[48.27,-25.59],[49.02,-30.28],[50.2,-32.22],[56.11,-37.96],[56.61,-39.13],[47.93,-38.78]]]}},{"type":"Feature","properties":{},"geometry":{"type":"Polygon","coordinates":[[[56.41,29.75],[58.78,28.81],[60.9,28.78],[62.19,29.92],[68.88,31.96],[74.67,30.99],[79.37,29.25],[80.63,26.96],[81.02,24.52],[78.2,27.34],[75.81,28.31],[72.38,28.37],[67.34,27.36],[61.62,27.27],[54.68,29.22],[53.55,29.05],[52.14,30.74],[54.13,30.83],[56.41,29.75]]]}},{"type":"Feature","properties":{},"geometry":{"type":"Polygon","coordinates":[[[88.13,35.84],[87.79,35.51],[87.24,38.01],[85.52,39.37],[76.74,43.03],[85.07,42.23],[89.04,40.78],[93.59,39.98],[91.26,38.75],[88.13,35.84]]]}},{"type":"Feature","properties":{},"geometry":{"type":"Polygon","coordinates":[[[25.41,65.52],[31.18,64.43],[26.69,64.23],[24.19,65.7],[25.41,65.52]]]}},{"type":"Feature","properties":{},"geometry":{"type":"Polygon","coordinates":[[[48.14,41.11],[47.05,41.75],[46.56,42.66],[45.03,42.4],[43.07,43.14],[44.16,43.62],[43.36,43.59],[43.39,44.27],[44.6,44.92],[43.07,45.98],[41.87,45.52],[41.23,44.26],[40.72,44.24],[41.06,43.37],[40.65,43.57],[40.84,43.22],[40.21,42.95],[40.3,41.68],[41.62,41.57],[42.06,40.73],[44.47,40.04],[38.74,39.29],[40.64,45.27],[44.73,48.87],[45.22,49.86],[44.61,51.48],[41.74,53.98],[47.85,51.26],[49.39,49.1],[49.58,48.38],[49.08,48.37],[49.55,48.02],[48.84,47.74],[49.32,46.7],[50.38,45.93],[51.21,46.5],[54.48,45.5],[59.65,45.22],[67.18,47.13],[65.79,44.37],[57.15,40.53],[48.37,40.65],[48.14,41.11]]]}},{"type":"Feature","properties":{},"geometry":{"type":"Polygon","coordinates":[[[43.65,-4.63],[43.07,-4.35],[41.7,-4.78],[40.8,-4.4],[39.03,-2.78],[38.42,-0.33],[37.92,-0.4],[37.66,0.2],[37.39,-0.25],[36.57,0],[36.66,-0.56],[36.21,-0.62],[36.76,-2.58],[37.67,-3.79],[37.38,-4.39],[37.78,-5.79],[38.25,-4.6],[38.75,-4.77],[38.15,-6.31],[38.64,-6.76],[40.88,-6.94],[43.19,-5.2],[42.97,-7.05],[44.76,-8.33],[45.49,-9.81],[44.05,-11.36],[43.39,-11.43],[43.18,-12.65],[42.18,-12.72],[41.56,-13.48],[40.65,-13.42],[40.11,-14.15],[37.5,-14.22],[37.07,-14.97],[33.27,-15.7],[30.14,-15.6],[29.35,-16],[27.9,-15.62],[27.75,-12.94],[28.32,-11.53],[27.47,-8.13],[26.47,-6.37],[26.68,-3.59],[25.99,-2.75],[25.37,1.39],[24.85,1.63],[28.18,6.7],[29.15,9.25],[31.25,9.97],[34.18,9.75],[36.61,5.59],[41.54,-1.12],[42.34,-2.98],[43.79,-3.35],[43.65,-4.63]]]}},{"type":"Feature","properties":{},"geometry":{"type":"Polygon","coordinates":[[[49.86,-14.51],[49.3,-17.76],[47.6,-18.68],[40.21,-17.35],[38.01,-17.54],[38.36,-14.46],[39.96,-12.81],[41.64,-13.41],[44.45,-12.06],[46.05,-12.01],[49.94,-13.42],[49.86,-14.51]]]}},{"type":"Feature","properties":{},"geometry":{"type":"Polygon","coordinates":[[[61.65,27.49],[49.87,30.07],[51.6,33.64],[58.68,29.31],[62.03,29.55],[61.65,27.49]]]}},{"type":"Feature","properties":{},"geometry":{"type":"Polygon","coordinates":[[[48.71,23.61],[48.25,23.93],[49.07,25.91],[50.85,27.92],[51.63,28.05],[60.18,23.41],[54.03,23.28],[51.31,22.6],[48.71,23.61]]]}},{"type":"Feature","properties":{},"geometry":{"type":"Polygon","coordinates":[[[33.19,32.04],[34.02,31.79],[37.16,33.31],[41.99,30.97],[46.52,31.64],[47.23,30.97],[46.02,29.91],[43.7,30.12],[28.86,28.08],[28.15,28.7],[27.81,30.23],[30.35,32.25],[33.19,32.04]]]}},{"type":"Feature","properties":{},"geometry":{"type":"Polygon","coordinates":[[[-18.44,63.24],[-23.62,62.92],[-25.38,63.85],[-26.34,63.49],[-25.49,63.01],[-25.53,62.46],[-31.95,62.41],[-32.74,62.55],[-36.21,65.64],[-23.2,65.26],[-20.75,64.56],[-18.44,63.24]]]}},{"type":"Feature","properties":{},"geometry":{"type":"Polygon","coordinates":[[[-75.9,67.25],[-79.11,64.89],[-79.08,63.45],[-78.1,61.6],[-87.9,62.82],[-90.96,63.99],[-96.13,64.41],[-93.64,64.94],[-94.53,65.09],[-86.66,68.49],[-80.33,68.51],[-75.9,67.25]]]}},{"type":"Feature","properties":{},"geometry":{"type":"Polygon","coordinates":[[[-56.21,82.02],[-56,81.69],[-61.09,81.88],[-62.54,81.33],[-67.56,81.13],[-65.98,80.86],[-68.74,80.52],[-65.77,80.32],[-66.17,80.25],[-65.54,80.05],[-65.83,79.97],[-64.08,80.16],[-63.7,79.92],[-65.14,79.46],[-63.33,79.41],[-73.15,77.59],[-75.02,77.5],[-75.27,77.68],[-74.51,77.72],[-75.24,77.87],[-80.59,77.06],[-80.8,75.48],[-83.19,74.7],[-86.6,74.43],[-95.31,76.18],[-102.38,76.19],[-108.32,75.05],[-114.88,72.98],[-114.58,73.37],[-117.63,74.19],[-126.71,74.27],[-125.55,73.94],[-126.31,73.67],[-127.86,74.08],[-127.54,74.32],[-127.94,74.47],[-131.48,75.1],[-129.15,74.91],[-129.54,75.2],[-128.9,75.51],[-130.28,75.81],[-120.04,77.26],[-100.74,82.58],[-86.03,84.36],[-72.43,84.88],[-56.21,82.02]]]}},{"type":"Feature","properties":{},"geometry":{"type":"Polygon","coordinates":[[[128.55,47.96],[126.77,47.48],[126.09,46.62],[123.05,45.91],[123.77,44.96],[123.96,42.71],[120.67,43.04],[120.67,43.83],[121.64,43.7],[121.29,43.96],[121.61,44.6],[120.57,45.07],[120.15,44.79],[120.42,44.95],[119.88,45.12],[120.25,45.19],[119.63,45.39],[120.85,45.7],[120.47,45.97],[121.14,46.54],[120.27,46.78],[120.21,47.22],[116.15,46.84],[117.32,47.29],[116.58,47.44],[117.01,47.77],[118.22,48.21],[117.95,48.79],[116.98,48.87],[114.02,47.82],[112.73,48.08],[112.21,47.41],[113.41,46.92],[113.05,46.04],[113.88,45.7],[115.3,46.11],[117.21,45.19],[116.79,44.77],[113.91,44.7],[112.36,43.72],[113.25,42.89],[108.9,40.85],[104.57,43.42],[97.17,45.57],[91.97,49.1],[84.68,53.04],[98.35,53.41],[110.32,52.75],[125.16,49.86],[128.55,47.96]]]}},{"type":"Feature","properties":{},"geometry":{"type":"Polygon","coordinates":[[[121.54,42.17],[121.25,40.75],[118.31,39.9],[118.04,40.31],[118.42,40.23],[118.03,40.72],[118.75,41.51],[118.39,41.7],[121.54,42.17]]]}},{"type":"Feature","properties":{},"geometry":{"type":"Polygon","coordinates":[[[111.52,39.98],[112.18,38.26],[113.3,37.42],[111.57,37.59],[113.32,36.59],[111.57,35.92],[113.57,35.52],[112.81,35.11],[113.42,35.24],[113.41,34.92],[112.86,34.92],[113.06,33.99],[111.97,33.68],[111.41,32.28],[110.84,32.44],[111.25,32.02],[110.85,31.78],[110.93,31],[110.57,31.26],[109.88,30.2],[109.36,30.32],[108.76,29.36],[107.65,29.05],[107.94,28.87],[107.61,28.57],[105.82,28.45],[105.32,27.87],[104.41,28.7],[104.56,27.79],[104.09,27.67],[103.92,28.1],[103.88,27.45],[103.33,27.67],[103.29,27.3],[101.19,26.99],[101.17,25.8],[100.51,26.46],[100.79,27.03],[100.4,27.29],[99.96,26.94],[99.24,27.46],[98.1,26.5],[97.35,26.52],[97.54,26.16],[96.8,25.43],[90.49,30.7],[90.06,31.74],[90.22,34.21],[91.93,36.41],[95.46,39.03],[97.85,39.29],[102.43,38.83],[108.31,37.09],[111.52,39.98]]]}},{"type":"Feature","properties":{},"geometry":{"type":"Polygon","coordinates":[[[93.73,26.08],[93.57,25.04],[93.98,24.55],[98.15,22.4],[99.48,20.06],[99.43,18.7],[97.45,17.2],[97.51,16.29],[96.2,14.85],[95.84,16.35],[94.37,16.33],[94.1,16.95],[93.77,16.54],[92.84,17.68],[91,17.57],[90.85,18.4],[90.11,18.37],[89.23,21.58],[89.52,24.81],[86.46,29.13],[93.73,26.08]]]}},{"type":"Feature","properties":{},"geometry":{"type":"Polygon","coordinates":[[[90.04,15.21],[91.06,11.99],[91.79,11.16],[92.26,11.56],[94.42,10.24],[95.83,10.43],[98.52,7.24],[96.21,7.71],[93.23,9.86],[91.93,10.11],[91.67,9.76],[89.2,13.7],[87.17,14.8],[86.01,15.99],[86.36,15.98],[84.75,16.13],[81.57,19],[79.89,21.11],[78.87,23.83],[82.1,24.47],[86.09,22.1],[87.06,21.17],[87.98,18.04],[90.04,15.21]]]}},{"type":"Feature","properties":{},"geometry":{"type":"Polygon","coordinates":[[[94.92,10.71],[97.03,10.38],[98.19,8.9],[99.81,8.19],[99.26,7.64],[97.71,7.61],[94.92,10.71]]]}},{"type":"Feature","properties":{},"geometry":{"type":"Polygon","coordinates":[[[27.33,-10.11],[30.24,-13.47],[30.23,-13.97],[29.32,-14.32],[29.97,-14.31],[30.96,-15.62],[36.26,-15.19],[37.69,-14.63],[38.18,-14.81],[37.82,-16.21],[38.22,-16.21],[37.69,-16.31],[37.56,-17.2],[34.12,-21.94],[31.82,-23.76],[27,-26.39],[26.18,-27.42],[24.65,-28.09],[23.17,-29.85],[22.43,-31.09],[23.1,-32.22],[22.52,-33.86],[22.66,-35.16],[23.62,-36.02],[23.14,-36.61],[22.64,-40.52],[21.32,-41.54],[17.86,-42.21],[14.03,-43.82],[15.53,-39.4],[15.81,-33.08],[18.26,-31.8],[18.63,-29.55],[21,-24.4],[21.38,-21.01],[22.31,-19.36],[23.64,-19.49],[24.17,-17.92],[27.94,-14.83],[27.33,-10.11]]]}},{"type":"Feature","properties":{},"geometry":{"type":"Polygon","coordinates":[[[13.89,-43.55],[13.4,-44.28],[13.79,-44.61],[13.8,-46.13],[12.78,-47.94],[7.9,-48.68],[7.94,-49.14],[8.48,-48.95],[6.29,-51],[1.33,-52.65],[-3.35,-53.44],[-6.21,-53.33],[-9.76,-52],[-13.39,-51.6],[-14.31,-50.69],[-14.09,-50.42],[-14.66,-50.51],[-14.09,-48.94],[-13.37,-48.92],[-12.79,-48.11],[-12.38,-45.28],[-12.77,-43.09],[-10.54,-38.34],[-10.73,-33.15],[-9.67,-31.38],[-7.64,-29.54],[-5.59,-28.61],[-5.07,-27.57],[-5.11,-25.8],[-4.39,-25.31],[-4.5,-22.82],[-3.71,-22.91],[-4.39,-22.53],[-4.28,-21.23],[-5.44,-18.35],[-5.57,-16.38],[-4.95,-16.43],[-4.52,-15.71],[-4.04,-16.1],[-4.49,-15.55],[-4.2,-15.67],[-4.18,-14.96],[-2.79,-13.47],[-2.62,-12.44],[-3.15,-12.38],[-3.64,-11.17],[-4.84,-11.16],[-6.17,-10.34],[-2.88,-9.57],[-2.16,-8.54],[0.49,-8.07],[6.89,-11.58],[15.1,-11.77],[19.25,-20.03],[15.09,-23.7],[13.8,-26.78],[13.77,-28.77],[16.82,-33.12],[16.83,-34.39],[15.99,-39.41],[13.89,-43.55]]]}},{"type":"Feature","properties":{},"geometry":{"type":"Polygon","coordinates":[[[-11.93,17.55],[-11.67,18.55],[-10.7,19.4],[-8.07,19.92],[-6.55,21.22],[-6.02,21.11],[-5.66,20.14],[-4.37,19.94],[-3.72,19.27],[-0.5,19.62],[4.84,18.01],[6.52,17.97],[-3.06,16.67],[-8.35,17.81],[-11.93,17.55]]]}},{"type":"Feature","properties":{},"geometry":{"type":"Polygon","coordinates":[[[9.09,23.23],[9,22.44],[6.64,21.78],[5.57,20.75],[5.81,19.93],[3.36,18.48],[1.51,18.96],[0.31,18.55],[-0.15,19.42],[0.23,19.66],[-0.08,19.49],[-0.31,20.07],[-2.14,20.3],[-1.39,21.54],[-1.82,21.94],[-1.24,22.23],[-1.97,22.1],[-0.61,23.75],[-0.03,26.26],[1.15,26.45],[4.61,24.98],[5.84,24.95],[9.09,23.23]]]}},{"type":"Feature","properties":{},"geometry":{"type":"Polygon","coordinates":[[[-4.68,-11.53],[-4.97,-9.98],[-5.77,-9.23],[-8.21,-8.65],[-12.04,-8.81],[-13.65,-7.66],[-17.36,-7.19],[-17.88,-6.74],[-20.76,-2.54],[-20.85,0.26],[-21.97,2.24],[-21.28,2.65],[-22.21,2.78],[-22.15,3.37],[-22.69,3.72],[-22.29,3.71],[-22.61,3.87],[-22.22,4.66],[-21.19,4.24],[-22.07,4.48],[-22.43,6.16],[-21.15,6.71],[-19.91,8.34],[-19.69,10.03],[-19.06,10.66],[-19.19,11.88],[-19.59,11.57],[-19.05,12.43],[-13.1,16.56],[-11.73,16.4],[-9.28,17.66],[-6.54,17.99],[-0.38,16.97],[9.22,18.37],[9.39,17.76],[10.05,17.94],[9.29,17.19],[9.56,16.14],[8.39,15.49],[7.36,13.82],[4.23,2.95],[4.06,-0.58],[5.79,-5.49],[2.45,-7.14],[1.71,-8.59],[-0.88,-9.33],[-1.48,-10.43],[-4.68,-11.53]]]}},{"type":"Feature","properties":{},"geometry":{"type":"Polygon","coordinates":[[[25.03,4.95],[24.92,4.04],[26.5,-1.5],[26.28,-2.45],[27.41,-4.59],[27.03,-6.14],[14.12,-11.88],[5.9,-11.89],[-0.59,-8.52],[0.27,-7.13],[3.73,-5.76],[2.41,-0.73],[2.86,2.78],[6.25,12.07],[7.95,14.51],[9.28,12.91],[11.45,11.62],[11.54,10.54],[13.79,8.57],[14.89,8.8],[15.35,10.06],[17.11,10.28],[17.98,9.2],[19.28,8.61],[19.33,8.14],[22.34,6.58],[23.61,6.96],[24.65,6.65],[25.03,4.95]]]}},{"type":"Feature","properties":{},"geometry":{"type":"Polygon","coordinates":[[[25.12,7.24],[24.11,7.96],[22.44,8.11],[21.42,9.79],[21.06,9.43],[20.37,9.63],[20,10.82],[19.18,11.14],[20.02,11.01],[19.27,11.45],[19.88,12.25],[19.49,12.88],[22.49,12.74],[23.27,12.32],[23.87,11.06],[25.2,10.94],[28.4,9.41],[30.11,6.72],[27.31,7.52],[25.12,7.24]]]}},{"type":"Feature","properties":{},"geometry":{"type":"Polygon","coordinates":[[[16.86,-32.77],[16.33,-33.16],[13.1,-28.91],[13.04,-26.91],[14.22,-23.8],[18.24,-19.99],[23.24,-19.59],[22.27,-21.22],[21.8,-24.6],[19.27,-29.7],[18.83,-31.93],[16.86,-32.77]]]}},{"type":"Feature","properties":{},"geometry":{"type":"Polygon","coordinates":[[[26.44,3.82],[25.39,2.56],[24.31,6.72],[25.45,5.95],[26.82,6.24],[28.75,8.65],[29.38,10.55],[28.74,8.1],[26.44,3.82]]]}},{"type":"Feature","properties":{},"geometry":{"type":"Polygon","coordinates":[[[26.73,-6.04],[26.83,-6.82],[27.71,-7.69],[28.27,-10.77],[28.57,-10.47],[29.05,-15.21],[25.19,-18.21],[24.62,-19.77],[18.29,-19.99],[14.42,-12.84],[14.28,-11.7],[26.73,-6.04]]]}},{"type":"Feature","properties":{},"geometry":{"type":"Polygon","coordinates":[[[1.06,41.74],[0.55,42.02],[1.87,42.33],[1.97,42.78],[0.63,42.1],[0.09,42.61],[1.05,43.14],[-0.14,43.03],[0.62,43.18],[0.31,43.24],[0.73,43.28],[0.59,43.62],[1.1,43.43],[0.25,43.63],[1.22,44.15],[0.37,44.06],[1.45,44.23],[0.84,44.39],[1.42,44.39],[0.99,44.9],[1.39,45.34],[1.92,45.19],[2.22,45.88],[1.88,46.1],[1.71,45.3],[1.23,45.35],[1.78,47.49],[1.35,47.19],[1.21,47.56],[1.56,47.57],[1.12,47.93],[1.48,47.97],[1,48.07],[1.53,48.61],[1.09,48.22],[0.76,48.5],[1.07,48.74],[0.7,48.71],[1.02,48.95],[0.64,48.97],[1.47,49.54],[0.76,49.4],[0.82,49.84],[1.36,49.83],[0.45,49.97],[0.91,50.28],[0.48,50.26],[0.6,50.58],[1.29,50.35],[0.64,50.67],[1.35,51.14],[0.59,50.88],[0.99,51.29],[0.39,52.01],[1.26,52.14],[0.51,52.44],[1.09,52.31],[0.8,52.87],[1.37,52.26],[1.58,52.65],[1.12,53.12],[1.8,53.13],[0.88,53.41],[2.09,53.61],[1.36,54.61],[2.02,54.82],[2.64,54.02],[2.17,55.03],[2.9,54.61],[2.8,55.19],[2.33,55.24],[2.62,55.52],[3.34,54.99],[3.19,55.56],[4.71,55.73],[4.73,55.31],[3.95,54.99],[4.99,54.86],[4.98,55.19],[5.82,55.26],[5.68,55.72],[7.25,55.38],[8.22,56.22],[12.47,56.74],[13.81,56.26],[13.67,54.99],[9.15,53.74],[12.06,53.73],[13.67,52.75],[15.88,53.06],[15.54,53.63],[14.31,53.43],[13.93,53.81],[15.21,53.79],[16.54,54.54],[15.1,54.84],[14.74,55.58],[14.71,56.39],[16.48,56.59],[13.42,57.96],[11.99,58.01],[14.18,58.67],[14.72,58.54],[14.31,58.04],[14.7,57.68],[15.95,57.73],[16.56,58.29],[15.57,58.77],[16.02,59.17],[15.35,59.19],[15.69,60.67],[16.19,60.62],[15.68,60.71],[15.62,61.39],[15.85,61.62],[15.63,61.28],[16.66,61.14],[16.81,60.74],[17.4,60.94],[16.93,61.66],[17.68,62.28],[17.3,62.32],[17.38,63],[18.91,63],[18.29,63.21],[18.57,63.67],[16.24,63.99],[20.49,65.65],[22.55,65.96],[24.71,65.49],[26.69,64.23],[27.17,63.13],[28.5,62],[39.38,57.63],[40.63,56.56],[41.26,54.53],[44.61,51.48],[45.22,50.35],[44.73,48.87],[40.64,45.27],[38.74,39.29],[35.73,38.11],[32.11,38.2],[32.7,39.47],[31.86,39.89],[32.55,40.19],[32.55,40.95],[30.57,39.17],[30.28,38.34],[30.13,38.76],[30.49,38.07],[31.24,37.87],[32.01,38.38],[32.03,38.01],[30.17,36.6],[29.4,37.2],[28.89,36.82],[29.48,37.75],[27.74,37.33],[27.38,37.46],[28.11,37.72],[27.54,37.89],[26.49,36.15],[27.09,35.31],[26.77,34.99],[23.84,35.46],[20.81,36.95],[10.95,38.37],[12.73,40.09],[13.46,39.85],[13.88,40.39],[13.82,39.89],[14.18,40.59],[13.71,40.65],[14.09,41.01],[13.87,41.67],[14.06,40.86],[14.52,41.04],[13.21,42.35],[12.88,43.4],[13.29,43.84],[14.54,43.49],[14.79,43.97],[14.02,44.9],[13.5,44.66],[12.65,45.31],[16.01,47.85],[14.65,47.75],[14.31,48.11],[11.82,45.61],[11.44,46.06],[10.3,45.82],[8.25,47.51],[8.15,50.03],[8.54,50.26],[7.91,50.74],[5.81,50.01],[6.24,49.97],[6.36,49.57],[5.96,49.6],[6.31,49.11],[7.01,48.95],[7.11,48.19],[6.64,46.68],[6.02,46.88],[7.78,44.7],[9.63,44.46],[9.21,43.88],[9.71,43.8],[9.61,43.38],[9.23,43.59],[9.43,43.21],[8.75,42.72],[9.32,42.8],[8.92,42.63],[9.48,42.51],[10.25,41.1],[10.32,40.43],[9.44,39.9],[9.71,39.36],[8.84,38.98],[8.03,39.68],[8.15,40.05],[4.63,42.37],[4.92,41.5],[4.41,41.38],[4.28,40.18],[3.64,39.76],[2.22,40.07],[2.74,40.62],[2.27,40.45],[2.4,41.05],[1.61,40.67],[2.11,41.99],[1.6,41.76],[1.64,41.23],[1.06,41.74]]]}},{"type":"Feature","properties":{},"geometry":{"type":"Polygon","coordinates":[[[6.33,37.63],[5.1,38.97],[6,40.46],[6.36,39.43],[7.01,39.4],[6.55,38.39],[7.15,37.75],[6.33,37.63]]]}},{"type":"Feature","properties":{},"geometry":{"type":"Polygon","coordinates":[[[27.59,32.23],[27.07,33.12],[26.44,32.68],[26.19,33.16],[26.33,33.71],[28.14,34.69],[27.81,34.72],[28.56,35.38],[28,35.15],[32.31,37.95],[35.39,38.64],[32.1,36.32],[31.37,35.14],[29.67,35.05],[28.87,34.48],[27.59,32.23]]]}},{"type":"Feature","properties":{},"geometry":{"type":"Polygon","coordinates":[[[19.08,16.38],[18.87,14.96],[18.12,14.98],[18.87,13.93],[18.72,13.45],[18.01,13.97],[18.15,13.36],[17.63,13.76],[17.54,13.06],[16.91,13.06],[16.95,13.5],[16.53,13.49],[16.67,14.7],[17.39,14.77],[18.28,14.1],[16.86,15.06],[16.85,15.65],[17.22,15.66],[16.67,17.56],[17.61,18.64],[16.11,21.47],[16.32,23.26],[16.14,23.66],[15.51,23.34],[15.91,24.33],[15.07,24.56],[14.2,23.49],[14.61,22.43],[14.33,21.61],[14.64,20.48],[15.33,20.05],[14.95,19.75],[15.95,17.59],[15.63,17.46],[15.02,18.5],[14.38,18.1],[14.41,17.14],[12.87,16.8],[13.69,17.42],[13.96,18.66],[12.24,22.5],[12.6,24.17],[12,25.14],[10.85,25.1],[10.69,25.74],[11.5,27.23],[15.19,27.05],[19.38,25.18],[17.65,23.74],[18.72,19.9],[19.08,16.38]]]}},{"type":"Feature","properties":{},"geometry":{"type":"Polygon","coordinates":[[[11.38,27.11],[10.62,25.98],[8.83,25.9],[8.43,24.79],[4.68,24.45],[4.22,26.41],[4.8,26.03],[3.89,27.07],[2.21,27.94],[0.97,27.7],[0.61,27.85],[0.9,28.22],[0.4,28.31],[1.45,29.03],[1.88,28.75],[2.76,29.2],[1.9,30.08],[3.29,30.06],[3.68,30.82],[5.98,30.61],[7.89,31.19],[9.92,34.8],[11.9,36.43],[15.77,37.79],[18.99,37.08],[16.94,35.64],[15.72,33.86],[12.02,31.75],[10.43,30.28],[9.61,28.67],[10.67,27.31],[11.38,27.11]]]}},{"type":"Feature","properties":{},"geometry":{"type":"Polygon","coordinates":[[[3.68,30.82],[4.21,31.37],[3.83,31.99],[5.41,33.09],[4.78,33.06],[5.51,33.52],[4.96,33.59],[4.94,34.69],[5.45,34.6],[5.25,34.19],[5.74,34.6],[5.34,35.22],[6.44,35.57],[6.18,35.86],[6.61,36.17],[7.22,36.02],[7.03,36.54],[8,36.53],[6.74,36.89],[6.95,37.16],[6.3,37.2],[6.33,37.63],[7.75,37.31],[8.36,37.65],[8.42,37.11],[9.2,38.12],[11.1,37.91],[10.95,38.37],[11.77,38.39],[15.77,37.79],[10.93,35.79],[7.89,31.19],[5.98,30.61],[3.68,30.82]]]}},{"type":"Feature","properties":{},"geometry":{"type":"Polygon","coordinates":[[[26.74,34.76],[27.14,33.82],[26.87,33.2],[23.33,31.59],[22.21,32.16],[22,32.85],[23.85,34.52],[23.84,35.46],[26.74,34.76]]]}},{"type":"Feature","properties":{},"geometry":{"type":"Polygon","coordinates":[[[-32.2,52.35],[-32.56,52.04],[-32.37,52.62],[-32.2,52.35]]]}},{"type":"Feature","properties":{},"geometry":{"type":"Polygon","coordinates":[[[-29.03,51.66],[-28.37,51.36],[-29.36,51.4],[-29.03,51.66]]]}},{"type":"Feature","properties":{},"geometry":{"type":"Polygon","coordinates":[[[-33.17,53.37],[-33.76,52.91],[-34.67,53.27],[-33.17,53.37]]]}},{"type":"Feature","properties":{},"geometry":{"type":"Polygon","coordinates":[[[-9.14,59.06],[-8.19,59.05],[-7.72,58.4],[-9.5,58.65],[-9.14,59.06]]]}},{"type":"Feature","properties":{},"geometry":{"type":"Polygon","coordinates":[[[-32.68,53.96],[-32.82,53.47],[-33.92,53.87],[-32.68,53.96]]]}},{"type":"Feature","properties":{},"geometry":{"type":"Polygon","coordinates":[[[-28.89,52.61],[-28.7,51.87],[-29.55,51.82],[-29.29,52.8],[-28.89,52.61]]]}},{"type":"Feature","properties":{},"geometry":{"type":"Polygon","coordinates":[[[-30.36,53.82],[-30.4,53.26],[-30.02,53.39],[-29.73,52.73],[-30.16,52.03],[-31.43,52.91],[-30.72,53.21],[-31.03,53.79],[-30.36,53.82]]]}},{"type":"Feature","properties":{},"geometry":{"type":"Polygon","coordinates":[[[-13.67,73.24],[-12.08,73.65],[-13.73,73.58],[-12.97,74.24],[-8.49,73.78],[-13.67,73.24]]]}},{"type":"Feature","properties":{},"geometry":{"type":"Polygon","coordinates":[[[-13.46,59.23],[-10.42,59.2],[-10.49,58.58],[-9.32,57.86],[-13.46,59.23]]]}},{"type":"Feature","properties":{},"geometry":{"type":"Polygon","coordinates":[[[-9.4,57.78],[-8.56,56.88],[-10.52,57.17],[-9.75,57.46],[-10.46,57.39],[-10.21,57.92],[-10.76,57.31],[-11.29,57.49],[-10.84,58.2],[-9.4,57.78]]]}},{"type":"Feature","properties":{},"geometry":{"type":"Polygon","coordinates":[[[-11.45,58.38],[-11.37,58.04],[-11.93,58.29],[-11.41,57.89],[-11.66,57.51],[-14.18,58.48],[-13.75,58.78],[-13.66,58.4],[-12.83,58.41],[-13.43,58.84],[-11.45,58.38]]]}},{"type":"Feature","properties":{},"geometry":{"type":"Polygon","coordinates":[[[-11.52,71.35],[-11.69,71.72],[-10.33,71.55],[-11.52,71.35]]]}},{"type":"Feature","properties":{},"geometry":{"type":"Polygon","coordinates":[[[-13.44,72.04],[-11.99,72.39],[-13.96,72.37],[-13.61,72.66],[-11.44,73.2],[-10.27,73.07],[-9.71,72.4],[-10.98,71.88],[-10.51,71.77],[-13.44,72.04]]]}},{"type":"Feature","properties":{},"geometry":{"type":"Polygon","coordinates":[[[-12.69,60.35],[-12.1,60.2],[-12.27,60.52],[-11.23,60.75],[-10.47,60.2],[-11.34,59.43],[-12.03,59.4],[-11.61,59.56],[-11.86,59.8],[-12.38,59.35],[-13.25,59.46],[-12.88,59.72],[-13.44,59.95],[-12.08,59.99],[-12.69,60.35]]]}},{"type":"Feature","properties":{},"geometry":{"type":"Polygon","coordinates":[[[-10.03,64.17],[-9.54,64.31],[-9.88,64.14],[-9.28,63.86],[-9.75,63.68],[-10.03,64.17]]]}},{"type":"Feature","properties":{},"geometry":{"type":"Polygon","coordinates":[[[-9.48,66.46],[-8.38,66.06],[-9.36,66.05],[-9.48,66.46]]]}},{"type":"Feature","properties":{},"geometry":{"type":"Polygon","coordinates":[[[-10.02,64.69],[-8.27,64.11],[-8.92,63.9],[-10.02,64.69]]]}},{"type":"Feature","properties":{},"geometry":{"type":"Polygon","coordinates":[[[-15.58,71.2],[-15.2,71.7],[-13.65,72],[-11.75,71.35],[-15.58,71.2]]]}},{"type":"Feature","properties":{},"geometry":{"type":"Polygon","coordinates":[[[-26.17,54.83],[-25.73,53.4],[-25.27,53.6],[-25.65,52.76],[-25.03,52.38],[-26.14,51.92],[-26.13,52.29],[-26.76,51.52],[-26.87,52.04],[-26.94,51.57],[-27.74,51.79],[-27.87,52.11],[-27.41,52.08],[-27.95,52.68],[-26.77,52.66],[-28.01,53.03],[-27.49,53.34],[-28,53.67],[-27.32,53.63],[-27.7,54.09],[-26.82,54.06],[-27.06,54.45],[-26.17,54.83]]]}},{"type":"Feature","properties":{},"geometry":{"type":"Polygon","coordinates":[[[-16.89,53.62],[-16.31,53.16],[-17.23,53.54],[-16.89,53.62]]]}},{"type":"Feature","properties":{},"geometry":{"type":"Polygon","coordinates":[[[-20.08,55.73],[-19.32,55.53],[-19.85,55.23],[-18.99,55.5],[-18.15,54.83],[-18.9,54.3],[-20.12,54.33],[-19.47,54.11],[-20.37,53.71],[-18.92,54.07],[-20.33,52.99],[-20.66,53.19],[-20.52,52.82],[-21.15,52.87],[-20.63,52.72],[-20.96,52.38],[-22.99,52.17],[-21.94,51.94],[-22.95,52.02],[-22.13,51.55],[-22.95,51.01],[-22.68,50.73],[-23.49,50.78],[-23.64,50.23],[-24.97,50.33],[-23.99,50.12],[-23.65,49.5],[-24.95,49.14],[-25.27,49.78],[-25.24,49.48],[-26.27,49.49],[-27.8,50.08],[-26.49,50.45],[-26.71,51.21],[-25.72,50.44],[-24.72,51.09],[-25.46,50.6],[-25.86,51.13],[-25.4,51.48],[-26.36,51.42],[-25.85,51.98],[-24.55,51.57],[-24.73,51.87],[-24.22,51.86],[-25.09,52.13],[-24.73,52.07],[-25.25,52.93],[-25.02,53.45],[-23.7,52.48],[-23.4,52.55],[-24.11,53.32],[-22.12,53.6],[-22.77,53.71],[-22.02,54.19],[-23.38,53.55],[-24.79,53.64],[-23.53,54.11],[-25.13,53.8],[-25.46,54.18],[-24.07,54.31],[-25.48,54.28],[-24.6,54.61],[-25.64,54.98],[-24.45,55.23],[-23.75,54.87],[-24.12,55.28],[-23.59,55.47],[-22.5,54.62],[-23.09,55.3],[-22.65,55.67],[-21.8,55.68],[-21.61,55.16],[-21.7,55.72],[-20.73,55.35],[-20.9,55.61],[-20.08,55.73]]]}},{"type":"Feature","properties":{},"geometry":{"type":"Polygon","coordinates":[[[-13.19,35.55],[-12.87,36.18],[-13.32,35.89],[-13.61,36.4],[-12.67,36.91],[-13.59,36.45],[-14.02,36.76],[-13.35,37.18],[-14.21,37.02],[-12.81,38.03],[-14.26,37.09],[-14.38,37.49],[-13.78,37.61],[-14.33,37.63],[-13.75,37.91],[-14.67,38.05],[-12.91,38.36],[-14.65,38.18],[-14.21,38.77],[-12.85,38.72],[-13.43,39.11],[-14.65,38.56],[-13.92,39.03],[-14.56,39.17],[-12.99,39.12],[-13.68,39.29],[-13.45,39.64],[-14.64,39.31],[-13.58,39.7],[-13.74,40.24],[-13.28,40.14],[-13.78,40.31],[-13.57,41.17],[-15.66,41.53],[-13.79,41.45],[-14.59,42.04],[-14.14,42.11],[-14.74,42.12],[-14.47,42.34],[-14.88,42.15],[-14.45,42.53],[-15.12,42.38],[-14.62,42.74],[-15.48,42.92],[-15.51,42.35],[-16.2,42.3],[-15.94,42.86],[-16.45,43.26],[-16.09,43.68],[-16.61,43.89],[-17,45.03],[-17.42,44.84],[-17.01,45.16],[-18.11,46.41],[-19.95,46.96],[-21.28,46.72],[-20.99,46.46],[-21.7,46.64],[-22.09,46.93],[-21.51,47.23],[-22.65,47.58],[-20.94,47.81],[-20.94,48.15],[-21.91,48.01],[-23.09,48.75],[-20.84,49.76],[-20.33,50.68],[-21.36,50.88],[-20.43,51.7],[-20.16,51.32],[-19.85,52.47],[-18.72,52.01],[-19.58,52.6],[-18.55,53.08],[-18.13,52.3],[-18.1,52.79],[-17.24,52.48],[-17.87,53.32],[-16.12,52.84],[-16.4,53.34],[-15.87,53.39],[-16.9,53.75],[-15.51,53.78],[-17.05,54.11],[-15.46,54.06],[-15.43,54.51],[-16,54.67],[-15.41,55.03],[-13.57,55.31],[-14.82,54.69],[-14.84,54.23],[-13.37,55.24],[-13.09,54.87],[-12.09,55.08],[-13.53,53.52],[-12.05,54.33],[-11.87,53.72],[-11.51,54.67],[-10.55,53.22],[-10.56,54.52],[-9.94,54.53],[-10.19,55],[-8.95,55.17],[-8.76,54.12],[-9.85,53.51],[-8.58,53.94],[-9.32,53.19],[-8.8,52.94],[-8.45,53.47],[-8.55,52.9],[-7.95,52.6],[-8.13,52.04],[-7.36,51.04],[-7.33,51.44],[-6.67,51.43],[-6.96,51.02],[-6.02,51.17],[-5.5,50.73],[-6.78,50.51],[-6.26,50.58],[-6.72,50.14],[-5.49,50.14],[-5.94,49.7],[-5.25,49.87],[-4.47,49.4],[-5.7,49.36],[-4.72,49.13],[-5.38,48.88],[-3.66,48.81],[-4.81,48.46],[-3.81,48.41],[-4.7,48.16],[-3.98,47.68],[-4.26,48.05],[-3.59,48.11],[-3.35,47.72],[-3.88,47.26],[-4.81,47.44],[-4.11,47.61],[-5.58,47.4],[-4.9,47.17],[-5.84,46.79],[-5.3,46.69],[-5.73,46.41],[-4.7,46.71],[-5.43,46.21],[-4.29,46.43],[-4.71,45.95],[-4.16,45.74],[-4.08,46.22],[-2.89,46.09],[-2.93,45.75],[-2.54,46.04],[-1.55,45.07],[-2.15,45.18],[-2.22,44.69],[-3.33,45.27],[-5.45,45.35],[-4.66,45.2],[-5,44.89],[-3.64,45.14],[-3.94,44.58],[-4.54,44.61],[-4.67,43.8],[-3.59,44.2],[-4.18,43.57],[-3.58,43.63],[-2.97,44.36],[-1.49,44.44],[-2.36,42.63],[-3.77,41.51],[-5.08,41.65],[-4.5,41.09],[-4.93,40.69],[-4.98,39.27],[-5.61,39.17],[-5.33,38.91],[-6.15,38.66],[-5.99,38.34],[-6.59,38.9],[-6.44,38.1],[-7.05,38.06],[-7.18,37.26],[-7.71,37.24],[-7.08,36.61],[-7.64,36.37],[-6.9,35.94],[-7.48,35.98],[-6.98,35.81],[-7.57,35.56],[-7.24,35.05],[-8,34.72],[-7.34,34.48],[-7.84,34.52],[-7.2,34.13],[-7.61,33.61],[-7.18,33.51],[-7.63,33.34],[-7.22,33.18],[-7.78,33.1],[-7.24,33.14],[-7.64,32.82],[-7.18,32.64],[-7.96,32.54],[-7.2,32.13],[-7.83,32.32],[-8.36,31.9],[-8.09,32.45],[-8.39,31.94],[-8.23,32.61],[-8.97,32.28],[-8.64,32.69],[-9.14,32.43],[-8.68,32.98],[-9.09,32.61],[-9.04,33.05],[-9.51,32.42],[-10.29,32.3],[-10.24,32.83],[-10.9,32.8],[-10.47,33],[-11.05,32.92],[-10.85,33.4],[-11.06,33.08],[-10.92,33.48],[-11.83,33.76],[-11.61,34.37],[-11.92,34.04],[-11.84,34.5],[-12.43,34.53],[-11.93,34.65],[-12.74,34.83],[-12.32,35.42],[-12.95,35.31],[-12.18,35.7],[-12.41,35.93],[-11.85,35.65],[-12.8,36.4],[-12.49,35.96],[-13.19,35.55]]]}}]}
