{"type":"FeatureCollection","features":[{"type":"Feature","properties":{},"geometry":{"type":"Polygon","coordinates":[[[106.81,-80.51],[107.29,-79.91],[109.12,-79.56],[112.1,-79.87],[108.33,-80.65],[106.81,-80.51]]]}},{"type":"Feature","properties":{},"geometry":{"type":"Polygon","coordinates":[[[126.42,-81.32],[126.21,-81.07],[126.92,-81.14],[126.42,-81.32]]]}},{"type":"Feature","properties":{},"geometry":{"type":"Polygon","coordinates":[[[108.74,-76.46],[109.57,-76.81],[106.82,-76.61],[108.87,-76.14],[108.74,-76.46]]]}},{"type":"Feature","properties":{},"geometry":{"type":"Polygon","coordinates":[[[127.91,-81.85],[127.43,-81.74],[129.24,-81.5],[127.91,-81.85]]]}},{"type":"Feature","properties":{},"geometry":{"type":"Polygon","coordinates":[[[-65.81,-82.39],[-58.1,-82.84],[-64.19,-83.45],[-67.41,-82.85],[-65.81,-82.39]]]}},{"type":"Feature","properties":{},"geometry":{"type":"Polygon","coordinates":[[[128.58,-81.42],[128.04,-81.18],[129.62,-81.18],[128.58,-81.42]]]}},{"type":"Feature","properties":{},"geometry":{"type":"Polygon","coordinates":[[[166.31,-83.16],[166.8,-83.16],[164.19,-83.08],[166.31,-83.16]]]}},{"type":"Feature","properties":{},"geometry":{"type":"Polygon","coordinates":[[[171.83,-83.99],[171.61,-83.77],[172.58,-83.61],[173.81,-83.87],[171.83,-83.99]]]}},{"type":"Feature","properties":{},"geometry":{"type":"Polygon","coordinates":[[[-158.28,-84.93],[-162.85,-84.94],[-156.39,-84.84],[-158.28,-84.93]]]}},{"type":"Feature","properties":{},"geometry":{"type":"Polygon","coordinates":[[[-172.57,-83.85],[-163.8,-84.49],[-170.15,-84.77],[-175.97,-84.39],[-172.57,-83.85]]]}},{"type":"Feature","properties":{},"geometry":{"type":"Polygon","coordinates":[[[179.99,-82.86],[179.99,-83.74],[179.22,-83.58],[179.92,-83.2],[178.35,-83.22],[179.99,-82.86]]]}},{"type":"Feature","properties":{},"geometry":{"type":"Polygon","coordinates":[[[-179.99,-83.74],[-179.99,-82.86],[-176.69,-83.29],[-178.85,-83.63],[-176.05,-83.65],[-177.59,-84.17],[-179.99,-83.74]]]}},{"type":"Feature","properties":{},"geometry":{"type":"Polygon","coordinates":[[[-86.49,-83.22],[-89.42,-82.77],[-87.33,-82.73],[-86.49,-83.22]]]}},{"type":"Feature","properties":{},"geometry":{"type":"Polygon","coordinates":[[[-110.1,-83.51],[-107.61,-83.53],[-110.49,-83.56],[-110.1,-83.51]]]}},{"type":"Feature","properties":{},"geometry":{"type":"Polygon","coordinates":[[[-107.02,-82.72],[-103.88,-82.99],[-103.83,-82.56],[-102.01,-82.51],[-101.33,-82.64],[-103.09,-82.93],[-98.74,-82.93],[-105.68,-83.43],[-116.43,-83.29],[-107.02,-82.72]]]}},{"type":"Feature","properties":{},"geometry":{"type":"Polygon","coordinates":[[[91.96,-59.65],[92.17,-60.55],[91.2,-60.48],[91.96,-59.65]]]}},{"type":"Feature","properties":{},"geometry":{"type":"Polygon","coordinates":[[[-70.81,-82.84],[-68.57,-83.27],[-72.99,-83.3],[-56.85,-84.45],[-50.66,-84.57],[-54.62,-84.25],[-51.56,-84.16],[-46.47,-84.42],[-48.23,-84.64],[-42.72,-84.57],[-33.97,-85.83],[-29.55,-85.98],[8.47,-85.27],[27.41,-86.84],[26.88,-87.62],[28.05,-87.98],[37.6,-88.44],[19.24,-89.1],[-10.22,-89.23],[-64.34,-88.21],[-72.88,-87.24],[-77.59,-85.91],[-77.05,-85.35],[-77.42,-85.15],[-83.57,-84.31],[-82.72,-83.53],[-75.27,-82.82],[-73.38,-82.1],[-67.61,-82.24],[-70.81,-82.84]]]}},{"type":"Feature","properties":{},"geometry":{"type":"Polygon","coordinates":[[[4.47,-80.81],[2.02,-79.92],[1.69,-78.66],[-0.13,-76.74],[0.87,-76.07],[2.54,-76.14],[-0.44,-75.25],[-5.13,-75.79],[-7.38,-74.93],[-6.47,-73.92],[-6.98,-73.86],[-6.55,-73.86],[-6.92,-73.77],[-6.52,-73.76],[-6.3,-72.87],[-6.79,-72.84],[-5.23,-71.81],[-5.79,-70.58],[-4.44,-69.04],[-1.23,-67.34],[-1.27,-66.6],[-2.73,-66.27],[-1.39,-66.43],[-1.37,-65.76],[-1.78,-65.68],[-1.13,-65.51],[0.22,-66.14],[1.12,-65.93],[0.12,-65.21],[0.49,-64.96],[1.33,-64.83],[1.88,-65.5],[3.81,-65.01],[3.16,-64.94],[3,-64.09],[4.15,-64.47],[3.9,-64.7],[4.57,-65.1],[5.97,-65.08],[8.27,-63.19],[22.23,-61.59],[28.09,-60.22],[27.79,-59.32],[28.29,-59.12],[31.9,-60.35],[32.58,-59.87],[32.42,-59.21],[34.34,-58.2],[36.4,-57.79],[36.81,-57.3],[38.09,-57.59],[38.84,-57.21],[38.12,-56.95],[38.76,-56.74],[39.17,-57.18],[39.95,-57.07],[39.47,-56.64],[39.7,-56.2],[41.95,-55.68],[43.31,-55.82],[44.55,-56.41],[43.79,-56.65],[45.83,-57.25],[53.37,-57.67],[53.47,-58.6],[52.76,-58.84],[53.39,-58.82],[52.68,-59],[53.23,-59.15],[52.4,-59.17],[52.21,-59.49],[52.72,-59.73],[51.89,-60.13],[54,-61.37],[55.73,-59.82],[57.32,-59.78],[60.02,-58.35],[64,-57.52],[69.49,-57.38],[73.67,-57.94],[74.67,-57.87],[74.74,-57.19],[75.89,-57.23],[75.64,-57.65],[76.23,-57.87],[77.86,-57.65],[79.34,-58.08],[81.75,-59.28],[85.61,-58.56],[86.2,-59.43],[87.44,-59.53],[88.29,-60.32],[90.98,-60.53],[90.79,-60.84],[95.2,-60.69],[96.04,-61.64],[97.11,-61.83],[98.23,-61.19],[98.04,-60.84],[101.51,-61.75],[102.79,-60.98],[103.01,-61.43],[102.48,-61.7],[103.2,-62.26],[109.1,-64.22],[110.95,-64.22],[109.23,-64.72],[111.64,-65.46],[110.55,-65.86],[113.22,-66.28],[113.05,-66.73],[115.53,-66.77],[115.97,-67.13],[115.58,-67.56],[118.58,-68.5],[119.15,-69.28],[118.78,-69.37],[118.96,-69.72],[123.32,-70.97],[122.91,-70.98],[123.95,-71.29],[123.66,-71.66],[124.54,-72.46],[125.26,-72.23],[124.92,-72.73],[120.1,-73.71],[117.73,-73.4],[115.27,-73.54],[114.54,-74.06],[112.83,-74.01],[113.46,-73.61],[111.81,-73.78],[111.21,-74.05],[112.32,-74.53],[110.8,-74.24],[106.64,-75.31],[106.95,-75.5],[105.31,-76.03],[105.78,-76.21],[103.46,-76.41],[105.52,-76.54],[104.39,-76.85],[104.83,-77.11],[104.42,-77.24],[102.92,-76.75],[98.84,-76.59],[93.56,-77.42],[94.07,-77.6],[91.13,-77.93],[88.77,-78.76],[86.73,-78.66],[88.26,-78.95],[83.61,-79.71],[84.46,-79.83],[80.11,-81.15],[72.54,-81.09],[80.84,-81.24],[77.5,-82.17],[70.06,-82.58],[66.15,-83.27],[67.72,-83.63],[61.34,-84.1],[91.92,-84.17],[88.63,-85.58],[51.01,-84.66],[30.4,-85.17],[10.53,-82.31],[4.47,-80.81]]]}},{"type":"Feature","properties":{},"geometry":{"type":"Polygon","coordinates":[[[179.99,-84.66],[179.99,-89.99],[-179.99,-89.99],[-179.99,-84.66],[-154.86,-85.51],[-154.06,-85.1],[-150.46,-84.94],[-149.63,-85.05],[-152.25,-85.25],[-148.55,-85.27],[-150.93,-85.48],[-148.61,-85.83],[-149.66,-86.03],[-143.56,-85.95],[-145.08,-85.79],[-142.84,-85.43],[-134.39,-86.11],[-125.89,-86.1],[-126.67,-86.55],[-126.14,-86.58],[-120.29,-86.41],[-120.81,-86.21],[-120,-85.94],[-106.95,-86.33],[-101.97,-86.05],[-109.17,-85.57],[-105.91,-85.32],[-106.51,-85.13],[-113.55,-84.71],[-107.05,-84.5],[-107.48,-84.33],[-115.05,-84.55],[-118.23,-84.17],[-96.73,-83.96],[-93.68,-83.6],[-94.59,-83.37],[-91.63,-83.58],[-83.05,-82.87],[-85,-82.52],[-84.22,-82.42],[-81.38,-82.74],[-75.91,-82.48],[-76.32,-82.25],[-68.45,-82.36],[-62.73,-84.47],[-51.88,-86.24],[-3.99,-87.78],[22.73,-87.76],[50.98,-87],[55.04,-86.62],[57.58,-85.82],[86.29,-84.14],[89.52,-83.5],[88.47,-83.31],[89.44,-83.26],[90.05,-81.83],[100.05,-81.91],[104.62,-83.16],[107.63,-82.68],[107.82,-82.36],[107.23,-82.13],[112.11,-81.44],[114.34,-80.57],[122.31,-79.74],[122.79,-79.81],[122.02,-80.11],[124.06,-80.11],[124.8,-80.52],[123.71,-80.75],[125.49,-80.95],[124.49,-81.68],[129.71,-81.9],[128.92,-82.07],[129.34,-82.14],[133.72,-81.92],[134.11,-81.52],[132.24,-80.97],[132.92,-80.92],[135.03,-81.02],[135.35,-81.75],[138.15,-81.36],[152.2,-82.54],[158.39,-82.44],[160.03,-82.7],[158.6,-82.98],[165.57,-83.76],[179.99,-84.66]]]}},{"type":"Feature","properties":{},"geometry":{"type":"Polygon","coordinates":[[[-57.42,-69],[-57.01,-69.23],[-57.77,-69.07],[-57.07,-69.33],[-57.21,-69.63],[-58.27,-69.22],[-57.72,-68.97],[-59.03,-69.11],[-59.26,-68.81],[-58.69,-68.78],[-59.4,-68.62],[-56.84,-68.92],[-57.42,-69]]]}},{"type":"Feature","properties":{},"geometry":{"type":"Polygon","coordinates":[[[-56.39,-68.91],[-55.16,-69.39],[-56.83,-69.18],[-56.39,-68.91]]]}},{"type":"Feature","properties":{},"geometry":{"type":"Polygon","coordinates":[[[-58.54,-68.46],[-57.94,-68.69],[-59.11,-68.56],[-58.54,-68.46]]]}},{"type":"Feature","properties":{},"geometry":{"type":"Polygon","coordinates":[[[-50.67,-69.71],[-49.84,-69.81],[-51.41,-69.68],[-50.67,-69.71]]]}},{"type":"Feature","properties":{},"geometry":{"type":"Polygon","coordinates":[[[-60,-67.14],[-59.42,-67.42],[-60.47,-67.36],[-60,-67.14]]]}},{"type":"Feature","properties":{},"geometry":{"type":"Polygon","coordinates":[[[-60.36,-66.96],[-60.25,-67.25],[-61.01,-67.37],[-60.91,-66.92],[-60.36,-66.96]]]}},{"type":"Feature","properties":{},"geometry":{"type":"Polygon","coordinates":[[[-58.11,-67.08],[-58.89,-67.71],[-59.25,-67.48],[-58.11,-67.08]]]}},{"type":"Feature","properties":{},"geometry":{"type":"Polygon","coordinates":[[[-61.34,-66.23],[-61.45,-66.55],[-60.61,-66.86],[-61.94,-66.95],[-61.37,-66.76],[-62.5,-66.4],[-61.34,-66.23]]]}},{"type":"Feature","properties":{},"geometry":{"type":"Polygon","coordinates":[[[-62.71,-65.21],[-61.38,-66.19],[-62.69,-65.64],[-62.71,-65.21]]]}},{"type":"Feature","properties":{},"geometry":{"type":"Polygon","coordinates":[[[-59.34,-65.83],[-58.42,-66.08],[-60.39,-66.07],[-60,-66.29],[-60.66,-66.55],[-61.44,-65.95],[-60.8,-66.24],[-60.69,-65.76],[-59.34,-65.83]]]}},{"type":"Feature","properties":{},"geometry":{"type":"Polygon","coordinates":[[[-60.51,-67.57],[-58.72,-68.07],[-59.35,-67.47],[-58.27,-67.84],[-58.32,-68.18],[-57.38,-68.21],[-57.93,-68.4],[-57.08,-68.3],[-58.01,-67.41],[-56.35,-67.18],[-57.85,-66.91],[-56.87,-66.61],[-57.15,-66.38],[-55.43,-66.36],[-54.52,-66.75],[-54.45,-67.28],[-55.04,-67.32],[-54.22,-68.37],[-51.73,-69.44],[-54.29,-69.45],[-61.37,-67.6],[-60.51,-67.57]]]}},{"type":"Feature","properties":{},"geometry":{"type":"Polygon","coordinates":[[[-39.62,-67.62],[-41.86,-68.21],[-42.82,-67.91],[-40.94,-67.87],[-41.58,-67.37],[-39.62,-67.62]]]}},{"type":"Feature","properties":{},"geometry":{"type":"Polygon","coordinates":[[[-38.78,-67.67],[-37.18,-68.1],[-40.07,-68.29],[-39.81,-68.56],[-40.84,-68.3],[-38.78,-67.67]]]}},{"type":"Feature","properties":{},"geometry":{"type":"Polygon","coordinates":[[[-60.58,-63.41],[-60.64,-63.82],[-61.27,-63.65],[-60.58,-63.41]]]}},{"type":"Feature","properties":{},"geometry":{"type":"Polygon","coordinates":[[[-60.17,-63.21],[-60.12,-63.66],[-60.49,-63.36],[-60.17,-63.21]]]}},{"type":"Feature","properties":{},"geometry":{"type":"Polygon","coordinates":[[[-60.74,-62.6],[-60.23,-62.86],[-61.32,-62.87],[-60.74,-62.6]]]}},{"type":"Feature","properties":{},"geometry":{"type":"Polygon","coordinates":[[[-59.54,-62.23],[-60.38,-62.57],[-60.44,-62.11],[-58.63,-61.62],[-59.53,-62.73],[-60.18,-62.77],[-59.54,-62.23]]]}},{"type":"Feature","properties":{},"geometry":{"type":"Polygon","coordinates":[[[-58.41,-61.04],[-58.51,-61.56],[-59.16,-61.38],[-58.41,-61.04]]]}},{"type":"Feature","properties":{},"geometry":{"type":"Polygon","coordinates":[[[-59.02,-60.85],[-58.54,-61.06],[-59.07,-61.26],[-59.02,-60.85]]]}},{"type":"Feature","properties":{},"geometry":{"type":"Polygon","coordinates":[[[-59.14,-60.81],[-59.53,-61.43],[-59.27,-61.07],[-59.69,-61.04],[-59.14,-60.81]]]}},{"type":"Feature","properties":{},"geometry":{"type":"Polygon","coordinates":[[[-57.47,-60.87],[-57,-61.04],[-57.94,-60.88],[-57.47,-60.87]]]}},{"type":"Feature","properties":{},"geometry":{"type":"Polygon","coordinates":[[[164.57,-74.65],[163.56,-75.03],[162.1,-74.63],[164.57,-74.65]]]}},{"type":"Feature","properties":{},"geometry":{"type":"Polygon","coordinates":[[[-53.45,-57.99],[-53.18,-58.21],[-54.26,-58.31],[-53.45,-57.99]]]}},{"type":"Feature","properties":{},"geometry":{"type":"Polygon","coordinates":[[[-52.97,-55.33],[-52.48,-55.48],[-52.56,-55.93],[-53.3,-56.07],[-53.28,-56.72],[-54.49,-56.56],[-52.97,-55.33]]]}},{"type":"Feature","properties":{},"geometry":{"type":"Polygon","coordinates":[[[125.27,-72.72],[131.12,-73.72],[130.37,-73.34],[134.48,-73.37],[134.08,-73.84],[134.25,-74.57],[133.52,-74.47],[132.51,-75.24],[132.99,-75.58],[130.82,-75.03],[131.22,-75.23],[129.48,-75.91],[127.06,-75.76],[127.78,-75.54],[126.66,-75.48],[125.49,-74.74],[125.5,-74.3],[126.45,-74.51],[124.87,-73.48],[125.27,-72.72]]]}},{"type":"Feature","properties":{},"geometry":{"type":"Polygon","coordinates":[[[151.75,-74.67],[152.59,-74.79],[151.47,-74.82],[152.42,-75.09],[151.97,-75.36],[152.34,-75.57],[155.92,-75.43],[154.5,-75.65],[155.76,-75.65],[154.72,-75.83],[155.18,-76.16],[151.96,-76.81],[131.56,-77.1],[143.5,-76.5],[151.75,-74.67]]]}},{"type":"Feature","properties":{},"geometry":{"type":"Polygon","coordinates":[[[179.99,-74.52],[179.99,-75.73],[177.46,-75.47],[170.74,-75.86],[171.45,-75.93],[171.07,-75.98],[165.94,-75.33],[165.3,-74.89],[166.09,-74.79],[165.45,-74.45],[166.16,-74.27],[164.8,-73.75],[165.91,-73.7],[165.03,-73.55],[165.71,-73.36],[169.07,-73.36],[179.99,-74.52]]]}},{"type":"Feature","properties":{},"geometry":{"type":"Polygon","coordinates":[[[-179.99,-75.73],[-179.99,-74.52],[-173.46,-75.52],[-176.74,-75.54],[-178.16,-75.82],[-177.44,-76.04],[-177.91,-76.19],[-179.99,-75.73]]]}},{"type":"Feature","properties":{},"geometry":{"type":"Polygon","coordinates":[[[134.65,-72.71],[134.94,-72.82],[133.66,-72.77],[134.65,-72.71]]]}},{"type":"Feature","properties":{},"geometry":{"type":"Polygon","coordinates":[[[133.72,-72.08],[134.6,-72.59],[133.2,-72.23],[133.72,-72.08]]]}},{"type":"Feature","properties":{},"geometry":{"type":"Polygon","coordinates":[[[124.03,-71.58],[124.23,-71.94],[123.57,-72.13],[124.03,-71.58]]]}},{"type":"Feature","properties":{},"geometry":{"type":"Polygon","coordinates":[[[113.02,-66.47],[113.8,-66.85],[110.65,-66.49],[113.02,-66.47]]]}},{"type":"Feature","properties":{},"geometry":{"type":"Polygon","coordinates":[[[156.64,-68.78],[156.91,-69.37],[159.32,-69.7],[159.65,-70.4],[159.32,-70.51],[160.1,-70.94],[159.62,-70.97],[159.79,-71.53],[161.49,-71.83],[161.37,-71.1],[162.32,-71.39],[161.88,-71.52],[162.85,-72.32],[165.72,-72.77],[169.11,-72.5],[168.31,-73.33],[167.33,-73.51],[167.41,-73.92],[164.74,-73.95],[163.93,-74.86],[160.7,-75.89],[158.25,-76.17],[156.59,-75.76],[159.13,-74.87],[155.64,-73.66],[158.11,-73.34],[159.41,-71.89],[158.31,-70.96],[158.95,-71.17],[158.63,-70.83],[159.27,-70.78],[158.07,-70.87],[155.78,-68.78],[156.64,-68.78]]]}},{"type":"Feature","properties":{},"geometry":{"type":"Polygon","coordinates":[[[120.55,-44.92],[120.73,-45.6],[119.9,-45.43],[120.55,-44.92]]]}},{"type":"Feature","properties":{},"geometry":{"type":"Polygon","coordinates":[[[31.54,-47.78],[32.52,-45.68],[34.09,-44.69],[36.47,-45.02],[36.76,-45.45],[36.95,-44.98],[37.9,-45.27],[37.96,-44.91],[39.72,-44.49],[39.88,-43.86],[40.19,-44.21],[41.13,-44.03],[41.55,-43.15],[42.49,-43.01],[42.21,-43.2],[42.71,-44.17],[41.96,-46.61],[41.35,-46.98],[41.25,-46.31],[40.84,-46.34],[40.32,-47.6],[38.95,-48.62],[30.76,-53.51],[27.62,-53.12],[26.81,-52.13],[28.1,-49.42],[31.54,-47.78]]]}},{"type":"Feature","properties":{},"geometry":{"type":"Polygon","coordinates":[[[112.91,-41.34],[113.08,-41.89],[112.36,-41.75],[112.91,-41.34]]]}},{"type":"Feature","properties":{},"geometry":{"type":"Polygon","coordinates":[[[113.03,-41.19],[114.38,-41.74],[113.49,-42.08],[113.03,-41.19]]]}},{"type":"Feature","properties":{},"geometry":{"type":"Polygon","coordinates":[[[120.74,-70.13],[116.97,-69.33],[116.11,-68.48],[116.69,-68.07],[116.57,-67.5],[115.5,-66.74],[116.69,-67.62],[116.5,-67.27],[115.38,-66.69],[113.88,-66.64],[115.34,-65.95],[114.89,-65.2],[113.58,-66.06],[111.71,-66],[113.13,-65.79],[113.65,-65.05],[115.01,-64.61],[114.87,-64.3],[115.42,-64.18],[115.27,-63.47],[114.99,-64.03],[110.54,-65.06],[110.24,-65.52],[108.98,-64.9],[109.71,-65.03],[109.7,-64.36],[109.29,-63.46],[108.42,-63.17],[108.95,-62.77],[108.24,-62.62],[108.24,-62.16],[105.81,-61.67],[104.48,-60.83],[95.77,-59.84],[89.88,-60.28],[85.25,-58.84],[81.49,-58.98],[79.84,-58.32],[78.66,-57.07],[79.35,-56.31],[80.44,-56.42],[81.93,-55.21],[82.26,-53.78],[83.22,-52.5],[83.48,-49.17],[83.97,-49.86],[84.38,-48.77],[84.13,-49.47],[84.5,-49.31],[84.35,-49.85],[84.66,-49.79],[85.06,-49.4],[85.03,-47.78],[87.34,-45.83],[87.75,-45.79],[87.52,-46.48],[88.27,-46.01],[91.71,-45.71],[92.63,-46.2],[97.57,-46.42],[99.96,-45.53],[100.13,-44.66],[101.5,-44.09],[101.72,-45.46],[102.59,-44.86],[102.1,-44.53],[102.4,-44.09],[104.06,-44.74],[103.38,-44.51],[104.21,-44],[103.67,-44.22],[103.77,-43.76],[104.23,-43.57],[104.86,-44.09],[104.47,-43.53],[105.33,-43.74],[105.04,-43.23],[105.83,-42.87],[106.08,-43.36],[106.48,-42.7],[106.61,-43.09],[107.64,-42.78],[108.26,-43.12],[109,-44.1],[108.16,-44.88],[108.67,-44.5],[108.84,-44.85],[109.36,-44.2],[110.57,-44.93],[111.12,-44.31],[110.61,-44.01],[112.15,-43.26],[112.47,-42.64],[112.97,-42.79],[112.85,-42.44],[113.27,-42.79],[113.88,-42.26],[115.76,-42.7],[115.86,-42.15],[114.71,-41.66],[115.04,-41.51],[117.6,-42.96],[118.96,-43.35],[119.92,-43.1],[119.51,-43.3],[120.06,-43.24],[119.93,-43.65],[120.8,-43.14],[121.24,-43.67],[120.45,-44.01],[120.66,-44.27],[119.59,-44.4],[119.33,-45.3],[117.92,-45.73],[118.82,-46.15],[118.36,-46.34],[118.87,-46.18],[120.06,-46.93],[119.58,-47.12],[124.97,-49.42],[127.2,-47.18],[127.04,-45.79],[128.03,-44.55],[127.42,-44.51],[128.25,-44.03],[128.38,-42.98],[128.95,-42.75],[130.05,-44.98],[130.17,-46.54],[131.24,-46.38],[132.34,-47.22],[132.27,-48.7],[133.03,-49.19],[133.3,-51.18],[137.03,-52.64],[137.28,-52.94],[136.91,-53.09],[138.12,-53.95],[138.35,-55],[139.03,-55.07],[139,-54.55],[139.95,-55.08],[140.01,-54.77],[140.36,-55.9],[139.67,-55.76],[141.85,-56.41],[143.85,-57.64],[144.41,-58.27],[144.23,-59.64],[145.33,-60.52],[145.47,-61.18],[144.95,-61.69],[144.61,-63.82],[143.57,-64.56],[143.94,-64.81],[142.3,-65.19],[141.79,-65.93],[140.69,-65.87],[141.59,-66.22],[140.18,-67.28],[140.69,-67.47],[139.11,-68.11],[139.4,-68.25],[138.61,-69.3],[138.83,-69.92],[133.4,-70.2],[132.89,-70.42],[134.06,-70.26],[129.79,-70.94],[130.39,-71.06],[130.09,-71.4],[127.87,-70.71],[128.25,-70.42],[126.29,-70.4],[127.43,-70.3],[127.14,-69.94],[123.46,-70.79],[120.74,-70.13]]]}},{"type":"Feature","properties":{},"geometry":{"type":"Polygon","coordinates":[[[124.6,-39.04],[124.97,-39.26],[124.52,-39.78],[123.27,-39.52],[124.6,-39.04]]]}},{"type":"Feature","properties":{},"geometry":{"type":"Polygon","coordinates":[[[119.07,-37.14],[119.43,-37.57],[118.94,-37.85],[119.07,-37.14]]]}},{"type":"Feature","properties":{},"geometry":{"type":"Polygon","coordinates":[[[119.64,-36.97],[119.59,-37.38],[119.21,-37.08],[119.64,-36.97]]]}},{"type":"Feature","properties":{},"geometry":{"type":"Polygon","coordinates":[[[119.6,-36.55],[119.83,-37.01],[119.28,-36.98],[119.6,-36.55]]]}},{"type":"Feature","properties":{},"geometry":{"type":"Polygon","coordinates":[[[109.96,-11.4],[110.4,-11.01],[110.72,-11.4],[110.57,-11.77],[109.96,-11.4]]]}},{"type":"Feature","properties":{},"geometry":{"type":"Polygon","coordinates":[[[108.46,-13.02],[109.47,-12.85],[109.77,-12.34],[110.25,-12.57],[108.86,-13.9],[108.46,-13.02]]]}},{"type":"Feature","properties":{},"geometry":{"type":"Polygon","coordinates":[[[135.05,-39.09],[137.12,-41.48],[138.04,-41.43],[137.94,-41.91],[139.04,-42.1],[138.78,-42.43],[140.13,-42.64],[139.42,-42.75],[139.87,-42.99],[136.11,-42.39],[133.53,-40.21],[131.9,-39.66],[131.37,-39.99],[130.7,-39.42],[131.08,-40.18],[130.23,-40.02],[130.65,-40.4],[128.77,-40.26],[129.98,-40.57],[130.27,-41.14],[127.29,-41.15],[125.95,-39.99],[126.24,-39.68],[124.65,-39.93],[125,-39.26],[124.48,-38.84],[125.72,-38.93],[124.37,-38.58],[125.21,-38.71],[124.29,-37.95],[124.46,-37.39],[123.97,-37.3],[123.6,-36.4],[120.19,-35.22],[126.57,-36.01],[135.05,-39.09]]]}},{"type":"Feature","properties":{},"geometry":{"type":"Polygon","coordinates":[[[105.42,-13.62],[105.84,-13.71],[105.49,-14.01],[105.42,-13.62]]]}},{"type":"Feature","properties":{},"geometry":{"type":"Polygon","coordinates":[[[0.17,-28.36],[-0.08,-28.72],[-0.29,-28.46],[0.17,-28.36]]]}},{"type":"Feature","properties":{},"geometry":{"type":"Polygon","coordinates":[[[99.19,-20.83],[100.21,-19.04],[101.59,-18.8],[104.68,-16.81],[104.28,-16.56],[105.52,-15.75],[110.15,-17.41],[105.76,-18.96],[104.17,-18.87],[103.33,-19.7],[99.95,-21.17],[99.15,-21.15],[99.19,-20.83]]]}},{"type":"Feature","properties":{},"geometry":{"type":"Polygon","coordinates":[[[105.19,-15.87],[105.82,-15.24],[105.95,-15.7],[106.14,-14.68],[107.07,-15.27],[107.62,-14.38],[109.27,-14.41],[109.29,-13.5],[110.01,-13.21],[112.83,-14.18],[112.27,-14.51],[112.61,-14.71],[112.18,-15.27],[112.6,-15.33],[109.31,-17.46],[105.19,-15.87]]]}},{"type":"Feature","properties":{},"geometry":{"type":"Polygon","coordinates":[[[33,-57.68],[28.8,-59.3],[26.46,-59.08],[25.63,-58.07],[26.34,-57.53],[29.78,-57.23],[30.21,-57.31],[29.35,-57.34],[33,-57.68]]]}},{"type":"Feature","properties":{},"geometry":{"type":"Polygon","coordinates":[[[-24.13,-7.75],[-24.25,-8.45],[-25.17,-8.39],[-24.67,-8.21],[-24.81,-7.77],[-24.13,-7.75]]]}},{"type":"Feature","properties":{},"geometry":{"type":"Polygon","coordinates":[[[103.4,5.53],[104.1,6.09],[104.48,4.88],[104.09,3.85],[103.21,3.65],[102.7,4.36],[103.4,5.53]]]}},{"type":"Feature","properties":{},"geometry":{"type":"Polygon","coordinates":[[[22.02,-2.51],[20.68,-3.52],[19.78,-1.28],[20.22,-1.14],[22.02,-2.51]]]}},{"type":"Feature","properties":{},"geometry":{"type":"Polygon","coordinates":[[[27.37,-5.48],[27.59,-6.84],[26.92,-5.39],[27.37,-5.48]]]}},{"type":"Feature","properties":{},"geometry":{"type":"Polygon","coordinates":[[[35.32,14.06],[35.66,13.79],[35.07,13.69],[35.32,14.06]]]}},{"type":"Feature","properties":{},"geometry":{"type":"Polygon","coordinates":[[[17.73,4.19],[17.66,3.49],[17.1,3.73],[17.73,4.19]]]}},{"type":"Feature","properties":{},"geometry":{"type":"Polygon","coordinates":[[[20.92,7.77],[20.72,7.26],[19.3,6.62],[18.56,7.12],[20.28,8.34],[20.92,7.77]]]}},{"type":"Feature","properties":{},"geometry":{"type":"Polygon","coordinates":[[[22.58,8.43],[21,7.86],[21.71,8.72],[22.58,8.43]]]}},{"type":"Feature","properties":{},"geometry":{"type":"Polygon","coordinates":[[[1.15,8.16],[0.71,6.86],[1.27,7.48],[1.68,7.12],[0.63,6.69],[0.44,7.19],[1.15,8.16]]]}},{"type":"Feature","properties":{},"geometry":{"type":"Polygon","coordinates":[[[-1.25,8.01],[-1.11,7.57],[0.14,7.59],[-0.4,7.08],[-1.36,7.54],[-1.25,8.01]]]}},{"type":"Feature","properties":{},"geometry":{"type":"Polygon","coordinates":[[[-1.3,11.08],[0.33,10.26],[-0.94,10.51],[-1.3,11.08]]]}},{"type":"Feature","properties":{},"geometry":{"type":"Polygon","coordinates":[[[4.5,10.48],[5.07,10.93],[5.76,10.69],[5.36,9.78],[6.14,10.08],[5.53,9.59],[5.8,8.95],[6.29,9.59],[6.28,8.12],[5.92,8.08],[5.91,8.66],[5.5,8.23],[5.48,9.29],[4.43,8.16],[4.91,9.18],[4.5,8.72],[4.08,8.78],[4.32,9.27],[3.63,8.79],[1.95,8.8],[4.5,10.48]]]}},{"type":"Feature","properties":{},"geometry":{"type":"Polygon","coordinates":[[[3.98,12.91],[4.26,12.7],[3.87,12.61],[4.12,12.38],[3.44,11],[4.34,11.32],[3.93,10.86],[4.62,10.88],[4.5,10.48],[1.98,8.93],[2.62,9.72],[1.97,9.71],[2.85,10.19],[2.59,10.52],[3.07,11.93],[3.98,12.91]]]}},{"type":"Feature","properties":{},"geometry":{"type":"Polygon","coordinates":[[[-11.82,15.53],[-11.53,14.92],[-12.29,15.41],[-11.82,15.53]]]}},{"type":"Feature","properties":{},"geometry":{"type":"Polygon","coordinates":[[[7.9,14.7],[8.6,15.1],[7.8,14.87],[8.35,15.63],[7.52,15.69],[7.86,16.13],[7.45,16.52],[8.42,16.64],[8.58,17.1],[8.16,17.09],[8.88,17.89],[8.95,17.46],[9.69,17.85],[10.21,17.22],[9.73,16.81],[9.91,16.34],[7.9,14.7]]]}},{"type":"Feature","properties":{},"geometry":{"type":"Polygon","coordinates":[[[8.93,14.36],[8.07,13.79],[8.14,14.23],[7.62,14.12],[7.98,14.48],[7.53,14.45],[9.91,16.34],[10.1,14.86],[8.93,14.36]]]}},{"type":"Feature","properties":{},"geometry":{"type":"Polygon","coordinates":[[[19.1,20.82],[19.48,20.4],[18.7,20.6],[19.1,20.82]]]}},{"type":"Feature","properties":{},"geometry":{"type":"Polygon","coordinates":[[[20,21.7],[20.26,20.58],[19.29,21.05],[20,21.22],[20,21.7]]]}},{"type":"Feature","properties":{},"geometry":{"type":"Polygon","coordinates":[[[-9.87,18.63],[-9.72,18.28],[-10.34,17.86],[-9.87,18.63]]]}},{"type":"Feature","properties":{},"geometry":{"type":"Polygon","coordinates":[[[9.05,20.29],[9.36,19.64],[8.84,19.96],[9.05,20.29]]]}},{"type":"Feature","properties":{},"geometry":{"type":"Polygon","coordinates":[[[24.19,26.37],[24.65,26.43],[24.3,25.61],[23.87,26.08],[24.19,26.37]]]}},{"type":"Feature","properties":{},"geometry":{"type":"Polygon","coordinates":[[[10.48,21.53],[9.98,19.45],[9.3,19.32],[9.7,19.8],[9.3,20.49],[9.72,20.53],[9.58,21.32],[10.48,21.53]]]}},{"type":"Feature","properties":{},"geometry":{"type":"Polygon","coordinates":[[[10.42,20.46],[11.58,20.71],[11.01,19.32],[11.47,19.31],[10.78,18.99],[11.82,19.02],[12.32,18.5],[10.53,17.43],[10.46,18.74],[10.25,18.99],[10,18.58],[10.07,18.99],[9.83,17.98],[9.71,18.97],[10.42,20.46]]]}},{"type":"Feature","properties":{},"geometry":{"type":"Polygon","coordinates":[[[12.32,18.5],[13.49,17.56],[13.76,17.09],[13.22,17.07],[13.8,16.98],[13.86,16.39],[14.93,16.49],[15.04,15.85],[14.45,15.04],[15.18,14.93],[10.94,12.82],[12.68,14.99],[12.15,14.44],[10.8,14.7],[11.52,15.51],[11.37,15.85],[10.96,15.64],[11.15,16.01],[12.08,16.4],[11.32,17.73],[12.32,18.5]]]}},{"type":"Feature","properties":{},"geometry":{"type":"Polygon","coordinates":[[[23.93,26.79],[24.13,26.43],[23.74,26.5],[23.93,26.79]]]}},{"type":"Feature","properties":{},"geometry":{"type":"Polygon","coordinates":[[[-8.78,24.29],[-9.15,23.54],[-9.27,24.01],[-8.78,24.29]]]}},{"type":"Feature","properties":{},"geometry":{"type":"Polygon","coordinates":[[[-10.01,25.17],[-10.96,24.5],[-10.69,25.16],[-10.01,25.17]]]}},{"type":"Feature","properties":{},"geometry":{"type":"Polygon","coordinates":[[[-9.05,55.18],[-11.51,55.36],[-10.93,55.81],[-9.13,55.6],[-9.05,55.18]]]}},{"type":"Feature","properties":{},"geometry":{"type":"Polygon","coordinates":[[[-10.68,28.35],[-10.64,27.61],[-10.36,27.81],[-9.4,26.64],[-9.63,26.09],[-8.8,25.71],[-9.32,25.48],[-10.09,26.4],[-11.53,25.63],[-11.46,26.29],[-12.21,26.34],[-11.57,26.67],[-10.68,28.35]]]}},{"type":"Feature","properties":{},"geometry":{"type":"Polygon","coordinates":[[[-5.92,29.88],[-5.58,29.65],[-5.78,28.95],[-6.6,28.88],[-6.41,29.7],[-5.92,29.88]]]}},{"type":"Feature","properties":{},"geometry":{"type":"Polygon","coordinates":[[[15.39,34],[15.91,33.79],[15.47,33.27],[15.39,34]]]}},{"type":"Feature","properties":{},"geometry":{"type":"Polygon","coordinates":[[[-3.03,50.37],[-5.68,51.55],[-6.47,52.85],[-6.9,52.7],[-6.18,52.13],[-6.79,52.02],[-8.03,52.07],[-9.61,52.84],[-9.2,53.31],[-8.52,53.15],[-8.93,53.48],[-7.59,53.39],[-8.34,53.93],[-7.63,54.31],[-8.43,54.62],[-7.84,54.83],[-6.01,54.42],[-5.48,53.77],[-3.72,53.78],[-3.75,52.88],[-2.94,53.11],[-3.13,53.81],[-2.71,53.56],[-3.03,50.37]]]}},{"type":"Feature","properties":{},"geometry":{"type":"Polygon","coordinates":[[[26.62,42.04],[27.14,41.92],[26.92,41.27],[26.24,41.79],[26.62,42.04]]]}},{"type":"Feature","properties":{},"geometry":{"type":"Polygon","coordinates":[[[15.8,34.79],[16.11,34.6],[15.72,34.27],[15.8,34.79]]]}},{"type":"Feature","properties":{},"geometry":{"type":"Polygon","coordinates":[[[-14,33.5],[-13.58,32.38],[-14.32,32.21],[-15.19,33.2],[-14,33.5]]]}},{"type":"Feature","properties":{},"geometry":{"type":"Polygon","coordinates":[[[3.07,48.61],[2.61,48.91],[2.86,49.14],[3.46,48.74],[3.07,48.61]]]}},{"type":"Feature","properties":{},"geometry":{"type":"Polygon","coordinates":[[[1.11,26.59],[1.73,25.72],[1.19,25.53],[0.92,25.72],[1.3,25.87],[0.68,26.04],[1.11,26.59]]]}},{"type":"Feature","properties":{},"geometry":{"type":"Polygon","coordinates":[[[27.8,45.32],[29.07,45.38],[28.18,44.98],[27.8,45.32]]]}},{"type":"Feature","properties":{},"geometry":{"type":"Polygon","coordinates":[[[11.45,28.29],[11.72,27.97],[10.75,27.51],[11.45,28.29]]]}},{"type":"Feature","properties":{},"geometry":{"type":"Polygon","coordinates":[[[-2.7,48.36],[-2.26,48.23],[-2.72,47.87],[-2.7,48.36]]]}},{"type":"Feature","properties":{},"geometry":{"type":"Polygon","coordinates":[[[-3.38,47.68],[-4.11,48.16],[-2.93,48.29],[-2.96,47.74],[-3.38,47.68]]]}},{"type":"Feature","properties":{},"geometry":{"type":"Polygon","coordinates":[[[-2.03,8.19],[-1.34,7.16],[-0.22,6.72],[0.18,7.02],[0.87,6.47],[-1.51,5.71],[-2.38,4.62],[-2.86,5.61],[-1.63,6.48],[-1.43,6.09],[-0.81,6.5],[-1.95,6.48],[-1.66,7.12],[-4.41,5.48],[-4.91,5.74],[-5.06,5.24],[-5.84,5.08],[-6.54,3.72],[-6.06,3.08],[-5.84,3.41],[-5.82,2.91],[-6.73,2.89],[-6.83,3.25],[-6.95,2.82],[-7.57,2.79],[-5.33,5.94],[-2.03,8.19]]]}},{"type":"Feature","properties":{},"geometry":{"type":"Polygon","coordinates":[[[-16.27,-47.57],[-19.65,-50.43],[-21.48,-51.27],[-19.15,-49.72],[-20.03,-49.19],[-20.17,-49.99],[-21.58,-50.82],[-21.5,-51.27],[-22.44,-52.14],[-24.87,-53.49],[-27.68,-53.47],[-29.83,-52.77],[-30.39,-52.02],[-29.6,-51.2],[-30.17,-51.31],[-30.74,-52.61],[-29.2,-53.68],[-29.5,-54.55],[-37.8,-51.17],[-40.4,-49.57],[-40.73,-46.68],[-42.6,-41.28],[-42.14,-39.4],[-40.98,-37.76],[-40.59,-35.21],[-34.28,-40.02],[-28.66,-43.25],[-22.35,-45.89],[-16.27,-47.57]]]}},{"type":"Feature","properties":{},"geometry":{"type":"Polygon","coordinates":[[[-36.08,-55.25],[-36.73,-54.92],[-36.47,-55.61],[-36.84,-55.47],[-36.54,-55.66],[-37.64,-57.02],[-39.63,-57],[-41.23,-56.41],[-41.75,-57.63],[-41.19,-58.09],[-40.05,-57.88],[-40.23,-58.57],[-41.99,-58.2],[-41.25,-58.64],[-42.99,-59.07],[-44.01,-60.26],[-46.25,-60.29],[-47.61,-60.91],[-47.1,-61.95],[-45.8,-62.37],[-46.38,-63.06],[-53.1,-64.72],[-54.38,-65.72],[-53.97,-65.72],[-53.87,-66.53],[-57.71,-66.24],[-59.54,-67.17],[-60.59,-66.4],[-59.59,-66.41],[-60.22,-66.64],[-59.79,-66.69],[-58.22,-66.31],[-58.44,-65.9],[-60.15,-65.51],[-61.44,-65.79],[-60.19,-65.53],[-61.52,-65.46],[-60.8,-64.84],[-59.91,-65.29],[-59.43,-65.03],[-60.22,-65.43],[-59.68,-65.55],[-58.84,-64.96],[-59.35,-64.52],[-59.11,-64.3],[-59.6,-64.48],[-58.89,-64.9],[-59.73,-64.55],[-59.55,-64.83],[-59.95,-64.86],[-59.52,-64.91],[-60.19,-65.04],[-59.92,-64.58],[-60.37,-65.08],[-60.03,-64.6],[-60.59,-64.42],[-59.79,-64.11],[-60.42,-63.98],[-60.28,-63.7],[-58.95,-63.72],[-59.31,-63.52],[-58.92,-63.4],[-59.96,-63.7],[-59.94,-63.28],[-59.46,-63.27],[-60.19,-62.93],[-59.2,-63.24],[-59.56,-62.83],[-58.75,-62.82],[-59.37,-62.77],[-58.88,-62.66],[-59.19,-62.51],[-58.42,-62.77],[-58.78,-62.45],[-58.31,-62.09],[-59.09,-62.27],[-58.08,-61.77],[-58.39,-61.55],[-57.58,-61.52],[-58.23,-60.94],[-56.47,-61.33],[-56.93,-61.21],[-56.68,-60.77],[-58.07,-60.66],[-57.24,-60.7],[-57.57,-60.43],[-56.75,-60.32],[-56.74,-59.88],[-58.55,-59.53],[-56.62,-58.89],[-55.83,-59.06],[-56.07,-59.85],[-54.53,-59.17],[-55.14,-59.16],[-54.79,-58.87],[-53.91,-59.03],[-54.66,-58.63],[-53,-58.22],[-53.68,-57.72],[-51.72,-56.4],[-51.96,-56.08],[-51.51,-56.37],[-51.25,-55.87],[-51.78,-55.7],[-50.8,-55.46],[-52.77,-55.33],[-52.62,-54.69],[-50.77,-53.23],[-50.35,-51.16],[-49.61,-51.08],[-46.18,-48],[-45.2,-45.14],[-44.43,-44.55],[-44.41,-43.62],[-41.98,-40.12],[-40.04,-45.49],[-39.25,-51.03],[-37.74,-53.55],[-36.08,-55.25]]]}},{"type":"Feature","properties":{},"geometry":{"type":"Polygon","coordinates":[[[-31.23,-6.73],[-29.28,-7.05],[-28.28,-7.85],[-26.78,-7.66],[-27.36,-7.39],[-24.99,-7.7],[-26.05,-7.76],[-25.62,-8.55],[-24.23,-9.13],[-24.49,-9.99],[-23.55,-10.12],[-22.33,-11.29],[-22.45,-12.48],[-22.06,-12.06],[-21.05,-13.28],[-17.89,-13.67],[-15.76,-15.13],[-15.1,-15.94],[-14.87,-17.71],[-14.11,-18.5],[-15.92,-20.25],[-15.13,-19.83],[-15.57,-20.47],[-14.83,-19.96],[-12.68,-20.36],[-13.3,-21.46],[-15.02,-21.79],[-13.79,-21.67],[-13.95,-22.11],[-13.03,-21.34],[-12.74,-21.53],[-12.39,-20.75],[-11.71,-20.72],[-9.52,-21.61],[-9.57,-22.05],[-9.03,-21.75],[-8.65,-22.37],[-8.99,-22.6],[-8.55,-22.69],[-9.08,-23.64],[-8.51,-22.85],[-8.19,-22.78],[-8.43,-23.22],[-7.5,-22.75],[-5.42,-23.46],[-3.82,-23.43],[-0.79,-25.59],[1.3,-26.15],[1.81,-27.83],[1.42,-29.56],[-2.32,-33.56],[-2.78,-33.24],[-3.47,-38.29],[-4.23,-39.07],[-4.39,-40.22],[-6.07,-42.01],[-6.01,-42.53],[-7.27,-43],[-7.38,-43.46],[-10.4,-43.25],[-15.58,-45.41],[-16.23,-45.26],[-15.77,-45.51],[-16.49,-46.03],[-16.07,-46.13],[-16.61,-48.01],[-23.5,-45.83],[-31.53,-41.86],[-40.42,-35.05],[-40.24,-34.63],[-41.23,-33.2],[-44.62,-30.51],[-45.48,-29.01],[-45.15,-28.29],[-46.06,-25.88],[-46.41,-23.01],[-47.14,-20.88],[-48.09,-19.92],[-47.67,-19.49],[-47.72,-18.16],[-46.28,-17.65],[-45.7,-16.93],[-46.82,-16.39],[-46.48,-15.15],[-45.77,-14.93],[-45.18,-13.62],[-43.99,-13.5],[-43.4,-12.7],[-38.46,-11.81],[-36.17,-8.82],[-32.54,-6.77],[-31.23,-6.73]]]}},{"type":"Feature","properties":{},"geometry":{"type":"Polygon","coordinates":[[[-41.67,-7.21],[-41.15,-8.2],[-41.13,-7.54],[-39.63,-7.08],[-38.9,-5.83],[-36.89,-5.88],[-35.05,-5.15],[-34.63,-5.68],[-35.57,-5.95],[-35.42,-6.87],[-36.17,-7.6],[-35.96,-8.44],[-35.14,-7.97],[-35.4,-6.78],[-33.77,-6.53],[-33.55,-5.8],[-33.35,-6.62],[-32.16,-7.51],[-37.26,-9.67],[-39.68,-12.57],[-44.67,-13.24],[-42.52,-11.98],[-42.95,-11.54],[-42.07,-9.34],[-42.56,-8.29],[-41.67,-7.21]]]}},{"type":"Feature","properties":{},"geometry":{"type":"Polygon","coordinates":[[[-29.52,-53.74],[-28.94,-54.02],[-29.01,-54.51],[-30.58,-55.57],[-36.71,-55.74],[-39.7,-52.05],[-40.4,-48.88],[-37.78,-50.45],[-29.52,-53.74]]]}},{"type":"Feature","properties":{},"geometry":{"type":"Polygon","coordinates":[[[-42.61,7.22],[-42.93,6.77],[-44.77,7.28],[-44.28,8.55],[-44.46,12.2],[-45.42,14.13],[-39.11,15.08],[-37.99,16.44],[-37.55,16.24],[-37.07,15.77],[-42.61,7.22]]]}},{"type":"Feature","properties":{},"geometry":{"type":"Polygon","coordinates":[[[-42.72,7.17],[-42.87,6.51],[-44.45,8.93],[-38.31,17.77],[-37.14,16.83],[-37.85,15.68],[-36.89,13.87],[-39.34,10.79],[-41.19,9.66],[-42.72,7.17]]]}},{"type":"Feature","properties":{},"geometry":{"type":"Polygon","coordinates":[[[-40.58,3.35],[-42.61,4.8],[-43.86,7.45],[-41.97,10.48],[-40.03,11.49],[-37.86,13.55],[-37.37,14.39],[-38.19,16.26],[-37.4,17.37],[-36.61,17.15],[-36.26,12.67],[-36.54,9.89],[-37.65,6.75],[-39.77,5.03],[-40.58,3.35]]]}},{"type":"Feature","properties":{},"geometry":{"type":"Polygon","coordinates":[[[-40.53,-14.44],[-40.98,-13.17],[-42.52,-12.84],[-43.46,-11.61],[-45.79,-6.16],[-46.08,-4.47],[-45.8,-3.2],[-45.38,-3.38],[-44.71,-2.8],[-44.27,-1.52],[-43.95,1.63],[-44.32,2.73],[-43.66,3.41],[-43.7,6.3],[-42.8,8.7],[-42.59,4.76],[-42.02,3.06],[-40.31,-1.1],[-38.49,-2.97],[-40.64,-9.21],[-40.68,-10.73],[-39.62,-14.77],[-40.53,-14.44]]]}},{"type":"Feature","properties":{},"geometry":{"type":"Polygon","coordinates":[[[-29.91,-1.74],[-29.15,-3.83],[-26.53,-4.06],[-26.16,-4.44],[-25.22,-7.1],[-27.13,-6.77],[-27.14,-7.09],[-28.57,-7.09],[-28,-6.73],[-28.56,-6.54],[-29.88,-7.11],[-31.14,-6.69],[-31.17,-6.99],[-32.1,-3.83],[-31.01,-1.95],[-29.91,-1.74]]]}},{"type":"Feature","properties":{},"geometry":{"type":"Polygon","coordinates":[[[-42.96,6.43],[-44.05,4.94],[-44.43,0.49],[-45.37,-1.58],[-45.09,-3.02],[-45.77,-3.18],[-46.05,-0.29],[-45.39,0.29],[-45.24,1.88],[-45.73,1.96],[-45.93,3.56],[-45.3,2.84],[-44.78,3.53],[-44.96,5.42],[-43.55,8.83],[-43.62,10.16],[-44.45,11.77],[-43.23,14.91],[-43.31,11.56],[-42.55,9.17],[-42.96,6.43]]]}},{"type":"Feature","properties":{},"geometry":{"type":"Polygon","coordinates":[[[-41.91,3.11],[-41.65,3.48],[-42.66,4.84],[-42.94,7.6],[-43.84,8.97],[-43.42,9.28],[-42.69,9.32],[-41.24,8.35],[-38.89,3.5],[-36.83,2.09],[-35.71,0.58],[-35.48,-0.58],[-36.59,-4.73],[-40.38,-0.53],[-41.91,3.11]]]}},{"type":"Feature","properties":{},"geometry":{"type":"Polygon","coordinates":[[[-15.73,52.76],[-15.13,53.5],[-14.68,53.26],[-13.56,53.77],[-10.82,53.02],[-13.02,51.58],[-13.39,52.06],[-14.88,51.5],[-15.73,52.76]]]}},{"type":"Feature","properties":{},"geometry":{"type":"Polygon","coordinates":[[[-14.85,51.42],[-13.58,51.14],[-14.49,51.35],[-14.14,50.86],[-12.81,51.08],[-10.4,50.29],[-10.5,49.71],[-11.72,49.24],[-11.8,47.98],[-13.36,46.81],[-13.59,46.12],[-14.24,46.61],[-14.33,46.12],[-16.49,46.08],[-21.59,43.86],[-22.86,43.64],[-23.55,44.21],[-22.74,47.41],[-20.51,47.87],[-17.33,49.7],[-15.3,50.3],[-14.85,51.42]]]}},{"type":"Feature","properties":{},"geometry":{"type":"Polygon","coordinates":[[[-8.9,2.12],[-9.75,0.71],[-10.25,1.45],[-9.97,0.24],[-10.86,-0.97],[-10.49,-0.16],[-10.93,0.79],[-10.49,1.47],[-11.06,1.23],[-11.02,-0.01],[-11.73,0.52],[-10.98,-0.18],[-11.48,0],[-11.16,-1.04],[-11.63,-0.74],[-10.93,-1.15],[-10.73,-2.33],[-10.94,-1.36],[-10.9,-2.02],[-11.65,-2.02],[-10.91,-2.47],[-11.9,-2.5],[-11.56,-2.74],[-12.01,-2.93],[-11.5,-3.12],[-15.63,-4.83],[-16.45,-6.06],[-16.07,-10.54],[-16.78,-12.07],[-17.4,-11.95],[-17.77,-11.1],[-17.62,-10.3],[-17.92,-10.41],[-18.28,-9.38],[-17.92,-8.98],[-18.33,-8.97],[-17.88,-8.01],[-18.92,-6.42],[-20.06,-6.7],[-20.55,-5.72],[-22.15,-5.57],[-21.96,-5],[-22.22,-5.45],[-23.17,-5.18],[-25.06,-3.68],[-22.06,-3.94],[-18.05,-3.49],[-15.2,-2.09],[-11.51,0.98],[-8.9,2.12]]]}},{"type":"Feature","properties":{},"geometry":{"type":"Polygon","coordinates":[[[-44.96,-9.26],[-43.49,-12.48],[-43.77,-14.53],[-47.86,-15.46],[-49.23,-14.71],[-49.07,-14.15],[-49.53,-14.58],[-49.21,-13.68],[-48.46,-13.62],[-47.36,-11.15],[-47.16,-11.52],[-46.78,-11.24],[-47.38,-10.35],[-47.52,-7.39],[-46.52,-4.78],[-45.93,-5.52],[-45.96,-6.9],[-44.96,-9.26]]]}},{"type":"Feature","properties":{},"geometry":{"type":"Polygon","coordinates":[[[-11.54,32.42],[-11.9,32.33],[-12,31.25],[-10.98,31.93],[-11.07,29.69],[-9.28,31.22],[-9.41,32.14],[-8.19,31.63],[-8.62,31.62],[-7.94,31],[-8.69,30.5],[-8.59,28.99],[-9.69,28.55],[-10.07,29.38],[-9.86,28.39],[-11.03,29.09],[-10.77,28.63],[-11.71,28],[-13.31,29.15],[-11.57,27.77],[-12.41,26.99],[-13.31,27.29],[-13.91,26.68],[-15.3,27.69],[-14.31,27.09],[-14.05,26.29],[-14.96,26.37],[-14.97,25.92],[-16.01,25.79],[-15.81,25.47],[-16.47,25.34],[-17.76,23.29],[-16.91,22.67],[-17.34,20.86],[-16.07,20.78],[-13.56,18.02],[-11.93,17.48],[-12.45,15.39],[-11.63,13.56],[-11.27,13.33],[-10.87,13.77],[-10.68,13.22],[-10.21,14.35],[-10.56,16.72],[-9.27,17.14],[-8.34,18.17],[-8.34,19.79],[-9.1,20.58],[-8.18,21.57],[-8.1,22.61],[-8.48,22.62],[-7.96,23.28],[-8.17,24.06],[-7.73,24.32],[-6.95,23.69],[-5.87,23.95],[-4.9,22.97],[-4.99,22.52],[-3.89,22.33],[-4.05,21.35],[-4.78,21.41],[-4.11,21.24],[-3.85,20.32],[-4.6,19.97],[-3.68,20.16],[-3.39,19.77],[-4.13,19],[-3.29,19.8],[-3.16,19.13],[-2.37,20.03],[-2.2,19.47],[-1.61,20.54],[-1.87,20.9],[-1.24,21.39],[-0.7,20.32],[-1.09,20.16],[-0.43,19.83],[-0.85,19.42],[-0.27,19.61],[-0.71,19.1],[-0.21,19.3],[0.11,18.76],[-0.26,18.63],[0.42,18.23],[0.24,17.75],[-0.28,17.9],[0.85,16.68],[1.06,16.92],[0.86,16.13],[1.4,16.49],[1.32,15.89],[1.77,16.4],[1.8,15.99],[2.89,15.8],[0.85,14.38],[2.84,15.42],[2.98,14.68],[3.79,14.82],[3.99,13.92],[3.5,13.86],[4.07,13.38],[3.31,12.66],[2.19,12.64],[1.3,11.34],[-2.8,11.44],[-3.44,10.53],[-4.61,10.05],[-6.22,8.26],[-2.71,10.37],[-1.85,10.35],[-1.34,9.76],[-2.08,9.16],[-3.12,9.18],[-1.7,8.87],[-2.03,8.19],[-5.33,5.94],[-7.57,2.79],[-11.55,0.96],[-16.87,-3.02],[-22.07,-4.01],[-28.38,-3.05],[-33.31,-4.34],[-33.87,-6.39],[-35.68,-5.62],[-36.59,-4.73],[-35.51,0.04],[-36.83,2.09],[-36.05,3.78],[-33.96,5.53],[-32.91,8.69],[-32.69,11.47],[-33.23,14.75],[-32.55,22.67],[-33.73,27.47],[-32.75,31.61],[-31.06,33.01],[-29.7,35.15],[-30.56,38.77],[-28.18,41.06],[-28.08,41.69],[-27.7,41.04],[-27.38,41.61],[-26.41,41.5],[-26.77,41.1],[-24.48,40.55],[-25.9,40.69],[-26.2,40.49],[-25.55,40.5],[-26.01,40.11],[-25.25,40.35],[-23.82,39.9],[-23.68,40.34],[-24.1,38.83],[-23,39.23],[-23.74,38.58],[-22.48,38.27],[-21.87,36.76],[-20.97,36.02],[-20.93,35.41],[-21.85,35.2],[-19.79,34.26],[-19.47,33.22],[-19.81,33.24],[-19.76,32.26],[-19.18,33.65],[-17.73,33.91],[-19.17,34.21],[-17.73,34.27],[-17.6,32.97],[-17.17,33.1],[-16.94,32.43],[-15.43,31.86],[-14.81,32.52],[-14.32,32.06],[-14.6,31.84],[-14.13,31.96],[-14.76,31.29],[-14.43,30.84],[-14.07,31.69],[-12.95,31.91],[-12.94,32.38],[-13.42,32.2],[-12.63,32.77],[-13.47,33.73],[-12.07,35.2],[-11.65,34.84],[-11.57,33.11],[-12.36,32.84],[-11.54,32.42]]]}},{"type":"Feature","properties":{},"geometry":{"type":"Polygon","coordinates":[[[-37.11,31.58],[-37.29,29.8],[-38.81,26.58],[-39.22,28.03],[-38.66,30.08],[-37.11,31.58]]]}},{"type":"Feature","properties":{},"geometry":{"type":"Polygon","coordinates":[[[-32.61,41.03],[-33.53,39.65],[-32.71,36.29],[-34.16,34.18],[-35.62,33.29],[-36.9,29.34],[-36.98,27.99],[-35.9,23.86],[-36.61,17.15],[-40.4,19.82],[-40.86,21.01],[-38.62,24.62],[-38.43,27.1],[-36.52,34.63],[-36.97,44.39],[-35.79,44.33],[-32.33,42.64],[-30.86,42.79],[-30.99,42.17],[-32.61,41.03]]]}},{"type":"Feature","properties":{},"geometry":{"type":"Polygon","coordinates":[[[28.15,51.34],[28.27,50.87],[27.86,51.15],[28.15,51.34]]]}},{"type":"Feature","properties":{},"geometry":{"type":"Polygon","coordinates":[[[11.56,30.46],[12.12,30.26],[11.16,30.23],[11.56,30.46]]]}},{"type":"Feature","properties":{},"geometry":{"type":"Polygon","coordinates":[[[-17.25,39.43],[-17.93,38.82],[-17.13,38.89],[-16.8,38.32],[-17.28,38.05],[-16.17,38.22],[-16.55,36.81],[-15.43,38.27],[-14.91,37.66],[-15.82,35.79],[-15.08,34.47],[-15.36,33.99],[-16.28,34.46],[-16.52,33.87],[-15.95,34.08],[-16.07,33.54],[-17.38,34.04],[-17.54,34.82],[-18.92,34.65],[-20.66,35.31],[-20.18,35.9],[-21.08,36.77],[-20.65,37.43],[-18.68,36.4],[-19.18,37.23],[-20.48,37.94],[-20.4,38.41],[-18.91,38.11],[-20,38.64],[-19.6,38.76],[-19.94,39.15],[-18.92,39.58],[-17.25,39.43]]]}},{"type":"Feature","properties":{},"geometry":{"type":"Polygon","coordinates":[[[23.34,45.71],[23.92,45.93],[25.13,44.95],[27.28,44.84],[26.08,43.92],[25.18,44.32],[24.72,43.82],[24.12,44.11],[23.92,44.96],[23.42,44.78],[23.34,45.71]]]}},{"type":"Feature","properties":{},"geometry":{"type":"Polygon","coordinates":[[[10.92,30.66],[11.63,30.58],[10.7,30.35],[10.92,30.66]]]}},{"type":"Feature","properties":{},"geometry":{"type":"Polygon","coordinates":[[[26.2,49.48],[26.42,49.03],[25.86,49.25],[26.2,49.48]]]}},{"type":"Feature","properties":{},"geometry":{"type":"Polygon","coordinates":[[[-14.23,38.17],[-14.87,37.42],[-14.98,38.22],[-14.23,38.17]]]}},{"type":"Feature","properties":{},"geometry":{"type":"Polygon","coordinates":[[[-6.34,35.49],[-5.31,35.04],[-5.06,34.35],[-6.32,34.45],[-6.34,35.49]]]}},{"type":"Feature","properties":{},"geometry":{"type":"Polygon","coordinates":[[[-5.72,26.16],[-7.04,25.84],[-7.71,26.47],[-7.1,27.16],[-5.33,26.88],[-5.67,27.63],[-4.49,28.61],[-4.92,30.07],[-5.61,30.53],[-6.15,30.27],[-5.62,30.74],[-6.63,32.41],[-6.77,31.59],[-7.85,32.05],[-7.64,31.59],[-7.96,32.17],[-8.29,32.34],[-8.1,31.76],[-10.44,33.14],[-10.46,33.73],[-9.56,33.37],[-10.43,34.26],[-8.88,35.98],[-7.8,35.79],[-8.83,34.97],[-8.66,33.43],[-9.49,33.35],[-8.72,33.15],[-8.39,33.75],[-8.84,34.25],[-8.2,34.21],[-8.49,34.82],[-8,34.93],[-8.21,35.26],[-7.81,35.06],[-8.05,35.41],[-6.72,35.52],[-6.55,34.47],[-7.05,33.7],[-6.46,34.21],[-5.91,33.34],[-6.21,33.89],[-5.75,33.8],[-5.86,34.25],[-4.84,33.95],[-5.32,33.2],[-4.54,33.37],[-5.04,33.15],[-5.03,32.63],[-4.38,33.15],[-4.6,32.44],[-4.02,32.99],[-3.54,32.55],[-4.17,31.95],[-3.36,32.33],[-3.86,31.33],[-3.1,32.12],[-3.44,31.73],[-2.52,31.71],[-3.32,31.28],[-2.69,31.38],[-3.28,30.86],[-2.48,31.51],[-2.14,31.12],[-3.32,30.79],[-1.96,30.43],[-2.92,30.58],[-2.45,29.98],[-3.12,30.05],[-2.01,29.61],[-2.53,29.46],[-1.87,29.29],[-1.92,28.93],[-1.72,29.19],[-1.78,28.75],[-1.2,29.13],[-1.43,28.79],[-0.88,28.48],[-1.22,28.15],[-0.5,28.46],[-0.84,27.95],[-0.04,28.18],[0.31,27.75],[-0.42,27.46],[0.01,27.14],[-0.5,27.24],[-0.32,26.7],[-0.72,27.06],[-0.74,26.02],[-1.63,26.89],[-1.08,27.49],[-1.79,27.1],[-1.59,27.53],[-1.83,27.26],[-2.68,27.83],[-2.36,27.2],[-2.92,27.28],[-2.86,26.64],[-2.47,26.85],[-2.25,25.89],[-2.18,26.2],[-1.47,25.62],[-1.77,25.45],[-1.26,25.12],[-1.24,24.38],[-1.6,24.94],[-1.29,24.04],[-1.62,24.18],[-1.59,23.71],[-2.22,24.58],[-2.25,24.17],[-3.4,24.99],[-2.01,23.03],[-4.66,24.39],[-4.96,24.81],[-4.5,24.92],[-5.16,25.24],[-5.36,26.09],[-5.81,25.8],[-5.72,26.16]]]}},{"type":"Feature","properties":{},"geometry":{"type":"Polygon","coordinates":[[[2.82,66.99],[2.05,67.67],[4.8,67.32],[2.82,66.99]]]}},{"type":"Feature","properties":{},"geometry":{"type":"Polygon","coordinates":[[[-12.48,37.56],[-11.73,37.17],[-12.62,36.58],[-12.21,35.76],[-13.65,35.08],[-14.13,36.97],[-13.76,37.17],[-13.63,36.65],[-13.17,36.68],[-13.32,37.44],[-12.48,37.56]]]}},{"type":"Feature","properties":{},"geometry":{"type":"Polygon","coordinates":[[[-10.39,37.02],[-9.48,36.42],[-10.62,35.56],[-11.36,35.83],[-11.24,35.44],[-12.06,35.22],[-11.35,36.83],[-10.39,37.02]]]}},{"type":"Feature","properties":{},"geometry":{"type":"Polygon","coordinates":[[[3.82,66.82],[4.12,66.57],[3.5,66.6],[3.82,66.82]]]}},{"type":"Feature","properties":{},"geometry":{"type":"Polygon","coordinates":[[[21.73,60.44],[22.44,60.73],[22.4,60.31],[21.73,60.44]]]}},{"type":"Feature","properties":{},"geometry":{"type":"Polygon","coordinates":[[[-18.05,41.58],[-17.97,40.76],[-17.31,40.6],[-17.38,39.66],[-19.87,39.69],[-20.6,39.26],[-21.77,39.56],[-21.75,40.79],[-19.41,41.5],[-19.07,42.11],[-18.05,41.58]]]}},{"type":"Feature","properties":{},"geometry":{"type":"Polygon","coordinates":[[[12.19,33.08],[12.43,32.75],[12.01,32.71],[12.19,33.08]]]}},{"type":"Feature","properties":{},"geometry":{"type":"Polygon","coordinates":[[[-0.54,65.61],[-3.01,65.76],[-1.83,66.19],[-0.01,65.71],[-0.22,65.34],[-0.54,65.61]]]}},{"type":"Feature","properties":{},"geometry":{"type":"Polygon","coordinates":[[[-7.69,37.61],[-7.95,36.85],[-8.49,36.87],[-8.67,37.47],[-7.69,37.61]]]}},{"type":"Feature","properties":{},"geometry":{"type":"Polygon","coordinates":[[[6,65.09],[6.33,65.13],[5.88,64.66],[6,65.09]]]}},{"type":"Feature","properties":{},"geometry":{"type":"Polygon","coordinates":[[[3.82,64.55],[3.27,65.14],[2.59,64.66],[0.43,65.43],[1.68,65.99],[4.58,66.08],[5.57,65.33],[3.82,64.55]]]}},{"type":"Feature","properties":{},"geometry":{"type":"Polygon","coordinates":[[[-8.76,39.95],[-8.76,39.6],[-9.15,39.76],[-8.76,39.95]]]}},{"type":"Feature","properties":{},"geometry":{"type":"Polygon","coordinates":[[[-7.61,39.01],[-8.47,37.88],[-9.5,38.09],[-8.8,38.5],[-9.52,39.03],[-9.05,38.82],[-8.53,39.41],[-8.62,38.69],[-8.3,39.29],[-7.61,39.01]]]}},{"type":"Feature","properties":{},"geometry":{"type":"Polygon","coordinates":[[[-9.46,40.84],[-10.41,40.12],[-9.84,39.66],[-10.75,39.26],[-12.96,40.51],[-12.83,40.81],[-11.56,40.36],[-12.34,40.9],[-11.92,41.14],[-12.65,41.09],[-12.79,41.81],[-11.56,41.53],[-11.59,42.03],[-10.86,41.89],[-11.32,40.59],[-10.92,40.11],[-10.27,40.91],[-9.46,40.84]]]}},{"type":"Feature","properties":{},"geometry":{"type":"Polygon","coordinates":[[[20.23,50.06],[21.4,49.97],[21.87,48.05],[22.74,47.17],[22.4,47.02],[23.83,46.03],[23.28,45.92],[23.58,45.86],[23.21,45.43],[23.18,46.03],[22.57,45.52],[22.33,46.05],[22.77,46.3],[22.24,46.11],[22.02,46.76],[21.22,46.72],[21.34,47.26],[20.53,48.36],[20.78,49.53],[20.23,50.06]]]}},{"type":"Feature","properties":{},"geometry":{"type":"Polygon","coordinates":[[[-6.67,38.84],[-6.38,38.44],[-6.77,38.04],[-6.05,37.93],[-5.86,37.31],[-6.42,37.51],[-6.42,36.56],[-4.27,35.88],[-4.22,34.8],[-5.17,34.74],[-5.36,35.36],[-5.82,35.12],[-7.68,36.36],[-6.7,37.92],[-7.33,38.18],[-7.24,38.8],[-6.67,38.84]]]}},{"type":"Feature","properties":{},"geometry":{"type":"Polygon","coordinates":[[[-9.89,42.69],[-11.39,42.21],[-10.96,42.62],[-12.45,42.6],[-12.16,42.91],[-12.78,43.23],[-9.89,42.69]]]}},{"type":"Feature","properties":{},"geometry":{"type":"Polygon","coordinates":[[[53.97,32.32],[54.11,31.96],[53.45,31.6],[51.84,33.64],[46.89,35.8],[45.34,38.71],[36.97,43.18],[35.72,45.38],[39.95,45.63],[46.36,44.86],[50.84,45.47],[57.17,44.21],[63.17,44.99],[71.47,46.83],[69.05,40.76],[67.21,32],[63.15,29.56],[58.09,28.76],[55.92,29.16],[55.74,31.26],[54.67,31.21],[53.97,32.32]]]}},{"type":"Feature","properties":{},"geometry":{"type":"Polygon","coordinates":[[[80.49,34.53],[81.29,33.84],[81.62,32.41],[79.28,31.58],[71.83,32.48],[69.42,31.85],[67.33,33.4],[65.57,37.68],[63.98,38.84],[70.54,38.89],[75.48,38.26],[80.49,34.53]]]}},{"type":"Feature","properties":{},"geometry":{"type":"Polygon","coordinates":[[[77.43,48.41],[77.42,47.86],[75.64,45.77],[74.61,45.45],[69.54,41.61],[71.47,46.83],[75.27,47.51],[77.43,48.41]]]}},{"type":"Feature","properties":{},"geometry":{"type":"Polygon","coordinates":[[[119.14,46.03],[120.11,45.99],[119.45,45.72],[120.05,45.6],[120.7,45.92],[120.45,45.48],[120.87,46.19],[121.79,46.04],[122.8,44.86],[122.19,44.76],[122.57,43.72],[121.52,42.95],[120.34,40.29],[114.67,36.21],[112.6,35.72],[112,36],[112.12,36.49],[110.94,35.9],[107.13,37.7],[95.55,39.51],[86.19,39.91],[83.14,41.28],[77.1,42.46],[75.33,43.58],[74.23,45.28],[79.49,43.84],[85.32,43.73],[89.29,44.57],[93.05,44.55],[96.28,45.6],[100.68,45.54],[104.46,47.57],[107.47,48.35],[112.5,46.78],[119.14,46.03]]]}},{"type":"Feature","properties":{},"geometry":{"type":"Polygon","coordinates":[[[24.71,59.39],[26.57,59.34],[25.59,59.44],[25.31,60.05],[23.67,60.44],[23.99,60.16],[23.19,60.14],[22.84,60.43],[23.26,60.79],[22.6,60.78],[23.78,61.3],[22.23,61.67],[21.55,62.41],[22.24,62.52],[22.18,62.95],[20.91,63.84],[18.9,63.5],[18.92,64.05],[17.86,64.43],[17.77,65.08],[19.12,65.74],[20.01,65.64],[20.17,65.92],[19.59,65.74],[20.43,66],[20.75,66.82],[19.89,67.09],[18.31,66.65],[18.61,66.82],[20.43,67.7],[25.21,68.8],[25.41,69.29],[21.99,72.12],[13.33,76.8],[11.92,78.59],[12.71,79.33],[15.72,80.73],[19.87,80.4],[21.36,80.74],[27.14,79.89],[29.28,80.03],[28.51,79.78],[34.29,78.9],[54.36,78.34],[63.52,77.12],[64.77,77.49],[63.83,78.09],[67.74,78.16],[69.68,77.14],[70.56,74.44],[70.51,73.57],[68.48,71.43],[68.12,69.91],[76.8,65.59],[76.42,62.51],[78.18,60.14],[77.42,57.5],[77.94,54.98],[77.52,52.89],[74.27,48.38],[71.47,46.83],[63.17,44.99],[57.17,44.21],[50.84,45.47],[44.3,44.95],[38.48,45.67],[34.93,46.64],[36.5,47.57],[34.97,49.02],[33.41,49.25],[33.25,49.88],[35.97,49.98],[35.77,50.37],[36.65,50.82],[35.31,50.04],[33.59,50.39],[32.83,49.91],[32.65,49.14],[30.6,49.7],[29.23,49.49],[28.29,50.29],[27.23,50.41],[29.88,50.35],[30.61,51.08],[28.85,50.53],[29.07,51.17],[28.27,51.35],[29.62,52.24],[29.67,52.73],[32.01,52.08],[31.65,52.24],[32.3,52.19],[33.21,52.93],[31.98,52.49],[29.83,52.86],[28.35,52.09],[26.55,52.11],[26.18,53.97],[25.32,53.64],[25.17,54.02],[24.82,53.59],[24.51,53.69],[24.9,53.92],[24.03,53.88],[22.25,55.6],[22.44,55.29],[22.02,55.34],[21.8,56.06],[22.31,55.98],[21.23,56.61],[21.43,56.84],[20.86,56.56],[20.43,57.03],[17.95,57.21],[18.17,57.79],[19.02,57.5],[18.73,58.25],[19.65,58.24],[18.18,59.04],[18.94,59.48],[18.44,59.44],[19.02,60.06],[19.7,60.16],[19.48,59.72],[19.82,60.26],[21.69,60.22],[24.71,59.39]]]}},{"type":"Feature","properties":{},"geometry":{"type":"Polygon","coordinates":[[[32.9,47.07],[32.14,47.47],[30.87,46.96],[29.05,47.38],[26.5,48.84],[27.27,49.77],[28.96,49.16],[33.63,48.86],[35.53,47.71],[34.89,46.65],[32.9,47.07]]]}},{"type":"Feature","properties":{},"geometry":{"type":"Polygon","coordinates":[[[66.22,-11.29],[70.85,-10.91],[74.71,-11.52],[76.67,-12.95],[79.12,-16.17],[76.11,-15.36],[73.77,-14.14],[66.04,-14.42],[63.82,-14.04],[59.59,-11.7],[56.65,-8.62],[56.05,-7.14],[61.13,-10.38],[66.22,-11.29]]]}},{"type":"Feature","properties":{},"geometry":{"type":"Polygon","coordinates":[[[64.21,-58.06],[64.9,-57.76],[64.37,-57.71],[64.11,-57.09],[64.2,-57.89],[63.85,-56.95],[63.04,-56.58],[63.85,-57.54],[63.38,-58.11],[59.81,-58.15],[60.16,-57.71],[59,-57.9],[59.53,-57.26],[56.97,-57.15],[56.34,-57.68],[54.58,-57.73],[45.94,-56.4],[45.25,-56.66],[43.94,-55.99],[42.66,-55.98],[42.12,-55.44],[38.35,-56.6],[32.98,-57.39],[32.28,-56.86],[30.93,-56.78],[30.75,-57.21],[30.01,-56.46],[28.54,-56.36],[27.72,-55.72],[28.64,-54.76],[32.16,-53.22],[38.39,-49.07],[44.17,-46.41],[45.14,-46.56],[44.7,-46.12],[45.54,-46.02],[45.37,-45.65],[43.84,-45.99],[42.39,-45.08],[43.32,-42.86],[44.35,-43.77],[45.18,-43.77],[44.12,-42.84],[44.37,-41.92],[45.13,-42.01],[44.49,-41.77],[44.93,-41.59],[44.43,-40.94],[45.46,-40.54],[45.08,-39.86],[45.96,-39.4],[45.26,-38.92],[50.66,-37.25],[59.9,-37.6],[61.32,-38.06],[62.25,-39.27],[61.49,-40.76],[61.39,-44.98],[63.35,-49.53],[65.4,-51.28],[75.4,-55.89],[76.63,-56.93],[64.21,-58.06]]]}},{"type":"Feature","properties":{},"geometry":{"type":"Polygon","coordinates":[[[58.86,-4.39],[60.77,-5.63],[62.14,-5.92],[63.12,-5.82],[63.86,-4.9],[69.75,-3.27],[75.6,-4.54],[78.84,-5.85],[80.13,-8.04],[80.69,-10.45],[77.93,-7.81],[75.75,-6.94],[72.71,-6.93],[68.2,-7.8],[63.08,-7.47],[57.28,-4.66],[56.27,-4.64],[55.41,-2.74],[57.1,-2.99],[58.86,-4.39]]]}},{"type":"Feature","properties":{},"geometry":{"type":"Polygon","coordinates":[[[34.89,46.65],[38.48,45.67],[35.72,45.38],[34.16,46.83],[34.89,46.65]]]}},{"type":"Feature","properties":{},"geometry":{"type":"Polygon","coordinates":[[[53.35,-24.57],[52.69,-24.34],[51.22,-24.86],[50.21,-24.53],[48.2,-23],[47.43,-20.58],[46.9,-20.66],[46.6,-20.07],[46.32,-20.53],[45.45,-20.3],[45.56,-20.86],[45.08,-20.93],[45.43,-21.03],[45.72,-22.88],[46.76,-24.06],[46.47,-24.67],[46.96,-26.06],[47.43,-24.85],[47.98,-25],[47.39,-26.57],[47.96,-27],[50.46,-27.06],[52.88,-25.17],[52.79,-27.04],[54.89,-28.18],[55.87,-29.58],[54.39,-31.26],[53.64,-31.38],[53.51,-32.61],[52.36,-32.75],[51.7,-33.55],[50.64,-33.55],[50.05,-34.3],[46.99,-34.49],[46.52,-35.26],[42.03,-36.06],[36.07,-36.16],[35.5,-35.3],[35.58,-33.23],[36.29,-31.83],[35.44,-28.41],[34.4,-26.61],[34.75,-23.84],[34.04,-22.97],[33.57,-18.81],[33.04,-18.55],[36.69,-13.6],[37.97,-10.87],[39.85,-10.39],[42.78,-10.6],[45.34,-14.72],[50.81,-21.22],[51.8,-23.02],[53.39,-23.29],[53.69,-23.76],[53.35,-24.57]]]}},{"type":"Feature","properties":{},"geometry":{"type":"Polygon","coordinates":[[[61.45,-33.8],[61.29,-37.09],[59.42,-38.2],[50.41,-37.49],[47.76,-37.79],[47.59,-37.25],[48.01,-34.7],[49.79,-32.97],[51.79,-33.48],[54.92,-31.92],[56.74,-31.72],[61.38,-32.71],[61.45,-33.8]]]}},{"type":"Feature","properties":{},"geometry":{"type":"Polygon","coordinates":[[[63.13,-7.26],[55.94,-4.47],[53.35,-2.98],[55.55,0.19],[60.75,-5.13],[63.68,-5.25],[63.13,-7.26]]]}},{"type":"Feature","properties":{},"geometry":{"type":"Polygon","coordinates":[[[50.84,-9.03],[50.51,-8.61],[51.7,-6.87],[53.71,-5.27],[54.42,-5.28],[61.3,-11.15],[55.6,-10.39],[52.97,-10.55],[50.84,-9.03]]]}},{"type":"Feature","properties":{},"geometry":{"type":"Polygon","coordinates":[[[40.3,3.15],[40.86,2.66],[43.88,3.16],[47.02,-0.35],[50.93,-0.77],[51.35,-1.57],[50.07,-2.33],[48.19,-1.59],[39.96,-0.33],[35.32,0.93],[34.99,1.75],[35.35,3.27],[38.15,4.25],[40.3,3.15]]]}},{"type":"Feature","properties":{},"geometry":{"type":"Polygon","coordinates":[[[6.93,48.23],[3.46,48.79],[2.9,49.95],[2.07,49.79],[2.32,49.2],[1.97,48.7],[-2.22,49.86],[-2.64,50.15],[-2.53,53.59],[5.12,50.88],[6.21,49.84],[6.93,48.23]]]}},{"type":"Feature","properties":{},"geometry":{"type":"Polygon","coordinates":[[[11.93,68.24],[10.94,68.08],[11.41,68.18],[10.69,68.77],[9.09,68.71],[7.67,69.32],[7.26,68.98],[5.64,69.19],[5.98,68.71],[5.09,68.55],[5.94,68.38],[4.05,68.2],[4.26,67.89],[-2.5,68.71],[-3.22,69.03],[-2.35,69.23],[-5.85,69.95],[-12.33,69.41],[-13.38,70.15],[-14.66,70.2],[-11.95,72.88],[-11.94,73.63],[-13.19,74.53],[-18.47,75.81],[-28.6,77.22],[-24.4,77.73],[-23.52,78.16],[-24.28,78.44],[-23.43,78.84],[-23.99,79.04],[-22.58,79.67],[-22.72,80.07],[-22.18,79.97],[-23.43,80.41],[-22.77,80.37],[-23.08,80.63],[-26.81,80.54],[-16.31,81.72],[-14.95,81.51],[-18.5,81.18],[-12.33,81.22],[-12.91,81.11],[-12.24,81.11],[-8.11,78.54],[11.32,73.86],[17.84,71.26],[13.46,69.46],[11.93,68.24]]]}},{"type":"Feature","properties":{},"geometry":{"type":"Polygon","coordinates":[[[110.08,35.5],[108.7,34.87],[108.28,33.96],[105.88,33.01],[106.6,32.12],[107.05,29.9],[104.24,29.97],[104.16,30.76],[104.98,30.71],[104.85,31.6],[103.93,31.99],[103.61,31.68],[103.12,32.25],[104.09,32.64],[103.75,32.88],[104.23,33.5],[103.39,34.11],[100.11,33.49],[101.65,34.97],[101.37,35.52],[100.58,35.56],[98.29,34.36],[97.22,34.56],[96.85,33.87],[97.86,33.43],[97.82,32.41],[99.48,32.71],[101.14,31.9],[100.83,31.46],[98.45,31.24],[97.23,30.19],[98.03,29.41],[94.47,27.2],[90.74,29.67],[84.59,31.81],[75.03,39.65],[94.96,39.14],[107.03,37.1],[110.08,35.5]]]}},{"type":"Feature","properties":{},"geometry":{"type":"Polygon","coordinates":[[[106.32,29.18],[107.28,28.02],[106.35,26.94],[106.63,26.73],[106.34,26.85],[106.56,26.42],[106.24,26.61],[106.12,25.86],[104.79,27.21],[106.32,29.18]]]}},{"type":"Feature","properties":{},"geometry":{"type":"Polygon","coordinates":[[[101.79,22.47],[103.4,21.48],[104.76,21.34],[103.47,20.66],[105.3,20.78],[104.6,19.37],[106.19,20.1],[105.97,19.38],[106.29,19.8],[106.54,19.48],[106.14,19.26],[106.89,18.65],[106.36,17.84],[106.9,16.45],[106.4,16.28],[106.95,16.16],[107.38,15.19],[106.97,15.21],[107.15,14],[106.66,13.72],[106.95,13.49],[106.28,11.93],[106.54,11.51],[105.32,10.49],[105.31,9.76],[104.15,9.96],[104.8,9.3],[104.52,8.97],[104.15,9.23],[104.51,8.68],[103.97,8.57],[104.15,8.25],[102.78,6.93],[103.44,5.94],[102.57,6.15],[102.46,6.77],[102.02,6.79],[101.9,6.28],[101.07,6.36],[100.74,5],[100.17,4.65],[100.51,4.44],[100.34,3.47],[93.32,4.8],[91.99,5.79],[90.85,7.99],[90.93,10.59],[91.92,14.3],[96.68,17.22],[101.66,18.64],[101.79,22.47]]]}},{"type":"Feature","properties":{},"geometry":{"type":"Polygon","coordinates":[[[97.65,2.56],[98.06,1.59],[98.64,1.36],[103.02,1.58],[105.34,0.3],[106.05,-0.86],[105.29,-3.15],[105.83,-3.88],[105.54,-5.78],[104.44,-4.69],[103.25,-5.45],[102.7,-5.06],[102.65,-5.57],[101.29,-5.06],[99.83,-6.05],[99.29,-5.4],[98.69,-5.79],[96.37,-3.4],[95.01,-0.47],[90.54,2],[97.65,2.56]]]}},{"type":"Feature","properties":{},"geometry":{"type":"Polygon","coordinates":[[[92.99,-13.73],[95.69,-15.88],[96.79,-16.16],[96.94,-15.57],[99.53,-15.43],[100.58,-14.46],[104.76,-15.41],[102.57,-16.42],[98.76,-16.42],[97.52,-16.94],[97.51,-17.38],[93.13,-15.44],[90.8,-15.57],[89.16,-15.14],[89.47,-14.98],[88.01,-15.63],[83.82,-14.62],[81.36,-13.49],[79.25,-11.48],[81.61,-9.57],[86.04,-9.85],[87.31,-10.19],[89.71,-12.41],[92.99,-13.73]]]}},{"type":"Feature","properties":{},"geometry":{"type":"Polygon","coordinates":[[[99.66,-14.76],[101.58,-13.8],[103.44,-14.29],[105.21,-13.88],[104.87,-14.11],[105.11,-14.65],[103.87,-15.6],[99.66,-14.76]]]}},{"type":"Feature","properties":{},"geometry":{"type":"Polygon","coordinates":[[[35.21,-30.38],[38.47,-33.81],[38.45,-34.31],[37.37,-34.65],[38.13,-34.65],[39.28,-35.97],[45.57,-35.5],[47.24,-34.9],[47.82,-35.06],[47.47,-36.47],[47.95,-36.45],[47.32,-36.57],[47.2,-37.46],[43.15,-42.3],[40.25,-44.12],[30.71,-48.21],[27.34,-51.03],[27.23,-51.45],[28.09,-52.22],[27.06,-53.39],[26.99,-55.11],[28.21,-56.03],[27.41,-56.58],[27.17,-58.02],[26.66,-58.15],[26.98,-58.22],[26.2,-59.35],[26.54,-59.43],[26.15,-59.76],[26.59,-59.66],[26.39,-60.07],[23.53,-61.31],[17.98,-61.56],[11.42,-62.54],[15.59,-58.46],[17.21,-55.46],[17.96,-52.28],[21.58,-51.32],[22.06,-49.81],[24.57,-47.14],[26.44,-44.26],[27.34,-40.91],[28.65,-39.34],[30.26,-39.57],[31.03,-38.03],[35.72,-35.12],[35.21,-30.38]]]}},{"type":"Feature","properties":{},"geometry":{"type":"Polygon","coordinates":[[[11.35,-62.25],[10.21,-62.88],[10.63,-63.26],[9.39,-64.64],[9.77,-64.73],[6.96,-66.28],[-1.23,-65.93],[-1.57,-66.37],[-0.59,-66.32],[-5.9,-67.69],[-15.1,-67.82],[-22.48,-67.09],[-25.87,-66.14],[-27.07,-65.59],[-28.61,-63.82],[-32.33,-62.28],[-32.46,-61.67],[-31.96,-61.41],[-32.34,-61.21],[-31.8,-61.06],[-32.54,-60.94],[-30.26,-59.78],[-29.43,-60],[-27.97,-59.48],[-24.98,-57.12],[-23.69,-55.02],[-17.89,-51.37],[-15.25,-46.47],[-13.18,-45.11],[-10.03,-43.93],[-7.81,-43.82],[-6.47,-43.05],[-5.62,-41.03],[-4.62,-40.74],[-3.86,-38.31],[-3,-38.58],[-3.65,-38.06],[-3.08,-36.83],[-3.47,-33.76],[-3.02,-31.83],[-2.36,-32.02],[-1.67,-31.43],[-1.26,-31.92],[-1.59,-31.28],[-1.31,-31.47],[-1.08,-30.79],[0.84,-29.65],[1.29,-28.69],[0.74,-28.51],[0.52,-27.23],[-0.76,-26.94],[-1.95,-25.83],[1.74,-25.83],[2.76,-24.98],[5.7,-25.08],[11.93,-29.72],[21.12,-31.09],[24.85,-39.74],[19.15,-42.91],[16.89,-45.78],[16.38,-47.75],[19.31,-52.46],[19.01,-53.71],[16.26,-58.54],[13.13,-61.31],[11.35,-62.25]]]}},{"type":"Feature","properties":{},"geometry":{"type":"Polygon","coordinates":[[[-0.82,2.61],[-0.34,3.52],[0.76,4.13],[3.29,4.06],[4.97,5.01],[5.43,4.79],[5.55,3.78],[6.7,3.32],[7.16,2.54],[10.21,2.28],[14.9,-0.19],[16.47,-0.49],[7.25,-0.13],[2.55,2.06],[-0.82,2.61]]]}},{"type":"Feature","properties":{},"geometry":{"type":"Polygon","coordinates":[[[19.04,5.44],[18.88,4.67],[16.62,4.25],[15.51,3.34],[15.64,2.5],[13.16,1.35],[11.48,2.07],[10.3,1.82],[10,2.75],[10.4,2.94],[10.07,2.81],[9.95,3.41],[8.29,3.91],[9.17,5.02],[8.84,5.48],[9.42,5.68],[8.73,5.66],[10.23,7.1],[11.14,9.49],[12.23,9.52],[15.15,7.65],[16.27,7.48],[19.04,5.44]]]}},{"type":"Feature","properties":{},"geometry":{"type":"Polygon","coordinates":[[[-0.69,-27.33],[-0.59,-25.76],[-1.24,-24.85],[-3.65,-23.7],[-7.69,-22.88],[-9.01,-21.35],[-12.65,-19.88],[-13.04,-19.31],[-14.66,-14.46],[-13.92,-11.75],[-14.44,-9.53],[-13.65,-9.34],[-14.52,-8.94],[-14.29,-8.4],[-14.7,-7.91],[-14.32,-8.03],[-14.59,-7.79],[-13.98,-7.14],[-13.11,-7.84],[-13.89,-7.35],[-13.76,-5.65],[-12.37,-5.48],[-10.73,-4.26],[-10.05,-2.69],[-9.28,-2.25],[-9.07,-1.05],[-9.53,-1.24],[-8.79,-0.55],[-2.15,1.92],[-0.92,1.45],[1.66,2.12],[4.28,1.85],[9.82,-0.34],[19.07,-0.46],[19.14,-1.08],[19.79,-0.98],[18.98,-1.64],[19.09,-2.71],[17.88,-3.2],[16.65,-4.7],[11.79,-14.95],[10.98,-18.4],[11.9,-23.53],[8,-24.55],[6.89,-25.83],[3.94,-26.03],[3.03,-26.97],[-0.69,-27.33]]]}},{"type":"Feature","properties":{},"geometry":{"type":"Polygon","coordinates":[[[33.39,-15.24],[33.23,-16.14],[34.65,-21.74],[34.37,-22.68],[35.26,-23.72],[35.51,-24.87],[35.03,-26.4],[30.1,-28.18],[19.99,-31.07],[10.76,-29.84],[4.44,-25.3],[5.67,-24.12],[9.65,-23.43],[9.16,-19.33],[9.44,-17.1],[12.37,-11.01],[16.12,-5.09],[17.32,-4.11],[18.37,-5.87],[20.32,-7.43],[20.27,-8.52],[22.27,-10.73],[23.39,-10.62],[23.99,-9.42],[25.76,-9.37],[26.53,-10.52],[27.78,-11.22],[27.79,-11.7],[30.72,-13.47],[32.04,-13.16],[33.08,-13.53],[33.39,-15.24]]]}},{"type":"Feature","properties":{},"geometry":{"type":"Polygon","coordinates":[[[33.59,-12.96],[32.61,-12.19],[30.93,-11.94],[30.01,-10.2],[29.63,-10.54],[28.95,-10.29],[28.67,-9.08],[27.88,-8.7],[28.7,-8.88],[28,-8.39],[28.66,-7.64],[28.33,-6.98],[31.26,-7.33],[32,-7.79],[32.52,-9.08],[33.85,-9.26],[36.98,-10.91],[38.66,-13.62],[35.83,-12.76],[33.59,-12.96]]]}},{"type":"Feature","properties":{},"geometry":{"type":"Polygon","coordinates":[[[19.46,-52.12],[18.65,-52.43],[15.48,-47.78],[15.9,-45.81],[17.47,-43.59],[23.63,-39.61],[29.76,-39.64],[28.41,-41.19],[27.42,-44.52],[25.46,-47.38],[22.86,-50.02],[22.32,-51.52],[19.46,-52.12]]]}},{"type":"Feature","properties":{},"geometry":{"type":"Polygon","coordinates":[[[34.81,-16.43],[33.65,-17.64],[32.75,-13.43],[33.87,-14.26],[35.29,-14.02],[37.31,-11.67],[37.99,-9.78],[37.29,-12.22],[34.81,-16.43]]]}},{"type":"Feature","properties":{},"geometry":{"type":"Polygon","coordinates":[[[34.71,-26.29],[34.79,-27.07],[35.74,-27.98],[36.26,-31.07],[36.61,-30.78],[37.02,-35.53],[32.25,-38.38],[31.43,-39.9],[23.69,-39.61],[20.19,-32.07],[20.2,-30.92],[34.71,-26.29]]]}},{"type":"Feature","properties":{},"geometry":{"type":"Polygon","coordinates":[[[14.55,24.65],[14.19,24.99],[15.31,25.14],[15.46,25.58],[14.26,25.06],[13.92,25.63],[14.78,26.04],[13.81,26.07],[14.45,26.13],[14.5,26.57],[14.88,26.32],[14.24,26.61],[15.1,27.02],[14.41,27.03],[15.3,27.07],[14.84,27.29],[15.31,27.23],[15.05,27.78],[15.85,27.97],[16.2,28.61],[15.98,28.87],[15.7,28.1],[15.33,28.2],[16.15,30.25],[15.77,30.01],[16.01,30.76],[15.66,30.91],[16.17,31.38],[15.76,31.05],[15.56,31.83],[16.31,32.3],[15.74,32.25],[16.28,32.6],[15.62,32.84],[15.86,33.43],[16.33,33.13],[15.91,33.52],[16.54,33.9],[15.92,33.73],[16.3,34.08],[16.01,34.86],[16.68,34.89],[16.19,35.27],[16.59,35.08],[16.5,35.66],[16.78,35],[16.78,35.87],[17.28,35.81],[16.67,36.18],[17.6,36.26],[17.28,37.32],[17.8,37.46],[18.08,36.61],[17.96,37.64],[18.39,37.16],[18.38,38.09],[18.79,37.49],[18.8,38.07],[19.9,38.1],[19.22,37.43],[19.93,37.22],[20.6,37.54],[20.59,38],[21.64,37.54],[22.47,38.29],[25.53,38.53],[26.4,37.97],[26.15,36.72],[22.73,35.77],[24.83,35.56],[25.88,34.49],[27.53,34.68],[27.34,35.26],[26.43,35.13],[26.2,35.53],[27.12,35.45],[28.15,36.13],[27.15,36.49],[26.97,37.25],[27.04,38.06],[28.3,38.18],[26.34,39.69],[25.37,39.82],[26.95,40.35],[27.3,40.2],[27.19,39.34],[28.05,39.33],[28.53,39.87],[27.91,40.39],[28.26,40.77],[27.81,40.82],[28.21,42.28],[28.54,42.2],[28.25,43],[28.96,42.29],[29.37,42.48],[29.14,43.21],[29.69,43.8],[29.57,44.53],[30.55,44.48],[30.17,44.71],[30.4,45.16],[28.97,45.56],[32.75,47.34],[34.57,46.61],[37.14,42.99],[44.82,38.68],[45.85,36.25],[49.28,32.35],[49.11,30.85],[46.34,26.99],[45.29,20.92],[42.86,19.61],[39.84,19.6],[40.28,20.88],[39.58,21.28],[40.14,21.6],[40.12,22.35],[38.31,19.71],[38.17,20.12],[38.49,19.44],[39.12,19.25],[39.75,19.77],[39.77,19.4],[38.24,17.96],[37.58,18.55],[37.16,18.17],[37.65,19.11],[36.2,18.67],[35.89,18.81],[36.5,19.07],[36.02,19.23],[35.14,17.5],[35.65,16.66],[35.37,16.34],[32.87,16.84],[30.36,18.41],[22.22,20.35],[23.85,21.94],[24.43,21.65],[24.82,22.16],[24.73,21.67],[24.93,23.44],[25.01,22.62],[25.41,22.77],[24.3,25.22],[24.66,25.63],[25.63,25.21],[25.87,25.67],[25.35,26.65],[24.91,26.44],[24.31,27.14],[27.16,29.48],[26.11,29.46],[25.88,29.83],[23.69,27.49],[23.44,27.97],[22.52,27.82],[21.14,29.65],[21.76,32.36],[21.36,32.88],[19.67,32.35],[20.37,30.42],[19.78,28.97],[19.33,29.22],[20.39,26.91],[21.82,26.52],[21.42,25.98],[21.81,25.85],[21.68,25.44],[21.4,25.68],[21.51,25.28],[20.91,24.86],[21.37,24.89],[21.03,24.75],[21.47,24.59],[21.93,23.13],[21.91,22.45],[21.13,22],[21.29,21.44],[20.52,21.13],[20.09,22.26],[17.54,24.89],[17.64,24],[16.34,22.41],[15.22,22.87],[15.73,23.36],[15.32,23.24],[15.53,23.82],[14.82,23.54],[15.44,24.78],[14.94,24.08],[14.55,24.65]]]}},{"type":"Feature","properties":{},"geometry":{"type":"Polygon","coordinates":[[[18.27,20.02],[17.43,21.48],[18.37,22.86],[18.53,21.8],[19.06,21.71],[18.55,20.75],[18.97,20.06],[18.27,20.02]]]}},{"type":"Feature","properties":{},"geometry":{"type":"Polygon","coordinates":[[[36.07,13.58],[35.62,14.46],[35.07,14.03],[34.99,15.06],[40.01,19.36],[42.55,20.13],[39.88,17.71],[39.29,16.52],[37.85,16.4],[37.16,15.83],[36.07,13.58]]]}},{"type":"Feature","properties":{},"geometry":{"type":"Polygon","coordinates":[[[27.78,-3.92],[27.45,-5.32],[26.73,-5.24],[27.36,-6.34],[27.17,-6.8],[26.53,-6.23],[26.6,-6.84],[26.13,-6.4],[25.99,-7.08],[25.37,-7.03],[25.45,-6.59],[25.04,-6.56],[25.3,-5.38],[26,-5.37],[26.8,-6.12],[25.52,-5.04],[25.93,-4.47],[25.59,-2.53],[26.59,-1.54],[25.47,1.42],[25.73,3.59],[25.12,3.33],[25.59,4.28],[24.85,4.59],[23.94,3.62],[24.19,2.53],[23.84,1.74],[24,0.59],[24.59,0.08],[24.2,-0.18],[24.92,-2.42],[24.59,-2.52],[24.13,-1.43],[23.48,-1.75],[23.4,-2.71],[21.9,-2.88],[22.75,-2.35],[23.15,-1.16],[22.03,2.85],[22.56,4.47],[22.14,5.5],[21.1,5.6],[21.05,6.26],[21.97,7.63],[25.23,7.05],[28.82,4.82],[27.12,3.53],[27.78,-3.92]]]}},{"type":"Feature","properties":{},"geometry":{"type":"Polygon","coordinates":[[[21.49,9.11],[20.7,8.05],[19.08,8.12],[18.6,7.06],[15.15,7.11],[14.99,9.11],[15.46,8.67],[14.77,9.81],[13.39,10.87],[12.25,10.79],[11.83,11.46],[14.06,12.05],[13.42,13.03],[14.64,12.84],[15.09,13.54],[17.08,13.09],[18.82,13.48],[20.97,16.88],[22.81,18.35],[26.18,19.46],[28.84,18.6],[26.69,16.92],[25.85,15.55],[20.95,12.34],[20.06,10.82],[20.87,9.37],[21.49,9.11]]]}},{"type":"Feature","properties":{},"geometry":{"type":"Polygon","coordinates":[[[15.09,13.54],[15.62,14.04],[15.38,14.69],[16.9,15.61],[16.35,15.64],[17.04,16.03],[16.58,16.15],[16.7,17.24],[17.13,17.1],[16.91,16.71],[17.37,17.08],[17.12,17.73],[18.1,17.97],[18.32,18.55],[18.81,18.34],[18.72,18.87],[19.54,18.77],[18.52,19.24],[18.27,20.02],[19.42,19.57],[19.97,19.85],[19.95,19.31],[20.73,20.24],[22.29,19.88],[22.22,20.35],[22.9,20.31],[26.18,19.46],[21.93,17.79],[18.82,13.48],[17.08,13.09],[15.09,13.54]]]}},{"type":"Feature","properties":{},"geometry":{"type":"Polygon","coordinates":[[[35.34,16.11],[35.44,14.55],[32.35,12.98],[31.39,13.58],[31.22,14.28],[32.86,15.9],[32.87,16.84],[35.34,16.11]]]}},{"type":"Feature","properties":{},"geometry":{"type":"Polygon","coordinates":[[[-5.99,39.33],[-5.62,38.91],[-6.36,39.16],[-5.99,39.33]]]}},{"type":"Feature","properties":{},"geometry":{"type":"Polygon","coordinates":[[[-8.27,41.84],[-8.94,41.54],[-9.5,41.87],[-8.98,42.29],[-8.27,41.84]]]}},{"type":"Feature","properties":{},"geometry":{"type":"Polygon","coordinates":[[[11.24,42.9],[11.88,42.77],[11.97,42.07],[10.87,42.52],[11.24,42.9]]]}},{"type":"Feature","properties":{},"geometry":{"type":"Polygon","coordinates":[[[-7.62,42.27],[-7.96,41.85],[-8.57,42.47],[-7.62,42.27]]]}},{"type":"Feature","properties":{},"geometry":{"type":"Polygon","coordinates":[[[-5.46,40.2],[-5.65,39.46],[-6.31,39.59],[-5.66,40.46],[-5.46,40.2]]]}},{"type":"Feature","properties":{},"geometry":{"type":"Polygon","coordinates":[[[-5.97,41.64],[-6.03,40.49],[-6.87,40],[-6.8,40.82],[-7.21,41.02],[-6.54,41.15],[-6.48,41.75],[-5.97,41.64]]]}},{"type":"Feature","properties":{},"geometry":{"type":"Polygon","coordinates":[[[15.42,56.24],[16.44,56.47],[15.61,56.57],[16.39,57.1],[18.24,56.27],[15.42,56.24]]]}},{"type":"Feature","properties":{},"geometry":{"type":"Polygon","coordinates":[[[8.37,43.68],[10.42,43.21],[10.15,42.63],[10.69,41.77],[8.37,43.68]]]}},{"type":"Feature","properties":{},"geometry":{"type":"Polygon","coordinates":[[[10.61,41.7],[10.89,40.72],[9.62,41.27],[10.26,41.44],[9.74,41.47],[10.1,41.96],[9.51,41.44],[9.2,41.69],[9.77,42.31],[10.61,41.7]]]}},{"type":"Feature","properties":{},"geometry":{"type":"Polygon","coordinates":[[[9.41,42.57],[9.35,42.24],[9.06,42.55],[8.95,41.76],[7.55,42.94],[8,43.29],[7.91,42.91],[8.48,42.79],[8.24,43.3],[9.41,42.57]]]}},{"type":"Feature","properties":{},"geometry":{"type":"Polygon","coordinates":[[[15.4,54.24],[15.52,54.61],[16.12,54.31],[15.4,54.24]]]}},{"type":"Feature","properties":{},"geometry":{"type":"Polygon","coordinates":[[[14.8,55.09],[15.73,55.27],[14.85,55.33],[15.09,55.69],[16.98,55.75],[16.89,55.07],[16.15,54.54],[14.8,55.09]]]}},{"type":"Feature","properties":{},"geometry":{"type":"Polygon","coordinates":[[[9.35,44.64],[10.48,44.82],[10.77,44.18],[9.88,43.56],[9.4,43.63],[9.68,43.99],[8.61,43.87],[8.96,44.07],[8.68,44.36],[9.61,44.2],[9.35,44.64]]]}},{"type":"Feature","properties":{},"geometry":{"type":"Polygon","coordinates":[[[12.66,47.93],[13.03,48],[13,47.54],[12.63,47.42],[12.66,47.93]]]}},{"type":"Feature","properties":{},"geometry":{"type":"Polygon","coordinates":[[[14.03,50.05],[14.5,49.54],[13.91,49.65],[14.03,50.05]]]}},{"type":"Feature","properties":{},"geometry":{"type":"Polygon","coordinates":[[[12.9,48.43],[13.28,48.46],[13.64,47.55],[13.24,47.53],[12.9,48.43]]]}},{"type":"Feature","properties":{},"geometry":{"type":"Polygon","coordinates":[[[13.2,54.53],[14.67,55.07],[15.36,54.57],[15.13,54.11],[13.2,54.53]]]}},{"type":"Feature","properties":{},"geometry":{"type":"Polygon","coordinates":[[[-2.44,41.71],[-2.76,40.29],[-2.34,40.39],[-2.99,39.66],[-2.69,39.18],[-4.67,38.92],[-4.72,40.07],[-3.86,39.8],[-4.62,40.4],[-4.08,40.59],[-4.31,41.01],[-3.83,40.82],[-3.9,41.33],[-3.26,41.13],[-3.27,41.54],[-2.44,41.71]]]}},{"type":"Feature","properties":{},"geometry":{"type":"Polygon","coordinates":[[[2.34,41.42],[2.79,41.09],[2.29,40.91],[3.02,41.01],[3.35,40.22],[2.6,39.86],[1.73,40.1],[2.11,39.77],[1.29,39.55],[2.5,39.64],[0.88,39.11],[0.84,38.73],[0.39,38.9],[0.72,38.66],[0.34,38.4],[-1.25,38.58],[-0.57,38.16],[-1.29,38.43],[-0.85,37.83],[-1.59,37.15],[-2.18,37.36],[-2.51,36.87],[-3.48,37.23],[-2.82,36.83],[-2.8,36.18],[-3.94,36.09],[-3.92,36.77],[-4.81,36.7],[-5.57,37.25],[-5.37,37.58],[-5.69,37.34],[-5.5,37.79],[-4.59,37.66],[-4.44,38.42],[-4.01,37.49],[-2.99,37.9],[-3.74,37.59],[-3.83,38.17],[-3.34,38.41],[-4.08,38.55],[-3.46,38.97],[-2.66,38.32],[-2.3,38.53],[-2.83,38.96],[-2.22,40.19],[-1.65,39.02],[-1.61,39.89],[-0.03,39.78],[-0.46,40],[0.29,40.31],[-0.97,39.96],[-1.96,40.32],[-0.84,40.52],[-2.14,40.54],[-2.22,40.96],[-1.15,40.82],[-2.18,41.06],[-1.4,41.21],[-1.98,41.75],[-1.01,41.76],[-0.67,41.28],[-0.75,41.74],[-0.29,41.82],[0.13,40.81],[0,41.56],[0.48,41.83],[1.09,41.68],[1,41.16],[1.18,41.71],[1.71,41.17],[2.34,41.42]]]}},{"type":"Feature","properties":{},"geometry":{"type":"Polygon","coordinates":[[[1.44,20.71],[1.87,21.27],[1.42,21.07],[1.29,21.62],[2.21,21.95],[1.33,21.66],[1.04,22.04],[1.71,22.33],[0.95,22.33],[2.36,23.06],[0.92,22.4],[0.92,22.82],[1.45,22.82],[0.99,22.95],[1.55,23.11],[0.82,23.42],[2.36,23.4],[0.87,23.54],[1.38,24.03],[2.5,23.74],[2.12,24.22],[0.96,23.91],[1.69,24.23],[1.19,24.48],[2.48,24.16],[1.96,24.45],[2.23,24.74],[1.17,24.63],[2.14,24.83],[2.15,25.38],[2.5,25.2],[2.14,25.45],[2.53,26.25],[0.93,26.98],[2.42,26.56],[1.94,27.28],[2.31,27.26],[1.73,27.44],[2.18,27.73],[1.59,27.7],[2.09,27.96],[1.52,27.99],[1.75,28.27],[0.7,27.82],[1.18,29.14],[0.86,30.61],[0.46,30.5],[0.89,30.74],[0.41,32.15],[-0.85,33.02],[-1.83,33.12],[-1.83,32.74],[-2.33,33.06],[-2.53,33.42],[-1.97,33.59],[-2.74,34.14],[-1.33,34.03],[-1.21,34.35],[-2.01,34.41],[-2.65,35.35],[-0.56,35.88],[0.17,36.66],[-0.54,37.04],[0.47,37.65],[0.53,37.24],[1.19,38.28],[1.86,37.63],[1.45,38.35],[2.38,38.63],[2.4,37.8],[2.61,38.27],[3.13,37.82],[2.97,38.74],[4.08,37.98],[4.06,38.5],[4.46,38.46],[3.84,38.98],[4.86,38.77],[3.86,39.35],[5,39.04],[4.84,39.71],[5.4,39.96],[6.81,39.93],[5.52,39.1],[6.93,39.83],[7,39.43],[7.79,39.49],[6.22,38.21],[7.57,38.76],[7.49,38.14],[8.07,39],[8.3,37.46],[9.12,39.13],[10.06,39.12],[9.88,38.07],[8.9,37.63],[9.95,37.87],[9.19,37.25],[9.49,36.92],[9.9,37.4],[10.02,34.88],[10.63,35.16],[10.31,34.8],[11.05,34.82],[11.33,34.31],[10.31,34.27],[10.72,34.27],[10.25,33.91],[11.28,33.62],[10.78,33.3],[11.57,33.3],[11.78,32.75],[10.78,32.85],[11.52,32.65],[10.95,32.49],[11.52,32.56],[11.55,32.16],[12.25,32.2],[11.29,32],[12.04,31.82],[11.3,31.69],[11.74,31.13],[11.62,31.53],[12.26,31.18],[11.72,30.71],[11.05,30.94],[11.63,31.08],[10.44,31.08],[10.92,30.75],[10.1,30.51],[10.49,30.34],[10.09,30.12],[10.97,30.27],[10.28,29.88],[11.22,29.95],[10.79,29.53],[11.17,29.25],[11.34,29.72],[12.24,29.42],[12.13,29.1],[12.5,29.33],[13.08,28.25],[12.63,28.44],[12.48,27.96],[11.72,28.68],[10.07,29.05],[10.66,28.79],[10.32,28.53],[11.44,28.59],[10.62,28.19],[10.34,27.41],[11.29,27.66],[10.69,27.13],[11.18,27.1],[11.81,27.74],[13.01,27.63],[11.95,25.95],[10.59,25.05],[9.55,25.37],[9.91,24.73],[9.14,23.01],[8.6,23.01],[8.78,22.72],[8.04,22.59],[8.12,22.25],[7.73,22.89],[7.69,22.08],[6.44,21.44],[6.85,20.72],[6.32,20.57],[6.86,20.04],[6.38,20.17],[6.76,19.92],[6.21,19.77],[6.39,19.21],[5.67,19.01],[6.18,18.67],[5.76,18.78],[6.23,18.3],[5.7,17.6],[6.02,17.37],[5.53,17.38],[6,17.34],[5.59,17.09],[5.95,16.84],[5.26,16.87],[5.84,16.34],[5.33,16.63],[4.78,16.3],[5.12,16.8],[4.76,16.35],[5.04,16.98],[4.34,16.78],[4.71,17.13],[4.22,16.96],[4.73,17.42],[4.3,17.13],[4.43,17.55],[3.19,17.02],[3.35,17.53],[2.78,17.61],[3.19,17.74],[2.68,17.77],[2.95,18.2],[2.7,17.92],[2.9,18.28],[2.19,18.72],[2.51,19.27],[2.18,19.01],[2.35,19.45],[1.85,19.58],[2.3,19.61],[1.65,19.95],[2.16,20.43],[1.59,20.44],[2.34,20.67],[2.11,20.92],[2.6,20.57],[2.14,21.44],[2.14,20.98],[1.44,20.71]]]}}]}
