{"type":"FeatureCollection","features":[{"type":"Feature","properties":{},"geometry":{"type":"Polygon","coordinates":[[[28.23,-68.16],[30.54,-68.19],[31.25,-68.75],[28.71,-68.63],[28.02,-68.43],[28.23,-68.16]]]}},{"type":"Feature","properties":{},"geometry":{"type":"Polygon","coordinates":[[[38.76,-67.33],[37.89,-67.38],[38.26,-67.23],[37.97,-66.97],[39.56,-67.24],[38.76,-67.33]]]}},{"type":"Feature","properties":{},"geometry":{"type":"Polygon","coordinates":[[[-8.52,-63.57],[-6.4,-63.05],[-5.98,-63.39],[-6.66,-64.14],[-8.52,-63.57]]]}},{"type":"Feature","properties":{},"geometry":{"type":"Polygon","coordinates":[[[7.83,-74.14],[8,-74.52],[7.23,-74.31],[7.83,-74.14]]]}},{"type":"Feature","properties":{},"geometry":{"type":"Polygon","coordinates":[[[-2.32,-73.2],[-0.97,-73.32],[-2.97,-73.23],[-2.32,-73.2]]]}},{"type":"Feature","properties":{},"geometry":{"type":"Polygon","coordinates":[[[1.87,-74.52],[-1.04,-73.77],[3.14,-73.98],[1.87,-74.52]]]}},{"type":"Feature","properties":{},"geometry":{"type":"Polygon","coordinates":[[[4.25,-75.4],[3.67,-75.07],[4.49,-74.71],[3.31,-74.71],[3.28,-74.37],[4.48,-74.32],[5.32,-74.73],[5.25,-75.11],[5.95,-75.07],[4.25,-75.4]]]}},{"type":"Feature","properties":{},"geometry":{"type":"Polygon","coordinates":[[[-17.99,-63.13],[-16.13,-63],[-16.95,-63.41],[-17.99,-63.13]]]}},{"type":"Feature","properties":{},"geometry":{"type":"Polygon","coordinates":[[[-16.56,-67.23],[-16.03,-67.41],[-16.82,-67.38],[-16.56,-67.23]]]}},{"type":"Feature","properties":{},"geometry":{"type":"Polygon","coordinates":[[[-17.62,-70.12],[-16.8,-70.04],[-18.29,-69.48],[-17.07,-69.62],[-17.82,-69.24],[-16.28,-69.2],[-15.19,-70.98],[-17.03,-70.71],[-16.41,-70.7],[-17.07,-70.49],[-16.86,-70.14],[-17.97,-70.28],[-17.62,-70.12]]]}},{"type":"Feature","properties":{},"geometry":{"type":"Polygon","coordinates":[[[-22.74,-62.47],[-22.28,-63],[-22.94,-62.87],[-22.74,-62.47]]]}},{"type":"Feature","properties":{},"geometry":{"type":"Polygon","coordinates":[[[-25.14,-62.65],[-24.15,-62.67],[-24.99,-63.09],[-25.14,-62.65]]]}},{"type":"Feature","properties":{},"geometry":{"type":"Polygon","coordinates":[[[-25.77,-60.87],[-19.88,-60.83],[-17.96,-61.47],[-18.09,-62.17],[-18.65,-62.35],[-18.96,-61.69],[-20.32,-61.97],[-19.89,-62.19],[-20.19,-62.49],[-19.34,-62.6],[-21.04,-63.18],[-20.57,-62.9],[-21.49,-62.86],[-20.65,-62.5],[-21.39,-62.67],[-21.16,-62.1],[-21.74,-62.35],[-22.03,-61.69],[-21.61,-61.53],[-22.93,-61.69],[-23.02,-61.15],[-24.16,-61.69],[-25.61,-61.64],[-26.05,-61.01],[-25.77,-60.87]]]}},{"type":"Feature","properties":{},"geometry":{"type":"Polygon","coordinates":[[[-29.51,-59.34],[-27.6,-60.01],[-28.31,-60.12],[-29.51,-59.34]]]}},{"type":"Feature","properties":{},"geometry":{"type":"Polygon","coordinates":[[[57.53,-52.08],[56.77,-52.87],[56.22,-52.52],[57.53,-52.08]]]}},{"type":"Feature","properties":{},"geometry":{"type":"Polygon","coordinates":[[[-32.23,-56.71],[-31.56,-56.65],[-31.39,-57.11],[-31.85,-57.27],[-32.23,-56.71]]]}},{"type":"Feature","properties":{},"geometry":{"type":"Polygon","coordinates":[[[-30.88,-54.36],[-29.83,-54.47],[-30.15,-54.82],[-30.88,-54.36]]]}},{"type":"Feature","properties":{},"geometry":{"type":"Polygon","coordinates":[[[-9.1,-63.7],[-8.42,-64.36],[-7.24,-64.33],[-8.05,-64.54],[-7.74,-64.8],[-2.32,-63.58],[-3.44,-63.66],[-2.7,-63.29],[-0.36,-63.09],[2.66,-63.59],[8.05,-62.22],[10.55,-64.04],[9.68,-65.12],[9.84,-65.66],[7.78,-66.2],[-4.04,-65.91],[-5.89,-66.27],[-8.21,-65.92],[-9.04,-64.84],[-10.29,-64.3],[-9.1,-63.7]]]}},{"type":"Feature","properties":{},"geometry":{"type":"Polygon","coordinates":[[[-31.51,-53.86],[-30.79,-53.86],[-31.18,-54.42],[-30.17,-55.11],[-30.78,-55.48],[-30.08,-56.74],[-29.1,-57.07],[-28.58,-56.99],[-28.55,-56.42],[-28.14,-56.67],[-28.54,-56.79],[-28.03,-57.06],[-28.79,-57.37],[-27.84,-57.49],[-29.12,-57.6],[-27.92,-57.94],[-28.11,-58.39],[-27.35,-58.85],[-25.13,-59.09],[-24.63,-58.78],[-25.15,-58.54],[-24.92,-58.25],[-24.13,-58.75],[-19.59,-58.51],[-16.94,-59.12],[-16.12,-59.05],[-16.21,-58.69],[-13.61,-59.32],[-12.14,-60.45],[-11.98,-60.12],[-10.06,-61.86],[-8.31,-61.36],[-6.97,-62.59],[-9.51,-63.22],[-9.1,-63.7],[-13.06,-65.55],[-15.85,-65.36],[-15.35,-65.04],[-17.61,-64.61],[-16.17,-64.11],[-16.46,-63.61],[-15.65,-63.67],[-17.39,-60.91],[-24.43,-60.57],[-24.28,-60.04],[-24.74,-59.75],[-25.31,-59.94],[-27.58,-59.18],[-27.74,-59.59],[-28.65,-59.38],[-27.91,-59.1],[-29.14,-58.91],[-28.84,-58.62],[-29.8,-58.39],[-29.69,-57.9],[-30.2,-57.85],[-30.27,-57.37],[-31.12,-57.24],[-30.67,-57.01],[-31.71,-55.69],[-31.51,-53.86]]]}},{"type":"Feature","properties":{},"geometry":{"type":"Polygon","coordinates":[[[1.88,-59.24],[1.08,-58.31],[-0.05,-55.16],[0.28,-54.48],[0.98,-54.52],[-0.36,-53.68],[-2.26,-54.33],[-3.41,-53.56],[-3.61,-51.47],[-3.07,-50.38],[-3.57,-49.18],[-3.12,-47.6],[-1.59,-45.81],[-1.68,-45.07],[-2.54,-44.78],[-1.77,-44.9],[-1.99,-44.07],[-0.71,-44.61],[-0.38,-44.35],[-0.81,-43.39],[-0.33,-43.25],[0.03,-43.91],[1.12,-43.39],[0.62,-42.49],[1.56,-43.47],[2.38,-43.45],[3.26,-41.96],[5.2,-41.18],[7.05,-41.28],[8.86,-40.55],[11.97,-40.56],[16.42,-39.58],[16.57,-38.55],[18.8,-40.07],[20.07,-38.65],[22.86,-37.67],[23.74,-38.09],[24.23,-37.86],[23.83,-37.5],[24.33,-37.39],[24.46,-37.87],[25.01,-37.88],[24.96,-37.1],[25.93,-36.79],[27.7,-37.17],[28.32,-37.94],[27.72,-38.04],[28.85,-38.94],[33.65,-40.68],[33.28,-41.56],[32.7,-41.66],[33.11,-41.76],[32.57,-41.79],[32.85,-42.03],[32.31,-41.9],[32.24,-42.48],[31.52,-42.7],[32.21,-44.24],[34.11,-43.13],[35.14,-43.41],[37.67,-42.65],[40.75,-42.78],[44.48,-43.96],[46.88,-45.51],[47.59,-45.7],[48.11,-45.13],[48.77,-45.41],[48.38,-45.89],[49.87,-46.37],[51.18,-48.82],[54.31,-49.31],[53.96,-50.2],[54.67,-50.65],[54.5,-51.53],[56.03,-52.49],[55.6,-52.69],[58.58,-53.9],[58.1,-54.88],[58.56,-55.36],[60.26,-54.89],[61.45,-56.67],[63.21,-56.5],[62.13,-56.94],[61.9,-57.58],[62.83,-59.73],[62.56,-60.04],[63.11,-60.3],[62.83,-60.84],[63.95,-61.44],[62.15,-61.22],[61.91,-61.97],[62.38,-62.47],[61.08,-62.38],[61.85,-63.49],[60.96,-63.71],[62.22,-64.52],[60.74,-64.99],[61.08,-65.18],[60.46,-65.69],[61.03,-65.78],[60.32,-66.45],[57.81,-67.18],[57.48,-67.43],[58,-67.49],[57.45,-67.48],[57.81,-67.72],[56.71,-68],[57.23,-68.01],[55.94,-69.36],[52.34,-70.14],[48.41,-69.13],[48.18,-68.92],[48.8,-68.86],[48.56,-68.4],[47.29,-68.2],[47.51,-67.8],[46.03,-67.81],[46.54,-67.57],[45.67,-67.36],[46.81,-67.36],[46.25,-67.09],[45.11,-66.97],[44.3,-67.44],[43.95,-67.37],[44.54,-66.95],[40.94,-66.4],[38.66,-66.59],[37.64,-66.17],[37.28,-66.39],[37.85,-66.66],[35.98,-66.71],[36.76,-66.2],[36,-65.73],[36.08,-65.29],[29.12,-64.51],[29.19,-64.14],[28.33,-64.22],[28.62,-64.53],[26.07,-64.22],[22.56,-64.55],[20.91,-63.57],[22.54,-64.69],[19.59,-64.79],[17.95,-64.28],[16.23,-64.31],[15.66,-64.75],[13.77,-64.57],[13.49,-64.73],[16.58,-65.62],[17.6,-67.23],[13.9,-67.39],[13.49,-66.08],[11.15,-64.33],[6.95,-63.9],[5.82,-62.04],[1.88,-59.24]]]}},{"type":"Feature","properties":{},"geometry":{"type":"Polygon","coordinates":[[[22.9,-66.16],[24.08,-67.03],[23.96,-67.51],[21.05,-68.36],[28.65,-69.39],[29.15,-70.01],[29.96,-69.8],[31.33,-70.75],[27.56,-71.18],[25.37,-70.95],[25.66,-71.09],[23.36,-71.9],[27.02,-72.34],[24.04,-72.45],[24.98,-72.8],[17.04,-74.23],[17.45,-74.46],[14.56,-74.62],[14.43,-74.28],[-0.79,-73.29],[-0.76,-72.93],[-2.47,-72.55],[-4.43,-72.9],[-3.48,-72.7],[-4.49,-72.63],[-2.85,-71.92],[-5.29,-72.14],[-5.78,-71.88],[-5.1,-71.57],[-5.55,-71.45],[-5.28,-71.22],[-6.61,-71.08],[-5.19,-70.51],[-7.44,-70.5],[-8.08,-70.04],[-7.28,-69.54],[-8.24,-69.27],[-9.3,-69.88],[-10.67,-69.76],[-11.45,-70.46],[-12.93,-69.98],[-13.16,-70.33],[-11.77,-70.64],[-13.19,-71.04],[-13.44,-70.79],[-12.93,-70.68],[-13.59,-70.32],[-13.34,-70.04],[-14.72,-69.61],[-14.14,-68.91],[-15.71,-68.63],[-15.04,-68.32],[-15.4,-67.55],[-17.46,-67.18],[-16.37,-66.93],[-15.94,-66.36],[-16.86,-66.14],[-15.86,-65.96],[-15.41,-65.26],[-5.48,-66.17],[-3.64,-65.82],[7.67,-66.16],[10.36,-65.56],[18.1,-66.76],[22.9,-66.16]]]}},{"type":"Feature","properties":{},"geometry":{"type":"Polygon","coordinates":[[[-30.91,-53.13],[-30.49,-53.04],[-31.04,-53.66],[-30.91,-53.13]]]}},{"type":"Feature","properties":{},"geometry":{"type":"Polygon","coordinates":[[[-32.33,-53.56],[-32.03,-53.49],[-32.52,-54.11],[-32.33,-53.56]]]}},{"type":"Feature","properties":{},"geometry":{"type":"Polygon","coordinates":[[[-25.22,-51.5],[-25.67,-51.73],[-24.44,-52.15],[-26.49,-51.95],[-25.22,-51.5]]]}},{"type":"Feature","properties":{},"geometry":{"type":"Polygon","coordinates":[[[-24.88,-51.42],[-23.84,-51.49],[-24.77,-51.73],[-24.88,-51.42]]]}},{"type":"Feature","properties":{},"geometry":{"type":"Polygon","coordinates":[[[-28.73,-50.98],[-28.41,-51.44],[-28.94,-51.25],[-28.73,-50.98]]]}},{"type":"Feature","properties":{},"geometry":{"type":"Polygon","coordinates":[[[-27.57,-50.48],[-27.26,-51.15],[-27.79,-50.9],[-27.57,-50.48]]]}},{"type":"Feature","properties":{},"geometry":{"type":"Polygon","coordinates":[[[-29.97,-50.7],[-29.03,-51.23],[-30.33,-51.15],[-29.97,-50.7]]]}},{"type":"Feature","properties":{},"geometry":{"type":"Polygon","coordinates":[[[-29.44,-49.86],[-28.7,-49.89],[-29.68,-50.33],[-29.31,-50.76],[-30.31,-50.53],[-29.7,-50.57],[-30.15,-50.18],[-29.44,-49.86]]]}},{"type":"Feature","properties":{},"geometry":{"type":"Polygon","coordinates":[[[-28.13,-51.47],[-26.79,-51.38],[-27.73,-51.09],[-25.83,-51.13],[-27.18,-50.71],[-26.65,-50.11],[-27.63,-50.29],[-27.47,-49.81],[-27.83,-49.71],[-27.04,-49.25],[-24.49,-50.5],[-22.32,-50.75],[-23.41,-51.34],[-28.56,-51.64],[-28.13,-51.47]]]}},{"type":"Feature","properties":{},"geometry":{"type":"Polygon","coordinates":[[[-18.44,-46.71],[-19.03,-47.66],[-19.72,-47.6],[-18.87,-47.18],[-19.57,-46.89],[-18.44,-46.71]]]}},{"type":"Feature","properties":{},"geometry":{"type":"Polygon","coordinates":[[[-18,-46.59],[-16.85,-46.81],[-18.31,-47.63],[-18,-46.59]]]}},{"type":"Feature","properties":{},"geometry":{"type":"Polygon","coordinates":[[[-32.46,-48.37],[-32.08,-48.7],[-32.65,-48.69],[-32.46,-48.37]]]}},{"type":"Feature","properties":{},"geometry":{"type":"Polygon","coordinates":[[[41.22,-75.64],[40.74,-75.33],[41.65,-75.34],[41.22,-75.64]]]}},{"type":"Feature","properties":{},"geometry":{"type":"Polygon","coordinates":[[[-33.31,-47.79],[-32.79,-47.85],[-33.22,-48.22],[-33.31,-47.79]]]}},{"type":"Feature","properties":{},"geometry":{"type":"Polygon","coordinates":[[[-33.01,-47.16],[-33.15,-47.67],[-33.76,-47.14],[-33.17,-47.12],[-33.29,-46.41],[-32.69,-47.74],[-33.01,-47.16]]]}},{"type":"Feature","properties":{},"geometry":{"type":"Polygon","coordinates":[[[-33.46,-45.89],[-33.13,-46.41],[-33.58,-46.38],[-33.46,-45.89]]]}},{"type":"Feature","properties":{},"geometry":{"type":"Polygon","coordinates":[[[39.93,-80.84],[38.7,-80.48],[41.98,-80.27],[39.93,-80.84]]]}},{"type":"Feature","properties":{},"geometry":{"type":"Polygon","coordinates":[[[-33.62,-42.68],[-33.43,-42.94],[-33.96,-42.92],[-33.62,-42.68]]]}},{"type":"Feature","properties":{},"geometry":{"type":"Polygon","coordinates":[[[-33.05,-41.95],[-32.72,-42.06],[-33.17,-42.53],[-33.05,-41.95]]]}},{"type":"Feature","properties":{},"geometry":{"type":"Polygon","coordinates":[[[-13.96,-76],[-14.25,-75.69],[-12.33,-75.86],[-13.96,-76]]]}},{"type":"Feature","properties":{},"geometry":{"type":"Polygon","coordinates":[[[-34.65,-39.56],[-33.98,-39.95],[-34.34,-40.29],[-33.92,-40.57],[-34.12,-41.17],[-34.72,-41.06],[-34.65,-39.56]]]}},{"type":"Feature","properties":{},"geometry":{"type":"Polygon","coordinates":[[[45.53,-72.45],[46.49,-72.24],[43.54,-72],[44.11,-71.78],[43.8,-71.39],[51.39,-70.2],[52.46,-70.24],[52.04,-70.56],[52.46,-70.64],[51.19,-71.55],[51.77,-71.82],[50.79,-72.12],[51.85,-71.83],[53.2,-72.66],[51.48,-73.03],[44.85,-72.84],[46.41,-72.43],[45.53,-72.45]]]}},{"type":"Feature","properties":{},"geometry":{"type":"Polygon","coordinates":[[[46.75,-77.69],[42.51,-77.6],[42.92,-78.23],[41.7,-77.96],[41.33,-78.27],[42.43,-78.3],[41.68,-78.49],[41.12,-78.32],[41.34,-78.08],[38.73,-78.04],[37.36,-77.09],[39.79,-75.32],[39.7,-72.54],[40.73,-73.18],[40.28,-73.47],[40.94,-75.31],[43.85,-76.27],[43.6,-76.48],[44.25,-76.84],[46.14,-77.12],[46.75,-77.69]]]}},{"type":"Feature","properties":{},"geometry":{"type":"Polygon","coordinates":[[[2.06,-82.78],[10.3,-82.45],[8.69,-82.26],[9.31,-82.09],[18.98,-82.44],[27.43,-81.22],[26.42,-81.18],[32.63,-80.74],[46.29,-81.74],[43.73,-81.84],[44.96,-81.97],[43.52,-82.07],[45.23,-81.98],[42.74,-82.09],[43.63,-82.43],[42.02,-82.66],[27.14,-83.44],[15.51,-83.56],[1.44,-82.85],[2.06,-82.78]]]}},{"type":"Feature","properties":{},"geometry":{"type":"Polygon","coordinates":[[[54.73,-72.93],[54.18,-72.98],[54.33,-72.65],[54.73,-72.93]]]}},{"type":"Feature","properties":{},"geometry":{"type":"Polygon","coordinates":[[[61.41,-63.54],[60.96,-63.97],[59.79,-63],[60.37,-62.81],[61.41,-63.54]]]}},{"type":"Feature","properties":{},"geometry":{"type":"Polygon","coordinates":[[[76.57,-79.35],[73.51,-79.55],[74.61,-79.67],[71.26,-80.23],[72.18,-80.42],[61.05,-80.55],[61.69,-80.62],[58.73,-81.04],[63.39,-81.1],[52.66,-81.6],[50.08,-82],[51.33,-82.7],[48.63,-83.03],[41.23,-81.88],[40.82,-81.71],[42.56,-81.73],[43.65,-81.23],[39.35,-80.58],[36.79,-79.34],[36.74,-78.83],[39.83,-78.51],[41.77,-79.36],[44.22,-79.52],[50.46,-78.96],[51.21,-79.71],[58.98,-80.39],[64.65,-80.12],[63.38,-80.31],[65.65,-80.44],[66.84,-80.04],[65.19,-80.04],[76.25,-79.05],[76.57,-79.35]]]}},{"type":"Feature","properties":{},"geometry":{"type":"Polygon","coordinates":[[[116.46,-68.84],[116.1,-69.19],[115.49,-68.98],[116.46,-68.84]]]}},{"type":"Feature","properties":{},"geometry":{"type":"Polygon","coordinates":[[[112.4,-66.13],[112.96,-67.46],[112.55,-68.05],[112.98,-69.5],[112.59,-69.71],[111.66,-69.28],[111.95,-68.76],[111.33,-67.61],[112.4,-66.13]]]}},{"type":"Feature","properties":{},"geometry":{"type":"Polygon","coordinates":[[[93.55,-49.87],[93.17,-50.52],[92.53,-50.07],[93.55,-49.87]]]}},{"type":"Feature","properties":{},"geometry":{"type":"Polygon","coordinates":[[[20.28,-26.8],[21.27,-24.79],[22.6,-23.93],[24.39,-24.47],[24.55,-24.93],[24.77,-24.48],[25.45,-24.86],[26.98,-24.28],[27.21,-23.68],[27.39,-24.06],[28.15,-23.99],[28.64,-23.17],[29.36,-23.06],[29.35,-24.32],[28.31,-26.63],[27.78,-26.92],[27.51,-26.24],[26.88,-27.41],[19.03,-32.46],[16.87,-31.89],[16.38,-30.87],[17.56,-28.23],[20.28,-26.8]]]}},{"type":"Feature","properties":{},"geometry":{"type":"Polygon","coordinates":[[[89.15,-43.97],[88.94,-44.51],[88.37,-44.13],[89.15,-43.97]]]}},{"type":"Feature","properties":{},"geometry":{"type":"Polygon","coordinates":[[[89.37,-43.88],[89.42,-44.44],[90.19,-44.48],[90.22,-44.86],[89.17,-44.83],[89.37,-43.88]]]}},{"type":"Feature","properties":{},"geometry":{"type":"Polygon","coordinates":[[[57.61,-67.91],[57.71,-67.51],[57.16,-67.27],[57.79,-66.38],[61.37,-65.27],[62.26,-64.49],[61.2,-65.37],[61.79,-65.12],[62.3,-64.42],[61.58,-63.91],[63.63,-63.96],[64.69,-63.35],[62.45,-63.47],[61.5,-62.84],[65.78,-63.02],[67.83,-62.36],[66.73,-62.64],[62.38,-61.86],[61.46,-62.06],[61.72,-61.26],[61.94,-61.57],[62.98,-61.13],[64.09,-60.38],[63.78,-60.11],[64.13,-59.78],[64.87,-59.79],[64.62,-59.46],[65.26,-59.13],[64.34,-57.98],[64.52,-56.93],[59.85,-53.4],[55.56,-51.97],[53.84,-49.44],[51.25,-48.5],[50.69,-47.48],[50.84,-46.08],[54.44,-45.41],[57.27,-43.45],[59.64,-40.61],[59.36,-41.27],[60.56,-40.54],[59.85,-41.48],[60.51,-41.39],[61.68,-39.87],[63.85,-39.03],[64.94,-38.92],[64.25,-39.39],[68.23,-40.24],[68.65,-40.98],[72.49,-42.86],[75.06,-42.92],[75.79,-42.23],[77.32,-42.22],[76.57,-43.49],[77.72,-43.27],[77.53,-42.82],[78.07,-42.54],[78.39,-43.41],[79.04,-43.69],[78.62,-43.26],[79.68,-43.1],[79.06,-43.11],[79.46,-42.75],[79.99,-42.74],[80.17,-43.42],[80.22,-42.8],[80.81,-43.28],[80.91,-42.74],[81.84,-42.72],[81.46,-43.04],[81.72,-43.23],[82.51,-42.8],[82.36,-43.18],[83.47,-43.29],[83.79,-43.81],[83.74,-44.93],[82.45,-45.29],[83.98,-45.15],[84.38,-45.64],[84.02,-45.93],[84.61,-45.75],[84.51,-46.21],[85.45,-45.88],[85.22,-45.44],[87.86,-44.94],[88.2,-45.25],[88.35,-44.91],[88.47,-45.36],[89.4,-45.12],[90.81,-46.2],[91.3,-45.76],[90.59,-44.91],[90.99,-44.91],[90.9,-45.25],[91.16,-45.01],[91.33,-45.65],[91.76,-45.68],[91.84,-46.47],[92.42,-46.63],[92.32,-47.1],[93.11,-47.33],[93.29,-47.94],[94.38,-48.08],[93.85,-48.1],[94.42,-48.25],[93.97,-48.56],[95.19,-48.44],[95.2,-49.05],[94.18,-49.36],[93.07,-49.08],[92.11,-49.75],[90.46,-49.6],[90.91,-49.7],[90.94,-50.28],[90.36,-50.27],[90.96,-50.33],[91.42,-51.4],[90.81,-51.38],[91.55,-51.71],[92,-53.1],[92.75,-53.8],[92.74,-54.65],[93.67,-55.28],[97.97,-54.24],[99.06,-53],[101.1,-52.3],[100.53,-52.04],[101.76,-51.94],[102.73,-51.07],[103.53,-51.17],[103.14,-51.28],[103.46,-51.54],[102.83,-52.21],[103.22,-52.53],[102.65,-52.74],[102.78,-53.41],[101.52,-54.78],[102.76,-55.04],[103.09,-56.14],[101.56,-57.36],[101.45,-58.02],[101.83,-58.05],[99.91,-59.78],[100.46,-60.74],[101.06,-60.79],[100.78,-61.35],[101.97,-62.32],[101.25,-62.64],[101.35,-63.75],[100.06,-64.66],[100.66,-64.6],[100.67,-64.96],[101.42,-64.54],[101.63,-65.3],[102.16,-65.08],[100.78,-66.08],[100.27,-65.72],[100.9,-66.23],[100.82,-66.88],[101.51,-67.01],[101.1,-67.77],[101.47,-68.04],[101.02,-68.38],[101.48,-68.65],[100.41,-69.26],[100.86,-69.31],[97.88,-70.21],[97.96,-70.54],[96.2,-71.56],[84.44,-73.25],[82.13,-72.84],[79.57,-73.02],[79.02,-72.6],[79.39,-72.81],[78.76,-72.92],[79.28,-72.99],[65.25,-73.54],[63.96,-73.25],[62.39,-71.87],[59.62,-71.52],[58.92,-71],[57.68,-71.23],[58.53,-70.99],[58.12,-70.82],[58.91,-70.32],[59.84,-70.33],[58.78,-69.97],[59.15,-69.72],[60.71,-69.8],[57.06,-69.02],[57.61,-67.91]]]}},{"type":"Feature","properties":{},"geometry":{"type":"Polygon","coordinates":[[[101.82,-46.25],[102.04,-46.58],[101.23,-46.87],[100.18,-46.18],[101.82,-46.25]]]}},{"type":"Feature","properties":{},"geometry":{"type":"Polygon","coordinates":[[[129.73,3.88],[129.57,3.31],[128.77,2.98],[129.73,3.88]]]}},{"type":"Feature","properties":{},"geometry":{"type":"Polygon","coordinates":[[[97.66,-42.54],[97.74,-43.06],[97.09,-43.13],[97.66,-42.54]]]}},{"type":"Feature","properties":{},"geometry":{"type":"Polygon","coordinates":[[[98.32,-42.6],[98.01,-42.94],[97.84,-42.54],[98.32,-42.6]]]}},{"type":"Feature","properties":{},"geometry":{"type":"Polygon","coordinates":[[[122.71,0.12],[124.74,1.13],[125.41,0.9],[126.85,1.74],[126.95,2.52],[128.55,3.07],[129.34,2.64],[130.62,3.38],[131.17,2.72],[123.89,-0.88],[123.74,-0.49],[122.57,-1.04],[122.71,0.12]]]}},{"type":"Feature","properties":{},"geometry":{"type":"Polygon","coordinates":[[[98.54,-42.22],[98.48,-42.7],[97.97,-42.48],[98.54,-42.22]]]}},{"type":"Feature","properties":{},"geometry":{"type":"Polygon","coordinates":[[[122.87,3.93],[123.45,4.02],[123.5,3.51],[123.17,3.29],[122.87,3.93]]]}},{"type":"Feature","properties":{},"geometry":{"type":"Polygon","coordinates":[[[120.76,3.37],[121.68,2.98],[122.2,3.25],[122.47,2.8],[120.61,2.43],[120.76,3.37]]]}},{"type":"Feature","properties":{},"geometry":{"type":"Polygon","coordinates":[[[112.6,-50.01],[112.38,-50.77],[113.25,-51.75],[113.12,-52.86],[114.18,-53.13],[113.71,-53.52],[114.78,-54.07],[114.22,-54.27],[115.59,-54.91],[114.2,-55.04],[113.78,-54.74],[114.31,-54.75],[111.31,-53.31],[110.58,-52.19],[110.89,-52.01],[110.37,-51.82],[110.18,-50.48],[108.85,-49.42],[108.06,-49.52],[107.76,-48.78],[107.61,-49.59],[106.85,-49.14],[107.02,-49.63],[105.17,-48.83],[106.19,-49.54],[106.07,-50.15],[103.03,-49.08],[102.52,-47.58],[103.03,-47.41],[101.27,-47.05],[102.07,-46.59],[101.84,-46.03],[103.02,-46.55],[101.9,-45.75],[102.66,-46.17],[102.24,-45.17],[102.77,-44.73],[102.35,-44.47],[102.71,-44.31],[102.22,-43.73],[102.54,-43.54],[102.19,-43.68],[99.91,-41.24],[105.76,-44.26],[112.6,-50.01]]]}},{"type":"Feature","properties":{},"geometry":{"type":"Polygon","coordinates":[[[117.93,4.46],[118.23,4.16],[117.78,4.09],[117.93,4.46]]]}},{"type":"Feature","properties":{},"geometry":{"type":"Polygon","coordinates":[[[-3.81,-2.67],[-4,-3.05],[-4.21,-2.81],[-3.81,-2.67]]]}},{"type":"Feature","properties":{},"geometry":{"type":"Polygon","coordinates":[[[109.12,1.33],[110.84,2.4],[112.09,1.95],[116.89,2.6],[119.72,-1.19],[117.01,-0.29],[115.38,-0.25],[114.15,0.62],[113.04,0.34],[111.4,0.81],[109.56,0.68],[108.93,1.06],[109.12,1.33]]]}},{"type":"Feature","properties":{},"geometry":{"type":"Polygon","coordinates":[[[116.55,2.67],[117.4,2.88],[117.26,2.43],[117.96,3.19],[118.41,2.21],[119.33,2.68],[120.66,1.79],[121.17,2.53],[121.92,2.39],[123.66,0.06],[123.03,0.09],[123.19,-0.25],[122.53,-0.49],[122.83,-0.76],[119.03,-0.8],[116.55,2.67]]]}},{"type":"Feature","properties":{},"geometry":{"type":"Polygon","coordinates":[[[123.94,16.83],[124.17,16.47],[124.22,17.05],[125.05,16.93],[125.71,16.41],[127,16.92],[126.34,15.88],[127.03,15.82],[126.18,15.18],[126.77,14.67],[126.17,14.2],[126.74,14.46],[126.41,14.23],[127.84,13.76],[127.9,13.22],[129.38,13.14],[128.36,12.67],[129.24,10.95],[128.64,9.32],[128.97,9.36],[128.8,8.85],[129.28,9.06],[129.35,7.44],[128.72,6.45],[128.16,7.09],[127.48,6.48],[126.68,6.56],[126.11,5.38],[125.51,5.9],[124.48,4.91],[123.13,6.28],[122.41,6.07],[122.57,6.34],[121.4,6.82],[120.78,8.36],[122.78,9.04],[122.36,9.05],[122.05,10.22],[123.09,11.54],[123.02,13.24],[124.01,14.32],[123.94,16.83]]]}},{"type":"Feature","properties":{},"geometry":{"type":"Polygon","coordinates":[[[20.44,-37.49],[17.36,-38.73],[15.88,-38.34],[15.5,-37.29],[16.04,-36.8],[18.39,-36.76],[18.08,-36.83],[20.44,-37.49]]]}},{"type":"Feature","properties":{},"geometry":{"type":"Polygon","coordinates":[[[-30.51,13.09],[-30.42,12.39],[-31.34,12.19],[-30.9,12.5],[-31.16,12.89],[-30.51,13.09]]]}},{"type":"Feature","properties":{},"geometry":{"type":"Polygon","coordinates":[[[-47.65,-2.52],[-46.6,-3.51],[-48.05,-2.95],[-47.65,-2.52]]]}},{"type":"Feature","properties":{},"geometry":{"type":"Polygon","coordinates":[[[-51.38,1.64],[-49.31,-0.06],[-48.88,-0.8],[-49.37,-0.74],[-48.6,-1.81],[-49.06,-1.98],[-50.92,-0.63],[-51.61,-1.03],[-51.76,-0.17],[-53.31,0.63],[-53.57,1.2],[-53.2,1.35],[-51.82,0.23],[-51.57,1.18],[-52.03,1.78],[-51.38,1.64]]]}},{"type":"Feature","properties":{},"geometry":{"type":"Polygon","coordinates":[[[116.61,20.15],[117.5,20.44],[117.46,19.18],[116.71,18.33],[115.77,18.43],[115.51,19.27],[116.61,20.15]]]}},{"type":"Feature","properties":{},"geometry":{"type":"Polygon","coordinates":[[[-48.9,3.43],[-47.59,1.82],[-45.41,-3.67],[-48.2,-1.73],[-47.31,-1.38],[-47.88,-0.79],[-47.71,0.25],[-49.45,2.56],[-49.16,2.98],[-51.79,4.33],[-51.24,4.01],[-50.58,4.36],[-48.9,3.43]]]}},{"type":"Feature","properties":{},"geometry":{"type":"Polygon","coordinates":[[[-27.95,16.72],[-27.59,15.97],[-27.89,15.79],[-28.27,16.16],[-27.95,16.72]]]}},{"type":"Feature","properties":{},"geometry":{"type":"Polygon","coordinates":[[[133.39,40.44],[134.34,40.24],[134.21,39.84],[134.88,39.54],[134.26,37.92],[133.57,37.5],[133.63,38.21],[133.47,37.66],[132.92,37.87],[133.32,39.27],[132.81,39.66],[133.04,39.16],[132.39,38.99],[132.25,39.51],[132.65,39.29],[132.1,39.74],[133.39,40.44]]]}},{"type":"Feature","properties":{},"geometry":{"type":"Polygon","coordinates":[[[136.97,41.12],[137.67,40.65],[137.12,40.01],[136.24,40.15],[135.52,39.47],[135.18,40.1],[134.76,39.95],[135.62,40.79],[136.97,41.12]]]}},{"type":"Feature","properties":{},"geometry":{"type":"Polygon","coordinates":[[[21.23,19.59],[22.72,18.15],[21.52,18.67],[20.91,19.48],[21.23,19.59]]]}},{"type":"Feature","properties":{},"geometry":{"type":"Polygon","coordinates":[[[25.63,12.07],[24.8,12.37],[24.26,13.13],[24.45,13.71],[25.1,13.36],[25.63,12.07]]]}},{"type":"Feature","properties":{},"geometry":{"type":"Polygon","coordinates":[[[17.35,25.72],[15.87,24.72],[14.85,26.95],[15.34,27.1],[17.35,25.72]]]}},{"type":"Feature","properties":{},"geometry":{"type":"Polygon","coordinates":[[[23.11,22.6],[23.26,21.23],[22.62,22.71],[23.11,22.6]]]}},{"type":"Feature","properties":{},"geometry":{"type":"Polygon","coordinates":[[[34.41,35.4],[34.73,35.09],[33.97,35.14],[34.41,35.4]]]}},{"type":"Feature","properties":{},"geometry":{"type":"Polygon","coordinates":[[[11.03,30.96],[10.85,30.28],[10.24,30.59],[11.03,30.96]]]}},{"type":"Feature","properties":{},"geometry":{"type":"Polygon","coordinates":[[[15.71,33.74],[15.33,33.28],[13.51,32.99],[12.78,33.63],[15.12,34.44],[15.71,33.74]]]}},{"type":"Feature","properties":{},"geometry":{"type":"Polygon","coordinates":[[[137.03,41.47],[135,40.99],[134.83,40.44],[133.44,40.46],[133.49,40.96],[135.64,42.28],[138.92,42.56],[139.47,44.3],[140.12,44.47],[139.62,44.05],[140.06,43.7],[141.45,44.42],[142.71,46.03],[142.55,47.73],[143.01,48.4],[143.94,48.06],[143.62,48.72],[144.27,48.64],[145.15,46.72],[144.67,45.49],[143.99,45.23],[144.2,44.2],[143.8,43.44],[144.2,42.92],[143.7,42.34],[143.05,42.09],[143.22,42.83],[141.97,41.75],[141.92,42.2],[141.39,41.65],[140.07,41.54],[140.41,41.76],[139.68,42],[139.53,41.54],[139.98,41.23],[138.57,40.38],[138.01,40.71],[138.35,41.55],[137.03,41.47]]]}},{"type":"Feature","properties":{},"geometry":{"type":"Polygon","coordinates":[[[17.81,33.97],[15.83,33.8],[16.9,34.47],[17.81,33.97]]]}},{"type":"Feature","properties":{},"geometry":{"type":"Polygon","coordinates":[[[150.43,45.99],[150.73,46],[149.54,45.28],[150.43,45.99]]]}},{"type":"Feature","properties":{},"geometry":{"type":"Polygon","coordinates":[[[145.98,47.11],[148.43,45.53],[149.46,45.9],[149.17,45.37],[149.54,44.81],[147.98,44.44],[147.31,43.61],[144.58,44.18],[144.31,44.93],[145.42,44.92],[145.98,47.11]]]}},{"type":"Feature","properties":{},"geometry":{"type":"Polygon","coordinates":[[[143.16,49.74],[142.84,49.39],[143.91,49],[142.7,48.55],[142.26,49.72],[143.16,49.74]]]}},{"type":"Feature","properties":{},"geometry":{"type":"Polygon","coordinates":[[[-10.11,37.34],[-10.09,36.62],[-10.77,36.07],[-10.03,36.65],[-9.56,36.26],[-10.89,35.91],[-11.07,36.42],[-10.11,37.34]]]}},{"type":"Feature","properties":{},"geometry":{"type":"Polygon","coordinates":[[[-13.1,37.35],[-12.96,36.9],[-11.41,36.84],[-12.11,36.37],[-13.26,36.88],[-13.1,37.35]]]}},{"type":"Feature","properties":{},"geometry":{"type":"Polygon","coordinates":[[[-12.95,40.42],[-10.93,39.5],[-12.53,39.83],[-13.27,40.35],[-12.95,40.42]]]}},{"type":"Feature","properties":{},"geometry":{"type":"Polygon","coordinates":[[[-77.96,25.7],[-76.15,25.08],[-74.86,23.25],[-76.05,23.52],[-75.75,23.99],[-76.28,23.67],[-76.97,24.15],[-76.66,24.46],[-77.91,24.93],[-77.53,25.41],[-77.98,25.27],[-77.96,25.7]]]}},{"type":"Feature","properties":{},"geometry":{"type":"Polygon","coordinates":[[[-5.61,39.31],[-4.83,39.69],[-3.99,39.37],[-4.65,38.51],[-3.63,38.71],[-4.47,38.31],[-4.24,37.63],[-3.52,38.2],[-3.78,36.75],[-4.24,36.76],[-4.15,37.33],[-4.72,36.96],[-4.57,38.01],[-6.05,37.02],[-5.11,37.82],[-9.05,37.9],[-5.61,39.31]]]}},{"type":"Feature","properties":{},"geometry":{"type":"Polygon","coordinates":[[[-5.9,41.79],[-5.57,41.55],[-6.09,41.51],[-5.8,41.25],[-6.88,39.95],[-5.7,40.16],[-6.28,39.75],[-5.41,39.69],[-5.61,39.31],[-8.99,38.03],[-8.1,38.76],[-8.91,38.81],[-8.14,39.39],[-7.74,39.2],[-8.03,39.56],[-7.56,39.68],[-7.23,40.91],[-5.9,41.79]]]}},{"type":"Feature","properties":{},"geometry":{"type":"Polygon","coordinates":[[[-26.91,44.83],[-26.45,44.24],[-27.52,44.68],[-26.91,44.83]]]}},{"type":"Feature","properties":{},"geometry":{"type":"Polygon","coordinates":[[[-80.34,28.25],[-80.03,27.08],[-80.88,28.12],[-80.34,28.25]]]}},{"type":"Feature","properties":{},"geometry":{"type":"Polygon","coordinates":[[[-81.06,29.24],[-80.5,29.03],[-80.76,28.59],[-80.14,29.15],[-80.62,28.16],[-81.06,29.24]]]}},{"type":"Feature","properties":{},"geometry":{"type":"Polygon","coordinates":[[[147.01,55.91],[147.55,54.41],[147.22,53.3],[148.94,50.22],[148.21,50.83],[147.12,50.71],[146.63,49.37],[147.72,47.94],[147.51,47.6],[146.77,48.33],[146.13,47.48],[145.87,48.17],[146.3,49.57],[145.93,50.36],[146.4,52.73],[145.81,53.34],[145.88,54.02],[146.02,54.99],[147.01,55.28],[146.47,55.88],[147.01,55.91]]]}},{"type":"Feature","properties":{},"geometry":{"type":"Polygon","coordinates":[[[-99.18,35.85],[-99.09,35.3],[-100.27,35.78],[-99.18,35.85]]]}},{"type":"Feature","properties":{},"geometry":{"type":"Polygon","coordinates":[[[141.09,63.18],[141.71,63.11],[140.59,62.76],[141.09,63.18]]]}},{"type":"Feature","properties":{},"geometry":{"type":"Polygon","coordinates":[[[1.3,42.92],[2.3,43.22],[1.21,43.1],[2.07,43.78],[0.98,43.94],[1.5,44.34],[1.03,44.78],[2.35,44.77],[2.65,45.21],[2.09,45.25],[2.5,45.72],[4.31,45.79],[4.86,45.09],[2.98,43.43],[1.3,42.92]]]}},{"type":"Feature","properties":{},"geometry":{"type":"Polygon","coordinates":[[[2.58,42.45],[1.37,41.99],[1.63,42.28],[1.04,42.15],[1.54,42.42],[0.84,42.38],[1.37,42.69],[0.77,42.71],[4.26,44.27],[4.21,42.78],[2.58,42.45]]]}},{"type":"Feature","properties":{},"geometry":{"type":"Polygon","coordinates":[[[17.79,46.81],[18.12,46.31],[17.18,46.69],[17.79,46.81]]]}},{"type":"Feature","properties":{},"geometry":{"type":"Polygon","coordinates":[[[-76.28,46.74],[-76.53,46.01],[-76.49,46.47],[-76.93,46.34],[-76.28,46.74]]]}},{"type":"Feature","properties":{},"geometry":{"type":"Polygon","coordinates":[[[19.33,47.42],[19.22,46.27],[18.14,46.98],[19.14,46.97],[18.89,47.26],[19.33,47.42]]]}},{"type":"Feature","properties":{},"geometry":{"type":"Polygon","coordinates":[[[-81.17,31.43],[-80.32,30.46],[-80.73,30.38],[-80.25,30.26],[-80.33,29.68],[-81.06,30.34],[-81.17,31.43]]]}},{"type":"Feature","properties":{},"geometry":{"type":"Polygon","coordinates":[[[-24.45,48.03],[-24.55,47.29],[-24.24,47.77],[-24.64,47.26],[-24.43,47.64],[-25.23,47.36],[-24.45,48.03]]]}},{"type":"Feature","properties":{},"geometry":{"type":"Polygon","coordinates":[[[-81.51,32.05],[-81.19,31.68],[-81.55,31.11],[-81.51,32.05]]]}},{"type":"Feature","properties":{},"geometry":{"type":"Polygon","coordinates":[[[-81.24,32.18],[-80.77,31.95],[-80.89,31.5],[-81.24,32.18]]]}},{"type":"Feature","properties":{},"geometry":{"type":"Polygon","coordinates":[[[3.99,48.29],[4.53,47.86],[4.26,47.61],[3.62,48],[3.99,48.29]]]}},{"type":"Feature","properties":{},"geometry":{"type":"Polygon","coordinates":[[[24.22,49.61],[24.43,49.18],[23.88,48.61],[23.73,49.23],[24.22,49.61]]]}},{"type":"Feature","properties":{},"geometry":{"type":"Polygon","coordinates":[[[-81.9,30.02],[-81.81,29.08],[-82.49,29.77],[-81.9,30.02]]]}},{"type":"Feature","properties":{},"geometry":{"type":"Polygon","coordinates":[[[-81.7,33.46],[-81.18,32.55],[-81.72,32.16],[-81.7,33.46]]]}},{"type":"Feature","properties":{},"geometry":{"type":"Polygon","coordinates":[[[27.13,50.65],[27.77,50.55],[26.85,49.9],[26.55,50.47],[27.13,50.65]]]}},{"type":"Feature","properties":{},"geometry":{"type":"Polygon","coordinates":[[[6.3,49.3],[6.51,49.03],[5.5,48.54],[6.01,48.5],[5.06,47.32],[4.1,47.3],[4.76,47.71],[4.38,48.45],[4.98,48.43],[4.65,48.68],[4.98,49.24],[6.3,49.3]]]}},{"type":"Feature","properties":{},"geometry":{"type":"Polygon","coordinates":[[[5.93,48.26],[7.6,48.3],[7.1,47.24],[6.45,47.03],[7.07,46.94],[6.05,46.75],[7.47,46.6],[8.01,46],[5.24,45.28],[5.24,46.56],[5.56,46.55],[5.33,46.83],[4.89,46.46],[5.19,46.89],[4.52,45.9],[4.58,46.9],[5.93,48.26]]]}},{"type":"Feature","properties":{},"geometry":{"type":"Polygon","coordinates":[[[8.01,46],[8.3,45.3],[9.3,44.87],[9.53,44.36],[8.81,44.44],[9.55,44.24],[9.46,43.65],[10.88,43.55],[10.84,42.9],[9.86,42.22],[10.76,41.97],[4.86,40.64],[6.03,41.83],[7.06,41.88],[7.58,42.49],[6.77,42.04],[5.09,42.52],[6.2,43.2],[6.08,43.56],[5.5,43.42],[5.83,43.75],[7.14,43.99],[7.05,44.9],[6.69,44.76],[6.46,45.42],[8.01,46]]]}},{"type":"Feature","properties":{},"geometry":{"type":"Polygon","coordinates":[[[27.01,51.12],[27.46,50.91],[26.61,50.91],[27.01,51.12]]]}},{"type":"Feature","properties":{},"geometry":{"type":"Polygon","coordinates":[[[-12.21,52.16],[-12.13,51.78],[-12.58,52.11],[-12.21,52.16]]]}},{"type":"Feature","properties":{},"geometry":{"type":"Polygon","coordinates":[[[-23.2,53.72],[-23.73,52.97],[-23.94,53.42],[-23.2,53.72]]]}},{"type":"Feature","properties":{},"geometry":{"type":"Polygon","coordinates":[[[-25.18,54.56],[-25.04,54.25],[-26.58,53.84],[-26.24,54.51],[-25.18,54.56]]]}},{"type":"Feature","properties":{},"geometry":{"type":"Polygon","coordinates":[[[-35.7,84.47],[-50.05,84.31],[-47.95,84.48],[-48.58,84.7],[-38.94,84.85],[-35.36,84.48],[-35.7,84.47]]]}},{"type":"Feature","properties":{},"geometry":{"type":"Polygon","coordinates":[[[-29.38,83.6],[-30.61,83.63],[-28.64,83.76],[-29.38,83.6]]]}},{"type":"Feature","properties":{},"geometry":{"type":"Polygon","coordinates":[[[-26.6,57.69],[-26.44,56.96],[-26.02,57.17],[-24.35,56.05],[-24.66,55.5],[-23.33,55.14],[-24.13,54.89],[-25.15,55.22],[-25.43,55.78],[-27.6,54.93],[-27.59,55.59],[-28.78,55.58],[-27.82,55.96],[-27.22,57.34],[-26.6,57.69]]]}},{"type":"Feature","properties":{},"geometry":{"type":"Polygon","coordinates":[[[62.9,64.45],[63.19,64.24],[62.34,64.14],[62.9,64.45]]]}},{"type":"Feature","properties":{},"geometry":{"type":"Polygon","coordinates":[[[-17.64,58.98],[-17.06,58.7],[-18.03,58.96],[-17.64,58.98]]]}},{"type":"Feature","properties":{},"geometry":{"type":"Polygon","coordinates":[[[-18.73,59.36],[-18.15,59.13],[-18.51,58.42],[-19.89,58.35],[-19.57,59.18],[-18.73,59.36]]]}},{"type":"Feature","properties":{},"geometry":{"type":"Polygon","coordinates":[[[18.92,60.38],[19.05,59.95],[19.3,60.37],[19.61,60.04],[18.59,59.66],[18.92,60.38]]]}},{"type":"Feature","properties":{},"geometry":{"type":"Polygon","coordinates":[[[-7.58,79.68],[-16.8,81.02],[-18.39,81.42],[-17.99,81.59],[-18.77,81.93],[-18.09,82.01],[-20.03,82.32],[-21.97,82.25],[-18.77,81.6],[-26.49,81.49],[-33.98,82.11],[-32.1,82.39],[-32.86,82.62],[-29.57,82.53],[-31.87,82.82],[-25.44,82.83],[-29.61,83.32],[-26.39,83.75],[-31.09,83.99],[-27.79,84.05],[-28.98,84.17],[-28.12,84.25],[-17.62,83.89],[-15.15,83.23],[-6.45,83.11],[-7.18,82.9],[-5.99,82.68],[-7.81,82.23],[-3.94,82.36],[-3.14,82.6],[-4.21,82.91],[-3.54,83.06],[-2.06,82.77],[-7.04,79.58],[-7.58,79.68]]]}},{"type":"Feature","properties":{},"geometry":{"type":"Polygon","coordinates":[[[18.48,60.41],[18.77,60.08],[18.09,59.95],[18.48,60.41]]]}},{"type":"Feature","properties":{},"geometry":{"type":"Polygon","coordinates":[[[-19.18,60.53],[-18.86,60.44],[-19.4,60.24],[-19.18,60.53]]]}},{"type":"Feature","properties":{},"geometry":{"type":"Polygon","coordinates":[[[43.53,63.84],[44.17,63.64],[43.23,63.08],[42.61,63.39],[42.68,63.78],[43.53,63.84]]]}},{"type":"Feature","properties":{},"geometry":{"type":"Polygon","coordinates":[[[20.09,61.02],[20.46,60.75],[19.62,60.55],[20.09,61.02]]]}},{"type":"Feature","properties":{},"geometry":{"type":"Polygon","coordinates":[[[-33.38,62.52],[-32.31,61.45],[-33.56,61.2],[-35.38,61.93],[-33.38,62.52]]]}},{"type":"Feature","properties":{},"geometry":{"type":"Polygon","coordinates":[[[9.09,76.93],[8.31,77.32],[9.36,77.47],[10.37,76.96],[9.09,76.93]]]}},{"type":"Feature","properties":{},"geometry":{"type":"Polygon","coordinates":[[[20.98,61.7],[21.35,61.62],[20.68,61.51],[20.98,61.7]]]}},{"type":"Feature","properties":{},"geometry":{"type":"Polygon","coordinates":[[[-7.58,55.69],[-6.5,54.92],[-8.04,54.84],[-7.49,54.82],[-8.36,55.18],[-7.58,55.69]]]}},{"type":"Feature","properties":{},"geometry":{"type":"Polygon","coordinates":[[[49.66,66.02],[51.45,65.51],[49.37,65.72],[49.66,66.02]]]}},{"type":"Feature","properties":{},"geometry":{"type":"Polygon","coordinates":[[[8.99,55.61],[9.24,55.23],[7.59,55.01],[8.99,55.61]]]}},{"type":"Feature","properties":{},"geometry":{"type":"Polygon","coordinates":[[[44.1,66.08],[44.8,65.72],[43.8,65.93],[44.1,66.08]]]}},{"type":"Feature","properties":{},"geometry":{"type":"Polygon","coordinates":[[[-8.07,77.66],[-6.78,77.72],[-8.44,77.17],[-8.07,77.66]]]}},{"type":"Feature","properties":{},"geometry":{"type":"Polygon","coordinates":[[[-10.54,77.04],[-12.75,77.45],[-8.83,77.61],[-9.23,77.06],[-10.54,77.04]]]}},{"type":"Feature","properties":{},"geometry":{"type":"Polygon","coordinates":[[[138.53,79.84],[139.53,79.82],[137.75,79.74],[138.53,79.84]]]}},{"type":"Feature","properties":{},"geometry":{"type":"Polygon","coordinates":[[[-14.06,37.57],[-13.27,36.5],[-11.93,36],[-11.41,36.28],[-10.62,35.67],[-13.57,35.06],[-14.68,34.01],[-15.22,34.33],[-14.91,35.15],[-15.21,35.02],[-13.67,35.84],[-13.45,35.44],[-12.67,35.82],[-14.06,35.85],[-13.66,36.48],[-17.1,34.94],[-17.71,35.21],[-17.9,34.71],[-18.84,34.55],[-19.69,33.2],[-19.12,32.56],[-18.85,32.88],[-18.83,32.39],[-19.91,32.37],[-20.03,32.73],[-20.17,32.29],[-20.9,32.26],[-18.22,35.41],[-14.06,37.57]]]}},{"type":"Feature","properties":{},"geometry":{"type":"Polygon","coordinates":[[[-13.55,-23.73],[-16.1,-28.19],[-14.98,-26.29],[-15.75,-25.93],[-15.5,-26.27],[-16.32,-27.78],[-16.46,-29.2],[-17.58,-30.94],[-19.44,-31.47],[-21.14,-31.27],[-21.83,-30.69],[-21.63,-29.75],[-21.97,-29.98],[-21.81,-31.31],[-20.34,-31.99],[-20.17,-32.86],[-27.98,-31.48],[-29.72,-30.88],[-31.32,-28.34],[-35.13,-23.96],[-35.59,-22.1],[-35.38,-20.23],[-36.11,-17.76],[-29.33,-20.41],[-22.63,-22.39],[-13.55,-23.73]]]}},{"type":"Feature","properties":{},"geometry":{"type":"Polygon","coordinates":[[[-24.05,-34.96],[-24.63,-34.82],[-24.12,-35.38],[-24.42,-35.34],[-24.1,-36.94],[-26.66,-37.27],[-26.26,-38.48],[-25.65,-38.75],[-25.09,-38.28],[-24.79,-38.94],[-26.07,-39.04],[-25.36,-39.25],[-26.12,-40.05],[-25.94,-41.34],[-27.21,-41.93],[-27.54,-42.81],[-26.5,-43.56],[-25.48,-43.59],[-25.28,-44.32],[-27.42,-47.36],[-27.15,-48.48],[-26.14,-48.99],[-28.25,-49.74],[-28.13,-50.93],[-29.43,-50.63],[-28.75,-50.63],[-28.41,-49.94],[-28.94,-49.68],[-30.15,-49.85],[-30.02,-50.34],[-30.48,-50.41],[-30.15,-49.87],[-30.86,-50.19],[-31.15,-49.52],[-30.25,-49.62],[-30.28,-49.29],[-29.97,-49.5],[-30.27,-49.8],[-29.88,-49.75],[-30.06,-49.07],[-30.84,-48.64],[-30.14,-49.04],[-30.9,-49],[-30.44,-49.22],[-30.65,-49.5],[-30.97,-49.08],[-30.69,-49.59],[-31.46,-49.15],[-31.37,-48.69],[-32.01,-48.51],[-31.32,-48.15],[-31.6,-47.89],[-31.85,-48.41],[-32,-47.95],[-32.71,-47.89],[-31.89,-47.85],[-32.57,-47.28],[-31.93,-47.26],[-32.48,-46.69],[-32.74,-47.06],[-32.97,-46.49],[-32.64,-46.37],[-33,-46.29],[-32.58,-46.03],[-33.44,-45.76],[-32.14,-45.56],[-32.73,-45.17],[-33.6,-45.49],[-33.11,-45.27],[-33.51,-45.16],[-33.15,-44.83],[-33.5,-44.47],[-34.83,-44.72],[-34.23,-43.63],[-33.63,-43.53],[-33.15,-44.24],[-32.8,-43.24],[-33.15,-43.42],[-33.18,-43.07],[-32.54,-42.95],[-33.29,-42.83],[-32.62,-42.01],[-33.39,-41.79],[-33.13,-40.11],[-33.5,-39.9],[-33.03,-40.02],[-33.65,-39.53],[-33.2,-39.04],[-34.52,-39.5],[-34.95,-37.8],[-34.62,-37.11],[-35.6,-35.18],[-35.15,-34.88],[-34.51,-31.12],[-35.41,-26.64],[-35.16,-22.7],[-31.37,-27.06],[-28.22,-31.91],[-24.05,-34.96]]]}},{"type":"Feature","properties":{},"geometry":{"type":"Polygon","coordinates":[[[-37.7,11.96],[-35.72,12.26],[-34.5,11.8],[-33.11,12.42],[-33.75,12.52],[-31.36,12.9],[-32.38,12.54],[-31.72,11.91],[-30.21,11.74],[-30.21,10.84],[-29.28,10.97],[-27.78,10.17],[-27.58,8.99],[-27.32,9.5],[-26.04,8.57],[-23.96,9],[-21.79,8.7],[-19.94,7.56],[-19.38,5.97],[-18.28,5.02],[-19.58,2.96],[-18.95,3.52],[-19.22,2.81],[-18.64,3.46],[-16.58,3.48],[-16.93,2.28],[-18.43,1.63],[-17.34,1.98],[-17.39,1.52],[-16.41,2.31],[-16.09,3.28],[-15,3.24],[-13.45,2.79],[-13.42,2.36],[-12.98,2.73],[-12.69,2.44],[-12.79,1.91],[-12.38,1.88],[-12.7,0.87],[-12.31,1.73],[-12.18,1.38],[-11.41,1.99],[-10.21,1.62],[-7.96,1.81],[-4.97,-0.01],[-3.04,-0.37],[-2.39,-2.85],[-5.08,-7.69],[-5.56,-8.17],[-5.78,-7.8],[-5.69,-12.88],[-7.04,-17.36],[-7.92,-18.44],[-10.23,-18.62],[-13.6,-21.52],[-14.12,-21.48],[-13.72,-21.64],[-14.12,-22.27],[-13.78,-22.3],[-13.68,-24.21],[-22.73,-22.59],[-29.36,-20.41],[-36.03,-17.55],[-37.41,-16.09],[-42.13,-14.04],[-45.97,-8.09],[-47.17,-6.72],[-48.38,-6.18],[-48.18,-5.63],[-48.74,-4.42],[-47.67,-3.42],[-47.44,-2.54],[-47.71,-2.32],[-47.95,-2.78],[-48.77,-2.33],[-48.23,0.71],[-47.21,1.26],[-46.97,2.21],[-42.78,4.79],[-41.69,8.37],[-38.95,11.5],[-37.7,11.96]]]}},{"type":"Feature","properties":{},"geometry":{"type":"Polygon","coordinates":[[[-47.42,7.94],[-46.56,7.21],[-46.79,7.83],[-45.56,8.8],[-45.33,10.22],[-43.4,10.88],[-41.9,12.2],[-41.32,11.84],[-42.12,11.27],[-41.66,10.45],[-42.12,9.52],[-41.63,8.79],[-41.01,9.52],[-41.67,10.55],[-40.2,11.32],[-40.24,12.08],[-39.77,11.38],[-38.34,10.93],[-39.57,10.23],[-42.42,7.2],[-43.63,3.66],[-47.92,1.24],[-46.44,3.2],[-46.99,3.45],[-47,5.81],[-47.84,6.62],[-47.42,7.94]]]}},{"type":"Feature","properties":{},"geometry":{"type":"Polygon","coordinates":[[[-20.53,-32.1],[-19.87,-32.72],[-20.41,-34.03],[-24.2,-35.56],[-28.02,-32.95],[-30.04,-30.26],[-20.53,-32.1]]]}},{"type":"Feature","properties":{},"geometry":{"type":"Polygon","coordinates":[[[-68.1,32.18],[-67.73,32.11],[-67.78,32.67],[-68.5,32.67],[-69.37,35.09],[-68.24,35.66],[-66.72,34.77],[-64.84,31.59],[-64.47,30.16],[-64.84,29.07],[-68.1,32.18]]]}},{"type":"Feature","properties":{},"geometry":{"type":"Polygon","coordinates":[[[-69.37,35.09],[-68.87,36.29],[-69.11,37.63],[-67.98,40.93],[-67.5,40.91],[-68.03,40.97],[-67.95,41.61],[-67.54,41.62],[-67.98,41.64],[-68.18,43.13],[-66.46,42.69],[-66.98,41.96],[-66.37,42.49],[-66.35,42.04],[-66.82,41.59],[-66.09,41.98],[-66.29,43.34],[-65.4,43.64],[-65.37,42.21],[-63.71,41.97],[-62.84,40.76],[-60.81,40.4],[-61.53,38.76],[-65.9,37.13],[-69.37,35.09]]]}},{"type":"Feature","properties":{},"geometry":{"type":"Polygon","coordinates":[[[-74.26,23.5],[-74.56,23.77],[-73.98,23.83],[-74.26,23.5]]]}},{"type":"Feature","properties":{},"geometry":{"type":"Polygon","coordinates":[[[-73.64,24.29],[-74.55,23.91],[-74.68,24.76],[-74.64,24.3],[-75.12,24.22],[-74.98,24.92],[-75.34,24.47],[-75.74,24.8],[-75.36,25.23],[-75.91,25.08],[-75.36,25.7],[-75.78,25.97],[-75.96,25.15],[-76.74,25.29],[-76.23,25.83],[-76.66,25.43],[-76.66,25.99],[-77.5,25.72],[-76.97,25.98],[-77.74,26.13],[-76.94,26.62],[-77.73,26.33],[-77.77,26.72],[-77.24,27.1],[-76.93,26.74],[-77.11,27.1],[-76.66,27.2],[-77.29,27.32],[-76.82,27.35],[-74.33,25.52],[-73.64,24.29]]]}},{"type":"Feature","properties":{},"geometry":{"type":"Polygon","coordinates":[[[-77.12,27.48],[-78.07,27.1],[-77.72,27.57],[-78.15,27.9],[-77.12,27.48]]]}},{"type":"Feature","properties":{},"geometry":{"type":"Polygon","coordinates":[[[-62.21,30.2],[-62.39,29.67],[-64.56,29.52],[-64.55,30.87],[-66.31,34.22],[-68.24,35.66],[-65.9,37.13],[-61.53,38.76],[-60.81,40.4],[-60.2,40.35],[-59.43,40.07],[-62.21,30.2]]]}},{"type":"Feature","properties":{},"geometry":{"type":"Polygon","coordinates":[[[-62.32,30.11],[-62.22,29.44],[-62.78,29.57],[-63.87,30.84],[-64.9,31.17],[-61.8,41.55],[-59.97,41.04],[-60.31,39.73],[-58.42,38.32],[-60,34.64],[-61.63,32.96],[-62.32,30.11]]]}},{"type":"Feature","properties":{},"geometry":{"type":"Polygon","coordinates":[[[-58.61,27.19],[-61.3,27.91],[-62.22,29.16],[-63.65,29.99],[-62.82,33.48],[-61.07,35.07],[-59.43,37.72],[-59.2,38.67],[-60.97,40.17],[-60.52,41.46],[-59.48,41.51],[-57.22,37.38],[-56.48,34.65],[-56.61,31.32],[-58.33,29.04],[-58.61,27.19]]]}},{"type":"Feature","properties":{},"geometry":{"type":"Polygon","coordinates":[[[-45.3,9.02],[-46.34,9.89],[-47.81,9.39],[-49.26,9.96],[-55.45,14.57],[-55.93,15.78],[-55.47,15.86],[-55.22,16.71],[-55.57,18.03],[-57.15,20.81],[-58.14,21.52],[-57.97,22.45],[-59.8,24.8],[-60.54,27.28],[-57.83,24.17],[-56.29,23.08],[-52.29,20.53],[-49.6,19.89],[-48.13,13.46],[-47.7,12.52],[-44.36,9.18],[-45.3,9.02]]]}},{"type":"Feature","properties":{},"geometry":{"type":"Polygon","coordinates":[[[-45.85,16.54],[-43.76,15.58],[-41.63,17.23],[-41.08,17.2],[-38.47,15.9],[-40.14,14.85],[-39.93,14.61],[-40.99,13.64],[-40.82,14.29],[-41.37,14.04],[-41.94,12.73],[-43.15,12.15],[-42.96,11.91],[-45.92,13.51],[-46.5,15.61],[-45.85,16.54]]]}},{"type":"Feature","properties":{},"geometry":{"type":"Polygon","coordinates":[[[-59.21,25.33],[-59.26,23.49],[-56.98,19.81],[-56.49,17.36],[-55.42,16.32],[-55.91,15.8],[-57.84,18.05],[-57.61,18.9],[-58.44,20.29],[-58.91,20.09],[-60.06,21.28],[-59.07,21.05],[-59.04,21.92],[-60.36,23.36],[-61.3,26.95],[-62.23,27.98],[-64.07,28.79],[-65.19,32],[-62.9,29.29],[-60.61,27.8],[-59.21,25.33]]]}},{"type":"Feature","properties":{},"geometry":{"type":"Polygon","coordinates":[[[-59.94,26.54],[-59.79,26.98],[-61.36,27.94],[-62.72,30.44],[-64.25,31.42],[-63.92,31.85],[-63.14,32.15],[-61.16,31.72],[-59.71,30.12],[-57.74,29.11],[-56.84,27.85],[-54.17,27.09],[-52.5,25.95],[-51.92,24.9],[-51.89,20.6],[-57.08,23.56],[-59.94,26.54]]]}},{"type":"Feature","properties":{},"geometry":{"type":"Polygon","coordinates":[[[-57.09,80.7],[-56.57,81.1],[-57.47,81.52],[-55.12,81.44],[-56.43,81.6],[-52.61,82.2],[-39.47,82.11],[-43.94,80.47],[-47.24,80.69],[-50.94,79.81],[-57.09,80.7]]]}},{"type":"Feature","properties":{},"geometry":{"type":"Polygon","coordinates":[[[-50.67,79.75],[-45.93,79.79],[-49.43,79.64],[-47.2,79.4],[-43.23,79.89],[-33.85,79.52],[-34.5,79.34],[-33.59,78.93],[-37.03,78.3],[-35.98,77.06],[-37.33,76.67],[-37.79,75.97],[-39.24,75.69],[-39.17,74.98],[-41.34,75.34],[-41.83,75.13],[-41.1,74.85],[-46.45,74.37],[-47.14,73.8],[-51.42,72.74],[-51.75,72.13],[-57.33,70.42],[-60.23,71.1],[-62.58,73.36],[-62.72,73.81],[-62.19,74.08],[-58.66,74.95],[-54.23,77.52],[-49.14,78.84],[-50.67,79.75]]]}},{"type":"Feature","properties":{},"geometry":{"type":"Polygon","coordinates":[[[-22.5,31.56],[-23.44,30.12],[-24.05,30.84],[-23.66,29.64],[-24.62,28.39],[-24.25,29.22],[-24.81,30.15],[-24.33,30.84],[-24.98,30.58],[-24.85,29.34],[-25.7,29.83],[-24.8,29.17],[-25.38,29.32],[-24.96,28.31],[-25.51,28.58],[-24.69,28.21],[-24.4,27.04],[-24.69,27.99],[-24.6,27.34],[-25.46,27.3],[-24.59,26.89],[-25.7,26.81],[-25.31,26.59],[-25.79,26.37],[-25.22,26.21],[-29.62,24.2],[-30.37,22.9],[-29.53,18.48],[-30.1,16.89],[-30.75,16.95],[-31.22,17.76],[-31.15,18.57],[-31.45,18.43],[-31.94,19.41],[-31.61,19.85],[-32.04,19.82],[-31.68,20.81],[-32.98,22.28],[-34.15,21.85],[-34.27,22.52],[-35.13,22.7],[-34.82,22.77],[-36.55,22.69],[-36.44,23.27],[-36.64,22.79],[-37.71,22.91],[-40.01,24.07],[-32.42,25.29],[-29.42,26.97],[-25.49,30.3],[-22.5,31.56]]]}},{"type":"Feature","properties":{},"geometry":{"type":"Polygon","coordinates":[[[-51.8,11.16],[-48.82,9.2],[-47.96,7.32],[-50.82,4.41],[-52.33,4.31],[-52.51,4.86],[-52.65,4.26],[-52.89,5.18],[-52.31,5.63],[-52.78,8.29],[-52.4,8.09],[-52.24,8.53],[-53.23,8.95],[-55.01,11.33],[-55.65,14.07],[-54.72,13.77],[-53.96,12.6],[-51.8,11.16]]]}},{"type":"Feature","properties":{},"geometry":{"type":"Polygon","coordinates":[[[-28.72,61.68],[-29.35,61.57],[-28.89,61.02],[-29.3,60.49],[-27.65,61.24],[-27.16,60.65],[-27.85,59.96],[-27.45,59],[-25.53,60.44],[-24.58,60.63],[-25.14,60.95],[-24.92,61.54],[-22.7,61.08],[-23.45,61.05],[-22.23,60.46],[-22.88,60.32],[-22.4,60.02],[-23.5,59.93],[-22.85,58.86],[-23.22,58.43],[-24.85,57.94],[-25.04,58.54],[-26.01,58.61],[-25.52,58.61],[-25.27,57.78],[-27.29,58.41],[-26.79,57.96],[-28.23,57.27],[-29.82,58.15],[-31.08,58.28],[-28.02,57.16],[-29.21,56.21],[-30.69,56.43],[-31.53,55.76],[-33.95,56.61],[-32.25,56.12],[-31.61,55.48],[-34.6,54.64],[-34.22,54.35],[-35.19,54.14],[-34.79,54.02],[-36.13,52.79],[-36.6,51.92],[-35.2,51.43],[-35.03,49.98],[-35.41,49.59],[-33.58,49.66],[-29.57,47.18],[-27.31,46.83],[-27.74,44.64],[-26.47,42.88],[-25.98,42.67],[-25.48,43.12],[-25.19,42.59],[-25.23,43.2],[-24.64,43.74],[-24.74,45.39],[-25.28,46.09],[-23.51,46.56],[-22.27,47.62],[-22.32,49.24],[-23.47,50.01],[-22.09,51.2],[-22.41,51.63],[-22.09,52.07],[-22.67,52.06],[-21.9,52.74],[-22.26,53.51],[-21.58,53.78],[-19.47,53.1],[-18.73,53.43],[-17.84,52.43],[-17.27,52.43],[-17.42,51.98],[-15.79,51.77],[-16.07,50.79],[-17.15,50.87],[-16.16,50.69],[-16.31,50.04],[-15.83,49.75],[-16.94,49.42],[-15.6,49.6],[-15.19,49.19],[-16.29,48.45],[-15.05,49.22],[-14.91,48.54],[-13.71,49.41],[-13.51,48.84],[-13.4,49.45],[-12.82,49.54],[-13.15,49.79],[-12.57,49.88],[-12.92,50.25],[-11.94,50.7],[-12.22,50.49],[-11.27,49.6],[-11.85,49.46],[-10.94,49.09],[-11.58,48.71],[-10.74,48.86],[-11.42,48.38],[-10.69,48.54],[-10.89,48.31],[-10.3,47.98],[-10.84,47.88],[-9.94,47.43],[-10.25,46.96],[-10.96,47.16],[-9.53,45.85],[-9.22,46.07],[-9.59,45.3],[-8.81,45.62],[-8.54,45.43],[-8.99,45.03],[-8.31,45.49],[-8.33,45.08],[-6.89,44.78],[-9.81,43.56],[-7.02,44.4],[-6.95,43.66],[-5.84,43.71],[-5.75,43],[-6.08,43.01],[-5.72,42.79],[-6.38,42.78],[-5.64,42.37],[-6.81,41.61],[-8.27,41.71],[-8.56,41],[-9.57,40.49],[-14.86,40.85],[-15.73,39.96],[-17.24,39.51],[-19.3,37.73],[-16.51,39.33],[-14.8,39.77],[-13.08,39.22],[-13.47,39.33],[-13.15,38.98],[-14.07,38.54],[-15.38,38.6],[-13.61,38.23],[-14.06,37.57],[-18.22,35.41],[-20.9,32.26],[-22.13,32.08],[-25.49,30.3],[-29.42,26.97],[-32.42,25.29],[-37.54,24.22],[-43.08,24.32],[-48.6,21.8],[-48.65,19.67],[-51.37,20.18],[-52.05,21.67],[-52.13,25.49],[-53.92,26.82],[-54.21,27.54],[-53.86,28.93],[-51.98,31.71],[-52.28,36.3],[-54.41,40.24],[-56.95,47.98],[-60.66,51.48],[-61.4,52.75],[-62.43,56.8],[-61.05,58.11],[-60.66,60.53],[-62.38,62.01],[-65.26,63.51],[-64.91,65.46],[-63.88,66.38],[-64.44,66.97],[-63.21,66.52],[-63.16,67.14],[-61.35,67.36],[-60.95,67.09],[-61.64,66.91],[-56.9,67.11],[-59.88,66.55],[-58.76,66.73],[-59.16,66.24],[-58.07,66.7],[-55.08,66.7],[-55.61,66.88],[-55.26,67.15],[-54.62,65.63],[-53,66.31],[-53.77,65.5],[-51.26,65.55],[-49.05,64.27],[-46.97,63.77],[-46.53,63.19],[-48.34,62.98],[-47.98,62.78],[-43.91,62.32],[-42.82,61.38],[-43.41,61.33],[-42.85,60.39],[-43.03,60.87],[-42.25,61.14],[-42.54,61.86],[-40.14,62.37],[-42.79,62.41],[-40.31,62.72],[-39.51,61.48],[-38.83,61.68],[-38.16,61.06],[-35.37,60.71],[-35.16,61.38],[-34.5,61.45],[-33.52,61.06],[-33.94,60.8],[-33.16,60.98],[-34.05,60.24],[-33.36,59.83],[-32.99,60.72],[-31.1,61.06],[-31.43,61.07],[-31.2,61.52],[-31.98,61.29],[-30.74,61.94],[-32.5,62.8],[-31.59,63.29],[-32.12,63.44],[-31.71,63.89],[-29.99,64.27],[-30.33,64.41],[-29.45,64.09],[-29.58,63.15],[-28.93,62.38],[-30.28,62.03],[-28.72,61.68]]]}},{"type":"Feature","properties":{},"geometry":{"type":"Polygon","coordinates":[[[-81.37,30.27],[-81.59,29.81],[-81.93,30.15],[-81.58,30.56],[-82.19,31.02],[-81.95,30.3],[-82.42,30.16],[-82.95,33.32],[-84.2,34.72],[-85.82,35.88],[-87.47,36.07],[-87.04,36.33],[-90.57,36],[-91.1,35.67],[-90.76,35.27],[-91.78,34.99],[-95.22,35.03],[-95.58,34.67],[-97.58,35.17],[-97.55,35.49],[-99.13,35.57],[-97.45,35.78],[-96.72,35.13],[-96.38,35.57],[-94,35.57],[-92.51,36.5],[-93.44,36.64],[-93.2,37.08],[-93.97,36.7],[-94.25,37.61],[-90.9,38.5],[-85.82,37.88],[-84.54,37.37],[-82.4,35.4],[-81.37,30.27]]]}},{"type":"Feature","properties":{},"geometry":{"type":"Polygon","coordinates":[[[-89.41,35.54],[-88.48,36.21],[-87.75,36.17],[-89.41,35.54]]]}},{"type":"Feature","properties":{},"geometry":{"type":"Polygon","coordinates":[[[-70.58,38.96],[-70.2,39.12],[-70.58,38.98],[-71.06,40.68],[-73.93,43.22],[-75.26,43.83],[-74.25,43.49],[-75.11,44.12],[-74.68,44.75],[-75.54,44.03],[-76.06,44.65],[-75.25,44.91],[-76.22,45.11],[-74.99,45.73],[-75.63,45.67],[-75.27,46.25],[-75.72,45.67],[-75.31,46.57],[-76.27,45.53],[-75.98,46.64],[-76.77,46.83],[-77.06,46.43],[-76.36,47.06],[-77.59,48.34],[-77.2,48.36],[-77.52,48.79],[-77.01,48.48],[-77.59,49.03],[-77.14,49.16],[-77.7,49.18],[-77.24,49.6],[-78.12,49.59],[-78.12,50.73],[-78.33,49.96],[-78.98,51.64],[-81.37,54.82],[-76.89,54.01],[-75.78,53.32],[-75.68,51.32],[-74.1,49.47],[-71.95,48.44],[-68.59,40.88],[-69.06,37.26],[-70.61,37.52],[-70.58,38.96]]]}},{"type":"Feature","properties":{},"geometry":{"type":"Polygon","coordinates":[[[-68.4,54.69],[-67.34,53.02],[-67.16,49.53],[-68.61,50.71],[-69.31,52.76],[-68.4,54.69]]]}},{"type":"Feature","properties":{},"geometry":{"type":"Polygon","coordinates":[[[-70.91,64.74],[-70.7,63.19],[-67.96,61.99],[-66.15,60.53],[-66.4,58.11],[-67.72,56.78],[-66.71,53.33],[-65.72,51.49],[-61.89,48.04],[-59.48,41.51],[-65.29,42.74],[-66.22,43.33],[-66.53,44.2],[-65.76,47.18],[-65.89,48.46],[-67.01,50.14],[-67.66,52.92],[-70.06,57.64],[-71.06,59],[-73.68,61.06],[-81.75,65.72],[-80.03,66.19],[-72.51,66.21],[-70.4,66.92],[-69.8,66.33],[-70.91,64.74]]]}},{"type":"Feature","properties":{},"geometry":{"type":"Polygon","coordinates":[[[10.24,57.66],[11.01,57.34],[9.5,57.54],[10.24,57.66]]]}},{"type":"Feature","properties":{},"geometry":{"type":"Polygon","coordinates":[[[61.88,71.19],[62.66,70.9],[61.76,70.86],[61.88,71.19]]]}},{"type":"Feature","properties":{},"geometry":{"type":"Polygon","coordinates":[[[-42.25,67.84],[-42.47,67.27],[-43.19,67.11],[-41.67,67.33],[-40.67,66.84],[-41.45,66.49],[-39.92,66.45],[-39.67,66.67],[-40.1,67.01],[-39.39,66.85],[-39.03,66.45],[-39.39,65.41],[-38.73,65.63],[-38.2,66.91],[-36.93,66.76],[-36.59,66.22],[-37.54,64.53],[-35.66,63.34],[-35.83,62.95],[-37.82,63.15],[-38,62.54],[-37.07,62.83],[-36.89,62.43],[-38,62.22],[-39.59,62.56],[-39.28,62.71],[-40.32,62.97],[-40.23,63.3],[-42.59,62.87],[-45.99,63.16],[-45.51,63.83],[-47.71,64.53],[-47.82,65.12],[-47.34,65.19],[-43.12,64.62],[-44.52,65.33],[-47.38,65.72],[-47.58,66.18],[-44.59,66.23],[-47.32,66.78],[-46.02,67.56],[-42.25,67.84]]]}},{"type":"Feature","properties":{},"geometry":{"type":"Polygon","coordinates":[[[43.82,68.2],[45.05,68.14],[44.53,67.84],[45.03,67.93],[44.62,67.71],[45.02,67.47],[44.6,67.46],[45.33,66.85],[48.28,65.91],[45.22,65.62],[44.92,65.89],[45.45,66],[44.49,66.32],[43.12,66.09],[42.61,66.57],[43.25,66.66],[43.33,67.23],[42.86,67.21],[43.54,67.35],[42.54,67.41],[43.82,68.2]]]}},{"type":"Feature","properties":{},"geometry":{"type":"Polygon","coordinates":[[[9.35,58.01],[10.41,57.76],[8.85,57.76],[9.35,58.01]]]}},{"type":"Feature","properties":{},"geometry":{"type":"Polygon","coordinates":[[[55.51,70.21],[55.95,70.16],[54.85,69.8],[54.41,70.11],[55.51,70.21]]]}},{"type":"Feature","properties":{},"geometry":{"type":"Polygon","coordinates":[[[-35.54,67.11],[-35.29,66.83],[-36.47,66.28],[-37.07,67.04],[-35.54,67.11]]]}},{"type":"Feature","properties":{},"geometry":{"type":"Polygon","coordinates":[[[-19.44,64.97],[-17.48,64.51],[-17.05,63.81],[-19.41,63.92],[-19.96,64.58],[-19.44,64.97]]]}},{"type":"Feature","properties":{},"geometry":{"type":"Polygon","coordinates":[[[-18.46,55.63],[-20.56,55.31],[-21.64,55.93],[-20.68,56.63],[-17.82,56.35],[-18.36,57.11],[-16.37,58.07],[-16.79,59.22],[-17.32,59.3],[-17.02,59.54],[-18.19,60],[-19.12,59.75],[-18.2,60.21],[-18.83,60.61],[-18.45,60.68],[-19.17,60.72],[-18.87,61.06],[-19.43,60.85],[-19.28,61.3],[-19.96,61.88],[-20.54,61.59],[-20.11,61.5],[-20.2,61.07],[-22.14,61.51],[-21.74,61.05],[-22.94,61.79],[-22.19,61.33],[-25.03,61.71],[-25.43,62],[-25.16,62.26],[-26.39,62.12],[-27.03,63.07],[-25.32,62.77],[-27.11,63.36],[-26.47,64.38],[-24.39,65.4],[-22.34,65.3],[-24.17,64.39],[-24.35,63.7],[-23.69,62.86],[-25.2,62.75],[-23.94,62.52],[-23.24,63.19],[-24.1,63.68],[-22.91,63.66],[-23.5,64.06],[-23.36,64.5],[-20.17,65],[-19.85,63.95],[-20.76,63.17],[-19.68,63.69],[-19.23,63.41],[-19.54,63.12],[-18.67,62.82],[-19.21,63.37],[-18.37,63.27],[-18.86,63.61],[-18.1,63.8],[-16.66,63.4],[-17.59,62.67],[-16.15,62.82],[-17.09,62.62],[-16.61,62.54],[-17.09,62.09],[-15.88,62.6],[-16.5,62.27],[-15.95,62.4],[-16.34,61.9],[-15.24,62.42],[-14.42,61.96],[-15.6,61.39],[-14.13,61.74],[-15.27,61.17],[-14.68,61.25],[-15.1,60.76],[-13.69,61.52],[-14.33,61.14],[-13.42,61.41],[-12.71,61.08],[-14.43,60.52],[-13.06,60.75],[-14.15,60.27],[-12.68,60.88],[-12.14,60.46],[-14.22,60.2],[-11.93,59.77],[-13.56,59.97],[-12.93,59.79],[-13.65,59.59],[-13.03,59.72],[-12.72,59.57],[-13.32,59.49],[-12.82,59.34],[-13.97,59.45],[-12.13,58.95],[-13.03,58.83],[-11.95,58.62],[-12.08,58.27],[-11.71,58.51],[-11.88,58.08],[-10.86,58.41],[-11.28,58.09],[-10.74,58.23],[-10.44,57.74],[-11.03,57.8],[-10.46,57.66],[-11.04,57.44],[-9.82,57.69],[-10.46,57.21],[-9.11,57.38],[-8.63,56.92],[-9.86,56.69],[-9.21,56.33],[-10.01,56.48],[-9.51,56.14],[-9.9,56.27],[-9.82,55.93],[-10.39,56.32],[-10.59,55.28],[-11.88,56.21],[-10.91,56.77],[-12.11,56.43],[-11.73,56.85],[-12.16,56.6],[-13.47,57.21],[-12.92,56.98],[-13.53,57.09],[-13.02,56.57],[-13.91,56.68],[-13.55,56.36],[-13.87,56.03],[-13.22,56.22],[-12.98,55.25],[-12.84,55.56],[-12.7,55.12],[-12.35,55.39],[-11.79,54.94],[-12.29,54.79],[-11.53,54.42],[-11.59,53.69],[-12.08,54.27],[-11.71,53.35],[-12.19,53.51],[-12.2,53.04],[-13.07,53.94],[-13.16,53.54],[-14.04,54.37],[-13.91,53.98],[-14.87,54.41],[-12.8,52.72],[-12.9,52.39],[-16.85,53.85],[-17.31,54.28],[-16.58,54.37],[-17.61,54.7],[-17.89,55.55],[-18.6,55.28],[-18.46,55.63]]]}},{"type":"Feature","properties":{},"geometry":{"type":"Polygon","coordinates":[[[142.65,82.44],[146.68,81.94],[138.91,81.78],[142.65,82.44]]]}},{"type":"Feature","properties":{},"geometry":{"type":"Polygon","coordinates":[[[-31.84,66.71],[-30.14,66.27],[-31.78,65.72],[-30.67,65.3],[-31.27,64.48],[-32.49,64.67],[-33.25,64.13],[-34.84,65.81],[-34.22,66.18],[-33.75,65.68],[-32.88,65.76],[-32.65,66.23],[-33.44,66.49],[-31.84,66.71]]]}},{"type":"Feature","properties":{},"geometry":{"type":"Polygon","coordinates":[[[-27.54,66.36],[-25.61,65.81],[-27.68,64.88],[-29.16,65.1],[-28.82,64.71],[-30.33,64.43],[-29.38,66.1],[-27.54,66.36]]]}},{"type":"Feature","properties":{},"geometry":{"type":"Polygon","coordinates":[[[139.45,82.4],[137.67,82.56],[139.82,82.48],[139.45,82.4]]]}},{"type":"Feature","properties":{},"geometry":{"type":"Polygon","coordinates":[[[87.23,77.64],[88.81,77.34],[86.7,77.58],[87.23,77.64]]]}},{"type":"Feature","properties":{},"geometry":{"type":"Polygon","coordinates":[[[-45.45,69.75],[-44.95,69.14],[-44.35,69.16],[-44.64,68.98],[-43.18,68.96],[-42.66,68.03],[-50.74,66.86],[-51.3,67.95],[-52.09,68.11],[-48.16,69.37],[-48.04,70.02],[-45.45,69.75]]]}},{"type":"Feature","properties":{},"geometry":{"type":"Polygon","coordinates":[[[12.74,60.01],[12.91,59.63],[12.24,59.7],[12.74,60.01]]]}},{"type":"Feature","properties":{},"geometry":{"type":"Polygon","coordinates":[[[-27.84,68.2],[-28.12,68.42],[-27.14,68.39],[-27.84,68.2]]]}},{"type":"Feature","properties":{},"geometry":{"type":"Polygon","coordinates":[[[149.18,84.21],[159.42,84.26],[153.39,83.77],[147.44,84.05],[147.06,84.43],[149.18,84.21]]]}},{"type":"Feature","properties":{},"geometry":{"type":"Polygon","coordinates":[[[-22.18,67.07],[-22.14,66.6],[-22.97,66.16],[-24.15,66.78],[-22.18,67.07]]]}},{"type":"Feature","properties":{},"geometry":{"type":"Polygon","coordinates":[[[-32.44,71.32],[-34.23,71.45],[-32.11,71.37],[-32.44,71.32]]]}},{"type":"Feature","properties":{},"geometry":{"type":"Polygon","coordinates":[[[127.95,84.25],[133.31,83.94],[134.51,83.97],[132.64,84.35],[144.79,84.26],[143.75,84.15],[144.52,84.01],[143.92,83.76],[141.91,83.68],[142.47,83.54],[133.98,83.16],[134.62,83.12],[134.29,82.86],[127.78,83.17],[125.85,83.82],[127.95,84.25]]]}},{"type":"Feature","properties":{},"geometry":{"type":"Polygon","coordinates":[[[68.03,76.3],[68.88,76.3],[67.68,76.18],[68.03,76.3]]]}},{"type":"Feature","properties":{},"geometry":{"type":"Polygon","coordinates":[[[-24.71,69.37],[-24.66,69.02],[-25.53,69.17],[-24.71,69.37]]]}},{"type":"Feature","properties":{},"geometry":{"type":"Polygon","coordinates":[[[-22.13,68.47],[-24.8,67.14],[-26.01,67.54],[-24.58,67.92],[-26.3,68.28],[-25.16,68.23],[-24.14,68.84],[-24.24,68.12],[-23.52,68.23],[-23.91,68.44],[-23.64,68.73],[-22.13,68.47]]]}},{"type":"Feature","properties":{},"geometry":{"type":"Polygon","coordinates":[[[-26.44,70.23],[-28.33,69.44],[-27.12,69.37],[-26.99,69.02],[-28.82,68.55],[-33.56,69.35],[-33.86,69.88],[-30.9,69.58],[-32.81,70.03],[-32,70.32],[-33.58,70.18],[-33.23,70.34],[-33.9,70.31],[-33.69,70.56],[-34.26,70.88],[-31.99,70.67],[-33.25,71.01],[-31.36,70.74],[-32.24,71.12],[-29.91,71.16],[-30.25,70.78],[-29.58,70.49],[-30.46,69.83],[-29.44,69.39],[-28.26,70.24],[-26.44,70.23]]]}},{"type":"Feature","properties":{},"geometry":{"type":"Polygon","coordinates":[[[47,72.91],[48.36,72.83],[48.67,72.34],[45.54,70.68],[45.12,70.22],[45.67,70.04],[45.02,69.99],[45.53,69.83],[44.85,69.88],[45.3,69.62],[44.51,69.64],[45.27,69.39],[44.39,69.07],[45.16,68.8],[44.2,68.82],[45.25,68.69],[44.25,68.67],[45.07,68.26],[43.18,68.02],[43.19,68.39],[44.08,68.53],[42.32,68.35],[43.11,68.66],[42.8,68.89],[43.89,68.91],[42.76,68.97],[43.23,69.33],[42.69,69.46],[43.48,69.59],[42.13,69.88],[43.25,70.26],[42.87,70.59],[44.18,71.19],[43.95,71.47],[46.73,72.28],[46.34,72.38],[47,72.91]]]}},{"type":"Feature","properties":{},"geometry":{"type":"Polygon","coordinates":[[[-20.14,68.31],[-19.52,67.92],[-20.34,67.51],[-18.86,67.41],[-18.76,67.1],[-19.27,67.28],[-18.48,66.79],[-19.62,66.99],[-19.21,66.36],[-19.61,66.04],[-15.77,65.45],[-14.94,64.68],[-15.83,64.48],[-15.43,64.24],[-17.23,64.2],[-17.71,64.44],[-17.58,64.82],[-18.46,64.59],[-20.7,65.22],[-20.23,65.49],[-21.41,65.47],[-21.72,65.78],[-21.33,65.88],[-22.09,65.82],[-20.19,67.4],[-21.5,67.65],[-20.94,67.96],[-21.34,68.27],[-20.14,68.31]]]}},{"type":"Feature","properties":{},"geometry":{"type":"Polygon","coordinates":[[[-27.93,72.04],[-31.25,71.43],[-31.6,71.67],[-30.44,71.88],[-33.88,71.7],[-34.18,71.79],[-33.39,72.04],[-35.03,72.27],[-29.68,72.41],[-27.93,72.04]]]}},{"type":"Feature","properties":{},"geometry":{"type":"Polygon","coordinates":[[[-16.96,68.05],[-16.95,67.66],[-17.53,67.64],[-16.96,68.05]]]}},{"type":"Feature","properties":{},"geometry":{"type":"Polygon","coordinates":[[[64.26,43.73],[63.2,43.4],[63.31,45.85],[60.33,50],[61.53,52.55],[61.51,53.82],[57.96,60.53],[58.46,61.79],[59.67,62.76],[64.55,60.88],[69.74,57.16],[74.54,55.36],[78.39,51.31],[92.06,46.19],[83.87,42.5],[75.94,36.9],[70.61,36.94],[65.43,38.79],[63.68,40.18],[65.1,42],[64.05,42.48],[64.26,43.73]]]}},{"type":"Feature","properties":{},"geometry":{"type":"Polygon","coordinates":[[[94.92,41.75],[96.15,41.46],[97.34,40.32],[95.56,38.67],[87.97,36.53],[86.1,35.02],[83.31,35.56],[79.14,38.61],[77,38.99],[82.75,41.61],[87.69,43.02],[94.92,41.75]]]}},{"type":"Feature","properties":{},"geometry":{"type":"Polygon","coordinates":[[[97.75,44.54],[94,43.45],[85.67,43.27],[92.06,46.19],[95.4,44.89],[97.75,44.54]]]}},{"type":"Feature","properties":{},"geometry":{"type":"Polygon","coordinates":[[[101.48,35.19],[106.96,33.12],[104.87,32.8],[99.13,33.93],[92.45,34.1],[83.69,32.64],[84.27,33.48],[91.04,36.65],[93.59,37.34],[101.48,35.19]]]}},{"type":"Feature","properties":{},"geometry":{"type":"Polygon","coordinates":[[[140.72,55.45],[141.89,55.58],[141.22,55.2],[141.98,55.19],[142.64,55.6],[142.51,55.13],[142.73,55.89],[143.9,55.89],[145.57,54.89],[144.86,54.7],[145.69,53.74],[144.72,52.83],[144.2,50.05],[138.97,45.13],[137.51,44.44],[136.06,44.47],[136.05,44.97],[134.92,44.19],[130.85,45.24],[126.85,45.13],[117.15,44.7],[107.39,43.08],[103.79,43.73],[97.37,43.53],[95.2,44.2],[93.4,45.58],[99.12,45.37],[104.14,46.3],[108.57,48.21],[112.44,49],[115.32,50.69],[120.04,51.54],[123.17,54.25],[126.12,55.6],[132.61,55.04],[140.72,55.45]]]}},{"type":"Feature","properties":{},"geometry":{"type":"Polygon","coordinates":[[[84.65,75.94],[84.35,75.57],[84.89,75.03],[85.17,75.2],[84.75,75.54],[87.03,75.82],[86.32,75.91],[87.95,76.7],[86.21,76.81],[87.58,77.1],[91.7,76.77],[92.02,76.97],[91.01,76.99],[96.45,77.89],[99.01,77.59],[103.42,78.08],[101.57,78.73],[102.32,79.01],[111.02,79.13],[110.6,79.04],[113.34,78.39],[112.34,78.08],[116.02,77.51],[118.45,77.33],[118.88,77.62],[118.13,78.36],[118.69,78.19],[121.02,77.18],[122.29,75.12],[123.17,74.91],[140.72,74.07],[151.22,72.59],[155.43,70.84],[156.26,68.62],[145.13,67.49],[138.03,62.68],[140.13,62.6],[140.3,61.8],[131.05,60.51],[123.51,60.27],[120.85,58.58],[118.53,55.53],[113.82,54.07],[111.4,52.02],[107.66,50.71],[103.75,48.22],[98.96,46.59],[93.23,45.98],[84.03,48.89],[78.39,51.31],[74.54,55.36],[69.74,57.16],[63.09,61.63],[60.75,64.05],[63.98,63.93],[64.89,65.66],[63.63,66.58],[65.07,67.14],[67.68,65.79],[69.96,65.98],[67.13,66.16],[66.78,66.49],[67.19,66.73],[66.04,67.23],[62.6,66.88],[61.73,67.39],[61.39,68.25],[59.35,68.78],[59.9,69.75],[58.85,70.27],[61.91,69.03],[64.32,69.13],[61.08,69.64],[62.78,69.94],[61.77,70.15],[62.59,70.38],[62.28,70.45],[67.13,70.59],[67.4,70.28],[66.99,70.03],[68.03,69.05],[71.13,68.94],[68.92,69.3],[69.38,69.57],[67.61,70.58],[64.13,70.86],[62.11,71.75],[66.7,73.01],[63.92,73.64],[65.12,73.61],[64.49,73.96],[64.89,74.05],[63.99,74.01],[67.59,75.78],[66.42,75.77],[68.78,76.22],[69.05,75.94],[70.34,76.38],[69.93,76.39],[70.31,76.75],[71.41,76.74],[69.72,76.91],[71.21,77.33],[69.63,77.78],[69.16,78.44],[69.43,78.63],[72.38,78.74],[71.86,78.21],[75.07,78.61],[75.82,78.15],[76.68,78.34],[76.25,78.62],[78.6,79.11],[84.3,78.91],[85.11,78.59],[82.82,78.62],[85.65,78.55],[86.26,78.01],[84.89,76.93],[85.45,77.02],[85.07,76.39],[85.37,76.25],[83.46,75.88],[84.65,75.94]]]}},{"type":"Feature","properties":{},"geometry":{"type":"Polygon","coordinates":[[[59.16,65.34],[58.97,65.98],[56.57,66.23],[55.8,67.36],[55.05,67.39],[54.84,67.8],[55.38,68.46],[54.57,69.63],[57.51,69.9],[58.35,68.68],[59.89,68.28],[61.59,66.63],[63.17,66.22],[63.51,65.45],[63.17,64.51],[60.73,64.08],[59.16,65.34]]]}},{"type":"Feature","properties":{},"geometry":{"type":"Polygon","coordinates":[[[82.76,14.89],[87.47,15.15],[91.33,14.31],[93.17,12.73],[95.26,9.29],[90.21,11.76],[82.55,11.76],[79.51,12.46],[76.04,14.35],[72.87,17.26],[72.13,18.7],[77.56,15.73],[82.76,14.89]]]}},{"type":"Feature","properties":{},"geometry":{"type":"Polygon","coordinates":[[[40.92,-42.65],[41.54,-42.52],[41.37,-41.73],[41.01,-42.49],[41.27,-41.55],[40.92,-41.04],[40.96,-42.09],[40.35,-42.52],[37.98,-41.84],[38.42,-41.5],[37.56,-41.45],[38.23,-40.96],[36.57,-40.36],[35.91,-40.74],[34.72,-40.47],[29.46,-37.8],[28.91,-37.95],[27.16,-36.33],[20.49,-37.2],[20.14,-36.61],[19.25,-36.42],[19.04,-36.82],[18.69,-36.02],[17.71,-35.8],[17.26,-35.11],[18.05,-34.23],[26.14,-29.62],[31.12,-27.84],[31.82,-28.15],[31.6,-27.65],[32.27,-27.69],[32.23,-27.3],[30.98,-27.38],[30.09,-26.28],[31.34,-24.26],[31.93,-25.31],[32.57,-25.44],[31.97,-24.36],[32.39,-23.5],[32.97,-23.72],[32.52,-23.38],[32.91,-23.28],[32.68,-22.56],[33.59,-22.34],[33.45,-21.62],[34.28,-21.32],[33.82,-20.72],[37.69,-20.1],[40.41,-20.53],[46.12,-22.46],[47.38,-23.65],[47.47,-24.61],[46.34,-25.83],[44.74,-29.81],[44.41,-34.55],[45.13,-36.65],[49.72,-43.28],[49.9,-44.51],[40.92,-42.65]]]}},{"type":"Feature","properties":{},"geometry":{"type":"Polygon","coordinates":[[[73.88,25.66],[76.04,24.52],[77.55,24.27],[78.61,24.4],[79.42,25.33],[85.19,26.79],[91.38,25.49],[95.71,23.46],[96.75,21.11],[96.97,18.65],[94.47,21.63],[92.25,22.74],[88.99,23.02],[84.1,22.38],[78.61,22.74],[72.16,25.29],[71.05,25.23],[69.91,27.04],[71.82,26.94],[73.88,25.66]]]}},{"type":"Feature","properties":{},"geometry":{"type":"Polygon","coordinates":[[[102.03,26.52],[101.84,26.12],[100.57,28.39],[98.65,29.32],[90.15,31.03],[96.47,31.91],[101.16,31.45],[105.32,31.75],[103.76,30.03],[102.03,26.52]]]}},{"type":"Feature","properties":{},"geometry":{"type":"Polygon","coordinates":[[[60.73,64.08],[63.09,61.63],[59.67,62.76],[60.2,64.56],[60.73,64.08]]]}},{"type":"Feature","properties":{},"geometry":{"type":"Polygon","coordinates":[[[57.9,36.55],[57.27,37.46],[57.31,38.44],[55.86,38.65],[54.54,39.91],[55.74,40.03],[55.04,40.24],[55.44,40.84],[56.84,41.08],[56.66,42.11],[56.13,42.49],[54.84,42.44],[53.56,41.48],[53.11,41.62],[52.92,40.73],[52.68,41.03],[52.65,40.66],[51.95,40.61],[51.34,39.42],[52.45,38.92],[52.41,38.01],[54.18,36.65],[48.73,37.71],[53.63,42.57],[60.28,45.35],[60.85,46.98],[60.33,50],[63.31,45.85],[62.99,42.82],[62.62,42.99],[62.73,42.46],[61.98,42.41],[61.79,41.33],[62.25,40.33],[63.25,40.61],[65.43,38.79],[69.55,37.13],[76.5,37],[74.19,34.76],[65.35,33.45],[57.87,36.06],[57.9,36.55]]]}},{"type":"Feature","properties":{},"geometry":{"type":"Polygon","coordinates":[[[43.62,-3.62],[43.12,-3.23],[41.69,-3.36],[40.89,-2.8],[39.51,-0.84],[39.42,1.68],[38.92,1.72],[38.79,2.36],[38.43,1.98],[37.68,2.39],[37.65,1.82],[37.2,1.86],[37.32,-0.18],[37.97,-1.55],[37.56,-2.07],[37.65,-3.53],[38.36,-2.46],[38.81,-2.73],[37.91,-4.12],[38.29,-4.66],[40.43,-5.3],[43.05,-4.08],[42.44,-5.85],[43.91,-7.47],[44.31,-9.07],[42.56,-10.29],[41.91,-10.22],[41.44,-11.37],[40.45,-11.22],[39.68,-11.83],[38.81,-11.59],[38.12,-12.18],[35.58,-11.71],[35,-12.35],[31.18,-12.29],[28.19,-11.57],[27.35,-11.8],[26.03,-11.14],[26.44,-8.49],[27.27,-7.22],[27.13,-3.72],[26.51,-1.8],[27.26,0.88],[26.75,1.85],[26.97,6.02],[26.5,6.36],[30.82,10.67],[32.31,12.97],[34.54,13.24],[37.39,12.42],[38.89,7.85],[42.3,0.25],[42.7,-1.74],[44.03,-2.4],[43.62,-3.62]]]}},{"type":"Feature","properties":{},"geometry":{"type":"Polygon","coordinates":[[[47.62,-14.77],[46.33,-17.82],[44.46,-18.36],[37.61,-15.52],[35.43,-15.25],[36.45,-12.32],[38.36,-11.03],[39.86,-11.98],[42.9,-11.24],[44.47,-11.52],[47.95,-13.73],[47.62,-14.77]]]}},{"type":"Feature","properties":{},"geometry":{"type":"Polygon","coordinates":[[[78.65,22.96],[67.64,26.59],[69.75,29.97],[76.01,25.02],[79.23,24.98],[78.65,22.96]]]}},{"type":"Feature","properties":{},"geometry":{"type":"Polygon","coordinates":[[[66.93,16.33],[66.54,16.71],[67.57,18.58],[69.5,20.37],[70.25,20.42],[77.76,14.97],[71.92,15.43],[69.27,15.04],[66.93,16.33]]]}},{"type":"Feature","properties":{},"geometry":{"type":"Polygon","coordinates":[[[50.33,32.2],[51.01,31.73],[54.55,32.27],[58.13,28.71],[62.54,28.09],[62.95,27.27],[61.47,26.59],[59.4,27.43],[44.68,29.7],[44.23,30.49],[44.49,32.03],[47.72,33.21],[50.33,32.2]]]}},{"type":"Feature","properties":{},"geometry":{"type":"Polygon","coordinates":[[[18.33,75.54],[14.57,76.12],[12.3,77.03],[10.47,77],[11.44,77.52],[10.5,77.87],[10.94,78.22],[8.2,78.26],[7.35,77.76],[7.94,77.65],[6.19,77.26],[-6.43,79.41],[-1.18,82.77],[3.31,82.18],[18.15,79],[19.71,77.77],[19.72,77.18],[18.33,75.54]]]}},{"type":"Feature","properties":{},"geometry":{"type":"Polygon","coordinates":[[[-149.79,80.94],[-141.64,78.65],[-128.44,76.86],[-144.55,74.32],[-150.99,73.94],[-151.54,73.41],[-156.68,72.36],[-156.27,72.63],[-157.34,72.56],[-156.94,72.73],[-157.26,72.87],[-156.13,73.54],[-157.29,73.3],[-157.38,74.05],[-163.93,77.6],[-163.83,78.56],[-160.31,79.8],[-149.79,80.94]]]}},{"type":"Feature","properties":{},"geometry":{"type":"Polygon","coordinates":[[[179.99,79.99],[179.99,78.53],[174.69,77.36],[172.31,76.05],[172.52,75.1],[173.43,74.35],[179.04,71.68],[179.3,70.94],[174.94,70.79],[171.76,69.33],[171.31,68.67],[172.87,68.44],[167.59,68.04],[167.23,68.3],[168.89,68.45],[166.38,68.67],[166.68,68.76],[166.03,71.03],[162.21,72.87],[151.93,74.6],[133.87,75.81],[133,76.03],[132.38,78.11],[129.8,79.35],[130.56,79.73],[131.03,79.67],[130.09,79.64],[133.55,79.29],[143.13,80],[141.13,80.36],[142.36,80.65],[140.16,80.65],[143.49,81.14],[142.09,81.38],[157.71,81.37],[161.41,80.99],[159.53,80.77],[166.81,80.04],[175.91,80.35],[179.99,79.99]]]}},{"type":"Feature","properties":{},"geometry":{"type":"Polygon","coordinates":[[[-179.99,78.53],[-179.99,79.99],[-178.94,79.52],[-179.8,79.14],[-177.91,78.89],[-179.99,78.53]]]}},{"type":"Feature","properties":{},"geometry":{"type":"Polygon","coordinates":[[[134.1,43.65],[132.79,42.78],[132.6,41.82],[130.29,40.45],[131.32,39.71],[132.41,37.63],[129.4,37.18],[129.09,37.93],[129.98,38.04],[129.58,38.2],[129.59,38.88],[128.5,39.09],[128.25,38.73],[127.56,39.19],[128.48,39.75],[128.04,39.92],[128.37,40.61],[127.28,41.05],[124,39.8],[124.81,40.47],[124.11,40.46],[124.34,40.87],[125.17,41.54],[124.69,42.03],[123.84,41.9],[121.81,40.28],[120.62,40.26],[120.46,39.52],[121.66,39.3],[121.93,38.29],[123.58,38.92],[125.57,38.46],[125.37,37.97],[122.93,37.29],[121.97,36.02],[123.03,35.42],[119.96,32.55],[115.44,34.17],[108.58,34.93],[96.47,40.38],[106.95,42.7],[116.67,44.22],[130.26,44.65],[134.1,43.65]]]}},{"type":"Feature","properties":{},"geometry":{"type":"Polygon","coordinates":[[[129.93,41.1],[130.28,39.69],[128.73,39.05],[128.91,38.75],[128.67,38.97],[128.68,38.5],[128.45,38.79],[127.92,38.15],[127.5,38.47],[127.89,38.49],[127.32,38.86],[127.65,39.78],[127.23,39.87],[129.93,41.1]]]}},{"type":"Feature","properties":{},"geometry":{"type":"Polygon","coordinates":[[[121.68,36.57],[122.94,35.09],[124.3,34.48],[122.63,34.31],[124.6,33.78],[123.24,32.71],[125.22,32.82],[124.66,32.24],[125.18,32.52],[125.29,32.21],[124.78,32.07],[125.29,31.23],[124.39,30.68],[124.34,29.19],[123.76,29.21],[124.27,28.9],[124.31,27.85],[123.89,28.01],[123.58,26.83],[122.97,26.73],[123.18,26.42],[121.87,25.19],[121.97,24.71],[120.35,24.17],[120.06,23.49],[118.97,24.07],[119.37,23.24],[118.97,23.01],[118.69,23.39],[118.85,22.75],[118.27,22.83],[118.34,22.46],[116.48,21.67],[116.79,20.52],[115.99,21.01],[116.1,21.63],[115.66,21.78],[115.36,21.34],[114.55,21.68],[113.75,20.49],[113.06,20.34],[113.33,20.04],[112.84,19.17],[105.67,22.9],[105.01,23.82],[104.48,26.25],[105.38,28.73],[107.68,32],[109.72,32.77],[113.94,33.35],[119.84,33.05],[121.68,36.57]]]}},{"type":"Feature","properties":{},"geometry":{"type":"Polygon","coordinates":[[[109.84,19.11],[109.95,18.07],[110.46,17.68],[114.88,16.53],[116.73,14.57],[117.03,13.25],[115.54,11.33],[115.82,10.46],[114.92,8.76],[114.22,10.13],[112.83,9.79],[112.43,10.33],[112.22,9.86],[111.07,10.76],[109.36,10.25],[109.02,11.03],[108.33,10.84],[106.77,13.78],[106.26,16.98],[102.42,20.56],[109.84,19.11]]]}},{"type":"Feature","properties":{},"geometry":{"type":"Polygon","coordinates":[[[107.32,10.39],[108.62,7.27],[109.42,6.51],[109.84,6.96],[112.09,5.85],[113.46,6.18],[116.44,3.28],[114.11,3.51],[110.96,5.36],[109.66,5.49],[109.43,5.11],[106.64,8.81],[104.56,9.72],[103.31,10.82],[103.65,10.83],[102.07,10.85],[98.74,13.45],[96.94,15.43],[95.73,18.07],[98.77,18.95],[102.83,16.9],[103.86,16.06],[105.04,13.03],[107.32,10.39]]]}},{"type":"Feature","properties":{},"geometry":{"type":"Polygon","coordinates":[[[112.54,6.37],[114.64,6.25],[115.94,4.9],[117.62,4.35],[117.13,3.75],[115.61,3.56],[112.54,6.37]]]}},{"type":"Feature","properties":{},"geometry":{"type":"Polygon","coordinates":[[[26.61,-5.63],[28.73,-9.5],[28.62,-9.98],[27.67,-10.15],[28.29,-10.27],[28.98,-11.74],[34.17,-12.4],[35.68,-12.15],[36.11,-12.43],[35.46,-13.72],[35.85,-13.8],[35.31,-13.79],[34.99,-14.63],[30.62,-18.56],[28.01,-19.88],[22.84,-21.5],[18.46,-24.17],[17.49,-25.24],[17.84,-26.47],[16.91,-27.97],[16.71,-29.26],[17.37,-30.27],[16.78,-30.76],[15.27,-34.48],[13.79,-35.24],[10.53,-35.3],[6.73,-36.25],[9.21,-32.17],[10.95,-26.04],[13.48,-25.2],[14.32,-23.06],[17.64,-18.44],[18.7,-15.18],[19.91,-13.74],[21.16,-14.12],[21.98,-12.68],[26.23,-10.38],[26.61,-5.63]]]}},{"type":"Feature","properties":{},"geometry":{"type":"Polygon","coordinates":[[[6.68,-35.97],[6.05,-36.6],[5.89,-38.47],[4.49,-40.07],[0.13,-40.08],[0.04,-40.54],[0.55,-40.43],[-1.87,-42.13],[-6.41,-43.11],[-10.4,-43.34],[-12.68,-42.94],[-15.26,-41.27],[-18.12,-40.56],[-18.49,-39.34],[-18.97,-39.38],[-18.24,-37.86],[-17.65,-37.91],[-17.03,-37.15],[-16.24,-34.38],[-16.25,-32.17],[-13.63,-27.67],[-13.1,-22.49],[-11.91,-20.85],[-9.82,-19.25],[-7.81,-18.56],[-7.19,-17.59],[-6.98,-15.83],[-6.24,-15.43],[-6,-12.95],[-5.27,-13.13],[-5.86,-12.67],[-5.57,-11.4],[-6.29,-8.4],[-6.16,-6.43],[-5.58,-6.55],[-5.07,-5.9],[-4.66,-6.34],[-5.02,-5.74],[-3.11,-3.9],[-2.8,-2.9],[-3.31,-2.77],[-3.62,-1.51],[-4.79,-1.34],[-5.98,-0.36],[-2.67,-0.02],[-1.83,0.91],[0.84,1],[6.53,-3.43],[9.32,-3.66],[14.45,-4.98],[16.57,-11.6],[16.88,-13.84],[12.23,-16.71],[10.41,-19.51],[9.99,-21.47],[11.86,-26.25],[11.58,-27.49],[9.62,-32.26],[6.68,-35.97]]]}},{"type":"Feature","properties":{},"geometry":{"type":"Polygon","coordinates":[[[-7.49,27.94],[-7.08,28.91],[-5.92,29.64],[-3.01,29.84],[-1.17,30.93],[-0.62,30.75],[-0.39,29.75],[0.95,29.37],[1.54,28.62],[5.02,28.51],[7.23,27.78],[8.21,26.95],[9.32,26.9],[10.33,26.1],[12.08,25.78],[1.81,25.96],[-3.62,27.78],[-7.49,27.94]]]}},{"type":"Feature","properties":{},"geometry":{"type":"Polygon","coordinates":[[[12.75,32.02],[12.43,31.28],[9.76,31.16],[8.35,30.4],[8.39,29.55],[5.44,28.66],[3.59,29.5],[2.22,29.34],[1.94,30.29],[2.41,30.45],[2.03,30.34],[1.93,30.95],[0.02,31.54],[1.13,32.6],[0.77,33.08],[1.47,33.25],[0.65,33.26],[2.54,34.61],[3.55,36.01],[3.39,36.7],[3.86,36.93],[5.21,36.88],[8.51,34.72],[9.82,34.42],[12.75,32.02]]]}},{"type":"Feature","properties":{},"geometry":{"type":"Polygon","coordinates":[[[-4.69,-1.73],[-4.76,-0.16],[-5.45,0.68],[-7.77,1.55],[-11.56,1.83],[-13.02,3.13],[-16.65,3.95],[-19.66,8.87],[-19.52,11.67],[-20.51,13.73],[-19.77,14.08],[-20.72,14.29],[-20.94,14.78],[-20.61,14.86],[-21.13,15.26],[-20.72,15.22],[-21.05,15.4],[-20.58,16.16],[-19.55,15.66],[-20.44,15.97],[-20.2,16.42],[-20.68,17.67],[-19.31,18.12],[-17.87,19.64],[-17.48,21.31],[-16.75,21.88],[-16.78,23.1],[-17.23,22.84],[-16.22,23.89],[-13.22,25.22],[-11.98,26.34],[-10.95,26.4],[-9.75,27.15],[-7.06,27.02],[-5.52,27.8],[-1.66,27.67],[3.79,25.9],[14.07,25.71],[14.12,25.08],[14.8,24.92],[13.91,24.53],[13.98,23.45],[12.65,23.02],[10.48,20.33],[6.21,11.34],[5.49,7.87],[6.43,2.76],[2.9,1.64],[1.96,0.31],[-0.68,-0.05],[-1.43,-1.06],[-4.69,-1.73]]]}},{"type":"Feature","properties":{},"geometry":{"type":"Polygon","coordinates":[[[27.34,9.58],[27.05,8.72],[27.51,2.97],[27.1,2.08],[27.78,-0.24],[27.1,-1.69],[13.48,-4.91],[8.32,-3.73],[5.52,-3.57],[-0.29,0.71],[0.75,1.96],[4.36,2.81],[3.81,7.98],[4.81,11.38],[9.8,20.02],[12,22.13],[13.06,20.33],[15.03,18.68],[14.92,17.6],[16.83,15.26],[17.97,15.3],[18.69,16.45],[20.5,16.34],[21.16,15.11],[22.35,14.29],[22.3,13.81],[25,11.7],[26.34,11.83],[27.3,11.32],[27.34,9.58]]]}},{"type":"Feature","properties":{},"geometry":{"type":"Polygon","coordinates":[[[27.9,11.81],[27.04,12.72],[25.41,13.19],[24.72,15.03],[24.29,14.75],[23.64,15.08],[23.52,16.31],[22.75,16.79],[23.57,16.5],[22.9,17.07],[23.68,17.74],[23.43,18.44],[26.41,17.72],[27.1,17.15],[27.43,15.8],[28.75,15.42],[31.6,13.27],[32.73,10.3],[30.12,11.64],[27.9,11.81]]]}},{"type":"Feature","properties":{},"geometry":{"type":"Polygon","coordinates":[[[11.98,-25.91],[11.41,-26.2],[9.34,-21.49],[9.68,-19.52],[11.39,-16.66],[15.92,-13.62],[20.76,-14.14],[19.5,-15.55],[18.35,-18.78],[14.88,-23.32],[13.97,-25.43],[11.98,-25.91]]]}},{"type":"Feature","properties":{},"geometry":{"type":"Polygon","coordinates":[[[28.51,8.19],[27.22,7.17],[26.99,11.46],[27.96,10.48],[29.38,10.49],[31.78,12.46],[32.81,14.19],[32.04,12.45],[28.51,8.19]]]}},{"type":"Feature","properties":{},"geometry":{"type":"Polygon","coordinates":[[[26.83,-1.53],[26.78,-2.31],[27.46,-3.34],[27.38,-6.47],[27.73,-6.23],[27.22,-10.97],[22.9,-13.15],[22.03,-14.57],[19.38,-13.85],[15.96,-13.63],[13.6,-5.92],[13.67,-4.77],[26.83,-1.53]]]}},{"type":"Feature","properties":{},"geometry":{"type":"Polygon","coordinates":[[[45.12,37.64],[42.14,38.77],[43.34,39.75],[42.79,40.39],[43.59,40.46],[44,41.14],[41.22,40.15],[40.51,39.47],[40.59,39.9],[40.57,39.16],[41.16,38.75],[42.14,38.97],[41.96,38.62],[39.52,37.91],[39.1,38.7],[38.43,38.51],[39.46,39.19],[37.61,39.34],[37.34,39.58],[38.16,39.59],[37.7,39.92],[35.83,38.65],[35.99,37.69],[35.42,37.51],[32.94,38.86],[30.76,41.18],[24.78,44.43],[21.64,45.53],[24.44,46.57],[25.04,46.13],[25.78,46.49],[25.43,46.05],[26.2,46.58],[25.77,46.79],[26.37,47],[26.55,47.67],[26.24,46.87],[26.82,46.88],[26.3,48.49],[26.65,49.53],[27.35,49.8],[28.38,49.1],[28.94,49.45],[28.81,50.53],[28.12,50.48],[27.72,51.33],[32.92,52.54],[31.52,52.88],[31.47,53.3],[27.09,51.85],[27.04,52.38],[25.69,52.52],[25.67,53.48],[24.86,54.66],[26.86,56.91],[27.46,56.99],[26.96,57.74],[24.42,57.62],[24.82,57.45],[24.21,57.22],[24.5,56.89],[24.15,56.67],[24.74,56.31],[24.22,55.61],[22.53,54.42],[22.02,54.78],[22.46,54.3],[21.99,54.07],[22.28,52.29],[24.04,51.5],[23.21,51.11],[23.67,50.88],[23.28,50.52],[23.03,50.83],[22.98,50.42],[21.96,50.2],[22.6,50.09],[22.08,50.06],[22.58,49.78],[22.5,48.26],[22.17,47.62],[20.94,47.41],[20.91,46.83],[19.78,46.74],[19.33,47.62],[19.69,47.93],[18.5,49],[18.56,49.64],[18.02,49.6],[17.36,51.12],[17.23,50.72],[16.96,50.92],[17.13,50.23],[16.5,50.28],[15.64,49.21],[14.7,49.01],[13.52,49.51],[13.38,49.99],[13.97,49.83],[14.23,50.06],[13.62,50.04],[14.12,50.56],[13.02,50.44],[14.37,51.51],[13.4,50.94],[13.33,51.35],[12.87,51.3],[13.31,51.69],[12.94,51.48],[12.63,51.73],[13.13,51.82],[12.68,51.99],[14.33,51.89],[14.73,52.28],[12.81,52.04],[13.09,52.32],[12.54,52.67],[13.95,52.87],[12.55,53.11],[13.51,53.04],[13.19,53.18],[13.76,53.45],[14.2,53.12],[13.39,53.55],[14.82,53.75],[13.92,53.73],[14.1,54.03],[15.13,53.75],[14.56,54.07],[15.21,53.9],[14.76,54.19],[15.85,54.78],[16.01,54.46],[16.79,54.67],[17.02,55.33],[16.18,54.65],[15.69,54.84],[17.92,56.61],[17.22,56.47],[17.75,56.75],[17.56,57.19],[17.99,57.13],[17.54,57.36],[18.57,57.68],[17.76,57.47],[18.13,57.63],[17.62,57.82],[18.18,57.93],[17.74,58.02],[18.3,58.14],[17.9,58.27],[19.31,58.52],[18.41,58.62],[19.45,58.81],[18.58,59.21],[19.37,59.35],[18.87,59.46],[19.31,59.71],[19.85,59.3],[19.44,59.78],[20.67,59.98],[19.58,59.98],[20.41,60.21],[20.06,60.27],[20.48,60.29],[20.15,60.52],[20.46,61.02],[21.55,60.87],[21.04,61.36],[21.55,61.08],[21.82,61.65],[21.8,60.95],[22.43,61.21],[21.98,61.47],[22.43,61.76],[23.19,61.56],[22.48,62.08],[24.03,61.89],[23.71,62.1],[24.58,62.61],[24.36,62.96],[25.32,62.94],[25.07,62.07],[25.72,63.06],[26.01,62.48],[26.59,63.01],[26.15,63.2],[26.79,63.34],[27.12,63.24],[26.69,63.02],[27.1,62.96],[26.92,62.67],[27.45,63.19],[29.23,62.86],[27.55,62.48],[28.49,62.05],[29.8,62.12],[30.2,62.55],[31.07,62.43],[30.33,62.36],[30.58,62.05],[31.53,62.15],[31.39,61.77],[33.34,62.16],[38.05,61.26],[38.72,60.44],[37.19,59.43],[31.47,59.8],[33.21,59.28],[32.75,59.06],[34.31,58.88],[34.12,58.32],[34.89,57.54],[37.3,57.1],[37.52,57.69],[36.17,57.91],[36.19,58.35],[37.54,58.22],[37.39,57.94],[39.39,58.15],[38.36,58.85],[38.82,59.58],[39.71,60.26],[41.55,59.87],[41.23,60.89],[40.44,61.14],[40.41,61.95],[39.17,62.44],[42,62.28],[42.32,62],[41.22,61.32],[42.4,60.97],[43.63,61.23],[43.37,61.92],[44.28,62.1],[43.72,62.33],[46.38,63.18],[46.07,63.41],[47.01,63.95],[47.53,64.06],[46.85,63.86],[47.5,63.44],[47.06,63.08],[47.84,63.06],[48.49,63.75],[50.87,64.62],[52.08,64.16],[51.91,64.5],[52.86,64.75],[51.36,65.32],[51.6,65.69],[54.71,65.82],[59.51,65.22],[60.2,64.56],[60.14,63.96],[57.96,60.53],[61.51,53.82],[61.53,52.55],[60.37,50.61],[60.85,46.98],[60.59,45.79],[59.26,44.61],[53.63,42.57],[48.73,37.71],[45.12,37.64]]]}},{"type":"Feature","properties":{},"geometry":{"type":"Polygon","coordinates":[[[16.4,46.24],[15.86,46.65],[15.82,47.85],[17.65,48.96],[17.43,47.9],[18.1,47.68],[17.04,46.87],[17.33,46.11],[16.4,46.24]]]}},{"type":"Feature","properties":{},"geometry":{"type":"Polygon","coordinates":[[[35.02,34.69],[34.92,35.67],[34.12,35.46],[34.1,35.99],[37.41,37.29],[36.77,37.26],[42.2,38.48],[45.37,38.14],[41.18,37.04],[39.93,36.19],[38.3,36.63],[37.27,36.37],[35.02,34.69]]]}},{"type":"Feature","properties":{},"geometry":{"type":"Polygon","coordinates":[[[23.64,24.14],[23.21,22.76],[22.43,22.88],[23.04,21.74],[22.82,21.29],[22.16,21.89],[22.21,21.28],[21.73,21.74],[21.54,21.06],[20.89,21.14],[20.99,21.57],[20.56,21.62],[20.88,22.8],[21.64,22.77],[22.46,21.99],[21.13,23.13],[21.21,23.71],[21.6,23.68],[21.28,23.79],[21.32,25.63],[22.47,26.58],[21.35,29.58],[21.88,31.32],[21.75,31.74],[21.03,31.51],[21.62,32.44],[20.76,32.77],[19.66,31.83],[19.91,30.73],[19.49,29.95],[19.64,28.79],[20.3,28.28],[19.85,28.02],[20.57,25.76],[20.21,25.67],[19.73,26.78],[18.99,26.47],[18.88,25.51],[17.22,25.36],[18.17,25.88],[18.63,27.07],[17.4,31.09],[18.05,32.71],[17.56,33.74],[16.32,33.84],[16.25,34.5],[17.37,35.87],[21.33,35.22],[25.47,32.79],[23.38,31.61],[23.84,27.66],[23.64,24.14]]]}},{"type":"Feature","properties":{},"geometry":{"type":"Polygon","coordinates":[[[16.76,34.9],[15.53,34.06],[13.66,34.5],[12.82,33.57],[8.79,34.3],[8.99,36.24],[9.52,35.78],[8.89,36.41],[8.96,37.02],[7.51,38.31],[6.08,38.42],[5.75,38.66],[6.21,38.94],[5.71,39.16],[8.61,39.35],[8.05,40.43],[9.53,40.02],[10.28,40.63],[12.63,39.78],[14.89,39.77],[18.7,42.54],[21.57,43.46],[26.21,43.52],[29.05,41.86],[26.27,41.18],[24.16,39.91],[19.41,39.06],[17.12,38.16],[15.59,36.9],[16.11,35.3],[16.76,34.9]]]}},{"type":"Feature","properties":{},"geometry":{"type":"Polygon","coordinates":[[[10.28,40.63],[11.08,41],[10.95,41.69],[13.14,42.27],[12.45,42.42],[13.45,42.65],[12.9,42.87],[13.4,43.9],[13.8,43.29],[14.21,43.59],[14.1,44.29],[15.44,44.29],[15.3,44.64],[15.92,44.8],[16.49,44.48],[16.56,45.02],[17.58,44.73],[16.44,45.43],[16.81,45.62],[16.14,45.85],[16.4,46.24],[17.33,46.11],[17.72,45.52],[18.54,45.65],[18.32,45.14],[19.68,45.83],[21.53,45.07],[21.64,45.53],[22.49,45.3],[26.21,43.52],[20.25,43.16],[17.87,42.02],[14.89,39.77],[12.63,39.78],[10.28,40.63]]]}},{"type":"Feature","properties":{},"geometry":{"type":"Polygon","coordinates":[[[35.38,37.29],[35.31,36.3],[34.77,35.81],[30.62,35.43],[29.79,36.31],[29.9,37.02],[32.49,37.98],[32.94,38.86],[35.38,37.29]]]}},{"type":"Feature","properties":{},"geometry":{"type":"Polygon","coordinates":[[[-18.7,68.81],[-17.94,68.38],[-19.49,68.63],[-18.7,68.81]]]}},{"type":"Feature","properties":{},"geometry":{"type":"Polygon","coordinates":[[[-23.94,71.28],[-25.43,70.94],[-26.78,71.24],[-25.67,71.7],[-23.94,71.28]]]}},{"type":"Feature","properties":{},"geometry":{"type":"Polygon","coordinates":[[[18.64,69.85],[19.85,69.29],[19.26,68.88],[18.87,69.23],[18.02,68.98],[18.08,69.46],[17.51,69.62],[18.64,69.85]]]}},{"type":"Feature","properties":{},"geometry":{"type":"Polygon","coordinates":[[[17.45,70.1],[18.08,69.83],[16.85,69.93],[17.45,70.1]]]}},{"type":"Feature","properties":{},"geometry":{"type":"Polygon","coordinates":[[[-22.46,71.73],[-23.23,71.3],[-24.76,71.89],[-22.46,71.73]]]}},{"type":"Feature","properties":{},"geometry":{"type":"Polygon","coordinates":[[[-17.51,69.67],[-17.32,69.18],[-17.96,68.93],[-19.39,69.07],[-18.63,69.27],[-18.9,69.49],[-18.51,69.75],[-17.51,69.67]]]}},{"type":"Feature","properties":{},"geometry":{"type":"Polygon","coordinates":[[[11.53,69.79],[12.53,69.28],[11.2,69.89],[11.53,69.79]]]}},{"type":"Feature","properties":{},"geometry":{"type":"Polygon","coordinates":[[[-18.6,71.11],[-19.31,70.6],[-18.53,70.64],[-18.94,70.36],[-18.56,70.25],[-18.76,69.96],[-19.99,69.41],[-20.73,69.63],[-20.32,69.81],[-20.47,70.3],[-21.41,70.49],[-19.9,70.62],[-19.62,70.9],[-20.39,70.91],[-19.78,71.23],[-18.6,71.11]]]}},{"type":"Feature","properties":{},"geometry":{"type":"Polygon","coordinates":[[[61.64,79.45],[67.67,79.12],[65.82,78.57],[65.53,78.08],[61.64,79.45]]]}},{"type":"Feature","properties":{},"geometry":{"type":"Polygon","coordinates":[[[13.49,71.27],[17.38,70.18],[16.18,69.86],[16.25,68.88],[13.45,70.88],[13.49,71.27]]]}},{"type":"Feature","properties":{},"geometry":{"type":"Polygon","coordinates":[[[16.25,68.88],[16.34,67.98],[15.9,67.88],[15.26,68.13],[15.76,68.31],[13.95,68.69],[15.34,68.71],[14.34,68.86],[15.47,69.23],[13.85,68.88],[13.44,69.19],[15.13,69.65],[16.25,68.88]]]}},{"type":"Feature","properties":{},"geometry":{"type":"Polygon","coordinates":[[[14.64,69.98],[14.21,69.67],[13.89,70.04],[13.51,69.85],[13.91,69.56],[13.01,69.31],[11.62,69.99],[12.29,69.99],[11.85,70.34],[10.91,70.52],[12.33,70.98],[11.8,70.63],[12.91,70.4],[12.85,70.93],[14.64,69.98]]]}},{"type":"Feature","properties":{},"geometry":{"type":"Polygon","coordinates":[[[52.88,78.36],[54.91,78.3],[52.4,78.23],[52.88,78.36]]]}},{"type":"Feature","properties":{},"geometry":{"type":"Polygon","coordinates":[[[55.34,79.14],[57.68,78.8],[56.49,79.25],[58.54,79.34],[62.19,78.65],[58.63,78.14],[55.65,78.37],[55.9,78.16],[54.37,78.8],[55.34,79.14]]]}},{"type":"Feature","properties":{},"geometry":{"type":"Polygon","coordinates":[[[21.92,72.44],[22.25,72.36],[21.3,72.15],[21.92,72.44]]]}},{"type":"Feature","properties":{},"geometry":{"type":"Polygon","coordinates":[[[34.01,74.46],[34.65,74.23],[33.57,74.32],[34.01,74.46]]]}},{"type":"Feature","properties":{},"geometry":{"type":"Polygon","coordinates":[[[32.11,74.14],[32.7,74.07],[31.78,73.92],[32.11,74.14]]]}},{"type":"Feature","properties":{},"geometry":{"type":"Polygon","coordinates":[[[34.27,74.67],[35.25,74.67],[35,74.34],[33.8,74.54],[34.27,74.67]]]}},{"type":"Feature","properties":{},"geometry":{"type":"Polygon","coordinates":[[[16.56,71.95],[19.29,71.68],[18.12,70.83],[14.16,71.39],[15.13,71.5],[14.82,71.85],[16.64,71.48],[16.56,71.95]]]}},{"type":"Feature","properties":{},"geometry":{"type":"Polygon","coordinates":[[[28.35,74.02],[29.25,73.96],[27.41,73.58],[28.35,74.02]]]}},{"type":"Feature","properties":{},"geometry":{"type":"Polygon","coordinates":[[[35.45,75.35],[36.08,74.89],[34.33,75.06],[35.45,75.35]]]}},{"type":"Feature","properties":{},"geometry":{"type":"Polygon","coordinates":[[[29.75,74.37],[30.63,74.27],[29.78,73.72],[30.33,73.58],[28.88,73.48],[29.54,73.59],[28.94,73.67],[29.72,73.88],[29.12,74.08],[29.75,74.37]]]}},{"type":"Feature","properties":{},"geometry":{"type":"Polygon","coordinates":[[[35.85,75.89],[36.9,75.51],[35.76,75.35],[35.85,75.89]]]}},{"type":"Feature","properties":{},"geometry":{"type":"Polygon","coordinates":[[[47.83,78.92],[48.57,78.82],[47.53,78.8],[47.83,78.92]]]}},{"type":"Feature","properties":{},"geometry":{"type":"Polygon","coordinates":[[[49.97,79.55],[55.05,79.19],[54.13,78.58],[51.9,78.41],[52.27,78.63],[49.46,79.46],[49.97,79.55]]]}},{"type":"Feature","properties":{},"geometry":{"type":"Polygon","coordinates":[[[-10.45,71.04],[-11.58,69.64],[-10.63,69.71],[-12.22,69.04],[-11.4,68.89],[-11.69,68.53],[-13.89,68.38],[-13.48,68.72],[-15.25,68.16],[-14.9,68.67],[-15.49,68.26],[-16.51,68.64],[-15.71,68.83],[-16.31,69.09],[-15.91,69.52],[-14.07,69.21],[-15.63,69.85],[-14.43,70.01],[-15.12,70.19],[-14.87,70.44],[-13.83,70.24],[-13.33,70.32],[-13.88,70.75],[-12.49,70.51],[-12.39,70.92],[-10.45,71.04]]]}},{"type":"Feature","properties":{},"geometry":{"type":"Polygon","coordinates":[[[31.41,75.28],[32.3,75.31],[31.19,75.05],[31.77,75.16],[31.41,75.28]]]}},{"type":"Feature","properties":{},"geometry":{"type":"Polygon","coordinates":[[[31.39,75.85],[31.77,75.77],[30.98,75.71],[31.39,75.85]]]}},{"type":"Feature","properties":{},"geometry":{"type":"Polygon","coordinates":[[[1.49,67.42],[1.88,67.09],[1.53,66.82],[0.93,67.45],[1.49,67.42]]]}},{"type":"Feature","properties":{},"geometry":{"type":"Polygon","coordinates":[[[0.03,70.17],[0.79,69.78],[-0.39,69.68],[1.22,69.66],[1.49,69.5],[0.96,69.16],[1.54,68.9],[-0.36,68.6],[-2.04,68.97],[-1.42,68.59],[-3.22,68.5],[-0.63,68.46],[-4.29,68.11],[-4.53,67.75],[-5.38,67.97],[-4.81,67.69],[-5.68,67.48],[-8.86,67.83],[-7.6,67.34],[-8.98,67.68],[-8.43,67.41],[-9.43,67.47],[-8.29,67.04],[-10.05,66.76],[-9.59,66.54],[-9.94,66.43],[-11.07,66.69],[-11.83,66.22],[-13.7,66.63],[-12.46,66.2],[-12.75,65.8],[-12.19,65.9],[-13.05,65.45],[-14.76,65.52],[-14.24,65.72],[-14.65,66.2],[-16.41,66.16],[-17.89,66.72],[-17.48,67.05],[-18.23,67.06],[-15.88,67.11],[-16.09,67.4],[-15.49,67.86],[-14.74,67.61],[-15.14,67.2],[-14.73,66.92],[-12.59,67.28],[-14.18,67],[-14.52,67.14],[-14.27,67.59],[-13.22,67.81],[-14.73,67.98],[-13.37,68.37],[-12.38,68.29],[-11.84,67.68],[-11.79,68],[-11.03,67.86],[-12.05,68.33],[-11.57,68.18],[-11.15,68.81],[-11.4,69.09],[-10.43,69.5],[-9.59,69.19],[-9.82,68.44],[-9.11,68.26],[-9.63,68.49],[-9.2,69.16],[-6.93,68.81],[-7.53,69.04],[-5.88,68.89],[-6.71,69.15],[-4.97,69.38],[-9.56,69.51],[-9.94,69.75],[-7.32,69.71],[-10.16,69.85],[-10.2,70.28],[-7.87,70.04],[-10.09,70.37],[-8.28,70.45],[-9.52,70.69],[-8.69,70.78],[-9.4,71.04],[-7.19,70.95],[-6.63,70.45],[-6.62,70.91],[-5.53,70.93],[-5.84,70.43],[-5.23,70.56],[-5.1,69.89],[-5.02,70.65],[-3.81,70.85],[-2.54,70.62],[-3.03,70.12],[-2.32,70.63],[-1.4,70.44],[-1.47,70.03],[0.03,70.17]]]}},{"type":"Feature","properties":{},"geometry":{"type":"Polygon","coordinates":[[[-8.13,49.81],[-7.42,50.32],[-8.11,50.17],[-7.83,50.67],[-8.2,50.73],[-6.8,50.96],[-8.14,50.77],[-8.5,51.17],[-7.47,51.39],[-8.59,51.47],[-6.36,52.05],[-8.63,51.54],[-8.28,51.7],[-8.56,51.95],[-7.77,51.91],[-8.42,52.07],[-7.57,52.18],[-8.6,52.56],[-6.3,52.39],[-8.51,52.68],[-7.65,53.12],[-6.03,52.7],[-6.76,52.98],[-5.99,53.05],[-6.5,53.23],[-8.32,52.96],[-7.76,53.44],[-7.14,53.29],[-7.85,53.59],[-5.96,53.13],[-6.7,53.47],[-6.22,53.73],[-7.86,53.73],[-6.34,53.83],[-6.21,54.37],[-5.71,54.15],[-5.74,54.54],[-6.22,54.44],[-5.43,55.19],[-7.79,56.09],[-5.53,55.51],[-5.93,55.79],[-5.54,56.08],[-6.12,56.28],[-5.53,56.22],[-6.26,56.4],[-5.78,56.53],[-6.41,56.46],[-5.63,56.7],[-6.57,56.74],[-5.71,56.94],[-6.66,57.34],[-7.08,56.82],[-7.99,56.95],[-7.28,57.41],[-7.83,57.47],[-7.29,57.75],[-7.66,57.92],[-6.91,58.21],[-7.43,58.55],[-6.95,58.77],[-7.36,59.12],[-7.11,59.71],[-7.8,59.64],[-7.02,59.83],[-7.85,60.93],[-7.5,61.28],[-9.52,62.26],[-12.18,62.41],[-12.49,62.78],[-11.44,62.91],[-12.76,63.52],[-10.18,63.31],[-9.89,63.62],[-11.36,63.73],[-12.39,64.72],[-8.27,65.08],[-6.64,65.78],[-8.02,65.93],[-7.9,66.23],[-5.7,66.73],[-5.74,66.31],[-4.01,67.25],[-2.98,66.53],[-3.47,67.29],[-1.47,67.43],[-1.84,66.62],[-1.19,67.05],[-0.41,66.52],[-0.23,67.44],[1.52,66.51],[1.77,67.03],[2.53,66.91],[1.63,67.54],[3.51,67.14],[1.9,67.89],[3.95,67.38],[4.6,67.75],[4.08,68.06],[5.36,68.19],[8.12,67.85],[4.99,67.33],[8.28,67.73],[8.1,67.33],[9.64,67.2],[5.74,66.33],[8.66,66.56],[8.07,65.98],[9.78,66.67],[9.91,66.06],[9.06,65.15],[11.83,66.53],[13.54,66.27],[12.34,65.33],[10.26,65.17],[12.32,65.13],[10.5,64.73],[10.8,64.35],[11.87,64.69],[11.05,64.24],[11.39,63.79],[10.54,63.38],[10.33,62.27],[11.54,62.38],[10.76,62.12],[12,61.95],[12.13,61.4],[10.43,61.62],[11.1,61.52],[10.11,61.28],[11.62,60.76],[10.61,60.58],[11.89,60.38],[11.88,59.8],[10.34,60.15],[11.41,59.77],[10.41,59.76],[11.35,59.69],[11.17,59.29],[12.3,59.15],[10.66,59.21],[11.75,58.85],[10.51,58.91],[10.89,58.26],[10.92,58.68],[11.71,58.18],[10.63,57.86],[9.71,58.25],[10.69,58.24],[8.82,58.52],[9.4,58.1],[7.99,58.06],[8.52,57.8],[7.79,57.69],[9.23,57.63],[7.96,57.41],[9.46,57.25],[8.58,56.96],[9.17,56.97],[9.02,56.59],[9.51,57],[10.75,56.5],[10.42,56.22],[11.09,56.35],[10.75,56.06],[11.27,56.03],[10.92,55.66],[11.29,55.7],[11.35,55.06],[10.84,55.46],[10.37,55.04],[9.59,55.92],[7.25,56.65],[8.03,56.27],[7.39,56.1],[9.13,55.89],[7.43,55.54],[7.57,55.19],[7,54.94],[8.64,54.93],[7.36,54.6],[9.27,54.99],[10.99,54.59],[8.68,53.23],[6.2,52.63],[4.94,53.18],[5.22,52.49],[4.47,52.26],[3.51,50.97],[2.74,51.07],[2.9,50.75],[1.81,50.75],[1.81,50.41],[1.41,50.56],[1.89,50.96],[1.45,51.11],[1.15,50.32],[-0.8,49.89],[-0.42,49.12],[-1.2,49.06],[-0.58,48.89],[-0.58,48.45],[-1.22,48.65],[-0.75,48.34],[-1.55,48.28],[-1.26,47.9],[-1.8,47.92],[-1.44,47.7],[-2.48,47.61],[-1.85,47.21],[-2.4,47.38],[-1.87,46.83],[-2.59,46.46],[-2.15,46.24],[-2.75,46.21],[-2.36,45.94],[-3.03,46.02],[-2.4,45.91],[-3,45.73],[-2.57,45.43],[-3.5,45.55],[-2.83,44.95],[-3.46,45.3],[-4.25,45.06],[-3.69,45.5],[-4.27,45.1],[-3.78,45.69],[-4.77,45.59],[-4.2,45.88],[-4.9,45.77],[-4.11,46.16],[-4.75,45.93],[-4.5,46.33],[-6.28,45.96],[-5.97,46.45],[-6.75,46.59],[-6.16,46.67],[-6.87,46.76],[-6.37,46.79],[-6.75,46.91],[-6.42,47.15],[-6.92,47.03],[-6.46,47.25],[-7.08,47.23],[-6.73,47.47],[-7.39,47.76],[-6.84,48.27],[-7.36,48.04],[-7.05,48.46],[-7.73,48.64],[-7.08,48.63],[-7.95,49.03],[-7.15,49.46],[-7.96,49.52],[-6.85,49.68],[-7.13,49.95],[-6.49,49.55],[-6.73,50.06],[-7.23,50.51],[-7.08,50.01],[-8.13,49.81]]]}}]}
