{"type":"FeatureCollection","features":[{"type":"Feature","properties":{},"geometry":{"type":"Polygon","coordinates":[[[37.87,-62.46],[39.7,-62.31],[40.49,-62.81],[38.46,-62.88],[37.87,-62.46]]]}},{"type":"Feature","properties":{},"geometry":{"type":"Polygon","coordinates":[[[45.82,-60.92],[45.4,-61.26],[45.09,-60.61],[46.42,-60.79],[45.82,-60.92]]]}},{"type":"Feature","properties":{},"geometry":{"type":"Polygon","coordinates":[[[1.45,-63.08],[3.12,-62.3],[3.95,-63],[3.56,-63.38],[1.45,-63.08]]]}},{"type":"Feature","properties":{},"geometry":{"type":"Polygon","coordinates":[[[26.26,-69.96],[26.8,-70.31],[25.99,-70.18],[26.26,-69.96]]]}},{"type":"Feature","properties":{},"geometry":{"type":"Polygon","coordinates":[[[17.49,-70.13],[18.67,-70.09],[16.99,-70.22],[17.49,-70.13]]]}},{"type":"Feature","properties":{},"geometry":{"type":"Polygon","coordinates":[[[22.21,-70.91],[19.11,-70.51],[22.56,-70.28],[22.21,-70.91]]]}},{"type":"Feature","properties":{},"geometry":{"type":"Polygon","coordinates":[[[25.03,-71.49],[24.2,-71.24],[24.39,-70.82],[23.1,-70.56],[26.06,-71.2],[25.03,-71.49]]]}},{"type":"Feature","properties":{},"geometry":{"type":"Polygon","coordinates":[[[-7.95,-63.87],[-6.21,-63.5],[-6.74,-64.01],[-7.95,-63.87]]]}},{"type":"Feature","properties":{},"geometry":{"type":"Polygon","coordinates":[[[1.41,-69.05],[2.06,-68.87],[0.19,-68.47],[1.4,-68.51],[0.37,-68.26],[1.71,-68.02],[4.48,-69.73],[1.41,-69.05]]]}},{"type":"Feature","properties":{},"geometry":{"type":"Polygon","coordinates":[[[-13.1,-63.86],[-12.29,-64.3],[-13.04,-64.26],[-13.1,-63.86]]]}},{"type":"Feature","properties":{},"geometry":{"type":"Polygon","coordinates":[[[-15.41,-64.34],[-14.39,-64.22],[-14.33,-64.56],[-14.97,-64.74],[-15.41,-64.34]]]}},{"type":"Feature","properties":{},"geometry":{"type":"Polygon","coordinates":[[[-17.14,-62.71],[-11.21,-61.91],[-8.94,-62.28],[-8.65,-62.96],[-10.63,-62.85],[-11.1,-63.24],[-9.62,-63.53],[-10.93,-64.32],[-10.65,-63.99],[-11.59,-64.06],[-10.98,-63.61],[-11.62,-63.87],[-11.74,-63.29],[-12.17,-63.61],[-12.86,-63.01],[-12.54,-62.8],[-13.77,-63.12],[-14.19,-62.62],[-15.02,-63.29],[-16.52,-63.43],[-17.14,-62.71]]]}},{"type":"Feature","properties":{},"geometry":{"type":"Polygon","coordinates":[[[-21.85,-61.7],[-19.5,-62.11],[-20.18,-62.3],[-21.85,-61.7]]]}},{"type":"Feature","properties":{},"geometry":{"type":"Polygon","coordinates":[[[58.78,-44.87],[58.19,-45.67],[57.69,-45.34],[58.78,-44.87]]]}},{"type":"Feature","properties":{},"geometry":{"type":"Polygon","coordinates":[[[-25.97,-59.49],[-25.29,-59.35],[-24.9,-59.77],[-25.32,-59.99],[-25.97,-59.49]]]}},{"type":"Feature","properties":{},"geometry":{"type":"Polygon","coordinates":[[[-25.54,-57.03],[-24.4,-57],[-24.59,-57.39],[-25.54,-57.03]]]}},{"type":"Feature","properties":{},"geometry":{"type":"Polygon","coordinates":[[[0.99,-63.27],[2.06,-63.81],[3.14,-63.64],[2.53,-63.94],[2.99,-64.15],[7.22,-62.3],[6.24,-62.51],[6.7,-62.07],[8.73,-61.59],[11.77,-61.7],[15.88,-59.74],[19.04,-61.21],[18.89,-62.35],[19.35,-62.85],[17.51,-63.71],[7.17,-64.75],[5.22,-65.33],[3.35,-65.28],[0.26,-64],[0.99,-63.27]]]}},{"type":"Feature","properties":{},"geometry":{"type":"Polygon","coordinates":[[[-26.39,-56.62],[-25.64,-56.53],[-25.83,-57.13],[-24.5,-57.67],[-24.98,-58.11],[-23.71,-59.25],[-22.53,-59.45],[-22.03,-59.31],[-22.26,-58.75],[-21.72,-58.94],[-22.08,-59.11],[-21.43,-59.3],[-22.07,-59.7],[-21.03,-59.69],[-22.31,-59.96],[-20.89,-60.15],[-20.88,-60.6],[-20.13,-60.91],[-17.45,-60.9],[-17.1,-60.53],[-17.66,-60.06],[-16.61,-60.44],[-12.14,-59.62],[-9.21,-59.87],[-8.43,-59.7],[-8.69,-59.35],[-5.83,-59.63],[-3.82,-60.53],[-3.84,-60.2],[-1.04,-61.62],[0.34,-60.92],[2.32,-61.94],[0.29,-62.86],[0.99,-63.27],[-1.49,-65.54],[-4.3,-65.72],[-4.05,-65.35],[-4.74,-65.12],[-6.55,-65.24],[-5.51,-64.57],[-6.13,-64.13],[-5.3,-64.08],[-8.7,-61.65],[-15.95,-62.24],[-16.71,-61.49],[-19.92,-61.3],[-19.87,-61.72],[-20.93,-61.64],[-21.13,-61.4],[-20.31,-61.27],[-21.69,-61.24],[-21.52,-60.92],[-22.63,-60.82],[-23.61,-59.88],[-24.56,-59.86],[-24.2,-59.58],[-25.86,-58.43],[-26.39,-56.62]]]}},{"type":"Feature","properties":{},"geometry":{"type":"Polygon","coordinates":[[[11.82,-56.29],[8.55,-52.53],[8.63,-51.82],[9.28,-51.79],[7.78,-51.12],[6.23,-51.98],[4.91,-51.36],[4.06,-49.34],[4.26,-48.21],[3.45,-47.09],[3.45,-45.48],[4.45,-43.53],[4.19,-42.82],[3.31,-42.64],[4.07,-42.66],[3.66,-41.87],[5,-42.25],[5.25,-41.95],[4.63,-41.05],[5.06,-40.85],[5.54,-41.46],[6.47,-40.82],[5.8,-39.99],[6.9,-40.85],[7.67,-40.74],[8.19,-39.15],[9.87,-38.15],[11.64,-38.04],[13.21,-37.12],[16.13,-36.78],[20.13,-35.33],[20.31,-34.23],[22.43,-35.58],[22.86,-34.46],[24.17,-33.54],[25.86,-32.79],[26.62,-33.17],[27.19,-32.37],[27.38,-32.84],[27.9,-32.79],[27.88,-31.91],[29.44,-31.59],[30.3,-31.85],[30.98,-32.55],[30.44,-32.71],[31.61,-33.51],[36.27,-34.84],[36.03,-35.75],[35.52,-35.88],[35.91,-35.95],[35.42,-36.03],[35.71,-36.25],[35.19,-36.16],[35.21,-36.74],[34.58,-37.02],[35.42,-38.49],[37,-37.24],[37.98,-37.43],[40.18,-36.5],[43,-36.41],[46.5,-37.36],[48.82,-38.76],[49.48,-38.92],[49.89,-38.32],[50.5,-38.57],[50.2,-39.07],[51.58,-39.47],[52.96,-41.86],[55.76,-42.22],[55.52,-43.12],[56.19,-43.53],[56.11,-44.42],[57.52,-45.33],[57.16,-45.53],[59.83,-46.64],[59.49,-47.64],[59.92,-48.1],[61.33,-47.59],[62.46,-49.33],[63.94,-49.13],[63.05,-49.59],[62.9,-50.23],[63.62,-52.68],[64.1,-52.92],[63.9,-53.47],[64.86,-54.05],[63.38,-53.86],[63.66,-55.11],[62.61,-55.05],[63.33,-56.14],[62.64,-56.37],[63.72,-57.15],[62.6,-57.66],[62.88,-57.84],[62.45,-58.37],[62.9,-58.44],[62.43,-59.12],[60.59,-59.92],[60.67,-60.47],[59.87,-60.78],[60.27,-60.77],[59.53,-62.15],[57,-63.05],[53.79,-62.21],[53.72,-61.47],[52.7,-61.33],[52.76,-60.93],[51.62,-61.01],[51.95,-60.74],[51.23,-60.58],[52.11,-60.52],[51.6,-60.28],[50.69,-60.22],[50.18,-60.72],[50.23,-60.22],[49.77,-60.14],[44.57,-59.85],[44.36,-60.09],[44.9,-60.32],[43.43,-60.48],[43.88,-59.93],[43.05,-59.08],[37.17,-58.81],[37.09,-58.43],[36.42,-58.58],[36.76,-58.86],[34.56,-58.76],[31.79,-59.38],[30.04,-58.57],[31.83,-59.52],[29.42,-59.88],[27.84,-59.53],[26.42,-59.73],[26.13,-60.21],[24.47,-60.21],[27.3,-60.96],[28.93,-62.44],[25.99,-62.94],[24.96,-61.71],[22.14,-60.24],[18.35,-60.26],[16.5,-58.58],[11.82,-56.29]]]}},{"type":"Feature","properties":{},"geometry":{"type":"Polygon","coordinates":[[[32.73,-60.93],[34.19,-62.16],[32.28,-63.23],[38.76,-63.63],[41.46,-64.77],[38.84,-65.45],[37.04,-65.39],[37.35,-65.51],[36.83,-66.02],[36.03,-66.11],[36.66,-66.41],[36.09,-66.47],[39.1,-66.62],[36.96,-66.96],[37.86,-67.4],[35.12,-68.33],[35.06,-68.74],[33.45,-69],[33.14,-69.22],[33.66,-69.41],[32.66,-69.76],[18.78,-70.04],[16.67,-69.54],[15.47,-70.07],[16.02,-69.79],[15.13,-69.83],[15.79,-69.54],[15.39,-69.45],[15.73,-68.99],[14.52,-68.98],[13.97,-69.46],[13.3,-69.28],[13.54,-68.92],[13.05,-68.6],[11.81,-68.62],[11.68,-68.32],[12.47,-67.93],[10.56,-68.18],[9.6,-67.82],[9.84,-67.26],[8.79,-67.11],[8.42,-67.81],[7.13,-67.86],[6.94,-68.15],[7.48,-68.36],[7.13,-68.62],[5.38,-68.35],[5.53,-68.7],[7.03,-68.82],[6.22,-69.36],[5.08,-68.45],[3.47,-68.21],[3.34,-67.49],[1.7,-67.42],[2.02,-67.04],[1.06,-66.35],[-1.11,-66.26],[-1.1,-65.91],[-0.31,-65.9],[-0.35,-65.3],[-1.37,-65.2],[-0.58,-64.91],[-0.66,-64.19],[8.86,-63.85],[10.24,-63.29],[20.14,-62.37],[22.08,-61.52],[29.1,-61.93],[32.73,-60.93]]]}},{"type":"Feature","properties":{},"geometry":{"type":"Polygon","coordinates":[[[-26.03,-55.83],[-25.63,-55.7],[-25.8,-56.33],[-26.03,-55.83]]]}},{"type":"Feature","properties":{},"geometry":{"type":"Polygon","coordinates":[[[-27.22,-57.6],[-26.94,-57.77],[-27.58,-58.09],[-27.22,-57.6]]]}},{"type":"Feature","properties":{},"geometry":{"type":"Polygon","coordinates":[[[-27.37,-56.43],[-27.08,-56.32],[-27.36,-56.99],[-27.37,-56.43]]]}},{"type":"Feature","properties":{},"geometry":{"type":"Polygon","coordinates":[[[-20.69,-53.76],[-21.13,-54.01],[-19.77,-54.36],[-21.95,-54.28],[-20.69,-53.76]]]}},{"type":"Feature","properties":{},"geometry":{"type":"Polygon","coordinates":[[[-24.45,-53.44],[-24.06,-53.88],[-24.64,-53.72],[-24.45,-53.44]]]}},{"type":"Feature","properties":{},"geometry":{"type":"Polygon","coordinates":[[[-23.31,-52.88],[-22.89,-53.53],[-23.47,-53.31],[-23.31,-52.88]]]}},{"type":"Feature","properties":{},"geometry":{"type":"Polygon","coordinates":[[[-25.8,-53.23],[-24.74,-53.7],[-26.12,-53.69],[-25.8,-53.23]]]}},{"type":"Feature","properties":{},"geometry":{"type":"Polygon","coordinates":[[[-25.36,-52.37],[-24.58,-52.35],[-25.55,-52.85],[-25.1,-53.25],[-26.18,-53.08],[-25.53,-53.08],[-26.07,-52.72],[-25.36,-52.37]]]}},{"type":"Feature","properties":{},"geometry":{"type":"Polygon","coordinates":[[[-23.76,-53.89],[-22.36,-53.73],[-23.38,-53.5],[-21.39,-53.43],[-22.86,-53.08],[-22.4,-52.46],[-23.39,-52.69],[-23.3,-52.21],[-23.69,-52.12],[-22.93,-51.62],[-20.07,-52.72],[-17.78,-52.85],[-18.82,-53.5],[-24.18,-54.08],[-23.76,-53.89]]]}},{"type":"Feature","properties":{},"geometry":{"type":"Polygon","coordinates":[[[-14.33,-48.59],[-14.81,-49.57],[-15.53,-49.55],[-14.71,-49.08],[-15.47,-48.83],[-14.33,-48.59]]]}},{"type":"Feature","properties":{},"geometry":{"type":"Polygon","coordinates":[[[-13.89,-48.44],[-12.68,-48.59],[-14.07,-49.5],[-13.89,-48.44]]]}},{"type":"Feature","properties":{},"geometry":{"type":"Polygon","coordinates":[[[-28.73,-51.04],[-28.3,-51.35],[-28.9,-51.37],[-28.73,-51.04]]]}},{"type":"Feature","properties":{},"geometry":{"type":"Polygon","coordinates":[[[51.11,-68.97],[50.62,-68.69],[51.16,-68.6],[51.11,-68.97]]]}},{"type":"Feature","properties":{},"geometry":{"type":"Polygon","coordinates":[[[-29.7,-50.5],[-29.15,-50.54],[-29.55,-50.92],[-29.7,-50.5]]]}},{"type":"Feature","properties":{},"geometry":{"type":"Polygon","coordinates":[[[-29.46,-49.86],[-29.54,-50.37],[-30.24,-49.88],[-29.63,-49.83],[-29.91,-49.16],[-29.42,-49.35],[-29.06,-50.42],[-29.46,-49.86]]]}},{"type":"Feature","properties":{},"geometry":{"type":"Polygon","coordinates":[[[-30.08,-48.61],[-29.66,-49.12],[-30.14,-49.1],[-30.08,-48.61]]]}},{"type":"Feature","properties":{},"geometry":{"type":"Polygon","coordinates":[[[54.14,-74.08],[53.08,-73.72],[54.79,-73.45],[54.14,-74.08]]]}},{"type":"Feature","properties":{},"geometry":{"type":"Polygon","coordinates":[[[-30.57,-45.42],[-30.35,-45.67],[-30.9,-45.67],[-30.57,-45.42]]]}},{"type":"Feature","properties":{},"geometry":{"type":"Polygon","coordinates":[[[-30.05,-44.66],[-29.7,-44.75],[-30.11,-45.25],[-30.05,-44.66]]]}},{"type":"Feature","properties":{},"geometry":{"type":"Polygon","coordinates":[[[12.23,-73.96],[11.5,-73.72],[13.25,-73.65],[12.23,-73.96]]]}},{"type":"Feature","properties":{},"geometry":{"type":"Polygon","coordinates":[[[-31.92,-42.36],[-31.19,-42.71],[-31.54,-43.07],[-31.08,-43.33],[-31.24,-43.93],[-31.87,-43.86],[-31.92,-42.36]]]}},{"type":"Feature","properties":{},"geometry":{"type":"Polygon","coordinates":[[[57.11,-63.14],[56.5,-64.49],[57,-64.74],[56.38,-65.07],[57.07,-64.75],[58.27,-65.53],[57.84,-65.89],[52.35,-66.04],[53.31,-65.37],[51.08,-65.27],[51.41,-65.03],[51.04,-64.66],[51.66,-64.77],[52.23,-64.19],[57.11,-63.14]]]}},{"type":"Feature","properties":{},"geometry":{"type":"Polygon","coordinates":[[[55.89,-70.74],[53.13,-70.83],[53.8,-71.42],[52.85,-71.21],[52.83,-71.54],[53.54,-71.52],[53.21,-71.74],[49.61,-70.79],[49.96,-68.73],[48.45,-66.02],[49.54,-66.58],[49.36,-66.89],[50.74,-68.66],[55.89,-70.74]]]}},{"type":"Feature","properties":{},"geometry":{"type":"Polygon","coordinates":[[[37.72,-78.13],[40.62,-77.7],[40.39,-77.29],[40.92,-77.25],[39.56,-77.02],[45.28,-76.68],[47.66,-75.07],[47.05,-75.09],[49.94,-74.34],[58.45,-74.72],[57.19,-74.9],[58.11,-74.99],[56.92,-75.18],[57.73,-75.47],[56.9,-75.61],[57.18,-75.75],[51.2,-77.12],[43.6,-78.07],[37.72,-78.13]]]}},{"type":"Feature","properties":{},"geometry":{"type":"Polygon","coordinates":[[[62.98,-56.19],[62.66,-56.64],[61.63,-55.7],[62.07,-55.49],[62.98,-56.19]]]}},{"type":"Feature","properties":{},"geometry":{"type":"Polygon","coordinates":[[[74.62,-71.86],[72.81,-72.06],[73.46,-72.18],[71.54,-72.74],[72.08,-72.93],[65.81,-73.17],[66.19,-73.23],[64.71,-73.69],[67.3,-73.68],[61.73,-74.39],[60.66,-74.85],[61.85,-75.5],[60.81,-75.9],[55.91,-75.03],[55.51,-74.89],[56.46,-74.84],[56.57,-74.31],[53.56,-73.86],[50.43,-72.3],[52.07,-71.84],[55.5,-72.63],[58.89,-71.85],[59.76,-72.57],[62.07,-72.91],[68.38,-72.99],[68.97,-72.58],[68.03,-72.6],[74.45,-71.56],[74.62,-71.86]]]}},{"type":"Feature","properties":{},"geometry":{"type":"Polygon","coordinates":[[[103.13,-59.9],[102.38,-63.26],[101.74,-63.37],[101.8,-61.29],[103.13,-59.9]]]}},{"type":"Feature","properties":{},"geometry":{"type":"Polygon","coordinates":[[[90.09,-42.74],[89.7,-43.38],[89.18,-42.9],[90.09,-42.74]]]}},{"type":"Feature","properties":{},"geometry":{"type":"Polygon","coordinates":[[[22.79,-22.72],[23.62,-20.65],[24.87,-19.73],[26.63,-20.19],[26.81,-20.64],[27,-20.18],[27.68,-20.53],[29.12,-19.89],[29.33,-19.28],[29.52,-19.65],[30.25,-19.55],[30.68,-18.71],[31.38,-18.57],[31.42,-19.83],[30.53,-22.18],[30.03,-22.49],[29.74,-21.82],[29.19,-23.02],[21.96,-28.43],[19.84,-27.98],[19.3,-26.98],[20.25,-24.28],[22.79,-22.72]]]}},{"type":"Feature","properties":{},"geometry":{"type":"Polygon","coordinates":[[[86.57,-36.7],[86.35,-37.23],[85.87,-36.83],[86.57,-36.7]]]}},{"type":"Feature","properties":{},"geometry":{"type":"Polygon","coordinates":[[[86.77,-36.62],[86.79,-37.17],[87.48,-37.24],[87.48,-37.62],[86.54,-37.56],[86.77,-36.62]]]}},{"type":"Feature","properties":{},"geometry":{"type":"Polygon","coordinates":[[[60.54,-60.66],[60.1,-60.04],[60.45,-59.13],[63.12,-57.92],[63.75,-57.13],[63,-58.03],[63.43,-57.76],[63.77,-57.06],[63.15,-56.57],[64.79,-56.57],[65.59,-55.94],[63.8,-56.1],[62.99,-55.49],[66.44,-55.59],[68.06,-54.91],[67.19,-55.2],[63.62,-54.5],[62.89,-54.72],[63.03,-53.91],[63.24,-54.22],[64.04,-53.75],[65.8,-51.71],[64.96,-50.58],[65.06,-49.53],[60.88,-46.11],[58.91,-45.14],[57.36,-45.05],[55.35,-42.36],[52.99,-41.53],[52.4,-40.54],[52.41,-39.14],[55.57,-38.32],[57.98,-36.25],[59.97,-33.34],[59.76,-34.01],[60.81,-33.24],[60.21,-34.2],[60.8,-34.09],[61.79,-32.54],[63.74,-31.65],[64.73,-31.52],[64.12,-32],[67.76,-32.78],[68.15,-33.52],[71.64,-35.37],[73.95,-35.42],[74.61,-34.74],[75.99,-34.74],[75.3,-36],[76.34,-35.79],[76.17,-35.33],[76.67,-35.06],[77.52,-36.22],[77.15,-35.78],[78.1,-35.64],[77.55,-35.63],[77.91,-35.28],[78.39,-35.28],[78.54,-35.96],[78.59,-35.34],[79.11,-35.83],[79.21,-35.29],[80.05,-35.28],[79.93,-35.8],[80.66,-35.37],[80.51,-35.76],[81.5,-35.88],[81.77,-36.41],[81.69,-37.52],[80.53,-37.87],[81.89,-37.75],[82.33,-38.83],[83.18,-38.52],[82.99,-38.06],[85.36,-37.63],[85.66,-37.95],[85.8,-37.61],[85.89,-38.07],[86.74,-37.86],[87.93,-38.98],[88.39,-38.56],[87.8,-37.69],[88.17,-37.69],[88.83,-39.28],[89.33,-39.47],[89.21,-39.93],[89.9,-40.19],[90.01,-40.81],[90.96,-40.99],[90.49,-40.99],[90.98,-41.16],[90.56,-41.45],[91.65,-41.38],[91.6,-41.99],[90.68,-42.25],[89.73,-41.93],[88.84,-42.57],[87.4,-42.36],[87.78,-43.06],[87.27,-43.03],[87.79,-43.11],[88.12,-44.19],[87.59,-44.15],[88.2,-44.51],[88.99,-47.49],[89.72,-48.15],[93.51,-47.28],[94.58,-46.1],[96.44,-45.5],[95.97,-45.22],[98.68,-44.42],[97.75,-46.69],[96.49,-47.99],[97.51,-48.31],[97.64,-49.43],[96.16,-50.57],[96.28,-51.27],[94.41,-52.89],[95.67,-55.52],[95.02,-55.8],[94.89,-56.92],[93.68,-57.75],[94.17,-57.73],[94.1,-58.09],[94.79,-57.7],[94.79,-58.47],[95.26,-58.27],[93.95,-59.2],[93.62,-58.82],[94.01,-59.35],[93.8,-60],[94.31,-60.16],[93.59,-61.49],[93.87,-61.78],[92.89,-62.34],[93.22,-62.42],[90.75,-63.18],[89.16,-64.46],[80.4,-65.84],[78.81,-65.4],[76.99,-65.55],[76.63,-65.12],[76.87,-65.34],[76.42,-65.45],[76.79,-65.52],[76.28,-65.61],[71.14,-65.53],[66.96,-66.12],[66.02,-65.84],[64.7,-64.5],[62.63,-64.2],[62.03,-63.7],[61.17,-63.97],[61.91,-63.03],[62.6,-63.02],[61.76,-62.68],[61.99,-62.42],[63.17,-62.46],[60.31,-61.78],[60.54,-60.66]]]}},{"type":"Feature","properties":{},"geometry":{"type":"Polygon","coordinates":[[[97.73,-39.51],[97.9,-39.85],[97.15,-40.1],[96.28,-39.36],[97.73,-39.51]]]}},{"type":"Feature","properties":{},"geometry":{"type":"Polygon","coordinates":[[[129.6,8.79],[129.38,8.24],[128.54,8],[129.6,8.79]]]}},{"type":"Feature","properties":{},"geometry":{"type":"Polygon","coordinates":[[[94.33,-35.6],[94.36,-36.12],[93.77,-36.16],[94.33,-35.6]]]}},{"type":"Feature","properties":{},"geometry":{"type":"Polygon","coordinates":[[[94.92,-35.69],[94.62,-36.02],[94.49,-35.61],[94.92,-35.69]]]}},{"type":"Feature","properties":{},"geometry":{"type":"Polygon","coordinates":[[[122.19,5.74],[124.32,6.56],[124.96,6.26],[126.49,6.95],[126.67,7.72],[128.33,8.11],[129.08,7.6],[130.44,8.2],[130.92,7.48],[123.27,4.63],[123.16,5.04],[121.94,4.6],[122.19,5.74]]]}},{"type":"Feature","properties":{},"geometry":{"type":"Polygon","coordinates":[[[95.15,-35.32],[95.05,-35.8],[94.61,-35.55],[95.15,-35.32]]]}},{"type":"Feature","properties":{},"geometry":{"type":"Polygon","coordinates":[[[122.71,9.52],[123.3,9.55],[123.3,9.04],[122.94,8.86],[122.71,9.52]]]}},{"type":"Feature","properties":{},"geometry":{"type":"Polygon","coordinates":[[[120.53,9.16],[121.42,8.68],[121.97,8.9],[122.2,8.43],[120.29,8.23],[120.53,9.16]]]}},{"type":"Feature","properties":{},"geometry":{"type":"Polygon","coordinates":[[[106.85,-43.94],[106.54,-44.67],[107.14,-45.71],[106.84,-46.8],[107.72,-47.15],[107.24,-47.5],[108.07,-48.12],[107.55,-48.28],[108.61,-49.02],[107.86,-48.81],[108.06,-49.2],[105.18,-47.12],[104.64,-44.23],[103.61,-43.08],[102.9,-43.14],[102.73,-42.38],[102.5,-43.18],[101.88,-42.68],[101.96,-43.18],[100.43,-42.27],[101.24,-43.04],[101.06,-43.64],[98.5,-42.4],[98.22,-40.87],[98.69,-40.73],[97.16,-40.27],[97.92,-39.86],[97.78,-39.29],[98.78,-39.88],[97.86,-39.02],[98.49,-39.48],[98.22,-38.46],[98.75,-38.05],[98.39,-37.77],[98.65,-36.85],[98.32,-36.96],[96.48,-34.41],[101.48,-37.76],[106.85,-43.94]]]}},{"type":"Feature","properties":{},"geometry":{"type":"Polygon","coordinates":[[[117.77,10.48],[118.05,10.16],[117.59,10.13],[117.77,10.48]]]}},{"type":"Feature","properties":{},"geometry":{"type":"Polygon","coordinates":[[[-3.26,-3.74],[-3.42,-4.13],[-3.65,-3.9],[-3.26,-3.74]]]}},{"type":"Feature","properties":{},"geometry":{"type":"Polygon","coordinates":[[[108.64,8.03],[110.45,8.98],[111.68,8.44],[116.56,8.72],[119.08,4.71],[116.44,5.83],[114.81,6],[113.65,6.97],[109.04,7.36],[108.43,7.78],[108.64,8.03]]]}},{"type":"Feature","properties":{},"geometry":{"type":"Polygon","coordinates":[[[116.23,8.81],[117.1,8.96],[116.92,8.52],[117.69,9.21],[118.06,8.2],[119.03,8.59],[120.28,7.58],[120.87,8.28],[121.6,8.07],[123.13,5.59],[122.51,5.68],[122.63,5.32],[121.96,5.15],[122.23,4.85],[118.42,5.15],[116.23,8.81]]]}},{"type":"Feature","properties":{},"geometry":{"type":"Polygon","coordinates":[[[125.1,22.25],[125.3,21.88],[125.42,22.45],[126.25,22.24],[126.88,21.66],[128.26,22.04],[127.46,21.07],[128.16,20.94],[127.22,20.39],[127.77,19.83],[127.1,19.42],[127.71,19.62],[127.35,19.42],[128.76,18.81],[128.76,18.27],[130.26,18.03],[129.16,17.67],[129.87,15.87],[129.08,14.32],[129.42,14.32],[129.2,13.83],[129.7,13.99],[129.6,12.37],[128.85,11.45],[128.36,12.14],[127.61,11.6],[126.81,11.77],[126.11,10.65],[125.56,11.23],[124.42,10.34],[123.2,11.83],[122.45,11.69],[122.63,11.95],[121.5,12.53],[121.01,14.12],[123.11,14.62],[122.69,14.66],[122.49,15.86],[123.67,17.07],[123.78,18.77],[124.91,19.75],[124.64,20.18],[125.1,22.25]]]}},{"type":"Feature","properties":{},"geometry":{"type":"Polygon","coordinates":[[[23.38,-32.97],[20.62,-34.43],[19.18,-34.16],[18.69,-33.14],[19.15,-32.61],[21.37,-32.39],[23.38,-32.97]]]}},{"type":"Feature","properties":{},"geometry":{"type":"Polygon","coordinates":[[[-30.76,10.42],[-30.64,9.73],[-31.54,9.49],[-31.12,9.81],[-31.4,10.19],[-30.76,10.42]]]}},{"type":"Feature","properties":{},"geometry":{"type":"Polygon","coordinates":[[[-49.11,-10.23],[-48.28,-11.42],[-49.6,-10.58],[-49.11,-10.23]]]}},{"type":"Feature","properties":{},"geometry":{"type":"Polygon","coordinates":[[[-51.92,-5.39],[-50.25,-7.48],[-49.97,-8.3],[-50.44,-8.14],[-49.9,-9.35],[-50.4,-9.41],[-51.96,-7.71],[-52.72,-7.95],[-52.68,-7.08],[-54.04,-5.97],[-54.16,-5.35],[-53.77,-5.28],[-52.66,-6.67],[-52.21,-5.8],[-52.53,-5.12],[-51.92,-5.39]]]}},{"type":"Feature","properties":{},"geometry":{"type":"Polygon","coordinates":[[[117.86,26.23],[118.82,26.44],[118.65,25.19],[117.79,24.41],[116.82,24.59],[116.63,25.44],[117.86,26.23]]]}},{"type":"Feature","properties":{},"geometry":{"type":"Polygon","coordinates":[[[-49.12,-4.15],[-48.16,-5.99],[-47.12,-11.81],[-49.5,-9.35],[-48.54,-9.18],[-48.98,-8.49],[-48.61,-7.51],[-49.84,-4.89],[-49.47,-4.54],[-51.76,-2.67],[-51.28,-3.1],[-50.57,-2.9],[-49.12,-4.15]]]}},{"type":"Feature","properties":{},"geometry":{"type":"Polygon","coordinates":[[[138.54,44.67],[139.5,44.37],[139.29,43.98],[139.93,43.61],[138.94,42.08],[138.13,41.74],[138.34,42.44],[138.06,41.91],[137.52,42.19],[138.22,43.52],[137.77,43.96],[137.9,43.44],[137.18,43.36],[137.14,43.88],[137.52,43.62],[137.03,44.13],[138.54,44.67]]]}},{"type":"Feature","properties":{},"geometry":{"type":"Polygon","coordinates":[[[142.47,44.92],[143.09,44.37],[142.38,43.8],[141.49,44.05],[140.58,43.46],[140.36,44.12],[139.89,44.03],[140.97,44.75],[142.47,44.92]]]}},{"type":"Feature","properties":{},"geometry":{"type":"Polygon","coordinates":[[[20.66,18.5],[22.17,17.08],[20.96,17.58],[20.35,18.39],[20.66,18.5]]]}},{"type":"Feature","properties":{},"geometry":{"type":"Polygon","coordinates":[[[25.12,12.95],[24.27,13.2],[23.68,13.93],[23.82,14.52],[24.5,14.21],[25.12,12.95]]]}},{"type":"Feature","properties":{},"geometry":{"type":"Polygon","coordinates":[[[16.71,24.58],[15.26,23.55],[14.21,25.77],[14.69,25.92],[16.71,24.58]]]}},{"type":"Feature","properties":{},"geometry":{"type":"Polygon","coordinates":[[[22.47,21.54],[22.64,20.17],[21.99,21.65],[22.47,21.54]]]}},{"type":"Feature","properties":{},"geometry":{"type":"Polygon","coordinates":[[[33.87,36.21],[34.26,35.94],[33.49,35.89],[33.87,36.21]]]}},{"type":"Feature","properties":{},"geometry":{"type":"Polygon","coordinates":[[[12.05,28.42],[11.95,27.73],[11.33,27.98],[12.05,28.42]]]}},{"type":"Feature","properties":{},"geometry":{"type":"Polygon","coordinates":[[[15.94,31.83],[15.67,31.33],[13.98,30.78],[13.15,31.31],[15.23,32.44],[15.94,31.83]]]}},{"type":"Feature","properties":{},"geometry":{"type":"Polygon","coordinates":[[[142.61,45.26],[140.36,45.02],[140.07,44.51],[138.6,44.69],[138.76,45.18],[141.33,46.22],[144.85,46.1],[145.86,47.74],[146.58,47.84],[145.95,47.48],[146.32,47.09],[147.96,47.62],[149.71,49.05],[150.03,50.74],[150.72,51.34],[151.58,50.88],[151.75,51.28],[151.21,51.18],[151.46,51.57],[152.1,51.41],[151.93,50.63],[152.43,49.41],[151.59,48.27],[150.82,48.09],[150.75,47.05],[150.15,46.36],[150.44,45.79],[149.78,45.29],[149.03,45.12],[149.4,45.83],[147.84,44.92],[147.89,45.37],[147.21,44.9],[145.81,44.95],[146.22,45.13],[145.51,45.46],[145.25,45.02],[145.64,44.66],[143.98,43.99],[143.46,44.39],[144.01,45.18],[142.61,45.26]]]}},{"type":"Feature","properties":{},"geometry":{"type":"Polygon","coordinates":[[[17.93,32.36],[16.05,31.91],[16.94,32.72],[17.93,32.36]]]}},{"type":"Feature","properties":{},"geometry":{"type":"Polygon","coordinates":[[[157.65,48],[157.96,47.97],[156.55,47.42],[157.65,48]]]}},{"type":"Feature","properties":{},"geometry":{"type":"Polygon","coordinates":[[[153.41,49.69],[155.48,47.82],[156.64,48.04],[156.19,47.56],[156.41,46.96],[154.72,46.8],[153.81,46.07],[151.15,46.98],[151.07,47.76],[152.21,47.6],[153.41,49.69]]]}},{"type":"Feature","properties":{},"geometry":{"type":"Polygon","coordinates":[[[151.3,52.63],[150.84,52.33],[151.84,51.8],[150.43,51.52],[150.35,52.73],[151.3,52.63]]]}},{"type":"Feature","properties":{},"geometry":{"type":"Polygon","coordinates":[[[-7.16,31.91],[-6.99,31.21],[-7.51,30.57],[-6.95,31.25],[-6.43,30.93],[-7.59,30.4],[-7.86,30.88],[-7.16,31.91]]]}},{"type":"Feature","properties":{},"geometry":{"type":"Polygon","coordinates":[[[-9.92,31.5],[-9.7,31.08],[-8.26,31.24],[-8.81,30.68],[-9.97,31.03],[-9.92,31.5]]]}},{"type":"Feature","properties":{},"geometry":{"type":"Polygon","coordinates":[[[-10.42,34.55],[-8.38,33.92],[-9.91,34.03],[-10.42,34.55]]]}},{"type":"Feature","properties":{},"geometry":{"type":"Polygon","coordinates":[[[-68.34,6.36],[-66.62,6.02],[-65.14,4.41],[-66.26,4.5],[-66.07,5],[-66.5,4.61],[-67.2,4.98],[-66.97,5.33],[-68.17,5.61],[-67.91,6.14],[-68.29,5.94],[-68.34,6.36]]]}},{"type":"Feature","properties":{},"geometry":{"type":"Polygon","coordinates":[[[-3.46,34.51],[-2.82,35],[-1.97,34.8],[-2.38,33.86],[-1.48,34.21],[-2.17,33.69],[-1.8,33.06],[-1.26,33.73],[-1.18,32.27],[-1.6,32.21],[-1.65,32.78],[-2.1,32.33],[-2.2,33.38],[-3.34,32.19],[-2.65,33.11],[-6.3,32.62],[-3.46,34.51]]]}},{"type":"Feature","properties":{},"geometry":{"type":"Polygon","coordinates":[[[-4.32,36.89],[-3.95,36.71],[-4.42,36.59],[-4.09,36.38],[-4.77,34.94],[-3.73,35.33],[-4.17,34.84],[-3.36,34.91],[-3.46,34.51],[-6.28,32.75],[-5.62,33.6],[-6.38,33.53],[-5.8,34.22],[-5.39,34.08],[-5.74,34.39],[-5.33,34.58],[-5.32,35.84],[-4.32,36.89]]]}},{"type":"Feature","properties":{},"geometry":{"type":"Polygon","coordinates":[[[-23.81,37.2],[-23.3,36.67],[-24.33,36.99],[-23.81,37.2]]]}},{"type":"Feature","properties":{},"geometry":{"type":"Polygon","coordinates":[[[-70.84,8.57],[-70.39,7.45],[-71.29,8.38],[-70.84,8.57]]]}},{"type":"Feature","properties":{},"geometry":{"type":"Polygon","coordinates":[[[-71.61,9.46],[-71.09,9.32],[-71.25,8.86],[-70.79,9.49],[-71.07,8.45],[-71.61,9.46]]]}},{"type":"Feature","properties":{},"geometry":{"type":"Polygon","coordinates":[[[157.65,58.16],[157.57,56.63],[156.78,55.59],[157.43,52.34],[156.89,53.04],[155.73,53.06],[154.78,51.82],[155.45,50.28],[155.13,49.97],[155.17,50.45],[154.6,50.78],[153.68,50.02],[153.61,50.74],[154.5,52.06],[154.38,52.88],[155.71,55.14],[155.34,55.8],[156.22,57.38],[157.16,57.37],[157.08,58.19],[157.65,58.16]]]}},{"type":"Feature","properties":{},"geometry":{"type":"Polygon","coordinates":[[[-87.72,14.77],[-87.63,14.22],[-88.63,14.68],[-87.72,14.77]]]}},{"type":"Feature","properties":{},"geometry":{"type":"Polygon","coordinates":[[[156.75,70.58],[157.53,70.45],[155.84,70.2],[156.75,70.58]]]}},{"type":"Feature","properties":{},"geometry":{"type":"Polygon","coordinates":[[[0.35,38.92],[1.21,39.34],[0.23,39.08],[0.87,39.86],[-0.17,39.89],[0.22,40.35],[-0.32,40.72],[0.9,40.88],[1.07,41.35],[0.54,41.32],[1.42,42.15],[1.81,42.06],[1.54,41.71],[2.46,42.13],[3.15,41.52],[2.55,41.09],[2.79,40.63],[0.35,38.92]]]}},{"type":"Feature","properties":{},"geometry":{"type":"Polygon","coordinates":[[[1.65,38.62],[0.62,38.01],[0.8,38.33],[0.29,38.13],[0.69,38.46],[0.05,38.33],[0.47,38.71],[-0.09,38.65],[2.79,40.63],[3.09,39.15],[1.65,38.62]]]}},{"type":"Feature","properties":{},"geometry":{"type":"Polygon","coordinates":[[[14.78,44.96],[15.24,44.52],[14.24,44.77],[14.78,44.96]]]}},{"type":"Feature","properties":{},"geometry":{"type":"Polygon","coordinates":[[[-71.97,31.17],[-71.75,30.44],[-71.97,30.87],[-72.22,30.61],[-71.97,31.17]]]}},{"type":"Feature","properties":{},"geometry":{"type":"Polygon","coordinates":[[[16.05,45.78],[16.29,44.64],[15.06,45.19],[15.64,45.56],[16.01,45.31],[15.69,45.56],[16.05,45.78]]]}},{"type":"Feature","properties":{},"geometry":{"type":"Polygon","coordinates":[[[-72.01,11.62],[-71.14,10.77],[-71.48,10.64],[-71.05,10.57],[-71.03,9.99],[-71.77,10.56],[-72.01,11.62]]]}},{"type":"Feature","properties":{},"geometry":{"type":"Polygon","coordinates":[[[-22.31,40.63],[-22.03,40.31],[-22.67,39.78],[-22.31,40.63]]]}},{"type":"Feature","properties":{},"geometry":{"type":"Polygon","coordinates":[[[1.51,44.55],[2.13,44.2],[1.94,43.91],[1.25,44.21],[1.51,44.55]]]}},{"type":"Feature","properties":{},"geometry":{"type":"Polygon","coordinates":[[[20.01,48.62],[20.36,48.24],[20.02,47.6],[19.67,48.18],[20.01,48.62]]]}},{"type":"Feature","properties":{},"geometry":{"type":"Polygon","coordinates":[[[-72.45,10.14],[-72.25,9.21],[-72.93,9.82],[-72.45,10.14]]]}},{"type":"Feature","properties":{},"geometry":{"type":"Polygon","coordinates":[[[-72.76,13.57],[-72.18,12.73],[-72.59,12.28],[-72.76,13.57]]]}},{"type":"Feature","properties":{},"geometry":{"type":"Polygon","coordinates":[[[1.3,45.33],[1.03,44.49],[0.82,44.98],[1.3,45.33]]]}},{"type":"Feature","properties":{},"geometry":{"type":"Polygon","coordinates":[[[22.44,50.06],[23.08,50.06],[22.44,49.29],[21.94,49.8],[22.44,50.06]]]}},{"type":"Feature","properties":{},"geometry":{"type":"Polygon","coordinates":[[[3.35,45.83],[3.63,45.59],[2.84,44.99],[3.31,45.02],[2.94,44.55],[3.31,44.76],[2.76,43.74],[1.88,43.59],[2.38,44.08],[1.83,44.75],[2.38,44.81],[2.16,45.6],[3.35,45.83]]]}},{"type":"Feature","properties":{},"geometry":{"type":"Polygon","coordinates":[[[3.31,44.76],[4.83,45.03],[4.66,43.92],[4.12,43.63],[4.72,43.62],[3.82,43.3],[5.18,43.34],[5.83,42.83],[3.45,41.75],[3.42,43.04],[3.14,43.28],[2.83,42.87],[2.99,43.32],[2.63,42.26],[2.43,43.25],[3.31,44.76]]]}},{"type":"Feature","properties":{},"geometry":{"type":"Polygon","coordinates":[[[5.83,42.83],[6.29,42.18],[7.33,41.89],[7.68,41.41],[6.99,41.39],[7.73,41.3],[7.79,40.71],[9.15,40.8],[9.27,40.16],[8.51,39.35],[9.42,39.23],[4.18,37.13],[5.01,38.46],[5.95,38.65],[6.3,39.31],[5.65,38.77],[3.97,39.01],[4.85,39.83],[4.65,40.17],[4.14,39.95],[4.37,40.33],[5.54,40.73],[4.55,42.05],[5.83,42.83]]]}},{"type":"Feature","properties":{},"geometry":{"type":"Polygon","coordinates":[[[22.15,50.5],[22.66,50.36],[21.84,50.23],[22.15,50.5]]]}},{"type":"Feature","properties":{},"geometry":{"type":"Polygon","coordinates":[[[-12.78,46.17],[-12.59,45.8],[-13.09,46.06],[-12.78,46.17]]]}},{"type":"Feature","properties":{},"geometry":{"type":"Polygon","coordinates":[[[-22.62,46.37],[-22.87,45.57],[-23.16,45.99],[-22.62,46.37]]]}},{"type":"Feature","properties":{},"geometry":{"type":"Polygon","coordinates":[[[-24.5,46.97],[-24.31,46.69],[-25.49,46.12],[-25.38,46.82],[-24.5,46.97]]]}},{"type":"Feature","properties":{},"geometry":{"type":"Polygon","coordinates":[[[-49.33,75.08],[-54.22,74.5],[-53.62,74.71],[-54.06,74.91],[-50.47,75.38],[-49.33,75.08]]]}},{"type":"Feature","properties":{},"geometry":{"type":"Polygon","coordinates":[[[-26.55,49.91],[-26.21,49.21],[-25.92,49.46],[-24.23,48.53],[-24.33,47.95],[-23.12,47.75],[-23.72,47.42],[-25.05,48.16],[-26.62,47.09],[-26.78,47.74],[-27.76,47.61],[-27.07,48.09],[-26.55,49.91]]]}},{"type":"Feature","properties":{},"geometry":{"type":"Polygon","coordinates":[[[51.16,68.54],[51.66,68.38],[50.8,68.17],[51.16,68.54]]]}},{"type":"Feature","properties":{},"geometry":{"type":"Polygon","coordinates":[[[-19.66,52.15],[-19.08,51.94],[-19.97,52.08],[-19.66,52.15]]]}},{"type":"Feature","properties":{},"geometry":{"type":"Polygon","coordinates":[[[-20.68,52.38],[-20.13,52.23],[-20.17,51.5],[-21.28,51.27],[-21.3,52.11],[-20.68,52.38]]]}},{"type":"Feature","properties":{},"geometry":{"type":"Polygon","coordinates":[[[10.52,58.29],[11.32,58.06],[10.6,57.56],[10.52,58.29]]]}},{"type":"Feature","properties":{},"geometry":{"type":"Polygon","coordinates":[[[-29.32,72.65],[-36.12,73.03],[-39.79,73.95],[-40.49,73.76],[-38,73.4],[-41.33,72.8],[-45.38,72.88],[-45.02,73.32],[-45.64,73.49],[-44.14,73.57],[-45.5,73.72],[-42.9,74.07],[-45.34,74.29],[-44.82,74.83],[-46.95,74.83],[-45.85,74.98],[-46.35,75.2],[-45.08,75.01],[-45.45,75.3],[-39.6,75.04],[-36.04,75.56],[-34.49,75.15],[-34.94,74.99],[-34.48,74.75],[-33.19,75.17],[-34.83,75.75],[-33.49,75.64],[-28.87,72.61],[-29.32,72.65]]]}},{"type":"Feature","properties":{},"geometry":{"type":"Polygon","coordinates":[[[10.1,58.26],[10.54,57.99],[9.89,57.83],[10.1,58.26]]]}},{"type":"Feature","properties":{},"geometry":{"type":"Polygon","coordinates":[[[31.38,65.15],[32.2,64.94],[31.15,64.41],[31.46,64.35],[30.67,64.71],[31.38,65.15]]]}},{"type":"Feature","properties":{},"geometry":{"type":"Polygon","coordinates":[[[11.23,59.07],[11.71,58.86],[11.06,58.56],[11.23,59.07]]]}},{"type":"Feature","properties":{},"geometry":{"type":"Polygon","coordinates":[[[-33.38,54.04],[-32.22,53.08],[-33.13,52.72],[-34.76,53.29],[-33.71,54.22],[-33.38,54.04]]]}},{"type":"Feature","properties":{},"geometry":{"type":"Polygon","coordinates":[[[-15.04,72.18],[-16.23,72.4],[-14.32,72.37],[-15.04,72.18]]]}},{"type":"Feature","properties":{},"geometry":{"type":"Polygon","coordinates":[[[-10.01,50.22],[-8.8,49.62],[-10.09,49.34],[-9.61,49.39],[-10.49,49.63],[-10.01,50.22]]]}},{"type":"Feature","properties":{},"geometry":{"type":"Polygon","coordinates":[[[35.59,68.1],[37.91,67.88],[36.01,67.7],[35.59,68.1]]]}},{"type":"Feature","properties":{},"geometry":{"type":"Polygon","coordinates":[[[13.35,61.18],[13.36,60.82],[12.7,60.78],[13.35,61.18]]]}},{"type":"Feature","properties":{},"geometry":{"type":"Polygon","coordinates":[[[4.48,52.61],[4.88,52.29],[3.5,51.82],[4.48,52.61]]]}},{"type":"Feature","properties":{},"geometry":{"type":"Polygon","coordinates":[[[-26.39,70.85],[-25.42,70.82],[-25.93,70.38],[-26.39,70.85]]]}},{"type":"Feature","properties":{},"geometry":{"type":"Polygon","coordinates":[[[-26.99,70.05],[-28.82,70.33],[-27.29,70.79],[-26.25,70.2],[-26.99,70.05]]]}},{"type":"Feature","properties":{},"geometry":{"type":"Polygon","coordinates":[[[-156.24,85.71],[-155.21,85.55],[-158.38,85.78],[-156.24,85.71]]]}},{"type":"Feature","properties":{},"geometry":{"type":"Polygon","coordinates":[[[-10.84,31.59],[-9.9,30.65],[-8.56,30.34],[-8.14,30.68],[-7.29,30.2],[-9.9,29.19],[-10.73,28],[-11.29,28.25],[-11.15,29.09],[-11.41,28.93],[-10.14,29.94],[-9.86,29.58],[-9.21,30.06],[-10.5,29.9],[-10.26,30.57],[-13.14,28.6],[-13.74,28.78],[-13.83,28.27],[-14.67,27.99],[-15.22,26.55],[-14.58,25.98],[-14.39,26.33],[-14.29,25.85],[-15.28,25.69],[-15.46,26.03],[-15.51,25.59],[-16.19,25.46],[-14.25,28.92],[-10.84,31.59]]]}},{"type":"Feature","properties":{},"geometry":{"type":"Polygon","coordinates":[[[-11.59,-25.38],[-13.82,-29.99],[-12.84,-28.02],[-13.64,-27.71],[-13.36,-28.03],[-14.07,-29.59],[-14.1,-31.01],[-15.1,-32.81],[-16.95,-33.46],[-18.7,-33.36],[-19.45,-32.82],[-19.32,-31.87],[-19.65,-32.12],[-19.39,-33.44],[-17.83,-34.03],[-17.58,-34.89],[-25.69,-33.95],[-27.51,-33.45],[-33.51,-26.81],[-34.09,-24.96],[-33.98,-23.09],[-34.85,-20.66],[-27.81,-22.97],[-20.88,-24.58],[-11.59,-25.38]]]}},{"type":"Feature","properties":{},"geometry":{"type":"Polygon","coordinates":[[[-21.37,-37.21],[-21.98,-37.1],[-21.4,-37.63],[-21.72,-37.61],[-21.25,-39.18],[-23.85,-39.65],[-23.33,-40.84],[-22.68,-41.08],[-22.14,-40.58],[-21.77,-41.22],[-23.08,-41.39],[-22.33,-41.56],[-23.03,-42.4],[-22.72,-43.68],[-23.97,-44.33],[-24.22,-45.23],[-23.06,-45.92],[-22,-45.9],[-21.71,-46.61],[-22.89,-48.01],[-22.75,-48.99],[-23.47,-49],[-23.1,-49.24],[-23.57,-49.76],[-23.14,-50.87],[-22.01,-51.31],[-22.86,-51.34],[-24.12,-52.18],[-23.83,-53.35],[-25.25,-53.13],[-24.53,-53.09],[-24.27,-52.38],[-24.86,-52.15],[-26.11,-52.39],[-25.91,-52.88],[-26.38,-52.96],[-26.1,-52.41],[-26.81,-52.76],[-27.2,-52.12],[-26.25,-52.17],[-26.32,-51.84],[-25.96,-52.03],[-26.24,-52.35],[-25.84,-52.28],[-26.12,-51.61],[-27,-51.22],[-26.21,-51.59],[-27.01,-51.59],[-26.5,-51.78],[-26.68,-52.07],[-27.08,-51.67],[-26.71,-52.16],[-27.59,-51.76],[-27.27,-51.69],[-27.54,-51.29],[-28.25,-51.15],[-27.56,-50.76],[-27.89,-50.52],[-28.09,-51.05],[-28.3,-50.59],[-29.05,-50.57],[-28.2,-50.49],[-28.98,-49.95],[-28.31,-49.9],[-28.95,-49.37],[-29.18,-49.74],[-29.49,-49.18],[-29.15,-49.05],[-29.55,-48.99],[-29.14,-48.71],[-30.07,-48.48],[-28.73,-48.21],[-29.38,-47.86],[-30.26,-48.22],[-29.77,-47.98],[-30.21,-47.88],[-29.86,-47.54],[-30.27,-47.2],[-31.63,-47.52],[-31.12,-46.4],[-30.5,-46.27],[-29.92,-46.96],[-29.66,-45.94],[-30.01,-46.13],[-30.07,-45.79],[-29.42,-45.63],[-30.21,-45.55],[-29.59,-44.7],[-30.41,-44.52],[-30.3,-42.83],[-30.7,-42.64],[-30.2,-42.73],[-30.89,-42.28],[-30.46,-41.76],[-31.8,-42.29],[-32.39,-40.61],[-32.1,-39.91],[-33.27,-38.03],[-32.82,-37.71],[-32.42,-33.93],[-33.64,-29.49],[-33.62,-25.55],[-29.47,-29.72],[-25.9,-34.39],[-21.37,-37.21]]]}},{"type":"Feature","properties":{},"geometry":{"type":"Polygon","coordinates":[[[-37.82,8.96],[-35.87,9.35],[-34.65,8.95],[-33.3,9.63],[-33.94,9.7],[-31.59,10.2],[-32.58,9.79],[-31.9,9.18],[-30.39,9.09],[-30.36,8.19],[-29.43,8.37],[-27.91,7.64],[-27.65,6.48],[-27.41,7],[-26.09,6.14],[-24.05,6.68],[-21.88,6.5],[-19.97,5.47],[-19.32,3.91],[-18.18,3.04],[-19.35,0.9],[-18.75,1.5],[-18.98,0.77],[-18.44,1.45],[-16.39,1.59],[-16.67,0.38],[-18.13,-0.36],[-17.06,0.06],[-17.09,-0.41],[-16.15,0.44],[-15.89,1.42],[-14.8,1.45],[-13.22,1.1],[-13.17,0.67],[-12.75,1.07],[-12.44,0.79],[-12.52,0.26],[-12.11,0.25],[-12.36,-0.78],[-12.03,0.11],[-11.87,-0.24],[-11.14,0.42],[-9.93,0.13],[-7.69,0.46],[-4.59,-1.16],[-2.64,-1.39],[-1.82,-3.82],[-4.19,-8.83],[-4.64,-9.35],[-4.89,-8.99],[-4.45,-14.05],[-5.49,-18.61],[-6.3,-19.74],[-8.61,-20.07],[-11.8,-23.17],[-12.33,-23.17],[-11.91,-23.31],[-12.27,-23.95],[-11.92,-23.96],[-11.68,-25.87],[-20.96,-24.79],[-27.84,-22.97],[-34.78,-20.44],[-36.26,-19.05],[-41.14,-17.21],[-45.27,-11.4],[-46.53,-10.08],[-47.77,-9.58],[-47.59,-9.02],[-48.2,-7.84],[-47.15,-6.8],[-46.95,-5.91],[-47.23,-5.7],[-47.45,-6.17],[-48.29,-5.75],[-47.85,-2.69],[-46.85,-2.11],[-46.65,-1.15],[-42.56,1.58],[-41.62,5.2],[-39.04,8.45],[-37.82,8.96]]]}},{"type":"Feature","properties":{},"geometry":{"type":"Polygon","coordinates":[[[-47.29,4.56],[-46.42,3.86],[-46.66,4.48],[-45.48,5.49],[-45.3,6.92],[-43.42,7.65],[-41.99,9.02],[-41.4,8.68],[-42.16,8.09],[-41.67,7.29],[-42.1,6.33],[-41.58,5.63],[-41,6.38],[-41.7,7.38],[-40.27,8.22],[-40.34,8.97],[-39.85,8.29],[-38.41,7.9],[-39.6,7.15],[-42.3,4],[-43.37,0.42],[-47.56,-2.15],[-46.15,-0.14],[-46.71,0.09],[-46.8,2.45],[-47.67,3.22],[-47.29,4.56]]]}},{"type":"Feature","properties":{},"geometry":{"type":"Polygon","coordinates":[[[-18.01,-34.15],[-17.29,-34.73],[-17.72,-36.07],[-21.47,-37.81],[-25.61,-35.42],[-27.89,-32.84],[-18.01,-34.15]]]}},{"type":"Feature","properties":{},"geometry":{"type":"Polygon","coordinates":[[[-59.49,22.15],[-59.15,22.08],[-59.21,22.64],[-59.86,22.64],[-60.67,25.05],[-59.65,25.62],[-58.27,24.75],[-56.5,21.59],[-56.14,20.16],[-56.46,19.07],[-59.49,22.15]]]}},{"type":"Feature","properties":{},"geometry":{"type":"Polygon","coordinates":[[[-60.67,25.05],[-60.23,26.25],[-60.45,27.59],[-59.47,30.9],[-59.04,30.88],[-59.51,30.94],[-59.09,31.59],[-59.47,31.6],[-59.67,33.1],[-58.16,32.67],[-58.46,31.56],[-57.82,31.96],[-58.02,33.32],[-57.26,33.63],[-57.2,32.2],[-55.74,31.99],[-54.94,30.79],[-53.13,30.48],[-53.71,28.82],[-57.57,27.11],[-60.67,25.05]]]}},{"type":"Feature","properties":{},"geometry":{"type":"Polygon","coordinates":[[[-64.22,5.63],[-64.98,5.11],[-65.24,5.93],[-65.12,5.48],[-65.55,5.33],[-65.54,6.04],[-65.78,5.54],[-66.2,5.8],[-65.93,6.29],[-66.4,6.06],[-66.01,6.75],[-66.43,6.95],[-66.45,6.11],[-67.18,6.13],[-66.81,6.75],[-67.13,6.29],[-67.22,6.84],[-67.93,6.45],[-67.5,6.78],[-68.21,6.82],[-67.57,7.42],[-68.23,7.02],[-68.33,7.4],[-67.92,7.85],[-67.59,7.53],[-67.8,7.86],[-67.42,8.03],[-68,8.06],[-65.06,6.73],[-64.22,5.63]]]}},{"type":"Feature","properties":{},"geometry":{"type":"Polygon","coordinates":[[[-67.88,8.24],[-68.66,7.73],[-68.42,8.25],[-68.85,8.51],[-67.88,8.24]]]}},{"type":"Feature","properties":{},"geometry":{"type":"Polygon","coordinates":[[[-54.06,20.25],[-54.2,19.72],[-56.2,19.52],[-56.22,20.88],[-57.89,24.2],[-59.65,25.62],[-57.57,27.11],[-53.71,28.82],[-53.13,30.48],[-52.59,30.45],[-51.9,30.19],[-54.06,20.25]]]}},{"type":"Feature","properties":{},"geometry":{"type":"Polygon","coordinates":[[[-54.15,20.16],[-54.04,19.49],[-56.55,21.17],[-54.05,31.61],[-52.42,31.15],[-52.66,29.82],[-50.93,28.47],[-52.19,24.75],[-53.6,23.03],[-54.15,20.16]]]}},{"type":"Feature","properties":{},"geometry":{"type":"Polygon","coordinates":[[[-50.62,17.35],[-53.14,17.99],[-54.03,19.22],[-55.38,20.02],[-54.7,23.52],[-53.17,25.15],[-51.8,27.84],[-51.63,28.8],[-53.27,30.24],[-52.92,31.55],[-52.01,31.63],[-49.8,27.57],[-49,24.87],[-48.95,21.54],[-50.43,19.2],[-50.62,17.35]]]}},{"type":"Feature","properties":{},"geometry":{"type":"Polygon","coordinates":[[[-44.49,0.61],[-45.33,1.66],[-46.85,1.46],[-48.13,2.31],[-53.09,8.1],[-53.27,9.38],[-52.81,9.36],[-52.39,10.14],[-52.42,11.5],[-53.27,14.55],[-54.03,15.45],[-53.64,16.32],[-54.78,19],[-54.83,21.56],[-53.1,17.96],[-51.92,16.58],[-48.77,13.26],[-46.38,12.1],[-46.33,5.51],[-45.86,4.06],[-43.55,0.59],[-44.49,0.61]]]}},{"type":"Feature","properties":{},"geometry":{"type":"Polygon","coordinates":[[[-38.41,14.09],[-36.91,12.41],[-34.32,13.1],[-33.83,12.87],[-32.02,10.68],[-33.95,10.35],[-33.85,10.05],[-35.2,9.56],[-34.78,10.1],[-35.38,10.07],[-36.42,9.09],[-37.75,9.03],[-37.68,8.73],[-39.72,11.34],[-39.38,13.49],[-38.41,14.09]]]}},{"type":"Feature","properties":{},"geometry":{"type":"Polygon","coordinates":[[[-54.1,19.38],[-54.6,17.6],[-53.35,13.53],[-53.45,11.04],[-52.66,9.8],[-53.25,9.4],[-54.57,12],[-54.15,12.78],[-54.6,14.32],[-55.1,14.22],[-55.9,15.63],[-55.02,15.2],[-54.78,16.03],[-55.66,17.72],[-55.62,21.41],[-56.21,22.61],[-57.7,23.8],[-57.81,27.15],[-56.47,24.03],[-54.76,22.08],[-54.1,19.38]]]}},{"type":"Feature","properties":{},"geometry":{"type":"Polygon","coordinates":[[[-51.83,16.66],[-51.71,17.1],[-53.21,18.01],[-54.53,20.48],[-55.96,21.44],[-55.67,21.87],[-54.97,22.18],[-53.14,21.8],[-51.75,20.24],[-49.89,19.29],[-49,18.06],[-46.48,17.42],[-44.85,16.36],[-44.25,15.34],[-43.97,11.05],[-49.04,13.77],[-51.83,16.66]]]}},{"type":"Feature","properties":{},"geometry":{"type":"Polygon","coordinates":[[[-55.13,70.79],[-55.62,71.59],[-54.5,71.57],[-55.18,71.7],[-53.76,72.37],[-47.89,72.71],[-48.13,71.57],[-48.93,70.76],[-50.32,71.04],[-51.67,70.06],[-55.13,70.79]]]}},{"type":"Feature","properties":{},"geometry":{"type":"Polygon","coordinates":[[[-51.5,70.01],[-49.1,70.22],[-50.84,70.08],[-49.52,69.78],[-47.79,70.42],[-42.66,70.52],[-41.99,69.98],[-43.33,69.18],[-41.84,68.05],[-42.35,67.59],[-42.18,66.89],[-42.89,66.53],[-42.46,65.84],[-43.97,66.07],[-43.58,65.61],[-46.69,64.87],[-46.91,64.28],[-49.32,63.05],[-49.37,62.44],[-50.73,61.94],[-51.32,61.19],[-52.75,60.56],[-54.21,60.8],[-56.77,63.83],[-54.43,65.03],[-52.5,67.7],[-50.41,68.91],[-50.5,69.5],[-51.5,70.01]]]}},{"type":"Feature","properties":{},"geometry":{"type":"Polygon","coordinates":[[[-17.56,24.57],[-18.21,23.04],[-18.88,23.67],[-18.35,22.53],[-19.06,21.18],[-18.83,22.05],[-19.49,22.9],[-19.15,23.65],[-19.71,23.3],[-19.41,22.1],[-20.27,22.48],[-19.34,21.94],[-19.9,22.02],[-19.36,21.06],[-19.91,21.27],[-19.1,20.99],[-18.66,19.87],[-19.07,20.78],[-18.89,20.15],[-19.68,20],[-18.82,19.7],[-19.85,19.49],[-19.44,19.31],[-19.87,19.04],[-19.31,18.95],[-23.19,16.46],[-23.75,15.09],[-22.41,10.79],[-22.78,9.15],[-23.41,9.14],[-23.95,9.89],[-23.98,10.7],[-24.25,10.53],[-24.83,11.46],[-24.56,11.92],[-24.98,11.84],[-24.74,12.88],[-26.15,14.2],[-27.21,13.66],[-27.4,14.31],[-28.23,14.4],[-27.94,14.5],[-29.58,14.26],[-29.53,14.85],[-29.67,14.35],[-30.69,14.38],[-32.98,15.33],[-29.9,15.85],[-25.96,17.24],[-23.36,19.23],[-20.14,22.98],[-17.56,24.57]]]}},{"type":"Feature","properties":{},"geometry":{"type":"Polygon","coordinates":[[[-50.33,4.01],[-47.86,1.48],[-47.41,-0.54],[-50.79,-2.79],[-52.29,-2.58],[-52.35,-2],[-52.61,-2.56],[-52.65,-1.61],[-51.99,-1.29],[-51.88,1.4],[-51.56,1.13],[-51.31,1.52],[-52.18,2.14],[-53.38,4.85],[-53.38,7.65],[-52.56,7.17],[-52.09,5.86],[-50.33,4.01]]]}},{"type":"Feature","properties":{},"geometry":{"type":"Polygon","coordinates":[[[-29.48,53.62],[-29.94,53.45],[-29.4,52.95],[-29.56,52.39],[-28.49,53.29],[-27.91,52.76],[-28.24,52.01],[-27.63,51.11],[-26.54,52.72],[-25.85,53],[-26.41,53.25],[-26.44,53.85],[-24.52,53.62],[-25.11,53.52],[-23.96,53.17],[-24.38,52.87],[-23.9,52.62],[-24.74,52.42],[-23.86,51.44],[-25.19,50.33],[-26.16,51.04],[-25.49,50.13],[-27.32,50.55],[-26.78,50.16],[-27.76,49.33],[-30.35,50.06],[-27.56,49.25],[-28.64,48.04],[-29.55,48.27],[-30.07,47.54],[-32.26,48.16],[-30.07,47.25],[-32.35,46.15],[-31.97,45.9],[-32.73,45.61],[-32.38,45.52],[-33.25,44.2],[-33.48,43.3],[-32.21,42.93],[-32.05,41.08],[-30.5,41.32],[-26.59,39.24],[-24.55,39.14],[-24.51,36.93],[-23.07,35.32],[-22.59,35.16],[-22.23,35.67],[-21.88,35.17],[-21.6,36.37],[-22.63,38.62],[-21.18,39.28],[-20.32,40.47],[-20.74,42.05],[-21.91,42.68],[-21.02,44.02],[-21.24,44.86],[-21.73,44.79],[-21.26,45.55],[-21.77,46.27],[-21.27,46.6],[-19.29,46.18],[-18.76,46.59],[-17.22,45.79],[-17.22,45.33],[-15.76,45.32],[-15.72,44.33],[-16.68,44.27],[-15.77,44.22],[-15.73,43.56],[-15.23,43.34],[-16.11,42.88],[-14.99,43.22],[-14.53,42.88],[-15.3,42],[-14.4,42.92],[-14.11,42.27],[-13.28,43.27],[-12.96,42.75],[-13.03,43.35],[-12.54,43.52],[-12.9,43.72],[-12.42,43.89],[-12.83,44.21],[-12.11,44.78],[-12.29,44.53],[-11.21,43.79],[-11.67,43.57],[-10.77,43.33],[-11.23,42.88],[-10.52,43.13],[-10.99,42.58],[-10.39,42.83],[-9.89,42.34],[-10.34,42.16],[-9.41,41.84],[-9.57,41.34],[-10.25,41.44],[-8.63,40.36],[-8.41,40.62],[-8.54,39.81],[-7.92,40.23],[-7.93,39.62],[-7.44,40.17],[-7.35,39.77],[-5.97,39.68],[-7.56,38.95],[-6.69,39.24],[-8.3,38.07],[-5.99,39.29],[-5.73,38.57],[-4.74,38.78],[-4.4,37.9],[-4.99,37.8],[-4.27,37.73],[-4.74,37.67],[-4.25,37.37],[-5.1,36.59],[-6.45,36.47],[-6.55,35.74],[-7.36,35.09],[-12.25,34.72],[-12.85,33.72],[-14.13,33.09],[-15.66,31.07],[-11.96,33.66],[-10.95,33.76],[-10.27,33.23],[-11.05,32.55],[-12.26,32.43],[-10.56,32.31],[-10.84,31.59],[-14.25,28.92],[-16.19,25.46],[-17.3,25.14],[-20.14,22.98],[-22.84,19.74],[-25.4,17.62],[-29.9,15.85],[-35.9,15.33],[-40.92,12.44],[-40.82,10.31],[-43.45,10.66],[-44.19,12.11],[-44.48,15.92],[-46.23,17.17],[-46.54,17.87],[-46.29,19.27],[-44.8,21.61],[-45.31,26.7],[-47.47,30.55],[-50.18,38.17],[-53.51,41.56],[-54.18,42.81],[-55.23,46.84],[-54.21,48.18],[-54.07,50.6],[-57.76,53.5],[-57.59,55.45],[-56.9,56.38],[-57.33,56.97],[-56.42,56.54],[-56.43,57.16],[-55.16,57.41],[-54.84,57.14],[-55.32,56.95],[-51.94,57.27],[-53.82,56.89],[-54.02,56.6],[-53.23,56.84],[-53.46,56.34],[-52.73,56.82],[-50.58,56.92],[-50.98,57.08],[-50.77,57.36],[-50.07,55.86],[-49,56.6],[-49.43,55.77],[-47.59,55.91],[-45.72,54.74],[-44.06,54.35],[-43.61,53.8],[-44.94,53.49],[-44.63,53.31],[-41.43,53.09],[-40.39,52.22],[-40.83,52.14],[-40.2,51.24],[-40.44,51.7],[-39.89,52.01],[-40.27,52.71],[-38.55,53.38],[-40.59,53.24],[-38.77,53.71],[-37.84,52.54],[-37.36,52.78],[-36.69,52.22],[-34.41,52.09],[-34.43,52.76],[-33.94,52.89],[-33.05,52.58],[-33.31,52.29],[-32.75,52.54],[-33.25,51.73],[-32.59,51.39],[-32.54,52.29],[-31.15,52.79],[-31.37,53.24],[-31.92,52.95],[-31.15,53.69],[-32.78,54.39],[-32.24,54.94],[-32.7,55.05],[-32.54,55.52],[-31.99,55.5],[-31.76,55.72],[-32.14,55.83],[-31.36,56.04],[-31.66,56.15],[-30.88,55.92],[-29.88,54.28],[-30.82,53.82],[-29.48,53.62]]]}},{"type":"Feature","properties":{},"geometry":{"type":"Polygon","coordinates":[[[-72.03,10.45],[-72.16,9.97],[-72.25,10.71],[-72.84,11.1],[-72.54,10.41],[-72.92,10.22],[-73.8,13.3],[-75.03,14.55],[-76.54,15.55],[-77.94,15.6],[-77.6,15.89],[-80.52,15.3],[-80.94,14.94],[-80.62,14.55],[-81.45,14.21],[-84.36,14.07],[-84.64,13.7],[-86.34,14.45],[-87.67,14.48],[-86.27,14.74],[-85.63,14.12],[-85.36,14.57],[-83.36,14.67],[-82.18,15.68],[-82.96,15.76],[-82.79,16.22],[-83.41,15.8],[-83.69,16.69],[-81,17.77],[-76.78,17.54],[-75.65,17.15],[-73.61,15.41],[-72.03,10.45]]]}},{"type":"Feature","properties":{},"geometry":{"type":"Polygon","coordinates":[[[-63.65,26.19],[-63.45,26.47],[-63.66,26.21],[-64.91,27.54],[-69.69,28.91],[-68.77,28.94],[-69.73,29.22],[-69.75,29.92],[-70,28.99],[-70.7,29.39],[-70.24,29.87],[-71.06,29.74],[-70.72,29.75],[-71.07,30.01],[-70.71,30.95],[-71,30.4],[-71.18,31.32],[-71.31,30.09],[-71.7,31.18],[-72.36,31.09],[-72.36,30.65],[-72.19,31.42],[-73.76,32.18],[-73.96,32.6],[-73.43,32.48],[-74.14,32.79],[-73.9,33.04],[-74.29,32.89],[-74.21,33.4],[-74.81,33.12],[-75.44,34.14],[-75.16,33.39],[-79.94,36.82],[-76.59,37.37],[-75.44,37.1],[-74.15,35.38],[-71.98,34.26],[-69.88,34.06],[-63.15,28.6],[-61.61,25.23],[-62.95,24.9],[-63.65,26.19]]]}},{"type":"Feature","properties":{},"geometry":{"type":"Polygon","coordinates":[[[-59.98,44.65],[-59.08,42.99],[-58.87,39.51],[-60.11,40.67],[-60.71,42.72],[-59.98,44.65]]]}},{"type":"Feature","properties":{},"geometry":{"type":"Polygon","coordinates":[[[-61.99,54.69],[-61.83,53.15],[-59.75,51.96],[-58.32,50.51],[-58.44,48.09],[-59.46,46.75],[-58.4,42.72],[-57.71,41.47],[-54.38,38.09],[-52.01,31.63],[-57.14,32.73],[-57.97,33.31],[-58.24,34.18],[-57.79,38.45],[-58.76,40.12],[-59.35,42.89],[-61.34,47.6],[-64.13,51.02],[-69.89,55.81],[-68.59,56.24],[-63.14,56.18],[-61.61,56.87],[-61.17,56.29],[-61.99,54.69]]]}},{"type":"Feature","properties":{},"geometry":{"type":"Polygon","coordinates":[[[43.11,74.03],[42.64,73.57],[42.24,73.93],[43.11,74.03]]]}},{"type":"Feature","properties":{},"geometry":{"type":"Polygon","coordinates":[[[4.22,54.51],[5.5,54.38],[5.17,54.24],[5.61,53.99],[4.22,54.51]]]}},{"type":"Feature","properties":{},"geometry":{"type":"Polygon","coordinates":[[[4.58,54.77],[5.43,54.59],[3.99,54.54],[4.58,54.77]]]}},{"type":"Feature","properties":{},"geometry":{"type":"Polygon","coordinates":[[[-41.61,58.65],[-41.6,58.07],[-42.08,57.87],[-41.04,58.18],[-40.17,57.76],[-40.64,57.37],[-39.5,57.43],[-39.81,57.96],[-39.24,57.85],[-38.8,56.43],[-38.38,56.7],[-38.39,57.99],[-37.41,57.93],[-36.98,57.42],[-37.16,55.7],[-35.38,54.66],[-35.47,54.13],[-36.97,54.31],[-36.94,53.69],[-36.31,54.05],[-36.06,53.67],[-36.86,53.38],[-38.17,53.6],[-38.84,54.29],[-40.54,53.71],[-43.2,53.8],[-42.97,54.49],[-44.72,55],[-44.98,55.65],[-41.36,55.42],[-42.58,56.03],[-44.78,56.27],[-45.03,56.72],[-42.86,56.92],[-44.68,57.06],[-44.25,57.29],[-44.99,57.54],[-43.98,58.26],[-41.61,58.65]]]}},{"type":"Feature","properties":{},"geometry":{"type":"Polygon","coordinates":[[[27.53,69.25],[28.78,69.38],[28.61,69.02],[29.49,68.75],[29.09,68.68],[30.44,68.23],[34.3,67.74],[31.52,67.06],[30.97,67.28],[31.39,67.45],[30.14,67.61],[29.02,67.19],[28.07,67.56],[28.59,67.74],[27.67,68.2],[28.18,68.43],[27.15,68.33],[27.67,68.58],[26.92,68.66],[27.53,69.25]]]}},{"type":"Feature","properties":{},"geometry":{"type":"Polygon","coordinates":[[[3.62,54.96],[4.69,54.9],[3.31,54.65],[3.62,54.96]]]}},{"type":"Feature","properties":{},"geometry":{"type":"Polygon","coordinates":[[[36.55,72.81],[37.09,72.82],[36.47,72.34],[35.58,72.55],[36.55,72.81]]]}},{"type":"Feature","properties":{},"geometry":{"type":"Polygon","coordinates":[[[-36.53,58.37],[-36.24,58.12],[-36.91,57.49],[-37.61,58.2],[-36.53,58.37]]]}},{"type":"Feature","properties":{},"geometry":{"type":"Polygon","coordinates":[[[-23.59,57.75],[-21.86,57.52],[-21.2,56.9],[-23.09,56.75],[-23.8,57.32],[-23.59,57.75]]]}},{"type":"Feature","properties":{},"geometry":{"type":"Polygon","coordinates":[[[-19.19,48.78],[-19.59,48.97],[-19.43,48.47],[-20.36,48.67],[-20.85,48.22],[-21.94,48.71],[-21.36,49.5],[-18.89,49.55],[-19.59,50.23],[-18.28,51.4],[-18.91,52.35],[-20.12,53.03],[-21.15,52.72],[-20.57,53.28],[-21.55,53.66],[-21.45,54.02],[-21.82,53.76],[-22.65,54.7],[-23,54.36],[-22.52,53.89],[-24.23,54.11],[-23.74,53.7],[-24.97,54.3],[-24.23,53.86],[-26.59,54.01],[-26.89,54.53],[-27.99,54.37],[-28.65,55.14],[-27.21,55.01],[-28.82,55.42],[-28.21,57.22],[-26.78,57.85],[-25.89,57.73],[-26.96,56.71],[-25.97,55.27],[-27.11,55],[-25.93,54.99],[-25.75,55.63],[-26.62,56.02],[-25.69,56.12],[-26.39,56.89],[-25.74,56.86],[-26.3,57.02],[-25.54,57.02],[-26.1,57.23],[-24.85,57.72],[-23.62,57.1],[-23.81,55.87],[-23.19,56.49],[-22.01,55.76],[-22.68,56.23],[-21.98,56.23],[-22.33,56.65],[-20.7,56.55],[-21.1,55.74],[-20.03,56.04],[-20.68,55.74],[-20.27,55.72],[-20.46,55.23],[-19.91,55.84],[-19.98,55.27],[-19.68,55.66],[-19.47,55.06],[-19.13,55.77],[-18.53,55.64],[-18.42,55.21],[-19.13,54.93],[-17.93,55.23],[-18.6,54.55],[-18.16,54.7],[-18.29,54.17],[-17.48,55.08],[-17.83,54.64],[-17.22,55],[-16.5,54.77],[-17.5,54.22],[-16.63,54.41],[-17.32,53.81],[-16.38,54.58],[-15.66,54.04],[-17.34,53.74],[-15.29,53.6],[-16.71,53.59],[-15.85,53.08],[-16.83,53.04],[-15.12,52.79],[-15.81,52.56],[-14.83,52.49],[-14.8,52.13],[-14.59,52.41],[-14.56,51.97],[-13.84,52.43],[-14.07,52.06],[-13.67,52.26],[-13.22,51.83],[-13.75,51.81],[-13.21,51.75],[-13.61,51.46],[-12.69,51.86],[-13.03,51.32],[-12.45,51.52],[-12.41,51.19],[-11.96,51.65],[-11.38,51.27],[-12.33,50.89],[-11.65,50.63],[-12.38,50.66],[-12.01,50.15],[-12.64,50.45],[-12.43,49.42],[-13.85,50.16],[-13.25,50.83],[-14.13,50.34],[-13.96,50.8],[-14.23,50.5],[-15.56,50.93],[-14.94,50.36],[-15.73,50.35],[-15.47,49.73],[-14.99,50],[-14.45,49.08],[-14.44,49.4],[-13.33,48.93],[-13.7,48.72],[-12.94,48.46],[-12.73,47.74],[-13.35,48.24],[-12.73,47.39],[-13.2,47.48],[-13.06,47.03],[-14.09,47.79],[-14.03,47.39],[-15.06,48.09],[-14.82,47.73],[-15.77,48.02],[-13.45,46.3],[-17.28,47.23],[-17.8,47.59],[-17.21,47.77],[-18.18,47.97],[-18.69,48.77],[-19.2,48.42],[-19.19,48.78]]]}},{"type":"Feature","properties":{},"geometry":{"type":"Polygon","coordinates":[[[-119.53,85.78],[-125.5,85.2],[-127.08,85.5],[-127.39,86.04],[-129.86,86.2],[-119.04,85.85],[-119.53,85.78]]]}},{"type":"Feature","properties":{},"geometry":{"type":"Polygon","coordinates":[[[-33.66,58.28],[-32.34,58.1],[-32.44,57.61],[-33.24,57.31],[-32.18,56.64],[-32.4,56.14],[-33.39,56.22],[-33.79,55.63],[-35.59,57.27],[-34.07,57.26],[-34.08,57.74],[-34.76,57.93],[-33.66,58.28]]]}},{"type":"Feature","properties":{},"geometry":{"type":"Polygon","coordinates":[[[-30.34,58.3],[-28.66,57.95],[-29.83,56.85],[-31.04,56.93],[-30.63,56.58],[-31.67,56.17],[-31.6,57.88],[-30.34,58.3]]]}},{"type":"Feature","properties":{},"geometry":{"type":"Polygon","coordinates":[[[-119.86,86.2],[-120.91,86.22],[-115.2,86.26],[-119.86,86.2]]]}},{"type":"Feature","properties":{},"geometry":{"type":"Polygon","coordinates":[[[53.27,83.65],[57.35,83.63],[52.83,83.53],[53.27,83.65]]]}},{"type":"Feature","properties":{},"geometry":{"type":"Polygon","coordinates":[[[-44.44,60.35],[-43.65,59.63],[-42.62,59.7],[-41.97,58.81],[-47.46,57.24],[-48.09,58.3],[-48.69,58.43],[-46.22,59.84],[-46.31,60.5],[-44.44,60.35]]]}},{"type":"Feature","properties":{},"geometry":{"type":"Polygon","coordinates":[[[5.48,57.41],[5.86,57.08],[4.99,57.31],[5.48,57.41]]]}},{"type":"Feature","properties":{},"geometry":{"type":"Polygon","coordinates":[[[-31.39,60.07],[-31.7,60.26],[-30.98,60.31],[-31.39,60.07]]]}},{"type":"Feature","properties":{},"geometry":{"type":"Polygon","coordinates":[[[-99.47,84.76],[-98.12,84.61],[-100.52,84.35],[-99.72,84.17],[-101.06,83.85],[-100.66,83.74],[-105.1,84.2],[-100.68,84.98],[-96.47,84.9],[-99.47,84.76]]]}},{"type":"Feature","properties":{},"geometry":{"type":"Polygon","coordinates":[[[-26.7,59.51],[-26.43,59.06],[-26.84,58.54],[-28.08,59.14],[-26.7,59.51]]]}},{"type":"Feature","properties":{},"geometry":{"type":"Polygon","coordinates":[[[-92.59,87.51],[-93.63,87.64],[-83.11,87.43],[-92.59,87.51]]]}},{"type":"Feature","properties":{},"geometry":{"type":"Polygon","coordinates":[[[-83.72,86.54],[-93.52,86.36],[-93.01,86.31],[-94.26,86.23],[-86.72,86.04],[-97.48,85.17],[-105.02,85.63],[-106.64,85.9],[-103.63,85.98],[-107.37,86.56],[-104.44,86.64],[-110.38,86.76],[-96.1,87.3],[-83.28,86.67],[-83.72,86.54]]]}},{"type":"Feature","properties":{},"geometry":{"type":"Polygon","coordinates":[[[-29.74,61.48],[-29.52,61.15],[-30.22,61.21],[-29.74,61.48]]]}},{"type":"Feature","properties":{},"geometry":{"type":"Polygon","coordinates":[[[-27.39,60.86],[-28.02,59.58],[-28.67,59.32],[-29.75,59.59],[-28.89,60.1],[-30.32,60.29],[-29.46,60.34],[-29.05,61.03],[-28.73,60.31],[-28.28,60.49],[-28.63,60.97],[-27.39,60.86]]]}},{"type":"Feature","properties":{},"geometry":{"type":"Polygon","coordinates":[[[-31.44,62.15],[-32.35,61.23],[-31.18,60.94],[-32.27,60.33],[-36,60.72],[-36.45,61.22],[-34.23,61.15],[-35.78,61.44],[-35.35,61.78],[-36.39,61.53],[-37.18,62.16],[-35.52,62.12],[-36.55,62.36],[-35.12,62.24],[-35.91,62.54],[-34.35,62.76],[-33.77,62.14],[-34.04,61.43],[-33.11,61.08],[-33.12,61.58],[-32.53,61.66],[-32.71,62.01],[-31.44,62.15]]]}},{"type":"Feature","properties":{},"geometry":{"type":"Polygon","coordinates":[[[23.82,73.93],[26.39,73.69],[26.32,72.42],[26.01,72.45],[26.38,71.71],[26.04,71.75],[27.04,71.2],[26.5,71.05],[27.19,70.98],[26.47,70.93],[27.25,70.76],[26.47,70.66],[27.51,70.55],[27.79,70.27],[26.96,70.23],[28.12,70],[27.18,69.88],[28.34,69.91],[27.4,69.74],[28.67,69.48],[27.54,69.46],[28.09,69.36],[27.11,68.99],[26.72,69.33],[27.41,69.59],[25.92,69.17],[26.32,69.57],[25.77,69.73],[26.77,69.91],[25.62,69.8],[25.94,69.97],[24.97,70.23],[25.55,70.46],[23.92,70.53],[24.45,70.58],[23.92,70.88],[24.47,71.04],[23.66,71.28],[23.86,71.91],[23.52,71.98],[24.02,72.01],[23.39,72.22],[24.4,72.57],[24.67,73],[24.3,73.26],[24.68,73.34],[23.82,73.93]]]}},{"type":"Feature","properties":{},"geometry":{"type":"Polygon","coordinates":[[[-25.85,60.91],[-25.18,60.59],[-25.56,60.11],[-24.41,60.17],[-23.78,59.61],[-24.74,59.69],[-24.25,58.77],[-20.68,58.54],[-19.98,58.06],[-20.57,57.69],[-20.14,57.5],[-21.52,57.26],[-22.09,57.82],[-22.66,57.5],[-26.01,58.3],[-25.39,60.02],[-26.48,60.13],[-26.24,60.49],[-26.71,60.75],[-25.85,60.91]]]}},{"type":"Feature","properties":{},"geometry":{"type":"Polygon","coordinates":[[[31.59,80.03],[32.07,79.91],[30.62,80.1],[31.59,80.03]]]}},{"type":"Feature","properties":{},"geometry":{"type":"Polygon","coordinates":[[[-33.51,63.77],[-33.44,63.45],[-35.4,62.92],[-35.77,63.13],[-35.1,63.42],[-37.33,62.99],[-37.17,63.36],[-38.38,63.46],[-34.9,63.99],[-33.51,63.77]]]}},{"type":"Feature","properties":{},"geometry":{"type":"Polygon","coordinates":[[[-23.37,60.99],[-23.13,60.61],[-23.55,60.54],[-23.37,60.99]]]}},{"type":"Feature","properties":{},"geometry":{"type":"Polygon","coordinates":[[[62.55,48.59],[62.47,48.22],[61.49,48.13],[60.92,50.56],[56.38,54.23],[56.71,56.88],[56.16,58.11],[48.72,64.11],[48.4,65.39],[48.98,66.48],[55.74,65.36],[63.76,62.44],[68.94,61.66],[76.05,57.71],[93.18,53.84],[84.45,49.53],[76.7,43.2],[69.75,42.72],[64.99,43.87],[62.81,45.02],[63.88,46.99],[62.64,47.34],[62.55,48.59]]]}},{"type":"Feature","properties":{},"geometry":{"type":"Polygon","coordinates":[[[99.79,47.49],[101.06,47.07],[102.12,45.81],[98.96,44.08],[91.25,43],[88.99,41.66],[86.01,42.44],[81.8,45.79],[79.46,46.31],[86.28,48.5],[92.06,49.47],[99.79,47.49]]]}},{"type":"Feature","properties":{},"geometry":{"type":"Polygon","coordinates":[[[100.06,52.56],[95.85,51.25],[86.33,50.45],[93.18,53.84],[97.27,52.77],[100.06,52.56]]]}},{"type":"Feature","properties":{},"geometry":{"type":"Polygon","coordinates":[[[104.83,40.58],[110.27,37.92],[108.01,37.84],[102.11,39.59],[94.95,40.4],[85.26,39.68],[85.99,40.47],[88.39,41.28],[93.8,43.07],[96.69,43.52],[97.7,43.49],[104.83,40.58]]]}},{"type":"Feature","properties":{},"geometry":{"type":"Polygon","coordinates":[[[150.87,58.53],[152.17,58.5],[151.3,58.22],[152.1,58.1],[152.96,58.42],[152.62,57.98],[153.18,58.7],[154.41,58.54],[155.71,57.35],[154.9,57.26],[155.37,56.21],[154.01,55.45],[152.49,52.8],[145.55,48.63],[143.84,48.12],[142.32,48.34],[142.43,48.83],[141.04,48.19],[136.95,49.71],[132.6,50.04],[121.85,50.59],[110.65,49.78],[106.68,50.67],[99.91,50.72],[96.9,51.59],[94.95,53.04],[101.54,52.57],[107.46,53.21],[112.88,54.79],[117.47,55.27],[121.17,56.69],[126.77,57.09],[131.19,59.43],[135.02,60.43],[141.98,59.13],[150.87,58.53]]]}},{"type":"Feature","properties":{},"geometry":{"type":"Polygon","coordinates":[[[179.99,78.96],[179.99,74.4],[178.12,74],[173.72,74.46],[165.48,74.39],[152.37,70.33],[155.15,70.09],[154.97,69.28],[142.15,68.63],[131.89,68.68],[128.1,67.06],[124.88,64.04],[118.83,62.58],[115.86,60.5],[111.3,59.12],[105.89,56.15],[101.23,54.67],[94.57,53.72],[76.05,57.71],[70.11,61.26],[63.76,62.44],[53.59,65.88],[49.11,67.86],[51.23,67.83],[52.86,68.38],[52.48,68.58],[52.88,69.24],[52.26,69.96],[49.9,70.65],[50.9,71.37],[55.32,70.46],[55.62,70.86],[57.8,70.95],[54.33,70.73],[53.57,71],[53.8,71.28],[51.91,71.59],[48.43,70.78],[45.48,71.88],[42.59,72.07],[41.85,73.04],[39.85,73.42],[45.05,72.67],[47.58,73.11],[43.29,73.11],[44.71,73.63],[43.26,73.91],[48.6,74.83],[51.94,73.55],[51.54,73.8],[55.75,73.88],[52.63,73.91],[53.01,74.07],[49.17,74.9],[44.76,74.65],[40.99,75.15],[43.53,76.92],[39.61,76.94],[39.05,77.1],[40.42,77.21],[38.24,77.39],[38.72,77.72],[37.47,78.1],[38.01,78.18],[37.44,78.36],[37.83,78.7],[37.32,78.73],[37.09,79.37],[35.88,79.2],[36.47,79.21],[36.05,79.52],[36.87,79.9],[38.14,79.71],[37.38,79.92],[38.2,79.9],[37.51,80.13],[37.96,80.25],[36.53,80.54],[37.75,80.69],[35.27,80.57],[35.65,80.9],[27.12,81.75],[29.28,82.26],[31.62,81.83],[31.17,82.2],[32.16,82.1],[31.66,82.41],[32.64,82.58],[36.01,82.37],[33.8,82.76],[34.1,82.85],[33.42,83.02],[34.12,83.18],[33.1,83.42],[33.78,83.57],[45.23,84.08],[51.82,83.49],[51.39,83.4],[57.37,82.28],[56.11,81.72],[57.57,81.93],[60.68,81.15],[61.15,81.19],[59.21,81.6],[61.55,82.14],[60.16,82.12],[59.57,82.48],[60.22,82.63],[59.28,82.99],[56.14,82.85],[57.62,83.09],[56.75,83.27],[60.21,83.38],[58.13,83.6],[65.04,83.53],[62.78,83.63],[63.21,84.03],[62.67,84.18],[67.51,85.04],[74.7,85.08],[82.12,85.95],[71.66,86.63],[83.15,86.98],[83.5,87.07],[82.4,87.13],[84.07,87.12],[81.6,87.21],[85.2,87.4],[99.66,87.51],[101.13,87.48],[98.55,87.4],[111.87,86.88],[109.14,86.53],[116.24,86.52],[113.52,86.39],[114.34,86.3],[130.83,86.1],[129.62,86.86],[136.37,85.6],[136.1,83.52],[166.72,81.41],[179.99,78.96]]]}},{"type":"Feature","properties":{},"geometry":{"type":"Polygon","coordinates":[[[-179.99,74.4],[-179.99,78.96],[-177.95,78.12],[-176.38,76.34],[-178.62,74.17],[-179.99,74.4]]]}},{"type":"Feature","properties":{},"geometry":{"type":"Polygon","coordinates":[[[155.9,69.47],[155.57,69.57],[156.66,69.76],[155.9,69.47]]]}},{"type":"Feature","properties":{},"geometry":{"type":"Polygon","coordinates":[[[46.22,68.85],[45.39,69.42],[42.55,69.31],[40.53,70.24],[39.71,70.16],[38.78,71.2],[36.41,72.14],[39.09,72.82],[40.25,72.56],[41.64,71.84],[49.76,70.24],[50.91,69.57],[51.41,68.63],[49.07,67.88],[46.22,68.85]]]}},{"type":"Feature","properties":{},"geometry":{"type":"Polygon","coordinates":[[[81.93,20.82],[86.8,21.12],[90.8,20.29],[92.69,18.7],[94.8,15.24],[89.64,17.74],[81.77,17.69],[78.62,18.34],[75.01,20.16],[71.63,22.97],[70.81,24.39],[76.53,21.57],[81.93,20.82]]]}},{"type":"Feature","properties":{},"geometry":{"type":"Polygon","coordinates":[[[42.9,-36.96],[43.46,-36.81],[43.25,-36.03],[42.97,-36.8],[42.78,-35.36],[42.9,-36.4],[42.36,-36.86],[40.13,-36.28],[40.52,-35.92],[39.72,-35.9],[40.3,-35.38],[38.71,-34.87],[38.13,-35.28],[37.01,-35.07],[31.88,-32.69],[31.38,-32.87],[29.59,-31.36],[23.4,-32.68],[23,-32.11],[22.14,-31.99],[21.99,-32.4],[21.57,-31.63],[20.62,-31.49],[20.12,-30.83],[20.77,-29.9],[27.59,-25.02],[31.28,-23.14],[32.92,-22.6],[33.36,-22.92],[33.11,-22.44],[33.76,-22.44],[33.69,-22.05],[32.5,-22.21],[31.57,-21.16],[32.64,-19.07],[33.27,-20.08],[33.9,-20.18],[33.25,-19.14],[33.6,-18.25],[34.17,-18.44],[33.72,-18.13],[34.08,-18],[33.81,-17.3],[34.68,-17.03],[34.5,-16.31],[35.28,-15.97],[34.81,-15.4],[38.52,-14.59],[41.18,-14.89],[46.77,-16.6],[48.03,-17.75],[48.16,-18.7],[47.12,-19.96],[45.76,-23.99],[45.66,-28.74],[46.44,-30.81],[51,-37.3],[51.22,-38.53],[42.9,-36.96]]]}},{"type":"Feature","properties":{},"geometry":{"type":"Polygon","coordinates":[[[72.98,31.86],[75.31,30.78],[77.46,30.61],[78.87,31.67],[85.84,33.26],[91.58,31.9],[96.14,29.84],[97.2,27.47],[97.38,25.01],[94.8,28.02],[92.48,29.15],[89.04,29.44],[83.87,28.78],[78.07,29.07],[71.17,31.44],[70,31.34],[68.7,33.11],[70.73,33.08],[72.98,31.86]]]}},{"type":"Feature","properties":{},"geometry":{"type":"Polygon","coordinates":[[[103.52,32.38],[103.27,32],[102.23,34.39],[100.33,35.5],[91.42,37.95],[98.35,38.28],[103.3,37.37],[107.77,37.23],[105.85,35.69],[103.52,32.38]]]}},{"type":"Feature","properties":{},"geometry":{"type":"Polygon","coordinates":[[[49.07,67.88],[53.59,65.88],[48.98,66.48],[48.07,68.26],[49.07,67.88]]]}},{"type":"Feature","properties":{},"geometry":{"type":"Polygon","coordinates":[[[57.53,40.69],[56.67,41.51],[56.49,42.47],[54.92,42.48],[53.25,43.54],[54.47,43.82],[53.68,43.94],[53.94,44.58],[55.35,45.01],[54.24,46.3],[52.9,46.07],[51.83,44.95],[51.32,45.03],[51.36,44.13],[51.02,44.39],[51.09,44.02],[50.38,43.87],[50.05,42.62],[51.32,42.28],[51.49,41.38],[53.64,40.28],[47.77,40.56],[51.6,46.03],[56.95,48.81],[57.82,49.67],[57.95,51.34],[56.38,54.23],[60.92,50.56],[61.42,47.53],[60.97,47.66],[61.23,47.15],[60.44,47],[60.51,45.91],[61.25,44.99],[62.25,45.39],[64.99,43.87],[69.75,42.72],[77.29,43.36],[75.18,40.89],[65.98,38.58],[57.61,40.2],[57.53,40.69]]]}},{"type":"Feature","properties":{},"geometry":{"type":"Polygon","coordinates":[[[44.12,-1.57],[43.59,-1.21],[42.17,-1.43],[41.34,-0.91],[39.85,0.96],[39.6,3.47],[39.1,3.48],[38.93,4.11],[38.59,3.71],[37.83,4.07],[37.83,3.51],[37.37,3.51],[37.63,1.49],[38.35,0.16],[37.98,-0.39],[38.16,-1.83],[38.8,-0.73],[39.27,-0.97],[38.45,-2.41],[38.86,-2.93],[41.04,-3.44],[43.57,-2.06],[43.07,-3.87],[44.63,-5.4],[45.12,-6.97],[43.46,-8.29],[42.8,-8.26],[42.4,-9.43],[41.42,-9.34],[40.69,-10],[39.81,-9.81],[39.17,-10.44],[36.61,-10.13],[36.08,-10.81],[32.28,-10.99],[29.26,-10.46],[28.44,-10.75],[27.09,-10.18],[27.32,-7.51],[28.06,-6.18],[27.69,-2.7],[26.94,-0.82],[27.52,1.9],[26.94,2.83],[26.87,7.01],[26.39,7.32],[30.42,11.9],[31.76,14.29],[33.98,14.7],[36.89,14.06],[38.7,9.59],[42.57,2.21],[43.08,0.26],[44.45,-0.33],[44.12,-1.57]]]}},{"type":"Feature","properties":{},"geometry":{"type":"Polygon","coordinates":[[[48.62,-12.3],[47.53,-15.42],[45.72,-16.06],[38.77,-13.62],[36.6,-13.49],[37.42,-10.49],[39.23,-9.09],[40.78,-9.95],[43.74,-9.04],[45.31,-9.23],[48.89,-11.24],[48.62,-12.3]]]}},{"type":"Feature","properties":{},"geometry":{"type":"Polygon","coordinates":[[[78.11,29.28],[66.31,32.56],[68.38,36.03],[75.25,31.28],[78.67,31.31],[78.11,29.28]]]}},{"type":"Feature","properties":{},"geometry":{"type":"Polygon","coordinates":[[[65.52,21.83],[65.1,22.19],[66.08,24.1],[68.01,25.96],[68.79,26.04],[76.76,20.82],[70.72,21.11],[68,20.63],[65.52,21.83]]]}},{"type":"Feature","properties":{},"geometry":{"type":"Polygon","coordinates":[[[48.59,35.67],[49.42,35.37],[52.84,36.66],[57.58,33.96],[62.31,34.27],[62.96,33.55],[61.61,32.59],[59.24,32.98],[43.73,32],[43.04,32.67],[42.81,34.21],[45.65,36.07],[48.59,35.67]]]}},{"type":"Feature","properties":{},"geometry":{"type":"Polygon","coordinates":[[[-6.54,72.28],[-14.34,72.41],[-14.76,72.96],[-16.49,73.45],[-18.15,73.16],[-17.08,72.63],[-17.58,72.45],[-17.4,72.09],[-27.11,72.36],[-28.27,72.53],[-33.15,75.71],[-14.29,74.96],[-9,73.79],[-6.54,72.28]]]}},{"type":"Feature","properties":{},"geometry":{"type":"Polygon","coordinates":[[[-98.91,75.59],[-99.57,75.45],[-98.96,75.53],[-100.21,73.9],[-100.08,72.91],[-95.32,69.96],[-108.96,69.57],[-113.93,70.12],[-115.11,69.73],[-120.59,69.85],[-118.22,70.51],[-119.43,70.48],[-118.29,71.13],[-117.6,73.16],[-116.73,74.22],[-115.38,74.92],[-112.76,75.61],[-107.26,76.03],[-98.91,75.59]]]}},{"type":"Feature","properties":{},"geometry":{"type":"Polygon","coordinates":[[[179.99,86.1],[179.99,81.85],[166.29,83.6],[179.99,86.1]]]}},{"type":"Feature","properties":{},"geometry":{"type":"Polygon","coordinates":[[[-179.99,81.85],[-179.99,86.1],[-176.63,86.69],[-169.9,86.83],[-173.25,86.74],[-169.92,86.13],[-161.37,86.06],[-157.77,85.32],[-154.35,85.57],[-150.62,85.1],[-142.55,85.6],[-145.66,85.75],[-144.68,85.83],[-136.3,85.49],[-134.36,85.79],[-126.56,83.22],[-127.91,82.84],[-130.59,83.01],[-129.41,82.78],[-130.19,82.38],[-129.33,82.15],[-131.11,81.9],[-130.77,81.59],[-124.91,80.84],[-122.63,80.05],[-123.04,79.51],[-126.08,79.14],[-125.72,78.71],[-136.76,78.67],[-143.02,78.04],[-146.58,76.5],[-146.88,75.42],[-146.55,73.37],[-147.1,72.86],[-152.06,73.21],[-158.92,71.85],[-157.47,71.75],[-157.57,71.41],[-163.76,71.83],[-161.81,72.01],[-164.29,72.58],[-160.93,75.2],[-161.38,76.57],[-162.33,77.38],[-169.45,79.92],[-179.99,81.85]]]}},{"type":"Feature","properties":{},"geometry":{"type":"Polygon","coordinates":[[[140.03,47.76],[138.43,47.06],[138.01,46.13],[135.26,45.03],[136.2,44.19],[136.94,42.01],[133.67,41.9],[133.48,42.68],[134.45,42.68],[134.05,42.89],[134.2,43.56],[133.08,43.89],[132.74,43.56],[132.39,43.85],[132.73,43.97],[132.09,44.08],[133.19,44.54],[132.75,44.76],[133.24,45.41],[132.17,45.96],[128.38,45.07],[129.39,45.65],[128.64,45.71],[128.96,46.09],[129.99,46.67],[129.57,47.2],[128.63,47.17],[126.11,45.76],[124.82,45.86],[124.51,45.14],[125.76,44.81],[125.88,43.78],[127.77,44.24],[129.82,43.58],[129.52,43.11],[126.79,42.68],[125.55,41.52],[126.58,40.82],[122.87,38.27],[118.25,40.29],[110.9,41.58],[98,47.72],[110.1,49.43],[121.23,50.15],[136.17,49.19],[140.03,47.76]]]}},{"type":"Feature","properties":{},"geometry":{"type":"Polygon","coordinates":[[[135.01,45.72],[135.09,44.28],[133.31,43.82],[133.45,43.51],[133.24,43.75],[133.15,43.28],[132.96,43.6],[132.28,43.01],[131.89,43.38],[132.3,43.36],[131.77,43.79],[132.3,44.67],[131.87,44.8],[135.01,45.72]]]}},{"type":"Feature","properties":{},"geometry":{"type":"Polygon","coordinates":[[[125.32,42.09],[126.43,40.51],[127.78,39.85],[125.98,39.76],[127.99,39.03],[126.38,38.11],[128.49,38.02],[127.82,37.5],[128.41,37.72],[128.47,37.32],[127.87,37.15],[128.3,36.35],[127.3,35.97],[127.04,34.51],[126.42,34.58],[126.92,34.23],[126.58,33.93],[126.82,33.17],[126.4,33.38],[125.92,32.23],[125.2,32.12],[124.97,31.24],[123.92,30.77],[124.24,30.63],[123.97,30.29],[122.2,29.9],[121.82,29.25],[120.75,29.93],[121.08,29.06],[120.63,28.87],[120.38,29.27],[120.47,28.62],[119.88,28.75],[119.91,28.38],[117.88,27.75],[118.09,26.58],[117.31,27.13],[117.48,27.74],[117.04,27.94],[116.68,27.52],[115.86,27.92],[114.91,26.81],[114.17,26.71],[114.43,26.38],[113.84,25.56],[107.04,29.36],[105.99,30.74],[105.62,33.19],[106.07,34.21],[107.83,37.05],[109.6,38.73],[111.88,39.34],[116.52,39.59],[122.81,38.77],[125.32,42.09]]]}},{"type":"Feature","properties":{},"geometry":{"type":"Polygon","coordinates":[[[110.69,25.73],[110.72,24.67],[111.23,24.25],[115.72,22.77],[117.45,20.66],[117.64,19.31],[115.93,17.53],[116.14,16.64],[115.08,15.02],[114.48,16.44],[113.03,16.21],[112.66,16.78],[112.41,16.32],[111.3,17.31],[109.51,16.92],[109.22,17.72],[108.5,17.57],[107.09,20.61],[106.79,23.84],[103.01,27.63],[110.69,25.73]]]}},{"type":"Feature","properties":{},"geometry":{"type":"Polygon","coordinates":[[[107.42,17.19],[108.55,14],[109.3,13.18],[109.76,13.6],[111.97,12.33],[113.39,12.56],[116.17,9.43],[113.84,9.85],[112.27,11.28],[110.78,11.93],[109.47,12.15],[109.22,11.78],[106.62,15.66],[104.54,16.7],[103.33,17.86],[103.68,17.85],[102.05,17.96],[98.74,20.72],[96.97,22.78],[95.83,25.47],[99.07,26.21],[103.21,23.96],[104.22,23.06],[105.25,19.97],[107.42,17.19]]]}},{"type":"Feature","properties":{},"geometry":{"type":"Polygon","coordinates":[[[112.47,12.82],[114.59,12.54],[115.8,11.09],[117.45,10.4],[116.9,9.84],[115.35,9.78],[112.47,12.82]]]}},{"type":"Feature","properties":{},"geometry":{"type":"Polygon","coordinates":[[[27.29,-4.64],[29.66,-8.36],[29.58,-8.85],[28.65,-9.08],[29.28,-9.16],[30.06,-10.59],[35.26,-10.91],[36.74,-10.56],[37.19,-10.81],[36.62,-12.14],[37.02,-12.2],[36.48,-12.22],[36.22,-13.08],[32.16,-17.28],[29.66,-18.76],[24.67,-20.72],[23.74,-21.64],[22.19,-22.12],[20.53,-23.67],[19.65,-24.81],[20.1,-26.02],[19.3,-27.57],[19.22,-28.88],[19.96,-29.83],[19.42,-30.36],[18.28,-34.17],[16.89,-35.03],[13.65,-35.32],[9.95,-36.52],[12.02,-32.29],[13.2,-26.05],[15.66,-25.04],[16.31,-22.86],[19.27,-18.02],[20.08,-14.7],[21.18,-13.18],[22.45,-13.47],[23.17,-11.98],[27.23,-9.4],[27.29,-4.64]]]}},{"type":"Feature","properties":{},"geometry":{"type":"Polygon","coordinates":[[[9.87,-36.24],[9.31,-36.92],[9.35,-38.78],[8.13,-40.48],[3.76,-40.78],[3.72,-41.25],[4.21,-41.11],[1.99,-42.96],[-2.48,-44.24],[-6.52,-44.73],[-8.89,-44.47],[-11.72,-42.98],[-14.74,-42.44],[-15.25,-41.24],[-15.74,-41.32],[-15.14,-39.76],[-14.53,-39.77],[-13.98,-38.98],[-13.44,-36.17],[-13.64,-33.96],[-11.35,-29.31],[-11.22,-24.12],[-10.14,-22.4],[-8.15,-20.67],[-6.18,-19.85],[-5.62,-18.84],[-5.54,-17.08],[-4.83,-16.63],[-4.76,-14.14],[-4.01,-14.27],[-4.64,-13.85],[-4.44,-12.56],[-5.36,-9.62],[-5.36,-7.65],[-4.77,-7.73],[-4.3,-7.04],[-3.86,-7.46],[-4.26,-6.88],[-2.47,-4.91],[-2.24,-3.9],[-2.75,-3.8],[-3.15,-2.57],[-4.32,-2.48],[-5.57,-1.58],[-2.29,-1.02],[-1.51,-0.04],[1.14,0.23],[7.12,-3.8],[9.92,-3.84],[15.13,-4.81],[17.7,-11.27],[18.17,-13.48],[13.74,-16.66],[12.15,-19.58],[11.88,-21.56],[14.13,-26.2],[13.96,-27.46],[12.43,-32.35],[9.87,-36.24]]]}},{"type":"Feature","properties":{},"geometry":{"type":"Polygon","coordinates":[[[-9.9,26.58],[-9.58,27.56],[-8.49,28.37],[-5.64,28.74],[-3.92,29.95],[-3.35,29.8],[-3.05,28.81],[-1.69,28.52],[-1.05,27.81],[2.41,27.91],[4.67,27.33],[5.7,26.57],[6.81,26.58],[7.88,25.85],[9.65,25.65],[-0.56,25.17],[-6.08,26.65],[-9.9,26.58]]]}},{"type":"Feature","properties":{},"geometry":{"type":"Polygon","coordinates":[[[13.61,29.61],[13.38,28.85],[10.8,28.52],[9.51,27.64],[9.64,26.8],[6.86,25.68],[4.99,26.39],[3.68,26.12],[3.32,27.04],[3.76,27.24],[3.4,27.1],[3.25,27.7],[1.35,28.15],[2.32,29.29],[1.92,29.74],[2.58,29.96],[1.79,29.92],[3.47,31.39],[4.49,33.8],[5.78,33.85],[9.2,31.96],[10.5,31.76],[13.61,29.61]]]}},{"type":"Feature","properties":{},"geometry":{"type":"Polygon","coordinates":[[[-4.19,-2.86],[-4.37,-1.29],[-5.11,-0.5],[-7.49,0.22],[-11.28,0.25],[-12.82,1.46],[-16.49,2.06],[-19.77,6.79],[-19.8,9.59],[-20.9,11.6],[-20.19,11.99],[-21.14,12.14],[-21.39,12.62],[-21.07,12.72],[-21.61,13.09],[-21.2,13.07],[-21.54,13.23],[-21.12,14.02],[-20.07,13.58],[-20.97,13.84],[-21.32,15.52],[-19.98,16.04],[-18.66,17.65],[-18.39,19.34],[-17.71,19.95],[-17.82,21.17],[-18.25,20.88],[-17.33,21.99],[-14.47,23.5],[-13.33,24.69],[-12.33,24.81],[-11.2,25.64],[-8.54,25.68],[-7.08,26.55],[-3.26,26.67],[2.28,25.27],[12.53,25.78],[12.63,25.15],[13.32,25.04],[12.46,24.59],[12.62,23.52],[11.32,23],[9.38,20.17],[5.79,10.91],[5.31,7.4],[6.6,2.37],[3.15,1.01],[2.3,-0.38],[-0.31,-0.92],[-0.98,-1.97],[-4.19,-2.86]]]}},{"type":"Feature","properties":{},"geometry":{"type":"Polygon","coordinates":[[[27.01,10.59],[26.78,9.7],[27.62,4],[27.28,3.09],[28.1,0.82],[27.52,-0.67],[14.16,-4.81],[8.93,-3.98],[6.13,-4.01],[0.04,-0.13],[0.99,1.19],[4.53,2.27],[3.63,7.4],[4.39,10.86],[8.73,19.81],[10.75,22.06],[11.95,20.34],[14.05,18.83],[14.01,17.75],[16.1,15.55],[17.24,15.66],[17.86,16.86],[19.69,16.87],[20.44,15.69],[21.69,14.95],[21.67,14.47],[24.52,12.55],[25.85,12.77],[26.85,12.32],[27.01,10.59]]]}},{"type":"Feature","properties":{},"geometry":{"type":"Polygon","coordinates":[[[27.41,12.84],[26.49,13.69],[24.83,14.06],[24.01,15.85],[23.6,15.54],[22.92,15.82],[22.71,17.05],[21.9,17.47],[22.75,17.24],[22.04,17.76],[22.77,18.48],[22.46,19.16],[25.5,18.64],[26.24,18.12],[26.67,16.79],[28.01,16.5],[31.02,14.55],[32.36,11.65],[29.66,12.83],[27.41,12.84]]]}},{"type":"Feature","properties":{},"geometry":{"type":"Polygon","coordinates":[[[14.22,-25.86],[13.68,-26.18],[11.23,-21.63],[11.42,-19.64],[12.9,-16.67],[17.2,-13.33],[22.05,-13.52],[20.91,-15.01],[19.99,-18.31],[16.89,-23.07],[16.17,-25.24],[14.22,-25.86]]]}},{"type":"Feature","properties":{},"geometry":{"type":"Polygon","coordinates":[[[28.28,9.28],[27.05,8.17],[26.53,12.44],[27.57,11.52],[28.99,11.63],[31.27,13.75],[32.18,15.54],[31.52,13.76],[28.28,9.28]]]}},{"type":"Feature","properties":{},"geometry":{"type":"Polygon","coordinates":[[[27.24,-0.53],[27.24,-1.31],[27.99,-2.3],[28.12,-5.43],[28.45,-5.17],[28.26,-9.93],[24.12,-12.39],[23.35,-13.87],[20.66,-13.33],[17.24,-13.33],[14.34,-5.8],[14.33,-4.65],[27.24,-0.53]]]}},{"type":"Feature","properties":{},"geometry":{"type":"Polygon","coordinates":[[[8.87,48.97],[8.37,49.31],[9.94,49.44],[10.17,49.87],[8.48,49.38],[8.64,49.69],[8.02,49.95],[9.24,50.35],[7.86,50.39],[8.77,50.45],[8.43,50.55],[8.92,50.53],[8.86,50.88],[9.38,50.62],[8.48,50.93],[9.72,51.32],[8.74,51.34],[10.01,51.36],[9.36,51.6],[10.02,51.53],[9.5,51.74],[10.01,51.93],[9.69,52.08],[11.19,52.49],[11.13,53.16],[10.63,52.38],[10.09,52.56],[10.54,53.56],[11.12,53.54],[10.57,53.58],[11.12,54.07],[10.6,53.85],[11.42,54.52],[10.84,54.29],[10.8,54.67],[11.2,54.63],[10.83,55.04],[11.25,55.04],[10.74,55.2],[11.54,55.65],[10.89,55.33],[11.15,55.54],[10.61,55.65],[11.06,55.84],[10.62,55.86],[11.08,56.06],[10.65,56.12],[11.81,56.57],[10.94,56.53],[11.18,56.95],[11.8,56.86],[10.81,57.13],[11.45,57.37],[10.95,57.41],[11.22,57.7],[11.92,57.39],[11.3,57.79],[12.31,58.15],[11.33,58],[11.95,58.34],[11.61,58.35],[11.97,58.43],[11.56,59.13],[12.63,59.14],[11.89,59.53],[12.51,59.33],[12.43,59.92],[12.82,59.24],[13.23,59.59],[12.68,59.77],[12.91,60.11],[13.72,60.03],[12.77,60.42],[14.29,60.46],[13.87,60.62],[14.34,61.23],[13.92,61.53],[14.8,61.64],[15.13,60.78],[15.09,61.81],[15.73,61.3],[15.91,61.89],[15.39,62],[15.88,62.23],[16.44,61.61],[16.82,61.74],[16.58,62.18],[18.44,62.13],[17.15,61.52],[18.29,61.25],[19.47,61.5],[19.55,61.97],[20.44,61.98],[19.8,61.81],[20.24,61.55],[21.07,61.78],[21.17,61.41],[22.76,62.06],[27.87,61.89],[29.05,61.21],[28.16,60.02],[22.45,59.54],[25.69,59.06],[25.81,58.51],[26.96,57.87],[29.53,57.81],[29.45,58.4],[28.01,58.42],[27.8,58.84],[29.19,58.62],[31.04,59.12],[29.63,59.64],[29.66,60.41],[30.12,61.19],[32.18,61.09],[29.71,62.9],[28.16,63.18],[31.05,63.45],[31.55,63.23],[30.76,62.83],[30.94,62.42],[32.34,62.26],[33.38,62.69],[32.65,63.31],[33.43,63.61],[32.71,63.75],[34.23,65.09],[34.73,64.95],[34.25,65.12],[34.75,65.77],[35.2,65.95],[34.67,65.66],[35.67,65.36],[35.5,64.96],[36.31,65.05],[36.2,65.4],[36.7,65.33],[36.41,65.8],[37.77,66.25],[37.4,66.35],[38.12,66.97],[39.77,66.71],[39.3,67.01],[40.06,67.38],[37.99,67.69],[38.28,67.89],[37.88,68.08],[44.23,68.86],[46.71,68.78],[48.07,68.26],[48.98,66.48],[48.4,65.39],[48.72,64.11],[56.16,58.11],[56.71,56.88],[56.2,54.83],[58.08,50.68],[57.82,49.67],[56.95,48.81],[51.6,46.03],[47.77,40.56],[44.43,39.94],[40.81,40.66],[41.78,41.8],[41.06,42.34],[41.85,42.52],[42.09,43.25],[39.54,41.87],[39,41.11],[38.97,41.54],[39.14,40.81],[39.84,40.49],[40.77,40.85],[40.67,40.48],[38.39,39.42],[37.77,40.14],[37.15,39.86],[38.02,40.67],[36.13,40.55],[35.8,40.75],[36.61,40.87],[36.07,41.13],[34.52,39.61],[34.91,38.69],[34.49,38.43],[31.6,39.38],[28.86,41.34],[22.15,43.64],[18.82,44.27],[21.2,45.69],[21.91,45.35],[22.51,45.8],[22.31,45.32],[22.89,45.95],[22.41,46.09],[22.92,46.39],[22.88,47.07],[22.84,46.24],[23.4,46.34],[22.38,47.83],[22.37,48.9],[22.94,49.27],[24.18,48.74],[24.61,49.16],[24.1,50.19],[23.45,50.04],[22.76,50.81],[27.33,52.75],[25.83,52.87],[25.6,53.27],[21.96,51.22],[21.71,51.72],[20.37,51.67],[18.71,53.62],[19.6,56.09],[20.12,56.25],[19.63,56.81],[16.96,56.42],[17.42,56.31],[17.06,56],[17.4,55.91],[16.97,56],[17.16,55.46],[17.88,55.2],[17.7,54.45],[16.7,53.64],[16.63,53.05],[16,53.33],[16.6,52.93],[16.26,52.64],[17.21,50.95],[19.17,50.44],[18.52,49.93],[19.05,49.78],[18.8,49.38],[18.45,49.64],[18.55,49.24],[17.66,48.87],[18.3,48.85],[17.82,48.75],[18.39,48.55],[18.81,47.06],[18.7,46.39],[17.59,46],[17.74,45.43],[16.69,45.18],[16,45.98],[16.24,46.33],[14.79,47.2],[14.64,47.84],[14.14,47.72],[13.02,49.11],[13.03,48.7],[12.71,48.87],[13.09,48.21],[12.5,48.17],[12.03,47.01],[11.22,46.68],[9.73,47.17],[10.44,47.65],[9.88,47.54],[10.18,48.12],[9.21,47.85],[10.1,49.08],[9.48,48.92],[9.39,48.39],[8.87,48.97]]]}},{"type":"Feature","properties":{},"geometry":{"type":"Polygon","coordinates":[[[13.63,44.21],[13.01,44.54],[12.62,45.7],[13.99,47.04],[14.11,45.98],[14.81,45.86],[14.06,44.92],[14.55,44.22],[13.63,44.21]]]}},{"type":"Feature","properties":{},"geometry":{"type":"Polygon","coordinates":[[[34.64,35.59],[34.32,36.55],[33.57,36.22],[33.43,36.74],[36.43,38.51],[35.79,38.39],[40.94,40.38],[44.24,40.51],[40.27,38.82],[39.21,37.79],[37.47,37.99],[36.5,37.58],[34.64,35.59]]]}},{"type":"Feature","properties":{},"geometry":{"type":"Polygon","coordinates":[[[22.97,23.09],[22.56,21.7],[21.79,21.81],[22.42,20.69],[22.2,20.23],[21.54,20.82],[21.6,20.21],[21.12,20.66],[20.94,19.98],[20.29,20.05],[20.39,20.48],[19.95,20.52],[20.26,21.7],[21,21.69],[21.83,20.92],[20.49,22.04],[20.57,22.62],[20.95,22.6],[20.63,24.54],[21.76,25.51],[20.59,28.5],[21.07,30.24],[20.94,30.66],[20.23,30.41],[20.79,31.36],[19.94,31.67],[18.87,30.71],[19.14,29.62],[18.73,28.83],[18.91,27.68],[19.57,27.17],[19.13,26.92],[19.89,24.66],[19.53,24.57],[19.04,25.67],[18.32,25.34],[18.23,24.39],[16.58,24.22],[17.51,24.74],[17.94,25.94],[16.65,29.94],[17.26,31.57],[16.75,32.59],[15.52,32.68],[15.45,33.34],[16.53,34.73],[20.45,34.13],[24.59,31.77],[22.55,30.56],[23.09,26.62],[22.97,23.09]]]}},{"type":"Feature","properties":{},"geometry":{"type":"Polygon","coordinates":[[[16.72,33.12],[15.71,32.12],[13.82,32.29],[13.2,31.25],[9.19,31.42],[9,33.35],[9.59,32.97],[8.81,34.12],[7.17,35.2],[5.8,35.11],[5.43,35.31],[5.81,35.64],[5.29,35.78],[6.54,36.36],[6.96,36.04],[7.98,36.37],[7.22,37.35],[8.71,37.15],[9.28,37.85],[11.7,37.34],[13.85,37.65],[16.82,40.91],[19.33,42.22],[23.79,42.97],[27,41.76],[24.47,40.68],[22.74,39.12],[18.36,37.6],[16.36,36.38],[15.17,34.92],[16.01,33.42],[16.72,33.12]]]}},{"type":"Feature","properties":{},"geometry":{"type":"Polygon","coordinates":[[[9.28,37.85],[9.95,38.33],[9.67,38.99],[11.6,39.86],[10.91,39.91],[11.79,40.27],[11.22,40.42],[11.43,41.5],[11.96,41.34],[11.66,40.97],[12.28,41.31],[11.99,41.98],[13.26,42.17],[13.04,42.49],[13.58,42.74],[14.2,42.5],[14.13,43.04],[15.17,42.9],[13.9,43.42],[14.19,43.66],[13.49,43.79],[13.63,44.21],[14.55,44.22],[15.09,43.69],[15.83,43.94],[15.76,43.4],[16.86,44.28],[18.85,43.79],[18.82,44.27],[19.7,44.16],[23.79,42.97],[18.14,41.74],[16.16,40.28],[13.85,37.65],[11.7,37.34],[9.28,37.85]]]}},{"type":"Feature","properties":{},"geometry":{"type":"Polygon","coordinates":[[[34.4,38.21],[34.57,37.22],[34.13,36.66],[30.11,35.67],[29.1,36.42],[29.05,37.13],[31.37,38.46],[31.6,39.38],[34.4,38.21]]]}},{"type":"Feature","properties":{},"geometry":{"type":"Polygon","coordinates":[[[-29.15,62.34],[-29.66,62.03],[-29.34,62.61],[-29.15,62.34]]]}},{"type":"Feature","properties":{},"geometry":{"type":"Polygon","coordinates":[[[-25.1,61.53],[-24.28,61.2],[-25.63,61.46],[-25.1,61.53]]]}},{"type":"Feature","properties":{},"geometry":{"type":"Polygon","coordinates":[[[-30.32,63.39],[-31.15,62.93],[-32.33,63.32],[-30.32,63.39]]]}},{"type":"Feature","properties":{},"geometry":{"type":"Polygon","coordinates":[[[3.45,67.21],[4.67,67.09],[4.88,66.4],[4.24,66.67],[3.76,66.32],[2.74,66.86],[3.45,67.21]]]}},{"type":"Feature","properties":{},"geometry":{"type":"Polygon","coordinates":[[[2.23,67.29],[3.01,67.12],[1.9,67.06],[2.23,67.29]]]}},{"type":"Feature","properties":{},"geometry":{"type":"Polygon","coordinates":[[[-29.61,63.96],[-29.85,63.48],[-31.28,63.91],[-29.61,63.96]]]}},{"type":"Feature","properties":{},"geometry":{"type":"Polygon","coordinates":[[[-24.78,62.48],[-24.32,62.03],[-24.64,61.73],[-25.75,61.71],[-25.26,62.68],[-24.78,62.48]]]}},{"type":"Feature","properties":{},"geometry":{"type":"Polygon","coordinates":[[[-2.26,66.25],[-1.02,65.9],[-2.62,66.31],[-2.26,66.25]]]}},{"type":"Feature","properties":{},"geometry":{"type":"Polygon","coordinates":[[[-26.52,63.74],[-26.67,63.18],[-26.14,63.3],[-25.86,62.63],[-26.88,61.97],[-27.29,62.78],[-28.07,62.87],[-27.1,63.14],[-27.63,63.37],[-27.42,63.73],[-26.52,63.74]]]}},{"type":"Feature","properties":{},"geometry":{"type":"Polygon","coordinates":[[[16.49,81.15],[20.41,81.26],[17.53,81.44],[21.19,81.88],[22.99,81.81],[26.23,80.81],[16.49,81.15]]]}},{"type":"Feature","properties":{},"geometry":{"type":"Polygon","coordinates":[[[-2.11,67.87],[1.87,67.5],[1.43,66.9],[2.54,66.07],[-2.11,67.87]]]}},{"type":"Feature","properties":{},"geometry":{"type":"Polygon","coordinates":[[[2.38,66],[3.22,65.18],[0.64,65.53],[1.77,65.73],[0.83,65.73],[1.42,66.23],[0.41,65.7],[-0.19,65.93],[0.76,66.58],[2.38,66]]]}},{"type":"Feature","properties":{},"geometry":{"type":"Polygon","coordinates":[[[0.07,66.82],[0,66.48],[-0.6,66.78],[-0.14,66.34],[-0.65,65.99],[-3.5,67.07],[-2.74,67.46],[-2.82,67.07],[-1.72,66.99],[-2.28,67.48],[0.07,66.82]]]}},{"type":"Feature","properties":{},"geometry":{"type":"Polygon","coordinates":[[[14.62,79.17],[15.26,79.52],[16.89,79.18],[14.62,79.17]]]}},{"type":"Feature","properties":{},"geometry":{"type":"Polygon","coordinates":[[[-24.13,63.98],[-24.43,63.51],[-24.59,63.84],[-24.13,63.98]]]}},{"type":"Feature","properties":{},"geometry":{"type":"Polygon","coordinates":[[[13.32,80.05],[16.54,80.15],[13.38,80.42],[14.78,80.63],[21.21,80.49],[19.6,79.93],[20.05,79.83],[16.75,79.56],[17.76,79.5],[17.16,79.39],[13.32,80.05]]]}},{"type":"Feature","properties":{},"geometry":{"type":"Polygon","coordinates":[[[3.22,70.01],[3.58,69.98],[3.08,69.67],[3.22,70.01]]]}},{"type":"Feature","properties":{},"geometry":{"type":"Polygon","coordinates":[[[-0.43,68.88],[1.77,69.11],[2.42,68.48],[0.79,67.83],[-0.13,67.87],[0.53,67.99],[0.07,68.02],[0.34,68.25],[-1.71,68.07],[-1.06,68.29],[-1.68,68.57],[0.2,68.51],[-0.43,68.88]]]}},{"type":"Feature","properties":{},"geometry":{"type":"Polygon","coordinates":[[[6.08,72.26],[6.89,72.33],[6.27,72.22],[6.82,71.87],[6.02,71.75],[6.08,72.26]]]}},{"type":"Feature","properties":{},"geometry":{"type":"Polygon","coordinates":[[[9.3,74.37],[10.71,74.07],[8.92,74.01],[9.3,74.37]]]}},{"type":"Feature","properties":{},"geometry":{"type":"Polygon","coordinates":[[[6.61,72.76],[7.47,72.79],[7.98,72.31],[7.69,72.19],[8.41,71.98],[7.35,71.86],[7.7,72.05],[7.09,72.04],[7.39,72.33],[6.59,72.42],[6.61,72.76]]]}},{"type":"Feature","properties":{},"geometry":{"type":"Polygon","coordinates":[[[7.85,79.58],[12.43,80.05],[14.74,79.5],[13.39,79.37],[13.69,79.06],[7.85,79.58]]]}},{"type":"Feature","properties":{},"geometry":{"type":"Polygon","coordinates":[[[-20.75,64.55],[-20.48,63.1],[-19.84,63.28],[-20.51,62.46],[-19.81,62.42],[-19.78,62.04],[-21.31,61.65],[-21.23,62.02],[-22.18,61.29],[-22.24,61.81],[-22.41,61.35],[-23.4,61.6],[-23.52,61.93],[-22.93,61.87],[-23.53,62.05],[-23.53,62.5],[-21.99,62.42],[-23.55,62.85],[-22.8,63.13],[-23.43,63.49],[-22.54,63.41],[-22.24,63.55],[-22.94,63.89],[-21.78,63.82],[-22.03,64.22],[-20.75,64.55]]]}},{"type":"Feature","properties":{},"geometry":{"type":"Polygon","coordinates":[[[-8.96,62.68],[-8.38,62.17],[-9.42,62.63],[-8.96,62.68]]]}},{"type":"Feature","properties":{},"geometry":{"type":"Polygon","coordinates":[[[-12.41,65.03],[-11.49,64.77],[-12.28,64.52],[-11.06,64.72],[-10.14,64.06],[-11.34,63.53],[-12.91,63.65],[-12.13,63.38],[-13.42,63.05],[-11.43,63.3],[-13.56,62.34],[-13.94,62.56],[-13.85,62.18],[-14.66,62.28],[-14.02,62.09],[-14.53,61.78],[-17.19,61.71],[-15.9,61.41],[-17.18,61.56],[-16.58,61.37],[-17.38,61.3],[-16.23,61.04],[-17.39,60.55],[-17.11,60.26],[-18.13,60.36],[-18.42,59.82],[-20.09,60],[-18.9,59.73],[-19.11,59.46],[-18.52,59.47],[-18.58,59.1],[-20.28,58.81],[-19.99,59.06],[-20.57,59.47],[-21.88,59.23],[-23.74,59.9],[-22.01,60.21],[-22.17,60.97],[-21.04,60.15],[-19.64,60.74],[-20.67,60.3],[-21.09,60.84],[-20.44,61.17],[-21.68,61.17],[-20.92,61.69],[-19.33,61.21],[-19.5,61.52],[-18.84,61.48],[-19.91,61.8],[-19.46,61.72],[-19.96,62.61],[-19.54,63.11],[-17.68,62.09],[-18.23,62.25],[-18.39,62.92],[-16.45,62.88],[-17.07,63.02],[-15.72,63.08],[-16.54,63.22],[-15.43,63.65],[-18.91,63.21],[-19.37,63.39],[-17.43,63.67],[-19.6,63.46],[-19.96,63.86],[-18.09,63.91],[-19.96,63.96],[-18.71,64.24],[-20.01,64.67],[-18.36,64.85],[-17.53,64.44],[-17.91,64.88],[-17.16,65.03],[-15.94,64.11],[-16.53,64.82],[-15.84,65.16],[-14.71,65.11],[-14.62,64.58],[-14.27,64.71],[-14.56,65.15],[-13.39,64.7],[-13.53,64.97],[-12.41,65.03]]]}},{"type":"Feature","properties":{},"geometry":{"type":"Polygon","coordinates":[[[-8.5,44.42],[-8.03,45.02],[-8.59,44.78],[-8.5,45.3],[-8.84,45.31],[-7.68,45.73],[-8.81,45.36],[-9.25,45.7],[-8.41,46.06],[-9.42,45.98],[-7.66,46.85],[-9.47,46.04],[-9.55,46.45],[-8.85,46.52],[-9.47,46.59],[-8.76,46.82],[-9.78,47.04],[-7.72,47.19],[-9.74,47.17],[-9.15,47.71],[-7.59,47.54],[-8.33,47.71],[-7.68,47.88],[-8.19,47.98],[-9.69,47.54],[-8.76,47.95],[-9.48,48.14],[-7.68,47.96],[-8.44,48.19],[-8.12,48.51],[-9.54,48.28],[-8.25,48.58],[-8.34,49.13],[-7.83,48.99],[-8.38,49.2],[-7.98,50.04],[-10.35,50.59],[-8.18,50.33],[-9,51],[-8.47,51.02],[-9.16,51.09],[-8.8,51.29],[-9.32,51.13],[-8.74,51.47],[-9.56,51.38],[-8.91,51.69],[-9.88,51.94],[-10.02,51.38],[-10.85,51.39],[-10.43,51.93],[-10.92,51.92],[-10.59,52.26],[-10.96,52.37],[-10.46,52.76],[-11.04,53.01],[-10.73,53.29],[-11.28,54.17],[-11.82,54.01],[-11.27,54.3],[-12.46,55.25],[-12.34,55.63],[-14.47,56.32],[-16.15,56.18],[-15.84,55.89],[-16.68,56.12],[-17.1,56.44],[-16.33,56.7],[-17.68,57.12],[-15.53,57.23],[-15.46,57.57],[-16.68,57.5],[-18.01,58.32],[-14.99,59.17],[-14.67,59.95],[-14.15,60.05],[-15.41,60.31],[-14.03,61.06],[-13.78,60.67],[-13.94,61.07],[-13.22,61.03],[-13.09,61.78],[-11.78,61.24],[-12.71,61.89],[-11.26,62.28],[-10.86,61.43],[-10.76,61.96],[-9.7,61.61],[-10.32,62.47],[-8.24,61.84],[-8.43,62.35],[-7.74,62.35],[-8.94,62.81],[-7.16,62.71],[-9.02,63.17],[-6.99,62.98],[-7.27,63.19],[-6.79,63.42],[-7.46,63.64],[-6.57,63.94],[-4.11,64.03],[-5.94,63.54],[-5.6,63.49],[-6.14,63.09],[-3.88,63.94],[-3.67,63.54],[-2.32,63.65],[-4.74,62.26],[-2.56,62.91],[-2.58,62.29],[-1.75,63.19],[-1.14,62.64],[-1.12,61.66],[-0.62,62.93],[0.15,62.87],[0.04,63.37],[1.67,63.4],[1.46,62.34],[-0.14,61.86],[1.6,62.15],[0.39,61.49],[0.93,61.18],[1.57,61.67],[1.22,61.12],[1.83,60.75],[1.41,60.23],[1.98,59.16],[2.33,59.17],[2.15,59.54],[2.94,59.45],[2.45,59.09],[3.62,59.13],[4.09,58.63],[2.48,58.56],[3.13,58.57],[2.42,58.19],[3.89,58.05],[3.2,57.67],[4.09,57.76],[4.84,57.2],[3.37,57.31],[4.45,56.97],[3.59,56.8],[5.59,56.53],[4.12,56.32],[5.28,56.15],[4.16,56.01],[4.84,55.45],[4.64,55.85],[5.43,55.83],[5.59,55.41],[4.82,55.03],[3.79,55.31],[4.67,55.4],[2.88,55.37],[3.61,55.06],[2.4,54.8],[2.99,54.63],[2.41,54.41],[3.71,54.58],[2.7,54.18],[4.1,54.26],[3.47,53.84],[3.99,53.94],[4.04,53.56],[4.27,54.03],[5.62,53.75],[5.46,53.42],[6,53.66],[5.83,53.33],[6.23,53.44],[6.18,52.97],[6.84,52.58],[6.2,52.77],[6.37,52.36],[5.98,52.29],[4.87,53],[2.44,53.33],[3.31,53.09],[2.83,52.83],[4.46,52.91],[3.96,52.4],[3.29,52.5],[3.4,51.98],[2.92,51.71],[4.48,51.9],[3.42,51.43],[4.12,51.41],[5.02,52.06],[6.74,51.96],[5.25,50.28],[2.98,49.43],[3.26,49.3],[1.91,49.64],[2.43,49.01],[1.85,48.67],[1.48,47.27],[0.75,47.25],[1,46.96],[0.03,46.8],[0.15,46.46],[-0.42,47.09],[-0.41,46.28],[-1.11,46.3],[-1.56,46],[-1.41,45.52],[-2.02,45.57],[-1.42,44.87],[-2.1,44.69],[-1.35,44.19],[-1.98,44.3],[-1.46,44.07],[-2.17,43.89],[-1.89,43.34],[-2.79,43.09],[-2.1,42.79],[-2.65,42.88],[-2.01,42.42],[-2.56,41.95],[-2.09,41.81],[-2.62,41.69],[-2.19,41.48],[-2.83,41.46],[-2.23,41.45],[-2.72,41.18],[-2.24,40.95],[-3.11,40.93],[-2.34,40.45],[-3.01,40.69],[-3.66,40.33],[-3.28,40.85],[-3.69,40.38],[-3.41,41.02],[-4.27,40.78],[-3.84,41.15],[-4.44,40.94],[-3.85,41.44],[-4.36,41.12],[-4.24,41.55],[-5.74,40.92],[-5.6,41.45],[-6.34,41.47],[-5.83,41.63],[-6.49,41.62],[-6.05,41.73],[-6.61,41.88],[-6.27,42.15],[-7.24,42.52],[-6.9,43.1],[-7.29,42.8],[-7.14,43.26],[-7.8,43.34],[-7.22,43.42],[-8.09,43.67],[-7.72,43.93],[-8.18,44.01],[-7.53,44.22],[-8.27,44.17],[-7.33,44.48],[-7.55,44.73],[-6.97,44.4],[-7.92,45.23],[-7.64,44.76],[-8.5,44.42]]]}}]}
