{"type":"FeatureCollection","features":[{"type":"Feature","properties":{},"geometry":{"type":"Polygon","coordinates":[[[47.77,-58.44],[49.28,-58.11],[50.17,-58.51],[48.46,-58.79],[47.77,-58.44]]]}},{"type":"Feature","properties":{},"geometry":{"type":"Polygon","coordinates":[[[53.98,-56.14],[53.74,-56.51],[53.25,-55.91],[54.45,-55.95],[53.98,-56.14]]]}},{"type":"Feature","properties":{},"geometry":{"type":"Polygon","coordinates":[[[13.87,-64.4],[15.01,-63.43],[16.31,-63.98],[16.19,-64.4],[13.87,-64.4]]]}},{"type":"Feature","properties":{},"geometry":{"type":"Polygon","coordinates":[[[35.28,-68.1],[36.25,-67.92],[34.95,-68.24],[35.28,-68.1]]]}},{"type":"Feature","properties":{},"geometry":{"type":"Polygon","coordinates":[[[39.99,-68.27],[37.03,-68.27],[39.09,-67.6],[39.7,-67.64],[39.99,-68.27]]]}},{"type":"Feature","properties":{},"geometry":{"type":"Polygon","coordinates":[[[42.85,-68.5],[40.42,-67.68],[43.52,-68.34],[42.85,-68.5]]]}},{"type":"Feature","properties":{},"geometry":{"type":"Polygon","coordinates":[[[4.86,-66.45],[6.39,-65.85],[6.23,-66.41],[4.86,-66.45]]]}},{"type":"Feature","properties":{},"geometry":{"type":"Polygon","coordinates":[[[19.88,-69.12],[20.31,-68.87],[18.75,-68.94],[18.16,-68.74],[19.34,-68.62],[18.12,-68.51],[19.15,-68.12],[23.42,-69.35],[19.88,-69.12]]]}},{"type":"Feature","properties":{},"geometry":{"type":"Polygon","coordinates":[[[-2.77,-67.89],[-1.75,-67.64],[-1.41,-68.06],[-2.77,-67.89]]]}},{"type":"Feature","properties":{},"geometry":{"type":"Polygon","coordinates":[[[-5.91,-66.55],[0,-65.01],[2.65,-65.06],[3.43,-65.67],[2.49,-65.92],[1.98,-65.5],[1.04,-66.08],[2.84,-66.35],[2.06,-67.27],[1.71,-67.25],[2.1,-66.92],[1.15,-67.12],[1.46,-66.61],[0.97,-66.94],[0.4,-66.41],[0.17,-66.76],[-1.01,-66.28],[-0.82,-66.04],[-1.91,-66.51],[-2.73,-66.08],[-3.16,-66.83],[-4.7,-67.16],[-5.91,-66.55]]]}},{"type":"Feature","properties":{},"geometry":{"type":"Polygon","coordinates":[[[61.72,-39.11],[61.3,-39.96],[60.8,-39.68],[61.72,-39.11]]]}},{"type":"Feature","properties":{},"geometry":{"type":"Polygon","coordinates":[[[-18.57,-62.08],[-17.71,-61.79],[-17.2,-62.2],[-18.57,-62.08]]]}},{"type":"Feature","properties":{},"geometry":{"type":"Polygon","coordinates":[[[13.55,-64.64],[15.01,-65.01],[15.96,-64.7],[15.58,-65.07],[16.19,-65.21],[18.86,-63.18],[19.03,-62.86],[18.22,-63.2],[18.38,-62.71],[19.27,-62.65],[19.05,-62.35],[20.05,-61.97],[23.04,-61.66],[25.85,-59.22],[29.61,-60.2],[30.13,-61.32],[30.87,-61.74],[29.72,-62.8],[20.72,-65.19],[19.3,-66.02],[17.43,-66.22],[13.36,-65.44],[13.55,-64.64]]]}},{"type":"Feature","properties":{},"geometry":{"type":"Polygon","coordinates":[[[-19.72,-61.77],[-18.9,-61.6],[-19.22,-61.86],[-18.85,-62.21],[-17.09,-62.58],[-17.57,-62.93],[-15.4,-64.03],[-13.47,-63.88],[-14.04,-63.66],[-13.78,-63.37],[-12.8,-63.8],[-13.43,-63.89],[-13.3,-64.27],[-12.14,-64.14],[-13.42,-64.55],[-11.72,-64.56],[-11.44,-65],[-10.09,-65.21],[-7.45,-64.85],[-7.28,-64.46],[-8.17,-64.07],[-6.79,-64.3],[-5.91,-63.73],[-3.79,-63.55],[-3.83,-63.22],[1.57,-62.51],[1.09,-62.22],[4.25,-62.1],[6.86,-62.69],[6.64,-62.37],[10.39,-63.35],[10.67,-62.68],[11.34,-62.49],[13.97,-63.19],[13.44,-64.05],[12.57,-64.35],[13.55,-64.64],[12.85,-67.14],[10.16,-67.7],[10.1,-67.32],[9.2,-67.19],[7.42,-67.55],[7.43,-66.95],[7.95,-66.78],[6.95,-66.44],[7.77,-66.28],[2.49,-64.43],[0.22,-64.58],[-4.92,-65.95],[-6.25,-65.33],[-9.94,-65.55],[-9.62,-65.95],[-10.86,-66],[-11.24,-65.8],[-10.4,-65.57],[-11.97,-65.71],[-11.98,-65.39],[-13.29,-65.42],[-14.94,-64.63],[-16.04,-64.73],[-15.7,-64.48],[-18.27,-63.48],[-19.72,-61.77]]]}},{"type":"Feature","properties":{},"geometry":{"type":"Polygon","coordinates":[[[21.49,-55.55],[16.91,-52.32],[16.74,-51.62],[17.36,-51.5],[15.67,-51.04],[14.45,-52.09],[12.94,-51.66],[11.44,-49.79],[11.29,-48.66],[10.16,-47.67],[9.71,-46.09],[10.19,-44.04],[9.75,-43.37],[8.83,-43.31],[9.59,-43.23],[8.99,-42.51],[10.41,-42.71],[10.59,-42.38],[9.76,-41.58],[10.14,-41.33],[10.76,-41.86],[11.52,-41.11],[10.67,-40.38],[11.96,-41.08],[12.18,-40.7],[12.69,-40.86],[12.85,-39.24],[14.29,-38.03],[16,-37.69],[17.35,-36.57],[20.13,-35.85],[23.74,-33.9],[23.71,-32.8],[26.02,-33.85],[26.23,-32.7],[27.33,-31.62],[28.83,-30.67],[29.63,-30.95],[30.04,-30.08],[30.8,-30.42],[30.63,-29.54],[32.08,-29.03],[32.96,-29.18],[33.72,-29.8],[33.23,-30.02],[34.49,-30.67],[39.17,-31.43],[39.09,-32.36],[38.62,-32.55],[39.01,-32.58],[38.56,-32.71],[38.87,-32.89],[38.36,-32.86],[38.48,-33.44],[37.93,-33.79],[38.99,-35.14],[40.26,-33.73],[41.22,-33.8],[43.15,-32.63],[45.8,-32.24],[49.24,-32.8],[52.12,-34.06],[52.55,-33.42],[53.16,-33.61],[52.96,-34.13],[54.29,-34.4],[55.93,-36.63],[58.57,-36.74],[58.48,-37.65],[59.15,-38.01],[59.22,-38.9],[60.64,-39.67],[60.35,-39.91],[62.93,-40.79],[62.79,-41.81],[63.25,-42.23],[64.43,-41.61],[65.71,-43.26],[66.99,-42.94],[66.28,-43.46],[66.25,-44.11],[67.68,-47.26],[68.6,-47.76],[67.29,-47.69],[67.76,-48.9],[66.84,-48.92],[67.68,-49.94],[67.13,-50.23],[68.22,-50.93],[67.37,-51.51],[67.4,-52.22],[67.8,-52.26],[67.55,-52.97],[66.19,-53.9],[65.91,-56.18],[64.09,-57.26],[61.15,-56.69],[60.86,-55.97],[59.96,-55.92],[59.88,-55.52],[58.94,-55.69],[59.14,-55.4],[58.47,-55.3],[59.2,-55.17],[58.7,-54.98],[57.9,-55],[57.63,-55.54],[57.1,-55.01],[52.54,-55.21],[52.98,-55.64],[51.77,-55.94],[51.97,-55.36],[50.96,-54.6],[45.71,-54.95],[45.51,-54.6],[44.97,-54.82],[45.37,-55.05],[43.38,-55.2],[41.16,-56.11],[39.27,-55.52],[41.25,-56.24],[39.25,-56.86],[37.7,-56.71],[36.49,-57.07],[36.45,-57.57],[34.95,-57.77],[37.84,-58.17],[39.98,-59.41],[37.64,-60.23],[36.1,-59.16],[32.86,-58.09],[29.39,-58.58],[26.89,-57.17],[21.49,-55.55]]]}},{"type":"Feature","properties":{},"geometry":{"type":"Polygon","coordinates":[[[42.63,-57.51],[44.45,-58.55],[43.3,-59.8],[49.05,-59.49],[51.86,-60.32],[50,-61.25],[48.46,-61.38],[48.62,-62.01],[48,-62.17],[48.69,-62.4],[48.25,-62.52],[49.67,-62.67],[50.66,-62.27],[50.79,-62.7],[49.25,-62.9],[50.26,-63.23],[49.53,-64.11],[48.58,-64.41],[48.8,-64.81],[47.66,-65.22],[48.13,-65.6],[47.57,-66.04],[46.26,-65.93],[36.3,-67.86],[34.04,-67.65],[34.2,-68.06],[33.5,-68.29],[33.7,-67.96],[32.97,-68.11],[33.28,-67.76],[32.73,-67.25],[31.66,-67.38],[31.99,-67.53],[31.62,-67.91],[30.03,-67.21],[28.95,-67.39],[28.56,-67.11],[28.94,-66.65],[27.44,-67.12],[26.27,-66.91],[26.01,-66.35],[24.93,-66.35],[25.18,-67.05],[24.05,-67.27],[24.73,-67.97],[22.88,-67.95],[24.84,-68.18],[25.08,-68.67],[24.62,-68.78],[22.71,-68.08],[20.98,-68.07],[20.2,-67.4],[18.59,-67.55],[18.58,-67.16],[17.07,-66.64],[14.91,-66.83],[14.64,-66.5],[15.38,-66.38],[14.88,-65.83],[13.82,-65.86],[14.36,-65.48],[13.76,-64.81],[22.6,-63.24],[23.54,-62.52],[32.1,-60.39],[33.41,-59.33],[39.89,-58.9],[42.63,-57.51]]]}},{"type":"Feature","properties":{},"geometry":{"type":"Polygon","coordinates":[[[-19.65,-60.96],[-19.25,-60.78],[-19.17,-61.42],[-19.65,-60.96]]]}},{"type":"Feature","properties":{},"geometry":{"type":"Polygon","coordinates":[[[-20.23,-62.82],[-19.82,-62.96],[-20.41,-63.34],[-20.23,-62.82]]]}},{"type":"Feature","properties":{},"geometry":{"type":"Polygon","coordinates":[[[-20.92,-61.7],[-20.63,-61.56],[-20.66,-62.25],[-20.92,-61.7]]]}},{"type":"Feature","properties":{},"geometry":{"type":"Polygon","coordinates":[[[-12.51,-58.54],[-12.21,-58.61],[-12.89,-58.83],[-11.25,-59.02],[-13.71,-59.19],[-12.51,-58.54]]]}},{"type":"Feature","properties":{},"geometry":{"type":"Polygon","coordinates":[[[-12.15,-58.4],[-10.94,-58.28],[-11.86,-58.68],[-12.15,-58.4]]]}},{"type":"Feature","properties":{},"geometry":{"type":"Polygon","coordinates":[[[-14.31,-59.07],[-14.53,-59.29],[-14.06,-59.37],[-14.83,-59.32],[-14.31,-59.07]]]}},{"type":"Feature","properties":{},"geometry":{"type":"Polygon","coordinates":[[[-16.83,-58.65],[-16.22,-59.04],[-17.11,-58.82],[-16.83,-58.65]]]}},{"type":"Feature","properties":{},"geometry":{"type":"Polygon","coordinates":[[[-15.74,-57.97],[-15.04,-58.56],[-15.78,-58.41],[-15.74,-57.97]]]}},{"type":"Feature","properties":{},"geometry":{"type":"Polygon","coordinates":[[[-18.42,-58.59],[-17.05,-58.94],[-18.62,-59.08],[-18.42,-58.59]]]}},{"type":"Feature","properties":{},"geometry":{"type":"Polygon","coordinates":[[[-18.22,-57.69],[-17.35,-57.59],[-18.27,-58.19],[-17.62,-58.53],[-18.91,-58.48],[-18.17,-58.42],[-18.9,-58.12],[-18.22,-57.69]]]}},{"type":"Feature","properties":{},"geometry":{"type":"Polygon","coordinates":[[[-15.88,-59.02],[-14.38,-58.7],[-15.61,-58.59],[-13.54,-58.62],[-13.4,-58.29],[-15.17,-58.12],[-14.88,-57.46],[-15.91,-57.79],[-15.96,-57.31],[-16.43,-57.27],[-15.74,-56.69],[-12.2,-57.45],[-9.63,-57.3],[-10.53,-58.06],[-13.02,-58.74],[-16.29,-59.25],[-15.88,-59.02]]]}},{"type":"Feature","properties":{},"geometry":{"type":"Polygon","coordinates":[[[-7.33,-52.7],[-7.54,-53.72],[-8.31,-53.79],[-7.58,-53.23],[-8.47,-53.08],[-7.33,-52.7]]]}},{"type":"Feature","properties":{},"geometry":{"type":"Polygon","coordinates":[[[-6.9,-52.5],[-5.55,-52.5],[-6.57,-52.96],[-6.02,-53.18],[-6.76,-53.56],[-6.9,-52.5]]]}},{"type":"Feature","properties":{},"geometry":{"type":"Polygon","coordinates":[[[-22.44,-56.74],[-21.86,-57],[-22.53,-57.08],[-22.44,-56.74]]]}},{"type":"Feature","properties":{},"geometry":{"type":"Polygon","coordinates":[[[-23.69,-56.31],[-23.05,-56.37],[-23.4,-56.71],[-23.69,-56.31]]]}},{"type":"Feature","properties":{},"geometry":{"type":"Polygon","coordinates":[[[-23.6,-55.65],[-23.55,-56.16],[-24.24,-55.9],[-23.82,-55.5],[-24.44,-55.15],[-23.97,-54.93],[-22.99,-56.16],[-23.6,-55.65]]]}},{"type":"Feature","properties":{},"geometry":{"type":"Polygon","coordinates":[[[-24.62,-54.48],[-24.03,-54.94],[-24.57,-54.97],[-24.62,-54.48]]]}},{"type":"Feature","properties":{},"geometry":{"type":"Polygon","coordinates":[[[67.13,-68.25],[66.12,-67.98],[67.16,-67.6],[67.13,-68.25]]]}},{"type":"Feature","properties":{},"geometry":{"type":"Polygon","coordinates":[[[-25.93,-51.37],[-25.63,-51.6],[-26.24,-51.65],[-25.93,-51.37]]]}},{"type":"Feature","properties":{},"geometry":{"type":"Polygon","coordinates":[[[-25.51,-50.56],[-25.11,-50.62],[-25.46,-51.15],[-25.81,-50.93],[-25.51,-50.56]]]}},{"type":"Feature","properties":{},"geometry":{"type":"Polygon","coordinates":[[[-28.06,-48.46],[-27.18,-48.74],[-27.5,-49.13],[-26.94,-49.34],[-26.98,-49.96],[-27.71,-49.94],[-28.06,-48.46]]]}},{"type":"Feature","properties":{},"geometry":{"type":"Polygon","coordinates":[[[64.21,-57.34],[64.17,-58.71],[64.66,-58.92],[64.28,-59.3],[64.72,-58.93],[65.96,-59.6],[65.75,-59.98],[61.39,-60.57],[61.9,-59.83],[60.04,-59.93],[59.76,-59.33],[60.31,-59.38],[60.56,-58.76],[64.21,-57.34]]]}},{"type":"Feature","properties":{},"geometry":{"type":"Polygon","coordinates":[[[66.37,-64.88],[64.32,-65.18],[65.17,-65.7],[64.33,-65.57],[64.91,-66.05],[61.62,-65.42],[60.73,-63.39],[58.21,-60.88],[59.35,-61.34],[61.31,-63.26],[66.37,-64.88]]]}},{"type":"Feature","properties":{},"geometry":{"type":"Polygon","coordinates":[[[60.05,-73.37],[61.36,-72.73],[59.79,-72.2],[63.26,-71.4],[63.32,-69.69],[62.91,-69.76],[64.33,-68.81],[70.62,-68.57],[69.87,-68.83],[70.57,-68.85],[70.72,-69.13],[69.89,-69.12],[70.66,-69.34],[70.2,-69.54],[70.49,-69.65],[67.69,-71.37],[63.79,-72.83],[60.05,-73.37]]]}},{"type":"Feature","properties":{},"geometry":{"type":"Polygon","coordinates":[[[67.39,-50.03],[67.21,-50.49],[66.13,-49.64],[66.47,-49.4],[67.39,-50.03]]]}},{"type":"Feature","properties":{},"geometry":{"type":"Polygon","coordinates":[[[80.73,-64.87],[79.48,-65.15],[79.99,-65.24],[78.83,-65.88],[79.29,-66.05],[74.92,-66.6],[75.22,-66.64],[74.41,-67.18],[76.23,-67.03],[72.7,-68.04],[72.24,-68.55],[73.5,-69.12],[73.07,-69.56],[69.07,-69.04],[68.69,-68.93],[69.31,-68.82],[69.02,-68.3],[65.65,-67.85],[63.16,-66.66],[64.13,-66.24],[67.15,-66.75],[69.2,-65.75],[70.23,-66.4],[72.1,-66.58],[76.07,-66.02],[75.68,-66.27],[76.67,-66.29],[76.92,-65.85],[76.24,-65.93],[80.5,-64.58],[80.73,-64.87]]]}},{"type":"Feature","properties":{},"geometry":{"type":"Polygon","coordinates":[[[103.1,-55.24],[102.5,-55.57],[102.59,-55.13],[103.1,-55.24]]]}},{"type":"Feature","properties":{},"geometry":{"type":"Polygon","coordinates":[[[101.36,-52.3],[101.35,-53.64],[100.43,-55.83],[99.99,-55.35],[100.27,-53.69],[101.36,-52.3]]]}},{"type":"Feature","properties":{},"geometry":{"type":"Polygon","coordinates":[[[89.74,-35.28],[89.42,-35.93],[88.93,-35.47],[89.74,-35.28]]]}},{"type":"Feature","properties":{},"geometry":{"type":"Polygon","coordinates":[[[24.69,-21.32],[25.24,-19.18],[26.35,-18.13],[28.14,-18.38],[28.37,-18.81],[28.5,-18.33],[29.21,-18.61],[30.56,-17.82],[30.68,-17.18],[30.91,-17.53],[31.62,-17.35],[31.94,-16.47],[32.61,-16.26],[32.8,-17.51],[32.21,-19.94],[31.76,-20.3],[31.39,-19.67],[31.01,-20.92],[24.65,-27.08],[22.85,-26.99],[21.83,-25.94],[22.4,-23.15],[24.69,-21.32]]]}},{"type":"Feature","properties":{},"geometry":{"type":"Polygon","coordinates":[[[86.28,-29.35],[86.1,-29.88],[85.64,-29.5],[86.28,-29.35]]]}},{"type":"Feature","properties":{},"geometry":{"type":"Polygon","coordinates":[[[86.45,-29.26],[87.16,-30.24],[86.29,-30.2],[86.45,-29.26]]]}},{"type":"Feature","properties":{},"geometry":{"type":"Polygon","coordinates":[[[66.35,-54.63],[65.81,-54.05],[65.89,-53.12],[67.87,-51.73],[68.24,-50.9],[67.79,-51.85],[68.1,-51.55],[68.24,-50.83],[67.61,-50.39],[69.02,-50.28],[69.58,-49.6],[68.08,-49.88],[67.26,-49.33],[70.25,-49.19],[71.52,-48.4],[70.82,-48.75],[67.61,-48.3],[67.02,-48.57],[66.99,-47.76],[67.23,-48.05],[67.85,-47.53],[69.03,-45.38],[68.12,-44.31],[68.05,-43.26],[63.8,-40.18],[61.87,-39.38],[60.46,-39.41],[58.22,-36.92],[55.91,-36.31],[55.07,-34.84],[55.21,-33.73],[57.52,-33.12],[59.55,-30.93],[61.33,-27.55],[61.2,-28.24],[62.1,-27.39],[61.65,-28.39],[62.19,-28.23],[62.95,-26.61],[64.68,-25.57],[65.6,-25.36],[65.08,-25.89],[68.56,-26.4],[69,-27.11],[72.41,-28.72],[74.55,-28.64],[75.11,-27.92],[76.39,-27.84],[75.85,-29.14],[76.79,-28.87],[76.6,-28.43],[77.04,-28.13],[77.91,-29.24],[77.54,-28.82],[78.41,-28.63],[77.9,-28.65],[78.21,-28.28],[78.65,-28.26],[78.83,-28.93],[78.84,-28.31],[79.36,-28.78],[79.42,-28.23],[80.19,-28.18],[80.11,-28.7],[80.75,-28.25],[80.64,-28.64],[81.57,-28.71],[81.84,-29.23],[81.84,-30.35],[80.8,-30.74],[82.04,-30.57],[82.51,-31.62],[83.26,-31.28],[83.07,-30.84],[85.21,-30.32],[85.5,-30.63],[85.62,-30.28],[85.72,-30.74],[86.48,-30.5],[87.62,-31.58],[88.02,-31.15],[87.45,-30.29],[87.78,-30.29],[88.83,-32.5],[89.46,-32.74],[89.59,-33.35],[90.46,-33.51],[90.03,-33.52],[90.48,-33.68],[90.12,-33.98],[91.09,-33.88],[91.07,-34.5],[90.26,-34.78],[89.38,-34.48],[88.61,-35.15],[87.31,-34.97],[87.68,-35.66],[87.22,-35.65],[87.69,-35.71],[88.03,-36.78],[87.56,-36.76],[88.13,-37.1],[88.97,-40.05],[89.65,-40.7],[92.95,-39.75],[93.87,-38.55],[95.5,-37.93],[95.08,-37.65],[97.47,-36.82],[96.68,-39.11],[95.6,-40.42],[96.5,-40.73],[96.64,-41.85],[95.37,-43],[95.49,-43.69],[93.93,-45.35],[95.09,-47.95],[94.55,-48.24],[94.48,-49.36],[93.5,-50.21],[93.87,-50.54],[94.43,-50.15],[94.46,-50.91],[94.85,-50.71],[93.8,-51.65],[93.51,-51.28],[93.71,-52.45],[94.14,-52.61],[93.86,-54.24],[93.38,-54.88],[91.45,-55.69],[90.3,-57],[83.59,-58.65],[82.27,-58.27],[80.86,-58.5],[80.49,-58.09],[80.7,-58.48],[80.32,-58.59],[76.24,-58.77],[73.09,-59.59],[70.81,-58.13],[68.42,-57.52],[67.8,-57.85],[68.13,-56.87],[68.69,-56.81],[68.02,-56.26],[69,-56.22],[66.45,-55.75],[66.35,-54.63]]]}},{"type":"Feature","properties":{},"geometry":{"type":"Polygon","coordinates":[[[96.56,-31.92],[96.72,-32.26],[96.04,-32.52],[95.24,-31.79],[96.56,-31.92]]]}},{"type":"Feature","properties":{},"geometry":{"type":"Polygon","coordinates":[[[120.85,13.76],[120.62,13.22],[119.75,12.99],[120.85,13.76]]]}},{"type":"Feature","properties":{},"geometry":{"type":"Polygon","coordinates":[[[93.38,-28.06],[93.42,-28.58],[92.87,-28.63],[93.38,-28.06]]]}},{"type":"Feature","properties":{},"geometry":{"type":"Polygon","coordinates":[[[93.92,-28.14],[93.65,-28.47],[93.53,-28.06],[93.92,-28.14]]]}},{"type":"Feature","properties":{},"geometry":{"type":"Polygon","coordinates":[[[113.28,10.82],[115.45,11.62],[116.09,11.32],[117.65,11.98],[117.85,12.74],[119.55,13.11],[120.29,12.58],[121.69,13.15],[122.16,12.42],[114.36,9.7],[114.25,10.11],[113.02,9.69],[113.28,10.82]]]}},{"type":"Feature","properties":{},"geometry":{"type":"Polygon","coordinates":[[[94.13,-27.76],[94.05,-28.25],[93.64,-28],[94.13,-27.76]]]}},{"type":"Feature","properties":{},"geometry":{"type":"Polygon","coordinates":[[[113.85,14.6],[114.45,14.63],[114.44,14.12],[114.08,13.93],[113.85,14.6]]]}},{"type":"Feature","properties":{},"geometry":{"type":"Polygon","coordinates":[[[111.62,14.25],[112.52,13.77],[113.08,13.98],[113.31,13.51],[111.37,13.32],[111.62,14.25]]]}},{"type":"Feature","properties":{},"geometry":{"type":"Polygon","coordinates":[[[104.77,-36.36],[104.72,-39.22],[105.48,-39.58],[105.05,-39.92],[105.77,-40.55],[105.31,-40.71],[106.22,-41.46],[105.57,-41.24],[105.73,-41.64],[103.24,-39.52],[102.8,-36.63],[101.89,-35.48],[101.25,-35.54],[101.1,-34.78],[100.88,-35.58],[100.33,-35.08],[100.41,-35.57],[99.03,-34.67],[99.76,-35.44],[99.59,-36.03],[97.3,-34.81],[97.02,-33.28],[97.45,-33.14],[96.05,-32.69],[96.74,-32.27],[96.6,-31.7],[97.52,-32.28],[96.67,-31.43],[97.25,-31.89],[96.99,-30.87],[97.47,-30.45],[97.14,-30.18],[97.37,-29.26],[97.07,-29.37],[95.34,-26.84],[99.97,-30.15],[104.77,-36.36]]]}},{"type":"Feature","properties":{},"geometry":{"type":"Polygon","coordinates":[[[108.82,15.59],[109.1,15.27],[108.63,15.24],[108.82,15.59]]]}},{"type":"Feature","properties":{},"geometry":{"type":"Polygon","coordinates":[[[-3.84,-6.95],[-3.95,-7.36],[-4.21,-7.16],[-3.84,-6.95]]]}},{"type":"Feature","properties":{},"geometry":{"type":"Polygon","coordinates":[[[99.52,13.1],[101.35,14.06],[102.61,13.53],[107.58,13.83],[110.13,9.81],[107.46,10.94],[105.8,11.11],[104.62,12.07],[99.94,12.43],[99.31,12.84],[99.52,13.1]]]}},{"type":"Feature","properties":{},"geometry":{"type":"Polygon","coordinates":[[[107.24,13.93],[108.13,14.07],[107.95,13.63],[108.73,14.32],[109.1,13.31],[110.09,13.69],[111.36,12.68],[111.96,13.38],[112.7,13.16],[114.23,10.66],[113.6,10.76],[113.72,10.4],[113.04,10.24],[113.31,9.93],[109.46,10.26],[107.24,13.93]]]}},{"type":"Feature","properties":{},"geometry":{"type":"Polygon","coordinates":[[[116.49,27.3],[116.68,26.92],[116.82,27.49],[117.68,27.27],[118.32,26.68],[119.77,27.04],[118.91,26.08],[119.64,25.94],[118.65,25.41],[119.2,24.83],[118.5,24.44],[119.14,24.63],[118.76,24.43],[120.21,23.79],[120.2,23.26],[121.74,22.98],[120.6,22.65],[121.29,20.83],[120.58,20.18],[120.44,19.3],[120.79,19.29],[120.55,18.81],[121.07,18.96],[120.92,17.34],[120.14,16.44],[119.66,17.14],[118.88,16.61],[118.06,16.79],[117.33,15.69],[116.78,16.27],[115.6,15.39],[114.37,16.9],[113.6,16.77],[113.79,17.02],[112.64,17.62],[112.15,19.22],[114.31,19.69],[113.88,19.74],[113.68,20.94],[114.92,22.13],[115.06,23.84],[116.24,24.8],[115.97,25.23],[116.49,27.3]]]}},{"type":"Feature","properties":{},"geometry":{"type":"Polygon","coordinates":[[[26.46,-31.15],[24.05,-32.95],[22.6,-32.87],[21.94,-31.92],[22.29,-31.34],[24.4,-30.84],[26.46,-31.15]]]}},{"type":"Feature","properties":{},"geometry":{"type":"Polygon","coordinates":[[[-32.64,4.18],[-32.46,3.5],[-33.32,3.18],[-32.94,3.54],[-33.25,3.9],[-32.64,4.18]]]}},{"type":"Feature","properties":{},"geometry":{"type":"Polygon","coordinates":[[[-49.16,-18.32],[-48.21,-19.45],[-49.64,-18.7],[-49.16,-18.32]]]}},{"type":"Feature","properties":{},"geometry":{"type":"Polygon","coordinates":[[[-52.37,-13.66],[-50.52,-15.65],[-50.18,-16.45],[-50.68,-16.32],[-50.04,-17.49],[-50.55,-17.59],[-52.27,-15.98],[-53.03,-16.27],[-53.05,-15.4],[-54.51,-14.36],[-54.67,-13.75],[-54.27,-13.67],[-53.05,-14.99],[-52.64,-14.09],[-53.01,-13.43],[-52.37,-13.66]]]}},{"type":"Feature","properties":{},"geometry":{"type":"Polygon","coordinates":[[[110.55,30.8],[111.58,30.87],[111.16,29.66],[110.12,29.02],[109.16,29.34],[109.12,30.21],[110.55,30.8]]]}},{"type":"Feature","properties":{},"geometry":{"type":"Polygon","coordinates":[[[-49.6,-12.26],[-48.48,-14.03],[-46.98,-19.76],[-49.62,-17.46],[-48.64,-17.24],[-49.15,-16.58],[-48.83,-15.57],[-50.28,-13.04],[-49.92,-12.67],[-52.38,-10.94],[-51.86,-11.34],[-51.15,-11.1],[-49.6,-12.26]]]}},{"type":"Feature","properties":{},"geometry":{"type":"Polygon","coordinates":[[[137.28,47.65],[138.16,47.21],[137.82,46.87],[138.36,46.4],[136.88,45.06],[135.94,44.87],[136.36,45.51],[135.92,45.04],[135.45,45.39],[136.58,46.59],[136.25,47.09],[136.22,46.56],[135.45,46.59],[135.58,47.11],[135.88,46.79],[135.54,47.36],[137.28,47.65]]]}},{"type":"Feature","properties":{},"geometry":{"type":"Polygon","coordinates":[[[141.37,47.28],[141.83,46.64],[140.92,46.21],[140.1,46.59],[138.98,46.16],[138.97,46.84],[138.45,46.82],[139.8,47.36],[141.37,47.28]]]}},{"type":"Feature","properties":{},"geometry":{"type":"Polygon","coordinates":[[[16.55,18.01],[18.25,16.81],[16.98,17.14],[16.26,17.86],[16.55,18.01]]]}},{"type":"Feature","properties":{},"geometry":{"type":"Polygon","coordinates":[[[22.02,13.39],[21.14,13.52],[20.45,14.16],[20.5,14.76],[21.22,14.55],[22.02,13.39]]]}},{"type":"Feature","properties":{},"geometry":{"type":"Polygon","coordinates":[[[11.71,23.49],[10.46,22.28],[9.08,24.33],[9.52,24.55],[11.71,23.49]]]}},{"type":"Feature","properties":{},"geometry":{"type":"Polygon","coordinates":[[[17.87,21.27],[18.25,19.93],[17.38,21.3],[17.87,21.27]]]}},{"type":"Feature","properties":{},"geometry":{"type":"Polygon","coordinates":[[[26.24,38.42],[26.7,38.22],[25.93,38.05],[26.24,38.42]]]}},{"type":"Feature","properties":{},"geometry":{"type":"Polygon","coordinates":[[[6.32,27.39],[6.36,26.7],[5.7,26.86],[6.32,27.39]]]}},{"type":"Feature","properties":{},"geometry":{"type":"Polygon","coordinates":[[[9.43,31.35],[9.26,30.81],[7.73,30.01],[6.81,30.41],[8.6,31.84],[9.43,31.35]]]}},{"type":"Feature","properties":{},"geometry":{"type":"Polygon","coordinates":[[[141.63,47.59],[139.26,47.72],[138.79,47.26],[137.34,47.66],[137.67,48.12],[140.66,48.73],[144.19,48.05],[145.79,49.49],[146.55,49.46],[145.78,49.22],[146.02,48.77],[147.85,49.03],[150.13,50.13],[151.12,51.72],[152.04,52.18],[152.7,51.6],[153.03,51.96],[152.46,51.96],[152.87,52.29],[153.43,52.03],[152.93,51.3],[152.95,50.04],[151.69,49.07],[150.86,49.03],[149.58,47.45],[149.67,46.85],[148.85,46.47],[148.05,46.43],[148.65,47.05],[146.79,46.42],[146.99,46.85],[146.16,46.5],[144.76,46.78],[145.24,46.89],[144.64,47.32],[144.22,46.94],[144.5,46.52],[142.6,46.14],[142.21,46.61],[143.03,47.29],[141.63,47.59]]]}},{"type":"Feature","properties":{},"geometry":{"type":"Polygon","coordinates":[[[11.26,32.18],[9.51,31.44],[10.21,32.38],[11.26,32.18]]]}},{"type":"Feature","properties":{},"geometry":{"type":"Polygon","coordinates":[[[157.51,47.84],[157.8,47.76],[156.23,47.45],[157.51,47.84]]]}},{"type":"Feature","properties":{},"geometry":{"type":"Polygon","coordinates":[[[154.01,50.15],[155.33,48.01],[156.54,48.04],[155.93,47.64],[155.94,47.03],[154.23,47.15],[153.1,46.58],[151.83,47.64],[150.94,47.68],[150.66,48.19],[150.99,48.66],[152.06,48.32],[154.01,50.15]]]}},{"type":"Feature","properties":{},"geometry":{"type":"Polygon","coordinates":[[[153.17,53.34],[152.59,53.12],[153.34,52.45],[151.84,52.41],[152.28,53.58],[153.17,53.34]]]}},{"type":"Feature","properties":{},"geometry":{"type":"Polygon","coordinates":[[[52.21,52.48],[52.71,52.15],[51.93,52.63],[52.21,52.48]]]}},{"type":"Feature","properties":{},"geometry":{"type":"Polygon","coordinates":[[[-12.83,28.03],[-12.54,27.36],[-12.92,26.65],[-12.5,27.4],[-11.96,27.15],[-12.96,26.47],[-13.31,26.91],[-12.83,28.03]]]}},{"type":"Feature","properties":{},"geometry":{"type":"Polygon","coordinates":[[[-15.37,27.25],[-15.09,26.86],[-13.75,27.22],[-14.17,26.58],[-15.34,26.77],[-15.37,27.25]]]}},{"type":"Feature","properties":{},"geometry":{"type":"Polygon","coordinates":[[[-16.39,30.19],[-14.35,29.84],[-15.82,29.74],[-16.39,30.19]]]}},{"type":"Feature","properties":{},"geometry":{"type":"Polygon","coordinates":[[[-69.07,-4.48],[-67.34,-4.73],[-65.77,-6.25],[-66.89,-6.23],[-66.73,-5.72],[-67.14,-6.13],[-67.86,-5.8],[-67.65,-5.44],[-68.86,-5.22],[-68.63,-4.68],[-69,-4.9],[-69.07,-4.48]]]}},{"type":"Feature","properties":{},"geometry":{"type":"Polygon","coordinates":[[[-9.81,31.1],[-9.31,31.67],[-8.46,31.6],[-8.66,30.62],[-7.87,31.08],[-8.42,30.48],[-7.95,29.91],[-7.57,30.65],[-7.2,29.21],[-7.59,29.09],[-7.75,29.65],[-8.09,29.14],[-8.39,30.17],[-9.24,28.83],[-9,29.93],[-9.33,29.39],[-9.8,29.35],[-9.67,29.88],[-10.3,29.25],[-12.14,28.84],[-9.81,31.1]]]}},{"type":"Feature","properties":{},"geometry":{"type":"Polygon","coordinates":[[[-11.11,33.33],[-10.73,33.2],[-11.14,33.01],[-10.79,32.85],[-11.14,31.35],[-10.24,31.87],[-10.55,31.33],[-9.79,31.51],[-9.81,31.1],[-12.15,28.97],[-11.68,29.9],[-12.39,29.73],[-11.97,30.48],[-11.56,30.41],[-11.95,30.67],[-11.6,30.91],[-11.84,32.15],[-11.11,33.33]]]}},{"type":"Feature","properties":{},"geometry":{"type":"Polygon","coordinates":[[[-29.33,31.17],[-28.77,30.71],[-29.76,30.91],[-29.33,31.17]]]}},{"type":"Feature","properties":{},"geometry":{"type":"Polygon","coordinates":[[[-71.66,-2.4],[-71.16,-3.49],[-72.1,-2.61],[-71.66,-2.4]]]}},{"type":"Feature","properties":{},"geometry":{"type":"Polygon","coordinates":[[[-72.46,-1.54],[-71.94,-1.66],[-72.08,-2.13],[-71.65,-1.48],[-71.89,-2.53],[-72.46,-1.54]]]}},{"type":"Feature","properties":{},"geometry":{"type":"Polygon","coordinates":[[[162.04,57.62],[161.13,56.17],[159.86,55.3],[160.18,55.4],[158.99,52.08],[158.77,52.84],[157.67,53.04],[156.21,51.99],[156.24,50.39],[155.8,50.15],[156.03,50.61],[155.61,51.02],[154.41,50.44],[156.29,53.08],[158.62,55.04],[158.59,55.74],[160.26,57.11],[161.15,56.95],[161.52,57.74],[162.04,57.62]]]}},{"type":"Feature","properties":{},"geometry":{"type":"Polygon","coordinates":[[[-88.28,3.53],[-88.21,2.98],[-89.17,3.46],[-88.28,3.53]]]}},{"type":"Feature","properties":{},"geometry":{"type":"Polygon","coordinates":[[[-179.99,74.49],[-178.79,74.78],[-177.8,74.46],[-179.99,74.49]]]}},{"type":"Feature","properties":{},"geometry":{"type":"Polygon","coordinates":[[[-7.14,35.98],[-6.43,36.52],[-7.3,36.12],[-6.87,36.98],[-7.86,36.86],[-7.6,37.36],[-8.2,37.65],[-7.09,37.98],[-7.04,38.47],[-7.53,38.36],[-6.91,39.31],[-6.52,39.28],[-6.69,38.9],[-5.92,39.44],[-5.12,38.94],[-5.58,38.43],[-5.24,38.01],[-7.14,35.98]]]}},{"type":"Feature","properties":{},"geometry":{"type":"Polygon","coordinates":[[[-5.85,35.87],[-6.68,35.13],[-6.58,35.47],[-7.03,35.2],[-6.73,35.58],[-7.3,35.36],[-6.98,35.79],[-7.5,35.65],[-5.24,38.01],[-4.6,36.61],[-5.85,35.87]]]}},{"type":"Feature","properties":{},"geometry":{"type":"Polygon","coordinates":[[[5,44.05],[5.58,43.69],[4.55,43.77],[5,44.05]]]}},{"type":"Feature","properties":{},"geometry":{"type":"Polygon","coordinates":[[[-73.12,22.24],[-72.92,21.52],[-73.12,21.94],[-73.35,21.68],[-73.12,22.24]]]}},{"type":"Feature","properties":{},"geometry":{"type":"Polygon","coordinates":[[[5.98,45.04],[6.56,43.97],[5.2,44.31],[5.64,44.77],[6.09,44.58],[5.7,44.78],[5.98,45.04]]]}},{"type":"Feature","properties":{},"geometry":{"type":"Polygon","coordinates":[[[-72.95,0.61],[-71.91,-0.98],[-72.66,-0.45],[-72.95,0.61]]]}},{"type":"Feature","properties":{},"geometry":{"type":"Polygon","coordinates":[[[-28.54,34.74],[-28.22,34.45],[-28.71,33.85],[-28.54,34.74]]]}},{"type":"Feature","properties":{},"geometry":{"type":"Polygon","coordinates":[[[-7.44,41.67],[-6.87,41.11],[-7.6,41.3],[-7.44,41.67]]]}},{"type":"Feature","properties":{},"geometry":{"type":"Polygon","coordinates":[[[8.86,48.42],[9.33,48.1],[9.22,47.42],[8.68,47.94],[8.86,48.42]]]}},{"type":"Feature","properties":{},"geometry":{"type":"Polygon","coordinates":[[[-73.31,-0.89],[-73.08,-1.81],[-73.78,-1.23],[-73.31,-0.89]]]}},{"type":"Feature","properties":{},"geometry":{"type":"Polygon","coordinates":[[[-73.75,2.52],[-73.16,1.7],[-73.53,1.23],[-73.75,2.52]]]}},{"type":"Feature","properties":{},"geometry":{"type":"Polygon","coordinates":[[[-7.86,42.41],[-7.88,41.54],[-8.21,41.99],[-7.86,42.41]]]}},{"type":"Feature","properties":{},"geometry":{"type":"Polygon","coordinates":[[[10.69,50.19],[11.32,50.29],[10.98,49.44],[10.31,49.86],[10.69,50.19]]]}},{"type":"Feature","properties":{},"geometry":{"type":"Polygon","coordinates":[[[-6.08,43.2],[-5.76,43],[-6.33,42.29],[-5.89,42.39],[-6.11,41.88],[-5.82,42.14],[-6.06,41.06],[-6.85,40.79],[-6.5,41.34],[-7.2,41.92],[-6.7,42.05],[-7.13,42.79],[-6.08,43.2]]]}},{"type":"Feature","properties":{},"geometry":{"type":"Polygon","coordinates":[[[-5.82,42.14],[-4.47,42.62],[-4.32,41.51],[-4.75,41.15],[-4.19,41.23],[-4.94,40.78],[-3.68,41.02],[-2.92,40.61],[-4.89,39.21],[-5.26,40.47],[-5.59,40.66],[-5.77,40.21],[-5.73,40.68],[-5.8,39.59],[-6.24,40.53],[-5.82,42.14]]]}},{"type":"Feature","properties":{},"geometry":{"type":"Polygon","coordinates":[[[-2.92,40.61],[-1.25,39.91],[-0.8,39.5],[-1.45,39.38],[-0.73,39.4],[-0.51,38.83],[0.76,39.12],[1.04,38.51],[0.51,37.61],[1.42,37.63],[0.81,36.94],[-1.84,35.94],[-1.73,35.46],[-3.11,34.78],[-2.62,36.21],[-1.76,36.54],[-1.59,37.24],[-2.08,36.6],[-3.74,36.6],[-3.1,37.53],[-3.37,37.84],[-3.8,37.55],[-3.67,37.95],[-2.66,38.51],[-3.93,39.66],[-2.92,40.61]]]}},{"type":"Feature","properties":{},"geometry":{"type":"Polygon","coordinates":[[[10.25,50.57],[10.8,50.51],[10.05,50.27],[10.25,50.57]]]}},{"type":"Feature","properties":{},"geometry":{"type":"Polygon","coordinates":[[[-29.92,40.38],[-29.98,39.56],[-30.33,39.95],[-29.92,40.38]]]}},{"type":"Feature","properties":{},"geometry":{"type":"Polygon","coordinates":[[[-31.73,40.77],[-31.49,40.51],[-32.44,39.82],[-32.47,40.52],[-31.73,40.77]]]}},{"type":"Feature","properties":{},"geometry":{"type":"Polygon","coordinates":[[[-59.18,66.66],[-62.13,65.9],[-61.81,66.13],[-62.16,66.32],[-60.03,66.91],[-59.18,66.66]]]}},{"type":"Feature","properties":{},"geometry":{"type":"Polygon","coordinates":[[[-34.15,43.46],[-33.7,42.8],[-33.51,43.08],[-31.81,42.34],[-31.78,41.76],[-30.66,41.68],[-31.12,41.29],[-32.45,41.88],[-33.63,40.67],[-33.91,41.3],[-34.75,41.07],[-34.23,41.6],[-34.15,43.46]]]}},{"type":"Feature","properties":{},"geometry":{"type":"Polygon","coordinates":[[[26.97,72.15],[27.74,72.09],[27.08,71.76],[27.39,71.88],[26.97,72.15]]]}},{"type":"Feature","properties":{},"geometry":{"type":"Polygon","coordinates":[[[-29.61,46.52],[-29.09,46.42],[-28.93,45.7],[-29.85,45.36],[-30.08,46.18],[-29.61,46.52]]]}},{"type":"Feature","properties":{},"geometry":{"type":"Polygon","coordinates":[[[-4.15,56.34],[-3.65,56.01],[-3.85,56.43],[-3.38,56.33],[-3.42,55.83],[-3.71,55.64],[-4.15,56.34]]]}},{"type":"Feature","properties":{},"geometry":{"type":"Polygon","coordinates":[[[-44.56,65.49],[-49.46,65.36],[-52.42,66.03],[-52.83,65.89],[-50.94,65.6],[-52.89,64.82],[-55.68,64.68],[-55.62,65.12],[-56.11,65.26],[-55.14,65.42],[-56.12,65.5],[-54.54,65.98],[-56.26,66.07],[-56.17,66.62],[-57.54,66.52],[-56.9,66.72],[-57.32,66.91],[-56.42,66.79],[-56.8,67.05],[-52.9,67.11],[-50.93,67.82],[-49.39,67.14],[-48.83,67.64],[-50.29,68.08],[-49.36,68.07],[-44.22,65.49],[-44.56,65.49]]]}},{"type":"Feature","properties":{},"geometry":{"type":"Polygon","coordinates":[[[-4.51,56.24],[-4.04,55.88],[-4.49,55.8],[-4.51,56.24]]]}},{"type":"Feature","properties":{},"geometry":{"type":"Polygon","coordinates":[[[10.65,65.98],[11.49,66.02],[11.71,65.51],[11.26,65.23],[10.05,65.69],[10.65,65.98]]]}},{"type":"Feature","properties":{},"geometry":{"type":"Polygon","coordinates":[[[-3.9,57.18],[-3.36,57.06],[-3.56,56.7],[-4.13,56.91],[-3.9,57.18]]]}},{"type":"Feature","properties":{},"geometry":{"type":"Polygon","coordinates":[[[-40.94,46.9],[-39.75,46.05],[-40.45,45.62],[-41.96,46.04],[-41.26,47.05],[-40.94,46.9]]]}},{"type":"Feature","properties":{},"geometry":{"type":"Polygon","coordinates":[[[-34.14,66.32],[-35.14,66.68],[-33.78,66.57],[-34.14,66.32]]]}},{"type":"Feature","properties":{},"geometry":{"type":"Polygon","coordinates":[[[-19.58,45.67],[-18.32,45.23],[-19.4,44.79],[-18.98,44.9],[-19.84,45.02],[-19.58,45.67]]]}},{"type":"Feature","properties":{},"geometry":{"type":"Polygon","coordinates":[[[11.65,69.35],[14.16,69.52],[12.53,69.05],[11.65,69.35]]]}},{"type":"Feature","properties":{},"geometry":{"type":"Polygon","coordinates":[[[-3.16,59.51],[-2.94,59.17],[-3.51,59.03],[-3.16,59.51]]]}},{"type":"Feature","properties":{},"geometry":{"type":"Polygon","coordinates":[[[-7.23,49.97],[-6.74,49.71],[-7.84,49.05],[-7.23,49.97]]]}},{"type":"Feature","properties":{},"geometry":{"type":"Polygon","coordinates":[[[-41.38,63.99],[-41.03,64.22],[-40.59,63.83],[-41.38,63.99]]]}},{"type":"Feature","properties":{},"geometry":{"type":"Polygon","coordinates":[[[-41.36,63.17],[-42.85,63.28],[-41.58,63.84],[-40.9,63.38],[-41.36,63.17]]]}},{"type":"Feature","properties":{},"geometry":{"type":"Polygon","coordinates":[[[-16.26,27.21],[-15.2,26.4],[-13.88,26.28],[-13.54,26.68],[-12.64,26.32],[-14.95,24.97],[-15.54,23.68],[-16.34,24.51],[-15.31,25.67],[-14.98,25.35],[-14.45,25.91],[-15.64,25.59],[-15.53,26.28],[-17.93,23.95],[-18.54,24.05],[-18.53,23.53],[-19.29,23.15],[-19.59,21.65],[-18.9,21.18],[-18.77,21.55],[-18.59,21.08],[-19.52,20.8],[-19.74,21.12],[-19.72,20.67],[-20.35,20.46],[-19.04,24.12],[-16.26,27.21]]]}},{"type":"Feature","properties":{},"geometry":{"type":"Polygon","coordinates":[[[-9.32,-29.43],[-10.15,-32.98],[-10.89,-34.27],[-10.19,-32.21],[-11.08,-31.99],[-10.73,-32.27],[-11.22,-33.9],[-11.02,-35.31],[-11.75,-37.22],[-13.57,-38.08],[-15.43,-38.17],[-16.31,-37.72],[-16.33,-36.77],[-16.64,-37.05],[-16.13,-38.33],[-14.39,-38.74],[-13.98,-39.56],[-22.74,-39.51],[-24.76,-39.19],[-32.03,-33.14],[-32.84,-31.35],[-32.93,-29.48],[-34.08,-27.12],[-26.47,-28.81],[-20.47,-29.58],[-9.32,-29.43]]]}},{"type":"Feature","properties":{},"geometry":{"type":"Polygon","coordinates":[[[-17.57,-42.28],[-18.24,-42.24],[-17.53,-42.71],[-17.87,-42.72],[-17.06,-44.22],[-18.27,-44.88],[-19.76,-44.97],[-18.97,-46.09],[-18.21,-46.25],[-17.74,-45.7],[-17.2,-46.3],[-18.58,-46.61],[-17.73,-46.69],[-18.31,-47.61],[-17.69,-48.83],[-18.9,-49.62],[-18.97,-50.53],[-16.15,-51.22],[-15.88,-51.81],[-16.79,-53.13],[-16.36,-54.08],[-17.15,-54.17],[-16.67,-54.37],[-17.04,-54.94],[-16.23,-55.97],[-14.83,-56.28],[-15.77,-56.4],[-16.9,-57.38],[-15.98,-58.32],[-17.17,-58.58],[-17.82,-58.25],[-17.04,-58.32],[-16.99,-57.59],[-18.62,-57.63],[-19.07,-57.86],[-18.67,-58.25],[-19.17,-58.39],[-19.5,-58.25],[-19.04,-57.82],[-19.72,-58.24],[-20.38,-57.65],[-19.29,-57.59],[-19.47,-57.28],[-19.01,-57.43],[-19.22,-57.77],[-18.79,-57.66],[-19.32,-57.03],[-20.42,-56.74],[-19.43,-57.02],[-20.33,-57.1],[-19.7,-57.24],[-19.81,-57.54],[-20.38,-57.19],[-19.81,-57.63],[-20.23,-57.57],[-21.86,-56.8],[-21.2,-56.34],[-21.64,-56.14],[-21.71,-56.68],[-22.08,-56.25],[-22.94,-56.31],[-22,-56.14],[-23.03,-55.69],[-22.29,-55.57],[-23.16,-55.11],[-22.97,-55.55],[-23.32,-55.5],[-23.82,-54.98],[-23.47,-54.82],[-23.93,-54.8],[-23.54,-54.48],[-24.65,-54.35],[-23.21,-53.95],[-24.03,-53.66],[-24.93,-54.1],[-24.44,-53.82],[-24.95,-53.77],[-24.65,-53.39],[-25.18,-53.1],[-26.64,-53.54],[-26.08,-52.72],[-26.65,-52.56],[-26.32,-52.39],[-25.66,-52.2],[-24.86,-52.82],[-24.8,-51.79],[-25.29,-51.68],[-24.61,-51.46],[-25.5,-51.46],[-25,-50.55],[-25.95,-50.46],[-26.5,-48.83],[-26.17,-48.77],[-26.65,-48.62],[-26.08,-48.67],[-26.93,-48.28],[-26.56,-47.73],[-27.93,-48.38],[-28.48,-47.85],[-28.69,-46.04],[-30.28,-44.28],[-29.84,-43.92],[-29.94,-40.26],[-31.85,-35.82],[-32.28,-31.9],[-27.38,-35.68],[-22.89,-39.97],[-17.57,-42.28]]]}},{"type":"Feature","properties":{},"geometry":{"type":"Polygon","coordinates":[[[-39.48,2.18],[-37.58,2.7],[-36.35,2.4],[-35.07,3.19],[-35.71,3.2],[-33.44,3.89],[-34.38,3.4],[-33.66,2.85],[-32.17,2.88],[-32.05,2],[-31.16,2.25],[-29.59,1.66],[-29.22,0.52],[-29.04,1.06],[-27.65,0.33],[-25.68,1.06],[-23.52,1.1],[-21.53,0.27],[-20.72,-1.22],[-19.49,-1.97],[-20.43,-4.22],[-19.9,-3.56],[-20.05,-4.31],[-19.59,-3.57],[-17.56,-3.21],[-17.7,-4.44],[-19.08,-5.34],[-18.05,-4.81],[-18.03,-5.27],[-17.19,-4.33],[-17.04,-3.32],[-15.96,-3.18],[-14.35,-3.35],[-14.25,-3.77],[-13.88,-3.32],[-13.54,-3.56],[-13.55,-4.1],[-13.14,-4.06],[-13.27,-5.11],[-13.05,-4.19],[-12.85,-4.52],[-12.2,-3.78],[-10.96,-3.93],[-8.77,-3.33],[-5.48,-4.55],[-3.52,-4.55],[-2.4,-6.85],[-4.12,-12.12],[-4.5,-12.69],[-4.79,-12.36],[-3.68,-17.33],[-4.09,-21.97],[-4.85,-22.74],[-4.75,-23.2],[-7.06,-23.81],[-9.87,-27.28],[-10.41,-27.33],[-9.96,-27.42],[-10.23,-28.1],[-9.87,-28.07],[-9.34,-29.93],[-20.52,-29.75],[-26.5,-28.81],[-34.04,-26.91],[-35.71,-25.63],[-40.97,-24.15],[-45.66,-18.62],[-47.04,-17.36],[-48.34,-16.93],[-48.19,-16.37],[-48.87,-15.22],[-47.86,-14.13],[-47.7,-13.23],[-48,-13.03],[-48.2,-13.51],[-49.08,-13.13],[-48.79,-10.06],[-47.8,-9.43],[-47.65,-8.45],[-43.7,-5.5],[-42.99,-1.82],[-40.64,1.58],[-39.48,2.18]]]}},{"type":"Feature","properties":{},"geometry":{"type":"Polygon","coordinates":[[[-48.59,-2.79],[-47.68,-3.44],[-47.96,-2.84],[-46.84,-1.76],[-46.74,-0.33],[-44.92,0.51],[-43.59,1.96],[-42.98,1.67],[-43.7,1.02],[-43.17,0.25],[-43.53,-0.73],[-42.97,-1.39],[-42.44,-0.61],[-43.2,0.35],[-41.84,1.27],[-41.96,2.02],[-41.43,1.37],[-39.98,1.08],[-41.11,0.25],[-43.58,-3.06],[-44.44,-6.71],[-48.52,-9.5],[-47.2,-7.42],[-47.78,-7.22],[-48,-4.87],[-48.9,-4.14],[-48.59,-2.79]]]}},{"type":"Feature","properties":{},"geometry":{"type":"Polygon","coordinates":[[[-14.57,-38.88],[-13.7,-39.37],[-13.91,-40.75],[-17.57,-42.89],[-22.41,-40.96],[-25.26,-38.63],[-14.57,-38.88]]]}},{"type":"Feature","properties":{},"geometry":{"type":"Polygon","coordinates":[[[-61.2,13.48],[-60.87,13.42],[-60.95,13.98],[-61.57,13.95],[-62.43,16.33],[-61.49,16.94],[-60.15,16.12],[-58.33,13.04],[-57.91,11.63],[-58.16,10.53],[-61.2,13.48]]]}},{"type":"Feature","properties":{},"geometry":{"type":"Polygon","coordinates":[[[-62.43,16.33],[-62.06,17.56],[-62.32,18.88],[-61.55,22.22],[-61.15,22.22],[-61.59,22.26],[-61.23,22.92],[-61.59,22.93],[-61.83,24.41],[-60.42,24.04],[-60.64,22.92],[-60.08,23.35],[-60.33,24.69],[-59.64,25.04],[-59.51,23.61],[-58.15,23.46],[-57.35,22.3],[-55.65,22.08],[-55.75,20.88],[-62.43,16.33]]]}},{"type":"Feature","properties":{},"geometry":{"type":"Polygon","coordinates":[[[-64.93,-4.97],[-65.65,-5.54],[-65.96,-4.74],[-65.81,-5.18],[-66.23,-5.36],[-66.26,-4.65],[-66.48,-5.16],[-66.91,-4.92],[-66.67,-4.42],[-67.12,-4.68],[-66.78,-3.97],[-67.21,-3.79],[-67.18,-4.63],[-67.91,-4.65],[-67.57,-4.01],[-67.86,-4.49],[-67.99,-3.94],[-68.67,-4.37],[-68.26,-4.02],[-68.97,-4.01],[-68.37,-3.38],[-69,-3.82],[-69.11,-3.45],[-68.73,-2.97],[-68.39,-3.27],[-68.62,-2.95],[-68.25,-2.77],[-68.82,-2.77],[-65.84,-3.92],[-64.93,-4.97]]]}},{"type":"Feature","properties":{},"geometry":{"type":"Polygon","coordinates":[[[-68.71,-2.58],[-69.46,-3.13],[-69.25,-2.6],[-69.69,-2.36],[-68.71,-2.58]]]}},{"type":"Feature","properties":{},"geometry":{"type":"Polygon","coordinates":[[[-55.93,11.82],[-56.03,11.28],[-57.94,10.99],[-58.03,12.34],[-59.77,15.59],[-61.49,16.94],[-59.6,18.51],[-56.08,20.39],[-55.65,22.08],[-55.15,22.08],[-54.49,21.85],[-55.93,11.82]]]}},{"type":"Feature","properties":{},"geometry":{"type":"Polygon","coordinates":[[[-56.01,11.72],[-55.87,11.06],[-58.35,12.62],[-56.57,23.16],[-55.04,22.78],[-55.17,21.45],[-53.46,20.19],[-54.41,16.4],[-55.65,14.61],[-56.01,11.72]]]}},{"type":"Feature","properties":{},"geometry":{"type":"Polygon","coordinates":[[[-52.45,9.11],[-54.92,9.61],[-55.84,10.79],[-57.17,11.52],[-56.72,15.05],[-55.36,16.75],[-54.24,19.51],[-54.14,20.48],[-55.76,21.84],[-55.53,23.16],[-54.69,23.28],[-52.35,19.36],[-51.41,16.71],[-51.12,13.4],[-52.39,10.97],[-52.45,9.11]]]}},{"type":"Feature","properties":{},"geometry":{"type":"Polygon","coordinates":[[[-45.26,-7.18],[-46.18,-6.19],[-47.69,-6.5],[-49.03,-5.74],[-53.36,-1.7],[-54.32,-0.27],[-54.57,1],[-54.12,1.01],[-53.75,1.81],[-53.86,3.16],[-54.85,6.17],[-55.64,7.02],[-55.31,7.91],[-56.55,10.53],[-56.73,13.09],[-54.88,9.58],[-53.66,8.26],[-50.39,5.14],[-47.98,4.14],[-47.46,-2.42],[-46.89,-3.84],[-44.31,-7.12],[-45.26,-7.18]]]}},{"type":"Feature","properties":{},"geometry":{"type":"Polygon","coordinates":[[[-40.41,7.25],[-38.83,5.68],[-36.34,6.57],[-35.85,6.37],[-33.9,4.34],[-35.76,3.85],[-35.64,3.56],[-36.93,2.97],[-36.57,3.54],[-37.15,3.47],[-38.1,2.4],[-39.41,2.25],[-39.32,1.96],[-41.51,4.43],[-41.33,6.59],[-40.41,7.25]]]}},{"type":"Feature","properties":{},"geometry":{"type":"Polygon","coordinates":[[[-55.91,10.95],[-56.31,9.15],[-54.87,5.15],[-54.83,2.66],[-54,1.46],[-54.55,1.03],[-55.99,3.56],[-55.62,4.36],[-56.14,5.87],[-56.61,5.75],[-57.46,7.12],[-56.58,6.72],[-56.39,7.56],[-57.33,9.21],[-57.48,12.9],[-58.1,14.08],[-59.57,15.2],[-59.83,18.54],[-58.42,15.47],[-56.69,13.61],[-55.91,10.95]]]}},{"type":"Feature","properties":{},"geometry":{"type":"Polygon","coordinates":[[[-53.58,8.35],[-53.49,8.79],[-54.98,9.63],[-56.39,12.03],[-57.81,12.91],[-57.55,13.35],[-56.89,13.7],[-55.14,13.41],[-53.72,11.93],[-51.87,11.09],[-50.94,9.92],[-48.46,9.44],[-46.81,8.5],[-46.14,7.53],[-45.54,3.28],[-50.69,5.63],[-53.58,8.35]]]}},{"type":"Feature","properties":{},"geometry":{"type":"Polygon","coordinates":[[[-61.76,62.18],[-62.29,62.97],[-61.5,62.98],[-62,63.08],[-61.2,63.8],[-57.32,64.39],[-57.4,62.41],[-58.45,62.63],[-59.14,61.6],[-61.76,62.18]]]}},{"type":"Feature","properties":{},"geometry":{"type":"Polygon","coordinates":[[[-59,61.55],[-57.35,61.86],[-58.55,61.64],[-57.52,61.41],[-56.48,62.12],[-52.88,62.5],[-52.19,62.01],[-52.88,61.14],[-51.35,59.95],[-51.64,59.63],[-51.29,58.94],[-51.71,58.54],[-51.19,57.9],[-52.41,58.03],[-51.98,57.6],[-54.18,56.69],[-54.21,56.09],[-55.82,54.74],[-55.74,54.13],[-58.1,52.1],[-59.82,52.62],[-61.72,55.2],[-60.12,56.48],[-59.18,59.22],[-57.93,60.51],[-59,61.55]]]}},{"type":"Feature","properties":{},"geometry":{"type":"Polygon","coordinates":[[[-21.53,19.41],[-21.93,17.8],[-22.66,18.35],[-21.99,17.28],[-22.49,15.86],[-22.38,16.75],[-23.13,17.51],[-22.91,18.29],[-23.4,17.88],[-22.95,16.72],[-23.83,17],[-22.86,16.57],[-23.41,16.59],[-22.76,15.7],[-23.32,15.84],[-22.49,15.67],[-21.92,14.61],[-22.44,15.46],[-22.18,14.85],[-22.93,14.62],[-22.05,14.42],[-23.01,14.08],[-22.6,13.96],[-22.98,13.64],[-22.42,13.62],[-25.86,10.68],[-26.23,9.25],[-24.4,5.15],[-24.56,3.47],[-25.17,3.39],[-25.8,4.07],[-25.92,4.88],[-26.17,4.67],[-26.85,5.52],[-26.64,6.02],[-27.04,5.89],[-26.93,6.94],[-28.45,8.09],[-29.42,7.44],[-30.23,8.2],[-31.79,7.78],[-31.82,8.37],[-31.9,7.87],[-32.89,7.78],[-35.21,8.5],[-32.28,9.33],[-28.64,11.14],[-26.36,13.41],[-23.77,17.51],[-21.53,19.41]]]}},{"type":"Feature","properties":{},"geometry":{"type":"Polygon","coordinates":[[[-51.34,-4.19],[-48.71,-6.55],[-48.11,-8.53],[-51.38,-11.01],[-52.91,-10.88],[-53.01,-10.31],[-53.24,-10.88],[-53.34,-9.93],[-52.69,-9.58],[-52.73,-6.88],[-52.4,-7.14],[-52.17,-6.73],[-53.08,-6.16],[-54.43,-3.53],[-54.59,-0.73],[-53.75,-1.17],[-53.21,-2.44],[-51.34,-4.19]]]}},{"type":"Feature","properties":{},"geometry":{"type":"Polygon","coordinates":[[[-37.53,46.84],[-37.88,46.63],[-37.31,45.62],[-36.6,46.6],[-35.36,44.54],[-34.78,46.23],[-34.26,46.57],[-34.97,47.36],[-33.26,47.33],[-33.74,47.17],[-32.6,46.85],[-32.95,46.6],[-32.47,46.41],[-33.16,46.12],[-32.15,45.25],[-32.18,44.78],[-33.17,43.99],[-34.06,44.62],[-33.27,43.78],[-34.97,44.01],[-34.41,43.68],[-35.09,42.77],[-37.5,43.24],[-34.82,42.61],[-35.32,41.6],[-36.45,41.55],[-36.77,40.76],[-38.81,41.18],[-37.42,40.99],[-36.71,40.36],[-37.73,40.1],[-37.51,39.68],[-38.54,39.18],[-38.16,38.97],[-38.78,38.61],[-38.46,38.56],[-39.08,36.25],[-37.89,35.99],[-37.46,34.18],[-36.09,34.57],[-32.2,32.9],[-30.25,32.97],[-29.93,30.83],[-28.34,29.39],[-27.87,29.29],[-27.61,29.84],[-27.21,29.38],[-27.12,30.5],[-28.48,32.72],[-27.26,33.54],[-26.69,34.81],[-27.37,36.32],[-28.55,36.81],[-27.98,38.04],[-28.38,39.04],[-28.8,38.92],[-28.53,39.72],[-29.14,40.37],[-28.77,40.76],[-27.6,40.43],[-26.51,41.03],[-24.95,40.42],[-24.85,39.96],[-23.52,40.14],[-23.27,39.16],[-24.12,38.99],[-23.29,39.04],[-22.6,38.25],[-23.31,37.69],[-22.36,38.16],[-21.86,37.88],[-22.38,36.92],[-21.76,37.93],[-21.35,37.33],[-20.81,38.42],[-20.4,37.95],[-20.59,38.53],[-20.19,38.76],[-20.56,38.91],[-20.16,39.13],[-20.6,39.4],[-20.07,40.05],[-19.02,39.19],[-19.4,38.92],[-18.52,38.8],[-18.83,38.29],[-18.24,38.64],[-18.55,38.03],[-18.05,38.36],[-17.48,37.93],[-17.86,37.7],[-16.93,37.51],[-16.96,37],[-17.62,37],[-15.88,36.15],[-15.73,36.44],[-15.68,35.62],[-15.2,36.12],[-15.07,35.52],[-14.74,36.13],[-14.56,35.74],[-13.26,35.84],[-14.58,34.91],[-13.83,35.31],[-15.09,33.94],[-13.19,35.46],[-12.79,34.78],[-11.91,35.13],[-11.4,34.3],[-11.94,34.13],[-11.15,33.81],[-11.78,32.92],[-13.03,32.62],[-12.98,31.88],[-13.62,31.13],[-18.14,30.12],[-18.53,29.06],[-19.62,28.26],[-20.72,26.07],[-17.68,29.11],[-16.75,29.34],[-16.01,28.91],[-16.62,28.13],[-17.74,27.86],[-16.12,27.96],[-16.26,27.21],[-19.04,24.12],[-20.35,20.46],[-21.36,20],[-23.77,17.51],[-27.65,12.02],[-32.28,9.33],[-38.57,7.95],[-42.67,4.9],[-42.39,2.79],[-44.35,2.81],[-45.54,3.28],[-46.41,8.09],[-48.46,9.44],[-48.41,11.31],[-47.14,14.28],[-48.06,18.78],[-50.4,22.47],[-53.5,29.91],[-57.46,34.33],[-58.7,38.3],[-57.92,39.69],[-58.02,42.11],[-61.4,44.86],[-61.43,46.81],[-60.95,47.76],[-61.37,48.33],[-60.58,47.94],[-60.65,48.56],[-59.64,48.86],[-59.65,48.38],[-56.99,48.86],[-58.48,48.39],[-58.61,48.1],[-57.99,48.37],[-58.12,47.86],[-57.58,48.38],[-55.82,48.58],[-56.04,49.01],[-55.26,47.55],[-54.48,48.34],[-54.72,47.49],[-53.22,47.73],[-50.02,46.39],[-49.64,45.72],[-50.63,45.49],[-48.62,45.07],[-47.59,45.32],[-46.56,44.53],[-46.93,44.42],[-46.24,43.58],[-46.55,45.03],[-45.2,45.83],[-46.91,45.53],[-45.45,46.14],[-44.45,45.05],[-44.08,45.33],[-43.4,44.82],[-41.43,44.88],[-41.57,45.55],[-41.17,45.71],[-40.36,45.49],[-40.52,45.18],[-40.09,45.47],[-40.35,44.63],[-39.71,44.35],[-39.86,45.25],[-38.77,45.86],[-39.06,46.29],[-39.46,45.95],[-38.96,46.75],[-40.51,47.3],[-40.18,47.89],[-40.59,47.95],[-40.56,48.44],[-40.1,48.47],[-39.97,49.14],[-39.26,48.97],[-38.02,47.45],[-38.41,47.53],[-38.71,46.91],[-37.53,46.84]]]}},{"type":"Feature","properties":{},"geometry":{"type":"Polygon","coordinates":[[[-72.91,-0.57],[-73.02,-1.06],[-73.14,-0.31],[-73.73,0.05],[-73.41,-0.62],[-73.78,-0.83],[-74.75,2.21],[-75.99,3.43],[-77.47,4.38],[-78.83,4.4],[-78.51,4.7],[-81.31,4.06],[-81.72,3.69],[-81.4,3.31],[-82.21,2.96],[-85.03,2.81],[-85.31,2.44],[-88.24,3.25],[-86.88,3.49],[-86.26,2.87],[-86,3.31],[-84.07,3.41],[-82.92,4.43],[-83.68,4.51],[-83.52,4.96],[-84.11,4.54],[-84.39,5.44],[-81.81,6.52],[-77.75,6.36],[-74.65,4.33],[-72.91,-0.57]]]}},{"type":"Feature","properties":{},"geometry":{"type":"Polygon","coordinates":[[[-65.28,17.38],[-65.1,17.67],[-65.29,17.41],[-66.5,18.71],[-70.98,20],[-70.12,20.04],[-71.03,20.31],[-71.06,21.01],[-71.27,20.08],[-71.93,20.47],[-71.51,20.96],[-72.27,20.81],[-71.95,20.83],[-72.28,21.09],[-71.95,22.03],[-72.21,21.48],[-72.4,22.4],[-72.51,21.17],[-72.87,22.25],[-73.48,22.16],[-73.48,21.72],[-73.33,22.49],[-74.77,23.25],[-74.96,23.67],[-74.48,23.55],[-75.26,23.96],[-75.19,24.47],[-75.74,24.19],[-76.32,25.21],[-76.06,24.46],[-80.37,27.94],[-77.33,28.45],[-76.3,28.17],[-75.13,26.45],[-73.15,25.34],[-71.23,25.15],[-64.88,19.81],[-63.32,16.48],[-64.57,16.12],[-65.28,17.38]]]}},{"type":"Feature","properties":{},"geometry":{"type":"Polygon","coordinates":[[[-62.69,35.95],[-61.81,34.31],[-61.43,30.84],[-62.6,31.96],[-63.23,33.99],[-62.69,35.95]]]}},{"type":"Feature","properties":{},"geometry":{"type":"Polygon","coordinates":[[[-65.02,45.92],[-64.79,44.37],[-61.64,41.85],[-61.57,39.43],[-62.36,38.05],[-61.18,34.07],[-57.29,29.61],[-54.69,23.28],[-59.49,24.14],[-60.28,24.69],[-60.39,29.82],[-64.04,38.85],[-66.61,42.2],[-71.6,46.9],[-70.54,47.34],[-66.06,47.37],[-64.86,48.1],[-64.46,47.53],[-65.02,45.92]]]}},{"type":"Feature","properties":{},"geometry":{"type":"Polygon","coordinates":[[[9.07,75.71],[9.65,75.25],[8.49,75.49],[9.07,75.71]]]}},{"type":"Feature","properties":{},"geometry":{"type":"Polygon","coordinates":[[[-7.96,52.08],[-7.12,52.02],[-8.41,51.77],[-7.96,52.08]]]}},{"type":"Feature","properties":{},"geometry":{"type":"Polygon","coordinates":[[[-48.78,50.82],[-49,50.03],[-48.22,50.4],[-47.41,50.05],[-47.72,49.62],[-46.8,49.76],[-47.16,50.27],[-46.67,50.2],[-46.01,48.83],[-45.92,50.53],[-44.89,50.21],[-44.48,48.23],[-42.77,47.35],[-42.74,46.81],[-44.05,46.87],[-43.9,46.26],[-43.43,46.67],[-43.2,46.14],[-44.92,46.08],[-45.62,46.7],[-46.95,46.01],[-49.21,45.91],[-49.13,46.61],[-50.68,47],[-50.73,47.74],[-47.95,47.64],[-50.94,48.26],[-51.22,48.69],[-49.47,49.03],[-51,49.05],[-50.68,49.31],[-51.34,49.51],[-50.64,50.28],[-48.78,50.82]]]}},{"type":"Feature","properties":{},"geometry":{"type":"Polygon","coordinates":[[[2.78,69.16],[3.75,69.46],[6.64,68.67],[10.83,68.82],[8.92,67.78],[7.04,68.06],[7.29,67.83],[6.32,67.85],[6.91,67.72],[6.44,67.51],[5.17,67.7],[5.47,67.95],[4.12,68.22],[4.33,68.51],[3.5,68.27],[3.7,68.57],[2.93,68.53],[2.78,69.16]]]}},{"type":"Feature","properties":{},"geometry":{"type":"Polygon","coordinates":[[[-8.92,52.13],[-7.91,52.13],[-9.07,51.78],[-8.92,52.13]]]}},{"type":"Feature","properties":{},"geometry":{"type":"Polygon","coordinates":[[[5.61,73.67],[6.52,73.4],[4.93,73.6],[5.61,73.67]]]}},{"type":"Feature","properties":{},"geometry":{"type":"Polygon","coordinates":[[[-44.55,50.93],[-44.26,50.7],[-44.66,50.02],[-45.41,50.67],[-44.55,50.93]]]}},{"type":"Feature","properties":{},"geometry":{"type":"Polygon","coordinates":[[[-33.63,51.48],[-32.1,51.44],[-31.34,50.9],[-32.9,50.55],[-33.68,51.04],[-33.63,51.48]]]}},{"type":"Feature","properties":{},"geometry":{"type":"Polygon","coordinates":[[[-27.4,43.14],[-27.8,43.28],[-27.54,42.8],[-28.42,42.89],[-28.75,42.4],[-29.83,42.76],[-29.49,43.6],[-27.32,43.93],[-28.11,44.52],[-27.25,45.82],[-28.06,46.68],[-29.3,47.22],[-30.11,46.8],[-29.76,47.41],[-31.94,48.59],[-32.14,48.21],[-31.6,47.8],[-33.14,47.84],[-32.61,47.49],[-33.82,47.95],[-33.07,47.59],[-35.14,47.5],[-35.52,47.98],[-36.42,47.72],[-37.18,48.42],[-35.92,48.42],[-37.39,48.67],[-37.35,50.51],[-36.33,51.27],[-35.55,51.23],[-36.16,50.12],[-34.94,48.8],[-35.83,48.43],[-34.83,48.53],[-34.84,49.18],[-35.68,49.48],[-34.92,49.66],[-35.67,50.11],[-35.18,50.39],[-35.66,50.61],[-35.06,50.57],[-35.57,50.8],[-34.1,51.38],[-33.19,50.49],[-33.26,49.61],[-32.91,50.29],[-31.69,49.69],[-32.4,50.08],[-31.8,50.16],[-32.23,50.53],[-30.81,50.61],[-30.91,49.76],[-30.08,50.18],[-30.55,49.82],[-30.19,49.84],[-30.21,49.34],[-29.76,50.04],[-29.59,49.31],[-29.23,50.01],[-28.38,49.77],[-28.77,49.01],[-28.03,49.62],[-28.41,48.88],[-28.07,49.08],[-28.03,48.54],[-27.6,49.52],[-27.77,49.05],[-27.34,49.48],[-26.65,49.33],[-27.36,48.68],[-26.66,48.97],[-27.08,48.3],[-26.49,49.16],[-25.85,48.91],[-27.08,48.22],[-25.25,48.33],[-26.48,48.15],[-25.94,48.13],[-26.3,47.79],[-25.66,47.98],[-26.46,47.65],[-25.68,47.62],[-26.08,47.45],[-24.85,47.55],[-25.4,47.24],[-24.39,46.94],[-24.28,47.24],[-24.13,46.82],[-24.18,47.21],[-23.76,46.9],[-23.62,47.35],[-23.72,46.96],[-22.9,46.84],[-23.36,46.75],[-22.87,46.77],[-23.14,46.43],[-22.44,46.94],[-22.59,46.36],[-22.13,46.63],[-22,46.31],[-21.74,46.82],[-21.1,46.52],[-21.84,46.03],[-21.16,45.85],[-21.82,45.8],[-21.35,45.35],[-22,45.56],[-21.52,44.57],[-23,45.12],[-22.64,45.85],[-23.3,45.27],[-23.27,45.74],[-23.43,45.41],[-24.72,45.67],[-24.02,45.19],[-24.72,45.09],[-24.32,44.51],[-23.97,44.83],[-23.25,43.99],[-23.35,44.3],[-22.21,43.98],[-22.48,43.73],[-21.73,43.57],[-21.36,42.88],[-22.05,43.3],[-21.27,42.54],[-21.71,42.57],[-21.47,42.14],[-22.6,42.77],[-22.45,42.38],[-24.16,42.79],[-21.66,41.38],[-25.33,41.83],[-25.88,42.13],[-25.39,42.38],[-26.31,42.46],[-26.96,43.19],[-27.33,42.78],[-27.4,43.14]]]}},{"type":"Feature","properties":{},"geometry":{"type":"Polygon","coordinates":[[[-89.17,77.75],[-92.48,77.52],[-90.44,78.54],[-88.76,78.05],[-89.17,77.75]]]}},{"type":"Feature","properties":{},"geometry":{"type":"Polygon","coordinates":[[[-42.17,51.06],[-41.03,51],[-40.98,50.5],[-41.58,50.14],[-40.53,49.58],[-40.59,49.06],[-41.44,49.05],[-41.64,48.43],[-43.53,49.91],[-42.26,50.02],[-42.99,50.63],[-42.17,51.06]]]}},{"type":"Feature","properties":{},"geometry":{"type":"Polygon","coordinates":[[[-39.42,51.38],[-37.93,51.18],[-38.61,49.99],[-39.64,49.96],[-39.22,49.65],[-39.99,49.15],[-40.35,50.85],[-39.42,51.38]]]}},{"type":"Feature","properties":{},"geometry":{"type":"Polygon","coordinates":[[[-29.8,82.82],[-31.47,82.96],[-29.27,83.27],[-27.1,82.93],[-29.8,82.82]]]}},{"type":"Feature","properties":{},"geometry":{"type":"Polygon","coordinates":[[[-51.42,52.33],[-50.63,51.67],[-49.82,51.8],[-49.1,50.97],[-51.7,50],[-52.1,49.33],[-53.52,49.12],[-53.69,49.75],[-54.5,50.17],[-52.75,51.72],[-52.95,52.37],[-51.42,52.33]]]}},{"type":"Feature","properties":{},"geometry":{"type":"Polygon","coordinates":[[[-8.28,54.75],[-7.79,54.49],[-8.68,54.59],[-8.28,54.75]]]}},{"type":"Feature","properties":{},"geometry":{"type":"Polygon","coordinates":[[[-40.79,53.02],[-41.09,53.18],[-40.65,53.41],[-40.79,53.02]]]}},{"type":"Feature","properties":{},"geometry":{"type":"Polygon","coordinates":[[[-84.3,76.17],[-83.97,75.99],[-85.91,75.22],[-87.14,75.79],[-84.48,76.4],[-83.06,76.22],[-84.3,76.17]]]}},{"type":"Feature","properties":{},"geometry":{"type":"Polygon","coordinates":[[[-36.76,52.9],[-36.59,51.94],[-37.79,52.41],[-36.76,52.9]]]}},{"type":"Feature","properties":{},"geometry":{"type":"Polygon","coordinates":[[[-84,78.01],[-83.08,78.06],[-84.35,78.31],[-80.3,78.56],[-77.37,77.77],[-80.5,77.58],[-80.86,77.47],[-78.78,77.17],[-83.12,76.51],[-84.99,77.14],[-84,77.42],[-84,78.01]]]}},{"type":"Feature","properties":{},"geometry":{"type":"Polygon","coordinates":[[[-14.41,78.98],[-14.99,79.05],[-13.8,78.89],[-14.41,78.98]]]}},{"type":"Feature","properties":{},"geometry":{"type":"Polygon","coordinates":[[[-34.01,80.78],[-34.36,80.95],[-33.46,80.81],[-34.01,80.78]]]}},{"type":"Feature","properties":{},"geometry":{"type":"Polygon","coordinates":[[[-39.88,54.56],[-39.59,54.25],[-40.17,54.25],[-39.88,54.56]]]}},{"type":"Feature","properties":{},"geometry":{"type":"Polygon","coordinates":[[[-37.76,54.16],[-37.88,52.84],[-38.33,52.53],[-39.3,52.7],[-38.75,53.27],[-39.97,53.33],[-39.29,53.46],[-39.17,54.17],[-38.69,53.5],[-38.37,53.72],[-38.81,54.15],[-37.76,54.16]]]}},{"type":"Feature","properties":{},"geometry":{"type":"Polygon","coordinates":[[[-41.46,55.07],[-41.91,54.08],[-40.87,53.89],[-41.57,53.2],[-44.71,53.28],[-45.2,53.74],[-43.4,53.85],[-44.73,54.01],[-44.48,54.38],[-45.24,54.06],[-46.05,54.62],[-44.71,54.71],[-45.6,54.86],[-44.43,54.86],[-45.15,55.09],[-43.97,55.43],[-43.32,54.86],[-43.33,54.14],[-42.48,53.88],[-42.44,54.82],[-41.46,55.07]]]}},{"type":"Feature","properties":{},"geometry":{"type":"Polygon","coordinates":[[[-7.18,72.74],[-4.68,72.9],[-1.51,71.18],[-1.85,71.17],[0.59,70.47],[0.05,70.26],[3.52,69.54],[2.53,69.35],[3.15,69.34],[2.71,68.86],[1.96,69.1],[2.26,69.44],[1.44,68.84],[0.63,69.32],[1.3,69.64],[0.41,69.36],[-0.7,69.65],[-0.49,69.95],[-2,69.77],[-1.61,69.89],[-4.78,71.19],[-4.41,71.53],[-4.93,72.06],[-7.18,72.74]]]}},{"type":"Feature","properties":{},"geometry":{"type":"Polygon","coordinates":[[[-36.52,54.35],[-35.86,54.11],[-36.02,53.6],[-35.09,53.77],[-34.38,53.29],[-35.2,53.26],[-34.5,52.42],[-31.44,52.55],[-30.68,52.17],[-31.06,51.74],[-30.64,51.6],[-31.73,51.22],[-32.39,51.71],[-32.76,51.33],[-35.82,51.78],[-35.85,53.53],[-36.78,53.53],[-37.17,54.11],[-36.52,54.35]]]}},{"type":"Feature","properties":{},"geometry":{"type":"Polygon","coordinates":[[[-17.59,78.54],[-16.74,78.41],[-18.4,78.46],[-17.59,78.54]]]}},{"type":"Feature","properties":{},"geometry":{"type":"Polygon","coordinates":[[[-43.63,56.49],[-43.47,56.18],[-44.86,55.5],[-45.21,55.68],[-44.77,56.02],[-46.39,55.42],[-46.38,55.8],[-47.36,55.82],[-44.79,56.6],[-43.63,56.49]]]}},{"type":"Feature","properties":{},"geometry":{"type":"Polygon","coordinates":[[[-34.51,54.68],[-34.35,54.22],[-34.76,54.45],[-34.51,54.68]]]}},{"type":"Feature","properties":{},"geometry":{"type":"Polygon","coordinates":[[[53.15,54.6],[53.18,54.23],[52.11,54.02],[50.66,56.33],[44.09,59.32],[43.15,61.94],[41.84,63.05],[29.24,67.69],[27.06,69.48],[27.14,69.94],[35.81,69.9],[47.77,68.24],[54.64,68.14],[65.64,65.06],[88.45,62.48],[78.44,57.68],[75.37,55.45],[71.23,50.99],[70.58,50.77],[62.8,49.63],[57.21,50.24],[54.49,51.12],[55.06,52.26],[54.6,52.51],[55.14,53.19],[53.64,53.38],[53.15,54.6]]]}},{"type":"Feature","properties":{},"geometry":{"type":"Polygon","coordinates":[[[97.14,54.34],[98.45,53.77],[99.26,52.4],[96.31,51.27],[86.18,50.87],[83.31,49.75],[80.02,50.79],[75.68,54.45],[72.97,55.14],[81.62,56.78],[88.77,57.18],[97.14,54.34]]]}},{"type":"Feature","properties":{},"geometry":{"type":"Polygon","coordinates":[[[97.36,61.42],[92.18,59.99],[80.54,58.72],[88.45,62.48],[97.36,61.42]]]}},{"type":"Feature","properties":{},"geometry":{"type":"Polygon","coordinates":[[[100.14,47.22],[105.45,43.89],[99.92,45.03],[95.93,46.83],[89.07,48.14],[77.88,48.26],[78.83,49],[83.01,49.87],[88.3,50.9],[91.71,51.05],[92.85,50.91],[100.14,47.22]]]}},{"type":"Feature","properties":{},"geometry":{"type":"Polygon","coordinates":[[[155.8,59.06],[157.03,58.82],[156.02,58.69],[156.73,58.46],[157.74,58.62],[157.16,58.26],[158.12,58.85],[159.2,58.5],[159.76,57.16],[158.94,57.2],[158.83,56.13],[157.13,55.61],[154.41,53.31],[145.82,50.4],[143.89,50.18],[142.43,50.63],[142.73,51.09],[142.2,51.24],[141.07,50.69],[136.73,53],[123.54,55.6],[117.93,56.3],[108.69,56.59],[104.36,57.92],[96.33,58.65],[92.91,59.79],[90.9,61.38],[98.86,60.33],[104.97,60.27],[113.24,61.23],[118.78,61.08],[123.73,61.95],[130.17,61.5],[136.43,63.07],[141.17,63.41],[147.41,61.06],[155.8,59.06]]]}},{"type":"Feature","properties":{},"geometry":{"type":"Polygon","coordinates":[[[-179.99,75.41],[-179.99,89.99],[179.99,89.99],[179.99,75.41],[175.89,74.94],[178.9,74.48],[177.43,73.78],[149.67,76.18],[144.66,76.03],[138.22,74.67],[132.6,72.28],[122.37,70.94],[118.65,69.26],[112.16,68],[107.03,65.81],[100.91,64.03],[90.24,62.41],[65.64,65.06],[54.64,68.14],[47.77,68.24],[25.65,71.23],[29.23,72.09],[26.09,73.61],[22.45,73.86],[22.07,74.49],[28.64,74.52],[28.28,74.92],[30.6,75.33],[27.08,74.61],[22.91,74.99],[21.06,74.52],[21.22,74.07],[20.68,73.75],[15.75,74.25],[12.58,73.97],[10.02,74.68],[7.4,74.7],[13.4,74.71],[15.4,75.63],[11.24,74.96],[10.63,75.25],[11.48,75.62],[9.38,75.73],[12.37,76.73],[12.24,77.21],[18.78,76.68],[17.78,76.82],[19.54,76.79],[19.07,76.89],[21.97,77.54],[18.63,77.08],[12.62,77.35],[9.13,76.47],[4.49,76.3],[1.61,78.06],[0.42,78.09],[0.73,77.94],[-0.32,77.6],[-1.2,77.94],[-0.81,77.94],[-1.57,77.48],[-2.51,77.52],[-1.79,77.8],[-4.02,77.61],[-8.75,78.5],[-11.85,78.56],[-11.54,78.66],[-14,79.16],[-12.47,79.22],[-16.93,79.76],[-17.73,79.36],[-20.15,79.66],[-26.79,79.07],[-28.12,79.61],[-25.12,79.64],[-28.35,80.04],[-26.02,80.44],[-32.66,80.58],[-33.56,80.96],[-32.66,81.17],[-33.72,80.97],[-34.16,81.12],[-33.37,81.37],[-34.75,81.22],[-34.6,81.6],[-35.15,81.62],[-33.95,81.93],[-34.27,81.82],[-32.42,81.53],[-34.18,81.97],[-28.77,82.63],[-18.11,83.04],[-14.23,82.71],[-15.26,82.97],[-7.99,83.22],[-12.13,83.09],[-15.75,83.56],[-23.97,83.35],[-21.1,83.29],[-23.69,83.04],[-29.41,83.5],[-28.3,84.12],[-34.27,83.82],[-50.58,84.64],[-57.23,84.51],[-57.92,84.28],[-55.52,83.78],[-57.51,83.55],[-68.22,83.44],[-77.78,84.17],[-76.6,84.53],[-81.04,84.46],[-79.66,84.63],[-80.42,84.71],[-92.49,84.67],[-86.43,83.83],[-111.85,85.15],[-122.53,85.25],[-125.93,84.58],[-130.89,82.82],[-137.03,77.4],[-140.34,75.82],[-147.85,74],[-148.67,74.47],[-150.93,74.35],[-153.75,75.4],[-155.27,75.33],[-154.62,75.55],[-158.85,76.48],[-161.42,76.61],[-179.99,75.41]]]}},{"type":"Feature","properties":{},"geometry":{"type":"Polygon","coordinates":[[[21.31,71.68],[19.65,72.07],[16.6,71.64],[16.94,71.53],[12.92,71.85],[6.67,73.08],[7.9,74.07],[9.45,74.03],[12.08,73.62],[22.97,73.47],[27.12,72.27],[26.65,72.16],[26.88,71.74],[25.59,71.24],[21.31,71.68]]]}},{"type":"Feature","properties":{},"geometry":{"type":"Polygon","coordinates":[[[71.35,29.05],[76.5,29.88],[80.88,29.44],[83.07,28.02],[85.64,24.75],[79.92,26.79],[71.61,25.93],[68.22,26.2],[64.15,27.54],[60.14,29.87],[59.03,31.15],[65.53,29.14],[71.35,29.05]]]}},{"type":"Feature","properties":{},"geometry":{"type":"Polygon","coordinates":[[[45.79,-32.79],[46.29,-32.58],[45.97,-31.83],[45.83,-32.62],[45.43,-31.21],[45.7,-32.24],[45.27,-32.74],[43.06,-32.42],[43.37,-32.02],[42.61,-32.09],[43.08,-31.51],[41.5,-31.18],[41.01,-31.65],[39.91,-31.57],[38.36,-30.8],[34.61,-29.82],[34.16,-30.06],[32.19,-28.79],[26.43,-30.86],[25.94,-30.36],[25.09,-30.34],[25.01,-30.77],[24.47,-30.06],[22.97,-29.69],[23.4,-28.45],[29.26,-22.76],[32.57,-20.44],[34.1,-19.7],[34.56,-19.97],[34.26,-19.52],[34.88,-19.44],[34.77,-19.07],[33.63,-19.37],[32.58,-18.44],[33.33,-16.24],[34.09,-17.16],[34.72,-17.19],[33.94,-16.23],[34.16,-15.31],[34.74,-15.43],[34.26,-15.17],[34.61,-15],[34.25,-14.34],[35.06,-13.97],[34.8,-13.28],[35.51,-12.85],[34.98,-12.34],[38.51,-11.09],[40.39,-10.98],[46.81,-12.16],[48.16,-13.17],[48.39,-14.11],[47.53,-15.47],[46.7,-19.62],[47.22,-24.34],[48.24,-26.32],[53.44,-32.29],[53.82,-33.49],[45.79,-32.79]]]}},{"type":"Feature","properties":{},"geometry":{"type":"Polygon","coordinates":[[[61.44,34.51],[64,33.72],[66.24,33.81],[67.5,35.03],[74.46,37.4],[80.69,36.67],[85.78,35.07],[87.2,32.82],[87.69,30.38],[84.61,33.13],[82.03,34.03],[78.39,33.96],[73.13,32.74],[67.11,32.36],[59.67,33.86],[58.5,33.62],[56.86,35.21],[58.93,35.43],[61.44,34.51]]]}},{"type":"Feature","properties":{},"geometry":{"type":"Polygon","coordinates":[[[96.68,39.63],[96.33,39.28],[95.62,41.76],[93.73,43.07],[84.16,46.36],[93.05,45.9],[97.37,44.59],[102.24,43.92],[99.83,42.63],[96.68,39.63]]]}},{"type":"Feature","properties":{},"geometry":{"type":"Polygon","coordinates":[[[25.59,71.24],[32.85,70.07],[27.14,69.94],[24.03,71.43],[25.59,71.24]]]}},{"type":"Feature","properties":{},"geometry":{"type":"Polygon","coordinates":[[[49.83,46.2],[48.69,46.89],[48.25,47.82],[46.55,47.62],[44.46,48.44],[45.7,48.88],[44.82,48.88],[44.91,49.56],[46.31,50.16],[44.72,51.28],[43.34,50.87],[42.53,49.63],[41.97,49.63],[42.27,48.75],[41.84,48.96],[42.02,48.61],[41.31,48.37],[41.31,47.09],[42.75,46.93],[43.17,46.07],[45.74,45.29],[39.46,44.75],[41.96,50.66],[46.86,54.1],[47.52,55.06],[47.04,56.71],[44.09,59.32],[50.66,56.33],[52.09,54.1],[52.2,53.37],[51.65,53.39],[52.13,53.02],[51.3,52.77],[51.7,51.71],[52.78,50.9],[53.76,51.42],[57.21,50.24],[62.8,49.63],[71.23,50.99],[69.28,48.35],[59.5,45.12],[50.03,45.72],[49.83,46.2]]]}},{"type":"Feature","properties":{},"geometry":{"type":"Polygon","coordinates":[[[42.87,1.53],[42.29,1.82],[40.91,1.43],[40.02,1.84],[38.3,3.49],[37.73,5.95],[37.23,5.89],[36.98,6.5],[36.69,6.06],[35.88,6.32],[35.96,5.76],[35.5,5.7],[36.02,3.73],[36.92,2.51],[36.62,1.91],[36.99,0.51],[37.48,1.69],[37.97,1.51],[37.35,-0.03],[37.83,-0.48],[40.05,-0.71],[42.39,0.98],[42.12,-0.87],[43.85,-2.2],[44.53,-3.7],[43.07,-5.21],[42.42,-5.26],[42.17,-6.48],[41.19,-6.51],[40.56,-7.26],[39.67,-7.18],[39.12,-7.9],[36.57,-7.92],[36.14,-8.66],[32.42,-9.35],[29.37,-9.23],[28.6,-9.63],[27.18,-9.25],[27.03,-6.57],[27.58,-5.16],[26.74,-1.76],[25.74,0],[25.94,2.78],[25.24,3.62],[24.6,7.75],[24.07,7.99],[27.43,13.08],[28.42,15.62],[30.57,16.33],[33.57,16.09],[40.85,5.09],[41.61,3.22],[43.04,2.8],[42.87,1.53]]]}},{"type":"Feature","properties":{},"geometry":{"type":"Polygon","coordinates":[[[48.65,-8.56],[47.97,-11.78],[46.29,-12.64],[39.15,-11.1],[37.01,-11.25],[37.4,-8.18],[39.01,-6.55],[40.64,-7.2],[43.44,-5.92],[45.01,-5.92],[48.78,-7.47],[48.65,-8.56]]]}},{"type":"Feature","properties":{},"geometry":{"type":"Polygon","coordinates":[[[67.12,32.58],[54.55,34.37],[55.97,38.05],[63.86,34.21],[67.36,34.65],[67.12,32.58]]]}},{"type":"Feature","properties":{},"geometry":{"type":"Polygon","coordinates":[[[53.98,27.84],[53.48,28.13],[54.13,30.17],[55.78,32.3],[56.59,32.49],[65.89,28.42],[59.51,27.9],[56.76,27.03],[53.98,27.84]]]}},{"type":"Feature","properties":{},"geometry":{"type":"Polygon","coordinates":[[[37.02,34.92],[37.91,34.75],[40.95,36.55],[46.24,34.64],[50.88,35.68],[51.7,35.07],[50.56,33.92],[48.12,33.93],[33.11,30.57],[32.31,31.12],[31.76,32.61],[34.08,34.86],[37.02,34.92]]]}},{"type":"Feature","properties":{},"geometry":{"type":"Polygon","coordinates":[[[-28.06,67.33],[-33.83,66.61],[-36.25,67.38],[-37.15,66.94],[-35.97,66.54],[-35.77,66],[-42.84,65.39],[-43.76,65.46],[-49.19,68.16],[-34.51,68.94],[-28.06,67.33]]]}},{"type":"Feature","properties":{},"geometry":{"type":"Polygon","coordinates":[[[-90.04,66.43],[-91.52,64.82],[-91.8,63.83],[-91.12,62.44],[-89.41,60.71],[-99.1,61.04],[-102.39,61.92],[-107.25,61.91],[-105.21,62.64],[-106.08,62.71],[-104.93,63.24],[-102,66.11],[-100.67,66.69],[-94.93,67.26],[-90.04,66.43]]]}},{"type":"Feature","properties":{},"geometry":{"type":"Polygon","coordinates":[[[-96.37,81.2],[-94.91,80.97],[-99.21,80.66],[-98.28,80.1],[-101.22,79.5],[-99.27,79.41],[-100.45,79.09],[-100.02,78.81],[-95.86,78.98],[-94.92,78.81],[-95.3,78.65],[-94.89,78.29],[-93.35,78.36],[-97.04,76.61],[-97.49,75.9],[-99.64,75.97],[-100.86,75.16],[-102.61,74.77],[-100.74,73.28],[-101.85,72.35],[-104.03,72.23],[-104.38,71.81],[-113.04,72.8],[-118.45,72.33],[-120.28,71.78],[-124.4,68.98],[-125.89,68.46],[-125.86,68.86],[-128.65,69.5],[-135.58,69.17],[-134.56,68.88],[-135.03,68.59],[-139.46,69.82],[-137.66,69.71],[-138.06,69.98],[-137.72,70.31],[-138.87,70.56],[-133.1,72.03],[-130.09,73.61],[-125.27,79.39],[-120.88,81.87],[-96.37,81.2]]]}},{"type":"Feature","properties":{},"geometry":{"type":"Polygon","coordinates":[[[139.88,50.43],[137.98,50],[137.22,49.16],[133.99,48.52],[134.7,47.55],[134.79,45.31],[131.36,45.7],[131.68,46],[131.4,46.49],[132.41,46.35],[132.05,46.61],[132.42,47.25],[131.35,47.74],[130.89,47.47],[131.19,47.62],[130.62,47.8],[131.01,47.87],[130.37,48.08],[131.67,48.36],[131.28,48.64],[132.01,49.2],[131.1,49.46],[131.06,49.9],[126.76,49.59],[128.02,50.02],[127.24,50.18],[127.71,50.51],[129,50.92],[128.75,51.5],[127.73,51.61],[124.55,50.6],[123.19,50.89],[122.62,50.22],[123.88,49.72],[123.47,48.83],[124.33,48.48],[125.84,48.87],[127.83,47.92],[127.37,47.51],[124.33,47.49],[122.68,46.52],[123.59,45.69],[118.98,43.7],[114.49,46.3],[106.7,48.48],[101.16,51.98],[93.29,55.86],[107.95,56.31],[119.71,55.71],[135.72,52.62],[139.88,50.43]]]}},{"type":"Feature","properties":{},"geometry":{"type":"Polygon","coordinates":[[[133.11,47.14],[132.71,45.73],[129.47,44.97],[129.2,45.38],[129.61,45.3],[129.21,45.8],[130.04,46.57],[129.66,46.77],[133.11,47.14]]]}},{"type":"Feature","properties":{},"geometry":{"type":"Polygon","coordinates":[[[122.11,45.21],[122.76,43.48],[123.95,42.62],[122.08,42.82],[123.94,41.78],[122.04,41.15],[124.17,40.71],[123.34,40.32],[124,40.43],[123.95,40.03],[123.29,39.96],[123.67,39.79],[123.52,39.11],[122.4,38.9],[121.77,37.51],[121.16,37.68],[121.59,37.25],[121.16,37.02],[121.22,36.24],[120.85,36.5],[120.09,35.45],[119.54,35.59],[118.89,34.63],[117.71,34.34],[118.01,34.15],[117.66,33.85],[115.76,33.75],[115.23,33.17],[114.27,34.01],[114.43,33.1],[113.93,32.99],[113.76,33.41],[113.71,32.76],[113.13,32.98],[113.08,32.61],[110.86,32.3],[110.85,31.11],[110.15,31.78],[110.45,32.35],[110.03,32.61],[109.58,32.25],[108.81,32.77],[107.61,31.81],[106.83,31.82],[107.03,31.46],[106.26,30.73],[99.86,35.43],[99.01,36.94],[99.1,39.41],[99.8,40.36],[102.33,42.92],[104.63,44.32],[108.25,44.57],[112.21,44.15],[118.55,42.37],[122.11,45.21]]]}},{"type":"Feature","properties":{},"geometry":{"type":"Polygon","coordinates":[[[103.02,31.35],[102.87,30.3],[103.31,29.82],[107.69,27.71],[109.09,25.37],[109.05,24.01],[107.01,22.5],[107.08,21.59],[105.73,20.14],[105.35,21.64],[103.83,21.61],[103.69,22.17],[103.22,21.81],[102.24,22.94],[100.33,22.8],[100.17,23.63],[99.39,23.58],[98.41,26.77],[98.63,30.01],[95.28,34.25],[103.02,31.35]]]}},{"type":"Feature","properties":{},"geometry":{"type":"Polygon","coordinates":[[[98.15,22.24],[99.35,19.06],[100.14,18.26],[100.6,18.68],[102.88,17.43],[104.33,17.66],[107.18,14.54],[104.8,14.95],[103.19,16.38],[101.67,17.02],[100.32,17.22],[100.07,16.86],[97.34,20.7],[95.19,21.7],[93.91,22.84],[94.27,22.84],[92.59,22.91],[88.15,26.46],[85.87,30.24],[89.23,31.09],[93.63,28.94],[94.72,28.06],[95.85,24.98],[98.15,22.24]]]}},{"type":"Feature","properties":{},"geometry":{"type":"Polygon","coordinates":[[[103.38,17.92],[105.57,17.65],[106.8,16.2],[108.49,15.51],[108.07,15.52],[107.93,14.95],[106.35,14.89],[103.38,17.92]]]}},{"type":"Feature","properties":{},"geometry":{"type":"Polygon","coordinates":[[[26.61,-3.73],[29.47,-7.1],[29.46,-7.6],[28.57,-7.95],[29.2,-7.94],[30.17,-9.25],[35.34,-8.87],[36.75,-8.33],[37.22,-8.52],[36.85,-9.91],[37.24,-9.92],[36.72,-10.01],[36.58,-10.9],[33.18,-15.6],[30.96,-17.4],[26.34,-20.02],[25.57,-21.05],[24.12,-21.74],[22.73,-23.5],[22.05,-24.75],[22.7,-25.88],[22.17,-27.52],[22.33,-28.82],[23.23,-29.67],[22.8,-30.26],[22.4,-34.18],[21.2,-35.22],[18.05,-35.94],[14.62,-37.64],[15.82,-33.18],[15.87,-26.86],[18.14,-25.52],[18.43,-23.27],[20.59,-18.08],[20.9,-14.68],[21.77,-13.03],[23.06,-13.14],[23.56,-11.57],[27.21,-8.46],[26.61,-3.73]]]}},{"type":"Feature","properties":{},"geometry":{"type":"Polygon","coordinates":[[[14.48,-37.37],[14.07,-38.12],[14.52,-39.95],[13.7,-41.79],[9.36,-42.68],[9.44,-43.14],[9.9,-42.93],[8.11,-45.06],[3.87,-46.91],[-0.18,-47.92],[-2.73,-47.97],[-6.09,-46.86],[-9.41,-46.69],[-10.23,-45.57],[-10.73,-45.7],[-10.45,-44.1],[-9.8,-44.03],[-9.38,-43.18],[-9.39,-40.34],[-10.01,-38.18],[-8.45,-33.31],[-9.13,-28.14],[-8.28,-26.31],[-6.5,-24.35],[-4.62,-23.3],[-4.2,-22.23],[-4.36,-20.46],[-3.71,-19.93],[-3.98,-17.45],[-3.21,-17.49],[-3.9,-17.16],[-3.87,-15.85],[-5.18,-13.04],[-5.44,-11.09],[-4.84,-11.1],[-4.46,-10.36],[-3.97,-10.72],[-4.44,-10.19],[-2.9,-8.02],[-2.8,-6.98],[-3.32,-6.95],[-3.87,-5.77],[-5.06,-5.83],[-6.42,-5.09],[-3.22,-4.13],[-2.57,-3.06],[0.03,-2.45],[6.5,-5.66],[9.29,-5.32],[14.59,-5.57],[18.83,-13.74],[14.91,-17.5],[13.76,-20.61],[13.81,-22.6],[16.81,-26.88],[16.25,-33.18],[14.48,-37.37]]]}},{"type":"Feature","properties":{},"geometry":{"type":"Polygon","coordinates":[[[-14.2,22.33],[-14.03,23.35],[-13.1,24.27],[-10.42,24.97],[-8.95,26.37],[-8.39,26.3],[-7.95,25.35],[-6.59,25.23],[-5.87,24.61],[-2.55,25.15],[-0.27,24.86],[0.85,24.24],[1.93,24.4],[3.09,23.82],[4.84,23.85],[-5,22.06],[-10.54,22.84],[-14.2,22.33]]]}},{"type":"Feature","properties":{},"geometry":{"type":"Polygon","coordinates":[[[7.6,28.81],[7.54,28.02],[5.09,27.3],[4,26.24],[4.29,25.43],[1.79,23.91],[-0.15,24.32],[-1.37,23.87],[-1.89,24.72],[-1.5,24.98],[-1.82,24.79],[-2.08,25.36],[-3.99,25.52],[-3.28,26.79],[-3.75,27.17],[-3.15,27.49],[-3.91,27.33],[-2.57,29.03],[-2.09,31.56],[-0.86,31.79],[2.84,30.45],[4.14,30.45],[7.6,28.81]]]}},{"type":"Feature","properties":{},"geometry":{"type":"Polygon","coordinates":[[[-4.88,-6.19],[-5.26,-4.66],[-6.09,-3.97],[-8.54,-3.54],[-12.32,-3.96],[-13.99,-2.94],[-17.7,-2.75],[-18.25,-2.35],[-21.46,1.6],[-21.79,4.38],[-23.08,6.26],[-22.43,6.73],[-23.37,6.78],[-23.36,7.37],[-23.93,7.68],[-23.52,7.7],[-23.87,7.83],[-23.55,8.65],[-22.47,8.32],[-23.38,8.49],[-23.89,10.12],[-22.65,10.78],[-21.54,12.52],[-21.47,14.22],[-20.88,14.9],[-21.12,16.1],[-21.5,15.76],[-21.03,16.66],[-15.32,21.25],[-13.91,21.2],[-11.49,22.64],[-8.68,23.15],[-2.26,22.51],[7.63,24.36],[7.83,23.76],[8.5,23.97],[7.76,23.18],[8.08,22.14],[6.9,21.45],[5.91,19.74],[3.94,13.01],[3.22,8.74],[3.21,5.2],[5.16,0.38],[1.92,-1.42],[1.26,-2.91],[-1.26,-3.78],[-1.8,-4.91],[-4.88,-6.19]]]}},{"type":"Feature","properties":{},"geometry":{"type":"Polygon","coordinates":[[[24.23,11.31],[24.12,10.4],[25.75,4.87],[25.54,3.92],[26.67,1.78],[26.3,0.23],[13.62,-5.71],[8.32,-5.59],[5.54,-6],[-1.02,-2.95],[-0.24,-1.52],[3.12,0.02],[1.56,4.98],[1.85,8.51],[4.84,17.95],[6.48,20.45],[7.92,18.91],[10.2,17.7],[10.33,16.62],[12.71,14.72],[13.82,14.99],[14.26,16.26],[16.06,16.52],[16.98,15.46],[18.32,14.9],[18.38,14.42],[21.48,12.91],[22.77,13.31],[23.82,13],[24.23,11.31]]]}},{"type":"Feature","properties":{},"geometry":{"type":"Polygon","coordinates":[[[24.31,13.6],[23.27,14.31],[21.56,14.45],[20.49,16.11],[20.13,15.74],[19.41,15.93],[19.02,17.11],[18.16,17.42],[19.03,17.31],[18.25,17.73],[18.86,18.54],[18.45,19.17],[21.55,19.07],[22.36,18.66],[22.99,17.41],[24.36,17.3],[27.65,15.78],[29.4,13.09],[26.54,13.89],[24.31,13.6]]]}},{"type":"Feature","properties":{},"geometry":{"type":"Polygon","coordinates":[[[16.85,-26.53],[16.36,-26.92],[13.17,-22.76],[13.05,-20.77],[14.07,-17.62],[17.84,-13.72],[22.68,-13.25],[21.76,-14.88],[21.35,-18.27],[19.03,-23.41],[18.67,-25.65],[16.85,-26.53]]]}},{"type":"Feature","properties":{},"geometry":{"type":"Polygon","coordinates":[[[25.67,10.19],[24.61,8.92],[23.49,13.08],[24.65,12.31],[26.04,12.61],[28,15.03],[28.65,16.92],[28.26,15.07],[25.67,10.19]]]}},{"type":"Feature","properties":{},"geometry":{"type":"Polygon","coordinates":[[[26,0.33],[26.1,-0.45],[26.98,-1.32],[27.54,-4.4],[27.83,-4.1],[28.3,-8.84],[24.56,-11.85],[24.01,-13.41],[21.28,-13.25],[17.89,-13.72],[13.94,-6.66],[13.78,-5.52],[26,0.33]]]}},{"type":"Feature","properties":{},"geometry":{"type":"Polygon","coordinates":[[[-1.88,47.06],[-2.46,47.33],[-1.03,47.68],[-0.97,48.14],[-2.38,47.41],[-3.01,47.9],[-2,48.46],[-3.3,48.3],[-2.47,48.49],[-2.83,48.54],[-2.36,48.59],[-2.55,48.92],[-1.97,48.75],[-2.92,48.92],[-1.9,49.48],[-2.82,49.36],[-1.64,49.56],[-2.34,49.7],[-1.69,49.72],[-2.21,50.21],[-1.81,50.67],[-1.21,50.55],[-0.93,51.24],[-1.33,51.46],[-1.45,50.65],[-2.02,50.73],[-2,51.77],[-1.45,51.84],[-1.97,51.79],[-1.67,52.35],[-2.06,52.07],[-1.57,52.84],[-2.02,52.52],[-2.21,52.89],[-1.82,52.91],[-2.34,53.25],[-1.95,53.31],[-2.49,53.38],[-1.96,53.94],[-2.42,53.54],[-2.82,53.8],[-2.49,54.05],[-2.9,54.01],[-2.57,54.26],[-2.99,54.26],[-2.12,54.86],[-2.91,54.7],[-2.89,55.14],[-2.27,55.15],[-3.31,55.26],[-2.84,55.59],[-3.31,55.55],[-3.21,55.87],[-2.41,55.67],[-3.18,55.97],[-2.43,56.47],[-3.26,56.17],[-2.89,56.68],[-3.63,57.29],[-2.66,57.45],[-3.54,57.72],[-2.87,57.62],[-3.26,58.17],[-2.54,57.58],[-2.73,57.93],[-2.35,57.97],[-2.94,58.43],[-2.15,58.47],[-3.24,58.7],[-1.88,58.96],[-2.86,59.93],[-2.13,60.16],[-1.3,59.39],[-1.98,60.37],[-1.08,59.98],[-1.28,60.56],[-1.83,60.59],[-1.53,60.88],[-0.62,60.38],[-0.36,60.56],[-0.87,60.94],[0.87,61.17],[0.95,60.75],[0.09,60.4],[1.31,60.31],[1.26,60.64],[2.23,60.73],[2,61.19],[3.88,60.9],[3.73,61.21],[4.92,61.76],[9.89,62.39],[11.5,61.92],[11.8,61.2],[11.41,60.66],[6.24,59.32],[9.61,59.37],[11.53,58.42],[14.08,58.76],[13.66,59.32],[12.24,59.11],[11.79,59.48],[13.27,59.48],[14.79,60.25],[12.74,60.71],[12.56,62.07],[14.64,62.3],[10.92,63.62],[9.21,63.64],[11.78,64.34],[12.44,64.22],[11.98,63.72],[12.47,63.36],[13.95,63.42],[14.65,63.99],[13.44,64.47],[13.97,64.87],[13.15,64.88],[13.55,65.03],[13.47,66.37],[14.09,66.32],[13.45,66.4],[13.33,67.08],[13.59,67.31],[13.36,66.97],[14.63,66.84],[14.83,66.44],[15.55,66.65],[15.1,66.97],[15.67,66.98],[14.93,67.37],[15.83,67.99],[15.35,68.03],[15.41,68.71],[17.33,68.73],[16.53,68.93],[16.87,69.39],[13.9,69.69],[19.24,71.38],[21.91,71.69],[24.69,71.22],[27.14,69.94],[27.06,69.48],[29.24,67.69],[41.84,63.05],[43.15,61.94],[43.61,59.88],[47.04,56.71],[47.58,55.55],[46.86,54.1],[41.96,50.66],[39.46,44.75],[36.12,43.66],[32.19,43.84],[32.83,44.34],[32.88,45.1],[31.98,45.53],[32.74,45.82],[32.77,46.57],[30.54,44.84],[30.2,44.01],[30.05,44.42],[30.43,43.73],[31.23,43.52],[32.09,44.01],[32.09,43.64],[30.03,42.26],[29.21,42.88],[28.65,42.51],[29.31,43.43],[27.41,43.03],[27.03,43.17],[27.82,43.42],[27.2,43.59],[26.04,41.86],[26.67,41.02],[26.32,40.7],[23.15,41.19],[19.87,42.69],[12.56,43.89],[9.11,43.99],[10.99,45.75],[11.8,45.52],[12.24,46.06],[12.2,45.56],[12.57,46.27],[12.05,46.32],[12.46,46.69],[12.19,47.35],[12.43,46.54],[12.94,46.72],[11.45,48.02],[11.05,49.05],[11.48,49.5],[12.88,49.17],[13.15,49.65],[12.26,50.57],[11.69,50.33],[10.72,50.96],[11.69,51.99],[13.4,52.48],[13.13,52.84],[14.4,53.55],[12.47,53.79],[9.78,51.24],[9.34,51.69],[8.06,51.43],[5.67,53.06],[5.39,55.58],[5.81,55.81],[5.06,56.28],[2.74,55.49],[3.22,55.46],[3.03,55.11],[3.4,55.07],[2.94,55.09],[3.38,54.61],[4.18,54.47],[4.35,53.71],[3.75,52.77],[3.93,52.19],[3.22,52.37],[3.95,52.07],[3.75,51.74],[5.32,50.25],[7.39,50.05],[6.95,49.46],[7.52,49.4],[7.43,48.97],[7,49.17],[7.24,48.79],[6.5,48.29],[7.13,48.38],[6.7,48.2],[7.32,48.1],[8.23,46.71],[8.34,46.04],[7.4,45.49],[7.72,44.96],[6.78,44.55],[5.87,45.23],[5.99,45.61],[1.99,47.83],[2.14,47.43],[1.78,47.54],[2.36,46.96],[1.81,46.83],[1.74,45.62],[1.08,45.18],[-0.49,45.44],[0.04,46.01],[-0.46,45.82],[-0.36,46.43],[-1.2,46.02],[-0.75,47.35],[-1.29,47.11],[-1.2,46.58],[-1.88,47.06]]]}},{"type":"Feature","properties":{},"geometry":{"type":"Polygon","coordinates":[[[4.12,43.14],[3.43,43.36],[2.71,44.44],[3.6,45.96],[4.05,44.94],[4.76,44.93],[4.32,43.9],[5,43.28],[4.12,43.14]]]}},{"type":"Feature","properties":{},"geometry":{"type":"Polygon","coordinates":[[[27.16,37.94],[26.61,38.82],[25.93,38.39],[25.67,38.88],[25.83,39.43],[27.8,40.39],[27.44,40.42],[28.26,41.07],[27.65,40.85],[32.4,43.59],[35.78,44.2],[32.11,41.95],[31.29,40.79],[29.46,40.72],[28.57,40.17],[27.16,37.94]]]}},{"type":"Feature","properties":{},"geometry":{"type":"Polygon","coordinates":[[[18.12,22.87],[17.94,21.44],[17.16,21.44],[17.96,20.41],[17.81,19.93],[17.07,20.43],[17.22,19.83],[16.67,20.21],[16.61,19.51],[15.95,19.49],[15.98,19.94],[15.55,19.92],[15.66,21.12],[16.4,21.22],[17.34,20.56],[15.84,21.49],[15.82,22.08],[16.2,22.1],[15.58,23.99],[16.53,25.09],[14.87,27.89],[15.04,29.68],[14.83,30.07],[14.18,29.73],[14.56,30.74],[13.66,30.94],[12.79,29.84],[13.25,28.8],[12.99,27.97],[13.36,26.85],[14.1,26.44],[13.71,26.13],[14.83,24],[14.49,23.86],[13.83,24.88],[13.17,24.47],[13.24,23.5],[11.65,23.11],[12.48,23.76],[12.71,25],[10.76,28.79],[11.06,30.48],[10.38,31.42],[9.17,31.33],[8.97,31.98],[9.75,33.49],[13.69,33.43],[18.22,31.67],[16.43,30.19],[17.65,26.37],[18.12,22.87]]]}},{"type":"Feature","properties":{},"geometry":{"type":"Polygon","coordinates":[[[9.91,32.74],[9.13,31.6],[7.26,31.47],[6.87,30.36],[2.94,29.91],[2.38,31.86],[3.01,31.5],[2,32.51],[0.19,33.33],[-1.11,33.04],[-1.5,33.17],[-1.21,33.55],[-1.75,33.62],[-0.67,34.38],[-0.2,34.12],[0.71,34.6],[-0.25,35.45],[1.23,35.48],[1.61,36.25],[4.07,36.11],[6.08,36.75],[8.12,40.4],[10.2,42.07],[14.37,43.49],[17.9,42.81],[15.68,41.36],[14.39,39.56],[10.47,37.39],[8.81,35.89],[7.99,34.27],[9.15,32.93],[9.91,32.74]]]}},{"type":"Feature","properties":{},"geometry":{"type":"Polygon","coordinates":[[[1.61,36.25],[2.14,36.82],[1.71,37.42],[3.35,38.57],[2.67,38.52],[3.43,39.01],[2.84,39.06],[2.77,40.15],[3.32,40.08],[3.13,39.67],[3.63,40.09],[3.17,40.7],[4.34,41.08],[4.04,41.36],[4.49,41.69],[5.16,41.56],[4.93,42.07],[5.98,42.09],[4.6,42.41],[4.82,42.69],[4.11,42.71],[4.12,43.14],[5.67,42.86],[6.32,43.21],[6.41,42.67],[7.22,43.7],[9.29,43.53],[9.11,43.99],[10,44.02],[14.37,43.49],[9.18,41.42],[8.12,40.4],[6.08,36.75],[4.07,36.11],[1.61,36.25]]]}},{"type":"Feature","properties":{},"geometry":{"type":"Polygon","coordinates":[[[26.28,40.47],[26.7,39.53],[26.4,38.91],[22.59,37.33],[21.39,37.9],[21.16,38.59],[23.16,40.25],[23.15,41.19],[26.28,40.47]]]}},{"type":"Feature","properties":{},"geometry":{"type":"Polygon","coordinates":[[[-39.68,55.45],[-39.99,55.11],[-39.93,55.7],[-39.68,55.45]]]}},{"type":"Feature","properties":{},"geometry":{"type":"Polygon","coordinates":[[[-36.12,55.04],[-35.34,54.79],[-36.53,54.91],[-36.12,55.04]]]}},{"type":"Feature","properties":{},"geometry":{"type":"Polygon","coordinates":[[[-40.98,56.38],[-41.48,55.86],[-42.55,56.15],[-42.21,56.5],[-40.98,56.38]]]}},{"type":"Feature","properties":{},"geometry":{"type":"Polygon","coordinates":[[[-15.88,63.83],[-14.77,63.87],[-14.06,63.25],[-16.19,63.4],[-15.88,63.83]]]}},{"type":"Feature","properties":{},"geometry":{"type":"Polygon","coordinates":[[[-40.61,57],[-40.64,56.51],[-41.91,56.81],[-40.61,57]]]}},{"type":"Feature","properties":{},"geometry":{"type":"Polygon","coordinates":[[[-36.21,55.99],[-35.82,55.28],[-36.72,55.15],[-36.68,56.15],[-36.21,55.99]]]}},{"type":"Feature","properties":{},"geometry":{"type":"Polygon","coordinates":[[[-19.87,62.17],[-18.61,62],[-20.2,62.18],[-19.87,62.17]]]}},{"type":"Feature","properties":{},"geometry":{"type":"Polygon","coordinates":[[[-38.09,57.06],[-37.99,56.5],[-37.61,56.67],[-37.14,56.04],[-37.42,55.31],[-39,56.07],[-38.32,56.43],[-38.8,56.97],[-38.09,57.06]]]}},{"type":"Feature","properties":{},"geometry":{"type":"Polygon","coordinates":[[[-29.55,77.47],[-28.01,77.99],[-30.05,77.8],[-30.07,78.13],[-29.54,78.09],[-30.36,78.24],[-28.88,78.64],[-23.43,78.37],[-29.55,77.47]]]}},{"type":"Feature","properties":{},"geometry":{"type":"Polygon","coordinates":[[[-20.9,63.72],[-17.39,63.88],[-17.31,63.27],[-15.78,62.63],[-20.9,63.72]]]}},{"type":"Feature","properties":{},"geometry":{"type":"Polygon","coordinates":[[[-15.86,62.54],[-14.68,61.69],[-16.99,61.87],[-16.18,62.2],[-16.97,62.08],[-16.82,62.63],[-17.3,61.99],[-17.95,62.14],[-17.61,62.87],[-15.86,62.54]]]}},{"type":"Feature","properties":{},"geometry":{"type":"Polygon","coordinates":[[[-18.36,63.01],[-18.18,62.68],[-18.88,62.89],[-18.19,62.53],[-18.37,62.13],[-21.51,62.93],[-21.1,63.26],[-20.89,62.88],[-19.94,62.94],[-20.75,63.34],[-18.36,63.01]]]}},{"type":"Feature","properties":{},"geometry":{"type":"Polygon","coordinates":[[[-24.79,75.8],[-25.36,76.15],[-23.47,76.08],[-24.79,75.8]]]}},{"type":"Feature","properties":{},"geometry":{"type":"Polygon","coordinates":[[[-27.9,76.33],[-28.15,76.5],[-26.3,76.59],[-28.93,76.71],[-25.88,77.66],[-23.49,76.95],[-24.61,76.36],[-23.89,76.28],[-27.9,76.33]]]}},{"type":"Feature","properties":{},"geometry":{"type":"Polygon","coordinates":[[[-20.35,64.89],[-19.63,64.77],[-19.92,65.08],[-18.79,65.38],[-17.74,64.88],[-17.7,64.43],[-20.73,63.96],[-20.33,64.17],[-21.1,64.44],[-19.54,64.56],[-20.35,64.89]]]}},{"type":"Feature","properties":{},"geometry":{"type":"Polygon","coordinates":[[[-18.6,68.84],[-17.58,68.58],[-18.06,68.37],[-18.6,68.84]]]}},{"type":"Feature","properties":{},"geometry":{"type":"Polygon","coordinates":[[[-18.96,71.13],[-17.42,70.8],[-18.61,70.74],[-18.96,71.13]]]}},{"type":"Feature","properties":{},"geometry":{"type":"Polygon","coordinates":[[[-18.8,69.35],[-16.47,68.89],[-17.15,68.64],[-18.8,69.35]]]}},{"type":"Feature","properties":{},"geometry":{"type":"Polygon","coordinates":[[[-29.75,75.35],[-29.76,75.87],[-28.12,76.27],[-25.09,75.78],[-29.75,75.35]]]}},{"type":"Feature","properties":{},"geometry":{"type":"Polygon","coordinates":[[[-33.83,58.41],[-32.98,57.03],[-32.54,57.27],[-32.74,56.4],[-31.98,56.07],[-33.07,55.53],[-33.15,55.9],[-33.65,55.09],[-33.89,55.59],[-33.86,55.12],[-34.76,55.27],[-34.98,55.58],[-34.48,55.59],[-35.21,56.14],[-33.93,56.21],[-35.36,56.48],[-34.87,56.83],[-35.52,57.12],[-34.77,57.13],[-35.29,57.55],[-34.34,57.6],[-34.7,57.96],[-33.83,58.41]]]}},{"type":"Feature","properties":{},"geometry":{"type":"Polygon","coordinates":[[[-23.33,57.92],[-22.59,57.5],[-23.69,57.82],[-23.33,57.92]]]}},{"type":"Feature","properties":{},"geometry":{"type":"Polygon","coordinates":[[[-27.38,59.78],[-26.49,59.64],[-27,59.31],[-26.11,59.64],[-25.01,59.03],[-25.72,58.46],[-27.07,58.39],[-26.3,58.22],[-27.2,57.75],[-25.68,58.22],[-26.99,57.05],[-27.4,57.22],[-27.16,56.86],[-27.87,56.87],[-27.26,56.76],[-27.54,56.4],[-29.71,56.03],[-28.52,55.88],[-29.64,55.88],[-28.64,55.48],[-29.11,55.14],[-28.74,54.99],[-29.41,54.88],[-29.06,54.62],[-29.95,54.61],[-30,54.06],[-31.45,54.05],[-30.36,53.92],[-29.86,53.33],[-31.19,52.87],[-31.66,53.49],[-31.57,53.18],[-32.66,53.41],[-32.68,53.11],[-34.44,53.57],[-33.12,54.05],[-33.52,54.78],[-32.29,54.1],[-31.35,54.82],[-32.04,54.28],[-32.59,54.77],[-32.18,55.16],[-33.19,55.02],[-32.77,55.62],[-31.27,55.31],[-31.54,55.6],[-30.97,55.62],[-31.99,55.83],[-31.59,55.8],[-32.35,56.61],[-32.22,57.14],[-30.56,56.29],[-30.25,56.37],[-31.21,57.08],[-29.1,57.52],[-29.83,57.57],[-29.13,58.11],[-30.46,57.37],[-32.02,57.35],[-30.76,57.91],[-32.43,57.48],[-32.89,57.82],[-31.4,58.07],[-32.93,57.93],[-32.06,58.33],[-33.29,58.61],[-32.06,58.95],[-31.2,58.65],[-31.72,59.03],[-31.19,59.26],[-29.77,58.5],[-30.59,59.12],[-30.01,59.25],[-30.2,59.52],[-29.27,59.6],[-28.93,59.1],[-29.17,59.65],[-28,59.35],[-28.25,59.6],[-27.38,59.78]]]}},{"type":"Feature","properties":{},"geometry":{"type":"Polygon","coordinates":[[[-16.69,40.17],[-16.4,40.82],[-16.85,40.5],[-17.22,40.99],[-16.26,41.56],[-17.2,41.05],[-17.69,41.33],[-17.01,41.79],[-17.92,41.58],[-16.53,42.66],[-17.98,41.64],[-18.15,42.03],[-17.53,42.18],[-18.11,42.17],[-17.52,42.48],[-18.51,42.57],[-16.68,42.99],[-18.51,42.7],[-18.11,43.32],[-16.65,43.35],[-17.31,43.71],[-18.56,43.08],[-18.38,43.59],[-17.82,43.6],[-18.53,43.69],[-16.84,43.75],[-17.6,43.87],[-17.4,44.23],[-18.62,43.83],[-17.54,44.29],[-17.77,44.81],[-17.27,44.74],[-17.82,44.88],[-17.7,45.75],[-19.98,45.98],[-17.97,46.01],[-18.9,46.56],[-18.43,46.65],[-19.07,46.62],[-18.81,46.86],[-19.22,46.64],[-18.81,47.05],[-19.51,46.85],[-19.03,47.25],[-19.97,47.37],[-19.93,46.8],[-20.67,46.7],[-20.46,47.28],[-21.06,47.65],[-20.74,48.09],[-21.32,48.26],[-21.14,48.58],[-21.91,49.37],[-22.33,49.15],[-21.94,49.5],[-23.32,50.67],[-25.39,51.08],[-26.79,50.75],[-26.43,50.51],[-27.23,50.64],[-27.7,50.9],[-27.12,51.24],[-28.42,51.5],[-26.62,51.86],[-26.68,52.19],[-27.69,51.98],[-29.11,52.63],[-26.87,53.8],[-26.89,54.6],[-26.49,54.76],[-27.66,54.87],[-26.82,55.76],[-26.44,55.4],[-26.74,55.78],[-26.13,55.82],[-26.35,56.56],[-25.01,56.19],[-26.08,56.72],[-25.06,57.26],[-24.32,56.49],[-24.49,57.01],[-23.44,56.8],[-24.36,57.55],[-22.32,57.2],[-22.73,57.67],[-22.15,57.76],[-23.38,58.05],[-21.84,58.17],[-23.63,58.39],[-21.84,58.46],[-22.18,58.62],[-21.91,58.9],[-22.58,59.03],[-21.2,59.72],[-20.01,59.82],[-21.27,59.12],[-20.95,59.12],[-21.19,58.67],[-19.76,59.76],[-19.37,59.41],[-18.29,59.69],[-18.39,59.04],[-19.46,58.61],[-19.41,57.97],[-18.08,58.95],[-17.76,58.35],[-17.55,59.32],[-16.18,57.94],[-16.44,59.22],[-15.75,59.27],[-16.13,59.73],[-14.76,59.97],[-14.33,58.93],[-15.44,58.26],[-14.1,58.77],[-14.79,57.98],[-14.16,57.76],[-14.35,58.12],[-13.87,58.31],[-13.88,57.74],[-13.15,57.47],[-13.25,56.91],[-12.22,55.95],[-11.92,56.01],[-12.26,56.34],[-11.52,56.37],[-11.77,55.95],[-10.75,56.15],[-10.09,55.73],[-11.5,55.45],[-10.93,55.55],[-11.38,55.08],[-10,55.15],[-10.45,54.69],[-9.25,54.82],[-8.7,54.34],[-10.13,54.36],[-9.01,54.19],[-9.71,53.9],[-7.78,53.92],[-9.02,53.51],[-7.9,53.51],[-8.86,53.21],[-7.3,52.84],[-7.85,52.36],[-8.9,52.49],[-8.14,52.7],[-9.75,52.42],[-8.96,52.22],[-9.21,51.77],[-9.95,51.8],[-9.35,51.72],[-9.79,51.42],[-8.68,51.77],[-9.44,51.23],[-8.2,51.51],[-8.61,51.01],[-7.98,50.83],[-7.95,51.32],[-6.61,51.24],[-6.63,50.9],[-6.22,51.2],[-5.04,50.28],[-5.7,50.37],[-5.4,50],[-5.73,49.87],[-7.01,50.4],[-9.35,50.38],[-8.47,50.26],[-8.82,49.94],[-7.35,50.25],[-7.62,49.69],[-8.28,49.68],[-7.99,49.2],[-8.33,48.87],[-7.19,49.32],[-7.77,48.67],[-7.12,48.75],[-6.53,49.51],[-4.91,49.84],[-5.7,47.81],[-7.43,46.47],[-8.57,46.71],[-7.89,46.17],[-8.32,45.76],[-8.25,44.33],[-8.91,44.21],[-8.59,43.96],[-9.45,43.66],[-9.24,43.35],[-9.95,43.88],[-9.71,43.09],[-10.36,43.02],[-10.43,42.21],[-11,42.17],[-10.26,41.58],[-10.85,41.3],[-10.02,40.92],[-10.64,40.93],[-10.09,40.78],[-10.71,40.5],[-10.31,40.01],[-11.09,39.64],[-10.37,39.44],[-10.9,39.44],[-10.19,39.09],[-10.59,38.55],[-10.12,38.47],[-10.58,38.28],[-10.14,38.14],[-10.72,38.03],[-10.16,38.1],[-10.55,37.77],[-10.05,37.61],[-10.87,37.47],[-10.03,37.1],[-10.71,37.25],[-11.24,36.81],[-11,37.37],[-11.28,36.85],[-11.16,37.52],[-11.91,37.16],[-11.6,37.58],[-12.11,37.29],[-11.67,37.87],[-12.07,37.48],[-12.06,37.92],[-12.5,37.26],[-13.32,37.09],[-13.3,37.63],[-14,37.56],[-13.56,37.78],[-14.17,37.68],[-13.79,37.85],[-14,38.17],[-14.19,37.84],[-14.09,38.24],[-15.07,38.47],[-14.9,39.08],[-15.19,38.74],[-15.16,39.21],[-15.78,39.2],[-15.26,39.35],[-16.13,39.48],[-15.86,39.79],[-16.29,39.81],[-15.75,40.1],[-16.41,39.95],[-15.62,40.38],[-15.89,40.59],[-15.27,40.35],[-16.36,41.04],[-15.98,40.62],[-16.69,40.17]]]}}]}
