{"type":"FeatureCollection","features":[{"type":"Feature","properties":{},"geometry":{"type":"Polygon","coordinates":[[[42.86,-60.73],[44.54,-60.49],[45.4,-60.95],[43.51,-61.12],[42.86,-60.73]]]}},{"type":"Feature","properties":{},"geometry":{"type":"Polygon","coordinates":[[[49.98,-58.81],[49.66,-59.16],[49.24,-58.53],[50.52,-58.64],[49.98,-58.81]]]}},{"type":"Feature","properties":{},"geometry":{"type":"Polygon","coordinates":[[[7.02,-63.86],[8.48,-62.99],[9.54,-63.63],[9.27,-64.03],[7.02,-63.86]]]}},{"type":"Feature","properties":{},"geometry":{"type":"Polygon","coordinates":[[[26.22,-69.47],[27.32,-69.36],[25.79,-69.59],[26.22,-69.47]]]}},{"type":"Feature","properties":{},"geometry":{"type":"Polygon","coordinates":[[[31.08,-69.96],[27.95,-69.75],[30.47,-69.24],[31.1,-69.32],[30.89,-69.73],[31.39,-69.81],[31.08,-69.96]]]}},{"type":"Feature","properties":{},"geometry":{"type":"Polygon","coordinates":[[[34.02,-70.37],[31.74,-69.56],[34.83,-70.03],[34.02,-70.37]]]}},{"type":"Feature","properties":{},"geometry":{"type":"Polygon","coordinates":[[[-2.39,-65.24],[-0.71,-64.76],[-1.08,-65.3],[-2.39,-65.24]]]}},{"type":"Feature","properties":{},"geometry":{"type":"Polygon","coordinates":[[[9.97,-69.38],[10.53,-69.17],[8.95,-69.13],[8.47,-68.89],[9.7,-68.86],[8.55,-68.66],[9.79,-68.35],[13.37,-69.86],[9.97,-69.38]]]}},{"type":"Feature","properties":{},"geometry":{"type":"Polygon","coordinates":[[[-10.08,-66.14],[-9.04,-65.97],[-8.86,-66.3],[-10.08,-66.14]]]}},{"type":"Feature","properties":{},"geometry":{"type":"Polygon","coordinates":[[[-12.42,-64.62],[-6.39,-63.49],[-3.92,-63.72],[-3.42,-64.37],[-4.4,-64.55],[-4.71,-64.11],[-5.82,-64.62],[-4.24,-65],[-5.36,-65.86],[-5.67,-65.82],[-5.17,-65.51],[-6.14,-65.65],[-5.64,-65.16],[-6.23,-65.46],[-6.54,-64.89],[-6.89,-65.23],[-7.81,-64.68],[-7.53,-64.45],[-8.72,-64.84],[-9.32,-64.36],[-10,-65.08],[-11.55,-65.3],[-12.42,-64.62]]]}},{"type":"Feature","properties":{},"geometry":{"type":"Polygon","coordinates":[[[60.31,-42.23],[59.8,-43.06],[59.3,-42.75],[60.31,-42.23]]]}},{"type":"Feature","properties":{},"geometry":{"type":"Polygon","coordinates":[[[-22.64,-61.9],[-21.94,-61.72],[-21.44,-62.13],[-21.84,-62.36],[-22.64,-61.9]]]}},{"type":"Feature","properties":{},"geometry":{"type":"Polygon","coordinates":[[[-22.66,-59.43],[-21.81,-59.19],[-21.44,-59.63],[-22.66,-59.43]]]}},{"type":"Feature","properties":{},"geometry":{"type":"Polygon","coordinates":[[[6.61,-64.08],[7.88,-64.55],[8.93,-64.31],[8.41,-64.65],[8.94,-64.83],[12.62,-62.73],[11.7,-63],[12.03,-62.53],[13.93,-61.92],[16.99,-61.84],[20.55,-59.63],[24.04,-60.89],[24.21,-62.03],[24.81,-62.5],[23.28,-63.46],[13.38,-65.15],[11.62,-65.86],[9.71,-65.92],[6.11,-64.85],[6.61,-64.08]]]}},{"type":"Feature","properties":{},"geometry":{"type":"Polygon","coordinates":[[[-23.64,-59.06],[-22.86,-58.94],[-23.21,-59.18],[-22.95,-59.54],[-21.44,-60.01],[-21.86,-60.48],[-20.27,-61.55],[-18.98,-61.69],[-18.47,-61.51],[-18.83,-60.97],[-18.22,-61.13],[-18.57,-61.32],[-17.84,-61.47],[-18.43,-61.52],[-18.42,-61.91],[-17.32,-61.85],[-18.62,-62.18],[-17.07,-62.29],[-16.08,-63],[-13.24,-62.85],[-12.96,-62.47],[-13.66,-62.03],[-12.46,-62.34],[-7.97,-61.28],[-4.85,-61.35],[-4.87,-61.04],[-4.08,-61.13],[-4.44,-60.8],[-1.42,-60.9],[0.89,-61.67],[0.78,-61.34],[4.04,-62.58],[5.26,-61.8],[7.56,-62.68],[5.78,-63.72],[6.61,-64.08],[4.88,-66.49],[2.06,-66.84],[2.18,-66.46],[1.38,-66.28],[-0.46,-66.5],[0.39,-65.78],[-0.42,-65.38],[0.43,-65.28],[-3.84,-63.08],[-6.03,-63.08],[-11.29,-64.09],[-12.3,-63.39],[-15.76,-63.38],[-15.6,-63.79],[-16.74,-63.77],[-17.02,-63.55],[-16.18,-63.37],[-17.65,-63.42],[-17.56,-63.09],[-18.77,-63.05],[-20.03,-62.17],[-21.05,-62.2],[-20.67,-61.97],[-22.74,-60.84],[-23.64,-59.06]]]}},{"type":"Feature","properties":{},"geometry":{"type":"Polygon","coordinates":[[[16.38,-56.1],[12.46,-52.57],[12.42,-51.86],[13.06,-51.78],[11.46,-51.21],[10.05,-52.16],[8.64,-51.63],[7.48,-49.67],[7.51,-48.53],[6.55,-47.46],[6.34,-45.86],[7.11,-43.86],[6.76,-43.16],[5.86,-43.04],[6.62,-43.01],[6.13,-42.25],[7.51,-42.55],[7.73,-42.23],[7.01,-41.38],[7.41,-41.15],[7.97,-41.73],[8.82,-41.04],[8.06,-40.25],[9.26,-41.04],[9.52,-40.67],[10.01,-40.87],[10.36,-39.27],[11.94,-38.16],[13.69,-37.95],[15.16,-36.93],[18.03,-36.41],[21.86,-34.72],[21.95,-33.62],[24.17,-34.83],[24.49,-33.69],[25.71,-32.7],[27.31,-31.85],[28.1,-32.18],[28.58,-31.35],[28.81,-31.81],[29.32,-31.73],[29.23,-30.85],[30.74,-30.44],[31.62,-30.65],[32.34,-31.31],[31.82,-31.51],[33.04,-32.23],[37.72,-33.3],[37.56,-34.22],[37.06,-34.38],[37.45,-34.43],[36.98,-34.53],[37.28,-34.73],[36.77,-34.68],[36.83,-35.25],[36.24,-35.57],[37.19,-36.99],[38.63,-35.66],[39.6,-35.79],[41.67,-34.74],[44.42,-34.51],[47.9,-35.28],[50.25,-36.57],[50.9,-36.7],[51.25,-36.08],[51.87,-36.3],[51.61,-36.81],[52.97,-37.15],[54.48,-39.47],[57.21,-39.71],[57.05,-40.61],[57.72,-41],[57.71,-41.89],[59.13,-42.74],[58.81,-42.96],[61.44,-43.96],[61.2,-44.97],[61.64,-45.41],[62.95,-44.84],[64.16,-46.54],[65.54,-46.29],[64.74,-46.78],[64.65,-47.43],[65.54,-49.84],[66.01,-50.07],[65.88,-50.63],[66.82,-51.16],[65.42,-51.03],[65.81,-52.26],[64.82,-52.25],[65.6,-53.3],[64.99,-53.57],[66.08,-54.31],[65.09,-54.86],[65.04,-55.56],[65.47,-55.62],[65.11,-56.32],[63.52,-57.18],[62.87,-59.44],[60.71,-60.44],[57.61,-59.73],[57.42,-59],[56.45,-58.9],[56.44,-58.5],[55.4,-58.63],[55.66,-58.35],[54.96,-58.22],[55.77,-58.12],[55.26,-57.9],[54.39,-57.88],[54.01,-58.4],[53.53,-57.85],[48.62,-57.8],[49.01,-58.25],[47.66,-58.48],[47.99,-57.91],[47.05,-57.1],[41.44,-57.14],[41.29,-56.77],[40.68,-56.96],[41.06,-57.21],[38.94,-57.23],[36.43,-58],[34.59,-57.29],[36.49,-58.14],[34.27,-58.62],[32.68,-58.37],[31.35,-58.65],[31.18,-59.14],[29.58,-59.24],[32.48,-59.82],[34.39,-61.2],[31.72,-61.86],[30.41,-60.7],[27.34,-59.41],[23.66,-59.66],[21.47,-58.09],[16.38,-56.1]]]}},{"type":"Feature","properties":{},"geometry":{"type":"Polygon","coordinates":[[[37.65,-59.49],[39.32,-60.63],[37.78,-61.8],[43.97,-61.85],[46.78,-62.84],[44.52,-63.66],[42.83,-63.69],[43.15,-63.78],[42.82,-64.32],[42.1,-64.45],[42.77,-64.71],[42.27,-64.81],[44.94,-64.7],[44.94,-65.14],[43.23,-65.24],[44.2,-65.64],[41.99,-66.7],[42.08,-67.1],[40.69,-67.45],[40.5,-67.69],[41.05,-67.85],[40.27,-68.24],[27.4,-69.31],[25.15,-68.94],[25.11,-69.35],[24.26,-69.53],[24.64,-69.22],[23.8,-69.31],[24.3,-68.99],[23.87,-68.92],[23.99,-68.45],[22.82,-68.51],[23.08,-68.69],[22.51,-69.02],[21.22,-68.23],[20.03,-68.33],[19.77,-68.03],[20.37,-67.6],[18.61,-67.96],[17.52,-67.67],[17.52,-67.1],[16.43,-67.02],[16.35,-67.73],[15.11,-67.86],[15.67,-68.33],[15.44,-68.61],[13.6,-68.45],[15.44,-68.82],[15.43,-69.31],[14.9,-69.39],[13.35,-68.57],[11.63,-68.43],[11.19,-67.72],[9.52,-67.75],[9.69,-67.37],[8.44,-66.75],[6.23,-66.79],[6.11,-66.44],[6.89,-66.38],[6.64,-65.79],[5.58,-65.76],[6.27,-65.42],[5.95,-64.71],[15.33,-63.79],[16.53,-63.15],[25.93,-61.64],[27.59,-60.68],[34.43,-60.69],[37.65,-59.49]]]}},{"type":"Feature","properties":{},"geometry":{"type":"Polygon","coordinates":[[[-23.4,-58.26],[-23,-58.11],[-23.07,-58.74],[-23.4,-58.26]]]}},{"type":"Feature","properties":{},"geometry":{"type":"Polygon","coordinates":[[[-24.35,-60.08],[-24.02,-60.24],[-24.64,-60.59],[-24.35,-60.08]]]}},{"type":"Feature","properties":{},"geometry":{"type":"Polygon","coordinates":[[[-24.72,-58.92],[-24.43,-58.8],[-24.61,-59.48],[-24.72,-58.92]]]}},{"type":"Feature","properties":{},"geometry":{"type":"Polygon","coordinates":[[[-17.24,-56.09],[-17.66,-56.36],[-16.17,-56.64],[-18.48,-56.67],[-17.24,-56.09]]]}},{"type":"Feature","properties":{},"geometry":{"type":"Polygon","coordinates":[[[-16.88,-55.97],[-15.73,-55.92],[-16.66,-56.26],[-16.88,-55.97]]]}},{"type":"Feature","properties":{},"geometry":{"type":"Polygon","coordinates":[[[-21.26,-55.95],[-20.78,-56.37],[-21.55,-56.1],[-21.26,-55.95]]]}},{"type":"Feature","properties":{},"geometry":{"type":"Polygon","coordinates":[[[-20.13,-55.34],[-19.59,-55.97],[-20.25,-55.78],[-20.13,-55.34]]]}},{"type":"Feature","properties":{},"geometry":{"type":"Polygon","coordinates":[[[-22.72,-55.81],[-21.53,-56.23],[-22.99,-56.28],[-22.72,-55.81]]]}},{"type":"Feature","properties":{},"geometry":{"type":"Polygon","coordinates":[[[-22.37,-54.92],[-21.55,-54.87],[-22.51,-55.41],[-21.98,-55.79],[-23.15,-55.67],[-22.46,-55.65],[-23.08,-55.31],[-22.37,-54.92]]]}},{"type":"Feature","properties":{},"geometry":{"type":"Polygon","coordinates":[[[-20.46,-56.37],[-19,-56.14],[-20.12,-55.96],[-18.02,-55.79],[-19.63,-55.52],[-19.23,-54.88],[-20.25,-55.15],[-20.21,-54.67],[-20.64,-54.6],[-19.9,-54.07],[-16.74,-55.02],[-14.31,-55.02],[-15.3,-55.72],[-20.88,-56.58],[-20.46,-56.37]]]}},{"type":"Feature","properties":{},"geometry":{"type":"Polygon","coordinates":[[[-11.31,-50.59],[-11.68,-51.6],[-12.43,-51.62],[-11.64,-51.11],[-12.46,-50.9],[-11.31,-50.59]]]}},{"type":"Feature","properties":{},"geometry":{"type":"Polygon","coordinates":[[[-10.87,-50.43],[-9.59,-50.51],[-10.63,-50.9],[-10.15,-51.15],[-10.92,-51.49],[-10.87,-50.43]]]}},{"type":"Feature","properties":{},"geometry":{"type":"Polygon","coordinates":[[[-26.12,-53.75],[-25.62,-54.04],[-26.25,-54.09],[-26.12,-53.75]]]}},{"type":"Feature","properties":{},"geometry":{"type":"Polygon","coordinates":[[[56.74,-66.56],[56.22,-66.31],[56.67,-66.2],[56.74,-66.56]]]}},{"type":"Feature","properties":{},"geometry":{"type":"Polygon","coordinates":[[[-27.2,-53.26],[-26.62,-53.27],[-27,-53.68],[-27.2,-53.26]]]}},{"type":"Feature","properties":{},"geometry":{"type":"Polygon","coordinates":[[[-27.02,-52.61],[-27.05,-53.12],[-27.65,-52.83],[-27.21,-52.45],[-27.73,-52.08],[-27.27,-51.87],[-26.53,-53.15],[-27.02,-52.61]]]}},{"type":"Feature","properties":{},"geometry":{"type":"Polygon","coordinates":[[[-27.81,-51.39],[-27.32,-51.88],[-27.83,-51.88],[-27.81,-51.39]]]}},{"type":"Feature","properties":{},"geometry":{"type":"Polygon","coordinates":[[[61.27,-71.52],[60.2,-71.2],[61.56,-70.87],[61.27,-71.52]]]}},{"type":"Feature","properties":{},"geometry":{"type":"Polygon","coordinates":[[[-28.64,-48.23],[-28.38,-48.47],[-28.96,-48.49],[-28.64,-48.23]]]}},{"type":"Feature","properties":{},"geometry":{"type":"Polygon","coordinates":[[[-28.16,-47.45],[-27.78,-47.52],[-28.17,-48.03],[-28.48,-47.8],[-28.16,-47.45]]]}},{"type":"Feature","properties":{},"geometry":{"type":"Polygon","coordinates":[[[23.57,-73.54],[22.69,-73.35],[24.3,-73.17],[23.72,-73.41],[24.4,-73.52],[23.57,-73.54]]]}},{"type":"Feature","properties":{},"geometry":{"type":"Polygon","coordinates":[[[-30.32,-45.23],[-29.52,-45.55],[-29.86,-45.92],[-29.36,-46.16],[-29.47,-46.77],[-30.14,-46.72],[-30.32,-45.23]]]}},{"type":"Feature","properties":{},"geometry":{"type":"Polygon","coordinates":[[[60.83,-60.52],[60.53,-61.89],[61.03,-62.12],[60.53,-62.48],[61.09,-62.13],[62.33,-62.85],[62.02,-63.23],[57.08,-63.6],[57.8,-62.9],[55.75,-62.9],[55.99,-62.64],[55.58,-62.29],[56.16,-62.37],[56.56,-61.77],[60.83,-60.52]]]}},{"type":"Feature","properties":{},"geometry":{"type":"Polygon","coordinates":[[[61.53,-68.13],[59.13,-68.33],[59.92,-68.89],[59.01,-68.72],[59.73,-69],[59.51,-69.22],[56,-68.44],[55.64,-66.38],[53.52,-63.75],[54.66,-64.26],[56.32,-66.27],[61.53,-68.13]]]}},{"type":"Feature","properties":{},"geometry":{"type":"Polygon","coordinates":[[[50.06,-76.21],[52.1,-75.65],[51.56,-75.26],[51.98,-75.2],[50.64,-75.04],[55.21,-74.44],[56.22,-72.76],[55.71,-72.8],[57.79,-71.94],[65.22,-71.98],[64.24,-72.21],[65.05,-72.26],[64.14,-72.5],[64.96,-72.76],[64.34,-72.92],[64.64,-73.05],[60.47,-74.63],[54.91,-75.87],[50.06,-76.21]]]}},{"type":"Feature","properties":{},"geometry":{"type":"Polygon","coordinates":[[[65.29,-53.38],[65.04,-53.83],[63.98,-52.93],[64.37,-52.71],[65.29,-53.38]]]}},{"type":"Feature","properties":{},"geometry":{"type":"Polygon","coordinates":[[[78.04,-68.66],[76.54,-68.9],[77.12,-69],[75.62,-69.61],[76.13,-69.79],[70.88,-70.2],[71.22,-70.25],[70.11,-70.76],[72.3,-70.66],[67.85,-71.54],[67.13,-72.04],[68.42,-72.64],[67.73,-73.07],[63.22,-72.39],[62.81,-72.26],[63.59,-72.17],[63.45,-71.65],[60.68,-71.32],[57.29,-69.9],[58.56,-69.38],[61.84,-70.02],[64.51,-69.12],[65.5,-69.81],[67.6,-70.07],[73.01,-69.95],[73.4,-69.52],[72.6,-69.57],[77.83,-68.36],[78.04,-68.66]]]}},{"type":"Feature","properties":{},"geometry":{"type":"Polygon","coordinates":[[[104.22,-59.31],[103.55,-59.64],[103.65,-59.21],[104.22,-59.31]]]}},{"type":"Feature","properties":{},"geometry":{"type":"Polygon","coordinates":[[[102.27,-56.37],[101.58,-59.73],[101,-59.84],[101.06,-57.76],[102.27,-56.37]]]}},{"type":"Feature","properties":{},"geometry":{"type":"Polygon","coordinates":[[[89.98,-39.28],[89.62,-39.92],[89.12,-39.45],[89.98,-39.28]]]}},{"type":"Feature","properties":{},"geometry":{"type":"Polygon","coordinates":[[[23.71,-22.1],[24.42,-20],[25.6,-19.01],[27.38,-19.38],[27.58,-19.82],[27.74,-19.35],[28.44,-19.66],[29.84,-18.95],[30,-18.33],[30.22,-18.69],[30.94,-18.56],[31.32,-17.69],[32.01,-17.52],[32.12,-18.78],[31.36,-21.17],[30.89,-21.51],[30.56,-20.85],[30.09,-22.08],[23.25,-27.84],[21.12,-27.5],[20.51,-26.54],[21.29,-23.79],[23.71,-22.1]]]}},{"type":"Feature","properties":{},"geometry":{"type":"Polygon","coordinates":[[[86.49,-33.29],[86.29,-33.82],[85.82,-33.43],[86.49,-33.29]]]}},{"type":"Feature","properties":{},"geometry":{"type":"Polygon","coordinates":[[[86.68,-33.2],[87.39,-34.2],[86.48,-34.14],[86.68,-33.2]]]}},{"type":"Feature","properties":{},"geometry":{"type":"Polygon","coordinates":[[[63.58,-57.92],[63.08,-57.32],[63.29,-56.39],[65.61,-55.1],[66.1,-54.28],[65.51,-55.21],[65.88,-54.92],[66.11,-54.21],[65.49,-53.74],[67.01,-53.69],[67.69,-53.03],[66.04,-53.25],[65.22,-52.68],[68.44,-52.65],[69.88,-51.92],[69.1,-52.24],[65.7,-51.66],[65.05,-51.91],[65.1,-51.1],[65.32,-51.4],[66.03,-50.9],[67.5,-48.81],[66.62,-47.7],[66.63,-46.65],[62.4,-43.39],[60.45,-42.5],[58.96,-42.47],[56.83,-39.87],[54.49,-39.14],[53.74,-37.63],[53.97,-36.53],[56.4,-36.04],[58.66,-33.96],[60.71,-30.67],[60.54,-31.34],[61.52,-30.54],[60.99,-31.52],[61.56,-31.39],[62.44,-29.8],[64.28,-28.84],[65.24,-28.67],[64.67,-29.18],[68.23,-29.83],[68.64,-30.55],[72.1,-32.29],[74.32,-32.28],[74.93,-31.58],[76.26,-31.54],[75.65,-32.82],[76.63,-32.59],[76.46,-32.13],[76.93,-31.85],[77.78,-32.98],[77.42,-32.56],[78.33,-32.39],[77.79,-32.4],[78.13,-32.04],[78.59,-32.03],[78.75,-32.71],[78.79,-32.08],[79.31,-32.56],[79.39,-32.01],[80.19,-31.99],[80.09,-32.51],[80.78,-32.07],[80.65,-32.45],[81.61,-32.56],[81.88,-33.08],[81.83,-34.2],[80.73,-34.56],[82.04,-34.42],[82.49,-35.48],[83.29,-35.16],[83.1,-34.71],[85.36,-34.24],[85.65,-34.55],[85.78,-34.21],[85.87,-34.67],[86.68,-34.44],[87.84,-35.55],[88.27,-35.12],[87.69,-34.26],[88.04,-34.26],[89.08,-36.48],[89.74,-36.74],[89.86,-37.35],[90.77,-37.52],[90.33,-37.52],[90.79,-37.69],[90.4,-37.98],[91.43,-37.9],[91.4,-38.51],[90.53,-38.79],[89.62,-38.48],[88.78,-39.13],[87.42,-38.93],[87.79,-39.63],[87.31,-39.61],[87.8,-39.68],[88.14,-40.75],[87.64,-40.72],[88.23,-41.07],[89.04,-44.04],[89.75,-44.69],[93.29,-43.79],[94.28,-42.6],[96.03,-41.99],[95.58,-41.71],[98.13,-40.89],[97.27,-43.17],[96.1,-44.48],[97.06,-44.79],[97.19,-45.92],[95.81,-47.06],[95.94,-47.75],[94.23,-49.39],[95.44,-52.01],[94.84,-52.29],[94.75,-53.41],[93.65,-54.26],[94.1,-54.23],[94.05,-54.59],[94.66,-54.2],[94.69,-54.96],[95.11,-54.77],[93.94,-55.7],[93.63,-55.32],[93.82,-56.5],[94.29,-56.66],[93.67,-58],[93.93,-58.28],[93.07,-58.85],[93.37,-58.92],[91.18,-59.71],[89.83,-61.01],[82.17,-62.52],[80.71,-62.11],[79.11,-62.31],[78.74,-61.89],[78.93,-62.28],[78.49,-62.38],[73.9,-62.43],[70.25,-63.14],[67.95,-61.6],[65.41,-60.89],[64.68,-61.2],[65.19,-60.23],[65.82,-60.19],[65,-59.89],[65.17,-59.62],[66.25,-59.62],[63.53,-59.04],[63.58,-57.92]]]}},{"type":"Feature","properties":{},"geometry":{"type":"Polygon","coordinates":[[[97.21,-35.99],[97.36,-36.33],[96.65,-36.58],[95.82,-35.84],[97.21,-35.99]]]}},{"type":"Feature","properties":{},"geometry":{"type":"Polygon","coordinates":[[[127.29,12.08],[127.05,11.54],[126.2,11.31],[127.29,12.08]]]}},{"type":"Feature","properties":{},"geometry":{"type":"Polygon","coordinates":[[[93.92,-32.1],[93.95,-32.62],[93.38,-32.67],[93.92,-32.1]]]}},{"type":"Feature","properties":{},"geometry":{"type":"Polygon","coordinates":[[[94.48,-32.19],[94.2,-32.52],[94.07,-32.1],[94.48,-32.19]]]}},{"type":"Feature","properties":{},"geometry":{"type":"Polygon","coordinates":[[[119.76,9.14],[121.92,9.93],[122.56,9.63],[124.11,10.3],[124.31,11.06],[125.99,11.42],[126.73,10.9],[128.12,11.48],[128.59,10.75],[120.84,8.02],[120.73,8.43],[119.5,8],[119.76,9.14]]]}},{"type":"Feature","properties":{},"geometry":{"type":"Polygon","coordinates":[[[94.7,-31.81],[94.61,-32.3],[94.19,-32.05],[94.7,-31.81]]]}},{"type":"Feature","properties":{},"geometry":{"type":"Polygon","coordinates":[[[120.33,12.92],[120.92,12.94],[120.92,12.43],[120.56,12.25],[120.33,12.92]]]}},{"type":"Feature","properties":{},"geometry":{"type":"Polygon","coordinates":[[[118.12,12.58],[119.02,12.09],[119.57,12.3],[119.79,11.83],[117.87,11.65],[118.12,12.58]]]}},{"type":"Feature","properties":{},"geometry":{"type":"Polygon","coordinates":[[[105.85,-40.42],[105.82,-43.29],[106.64,-43.64],[106.18,-43.99],[106.95,-44.62],[106.46,-44.77],[107.45,-45.52],[106.75,-45.31],[106.93,-45.7],[104.25,-43.6],[103.77,-40.71],[102.8,-39.56],[102.12,-39.61],[101.96,-38.86],[101.74,-39.65],[101.15,-39.15],[101.23,-39.65],[99.78,-38.74],[100.55,-39.51],[100.38,-40.11],[97.95,-38.88],[97.68,-37.35],[98.12,-37.21],[96.67,-36.76],[97.39,-36.34],[97.25,-35.77],[98.2,-36.36],[97.32,-35.5],[97.93,-35.96],[97.67,-34.94],[98.16,-34.52],[97.82,-34.25],[98.07,-33.33],[97.75,-33.44],[95.97,-30.9],[100.78,-34.23],[105.85,-40.42]]]}},{"type":"Feature","properties":{},"geometry":{"type":"Polygon","coordinates":[[[115.34,13.92],[115.62,13.6],[115.15,13.57],[115.34,13.92]]]}},{"type":"Feature","properties":{},"geometry":{"type":"Polygon","coordinates":[[[-3.58,-5.22],[-3.71,-5.62],[-3.96,-5.4],[-3.58,-5.22]]]}},{"type":"Feature","properties":{},"geometry":{"type":"Polygon","coordinates":[[[106.09,11.49],[107.92,12.44],[109.16,11.9],[114.1,12.16],[116.62,8.14],[113.97,9.28],[112.32,9.46],[111.15,10.42],[106.5,10.81],[105.88,11.23],[106.09,11.49]]]}},{"type":"Feature","properties":{},"geometry":{"type":"Polygon","coordinates":[[[113.76,12.26],[114.65,12.4],[114.47,11.96],[115.24,12.65],[115.61,11.64],[116.6,12.02],[117.85,11],[118.45,11.7],[119.19,11.48],[120.71,8.98],[120.08,9.08],[120.2,8.72],[119.52,8.56],[119.78,8.25],[115.96,8.58],[113.76,12.26]]]}},{"type":"Feature","properties":{},"geometry":{"type":"Polygon","coordinates":[[[122.95,25.62],[123.14,25.24],[123.27,25.81],[124.12,25.59],[124.76,25],[126.18,25.36],[125.34,24.4],[126.06,24.26],[125.08,23.73],[125.63,23.15],[124.94,22.76],[125.57,22.95],[125.2,22.75],[126.62,22.12],[126.62,21.58],[128.14,21.31],[127.02,20.97],[127.7,19.15],[127,18.5],[126.87,17.62],[127.21,17.61],[126.97,17.13],[127.49,17.28],[127.35,15.66],[126.58,14.76],[126.09,15.46],[125.32,14.93],[124.51,15.11],[123.78,14],[123.24,14.59],[122.07,13.71],[120.85,15.22],[120.09,15.09],[120.28,15.34],[119.13,15.94],[118.66,17.54],[120.8,18.01],[120.37,18.06],[120.18,19.26],[121.4,20.45],[121.54,22.16],[122.7,23.12],[122.43,23.55],[122.95,25.62]]]}},{"type":"Feature","properties":{},"geometry":{"type":"Polygon","coordinates":[[[24.87,-32.17],[22.27,-33.8],[20.82,-33.61],[20.25,-32.62],[20.66,-32.07],[22.83,-31.72],[24.87,-32.17]]]}},{"type":"Feature","properties":{},"geometry":{"type":"Polygon","coordinates":[[[-31.7,7.55],[-31.55,6.86],[-32.43,6.58],[-32.03,6.93],[-32.32,7.29],[-31.7,7.55]]]}},{"type":"Feature","properties":{},"geometry":{"type":"Polygon","coordinates":[[[-49.2,-13.98],[-48.31,-15.14],[-49.68,-14.34],[-49.2,-13.98]]]}},{"type":"Feature","properties":{},"geometry":{"type":"Polygon","coordinates":[[[-52.18,-9.22],[-50.43,-11.27],[-50.12,-12.08],[-50.61,-11.93],[-50.02,-13.12],[-50.53,-13.21],[-52.15,-11.55],[-52.91,-11.81],[-52.9,-10.93],[-54.3,-9.86],[-54.44,-9.24],[-54.05,-9.17],[-52.89,-10.53],[-52.46,-9.64],[-52.8,-8.97],[-52.18,-9.22]]]}},{"type":"Feature","properties":{},"geometry":{"type":"Polygon","coordinates":[[[116.16,29.33],[117.16,29.5],[116.91,28.25],[115.98,27.52],[115,27.74],[114.85,28.6],[116.16,29.33]]]}},{"type":"Feature","properties":{},"geometry":{"type":"Polygon","coordinates":[[[-49.4,-7.91],[-48.37,-9.72],[-47.12,-15.5],[-49.61,-13.11],[-48.64,-12.92],[-49.12,-12.24],[-48.77,-11.25],[-50.09,-8.67],[-49.73,-8.31],[-52.09,-6.51],[-51.6,-6.92],[-50.89,-6.7],[-49.4,-7.91]]]}},{"type":"Feature","properties":{},"geometry":{"type":"Polygon","coordinates":[[[139.16,46.87],[140.12,46.51],[139.85,46.14],[140.46,45.73],[139.27,44.27],[138.39,43.98],[138.68,44.66],[138.33,44.15],[137.81,44.46],[138.69,45.75],[138.27,46.21],[138.35,45.69],[137.59,45.65],[137.61,46.17],[137.97,45.89],[137.52,46.42],[139.16,46.87]]]}},{"type":"Feature","properties":{},"geometry":{"type":"Polygon","coordinates":[[[143.25,46.88],[143.83,46.29],[143.02,45.77],[142.13,46.07],[141.12,45.55],[140.98,46.21],[140.48,46.15],[141.69,46.81],[143.25,46.88]]]}},{"type":"Feature","properties":{},"geometry":{"type":"Polygon","coordinates":[[[18.74,18.35],[20.35,17.03],[19.1,17.45],[18.44,18.22],[18.74,18.35]]]}},{"type":"Feature","properties":{},"geometry":{"type":"Polygon","coordinates":[[[23.69,13.21],[22.83,13.4],[22.19,14.09],[22.29,14.69],[22.99,14.42],[23.69,13.21]]]}},{"type":"Feature","properties":{},"geometry":{"type":"Polygon","coordinates":[[[14.36,24.16],[13,23.05],[11.79,25.19],[12.25,25.38],[14.36,24.16]]]}},{"type":"Feature","properties":{},"geometry":{"type":"Polygon","coordinates":[[[20.33,21.5],[20.6,20.14],[19.84,21.57],[20.33,21.5]]]}},{"type":"Feature","properties":{},"geometry":{"type":"Polygon","coordinates":[[[30.44,37.37],[30.86,37.14],[30.09,37.02],[30.44,37.37]]]}},{"type":"Feature","properties":{},"geometry":{"type":"Polygon","coordinates":[[[9.38,28.05],[9.34,27.35],[8.7,27.56],[9.38,28.05]]]}},{"type":"Feature","properties":{},"geometry":{"type":"Polygon","coordinates":[[[12.92,31.72],[12.69,31.21],[11.07,30.54],[10.19,31.01],[12.15,32.28],[12.92,31.72]]]}},{"type":"Feature","properties":{},"geometry":{"type":"Polygon","coordinates":[[[143.44,47.21],[141.09,47.11],[140.72,46.62],[139.22,46.88],[139.45,47.36],[142.25,48.25],[145.87,47.91],[147.14,49.48],[147.9,49.52],[147.19,49.21],[147.52,48.79],[149.29,49.21],[151.3,50.52],[151.91,52.18],[152.72,52.73],[153.52,52.22],[153.76,52.6],[153.19,52.54],[153.52,52.91],[154.15,52.71],[153.83,51.94],[154.14,50.69],[153.1,49.61],[152.28,49.5],[152.06,48.46],[151.34,47.82],[151.55,47.23],[150.81,46.78],[150.03,46.66],[150.5,47.33],[148.77,46.53],[148.89,46.98],[148.13,46.55],[146.69,46.7],[147.14,46.85],[146.46,47.22],[146.13,46.8],[146.48,46.42],[144.69,45.86],[144.21,46.29],[144.88,47.04],[143.44,47.21]]]}},{"type":"Feature","properties":{},"geometry":{"type":"Polygon","coordinates":[[[14.84,32.4],[13.01,31.81],[13.82,32.69],[14.84,32.4]]]}},{"type":"Feature","properties":{},"geometry":{"type":"Polygon","coordinates":[[[159.22,48.94],[159.54,48.89],[158.02,48.43],[159.22,48.94]]]}},{"type":"Feature","properties":{},"geometry":{"type":"Polygon","coordinates":[[[155.19,50.9],[156.99,48.9],[158.2,49.05],[157.67,48.6],[157.81,47.99],[156.06,47.95],[155.04,47.28],[152.46,48.37],[152.49,49.14],[153.63,48.91],[155.19,50.9]]]}},{"type":"Feature","properties":{},"geometry":{"type":"Polygon","coordinates":[[[153.55,53.97],[153.03,53.7],[153.95,53.12],[152.46,52.93],[152.6,54.13],[153.55,53.97]]]}},{"type":"Feature","properties":{},"geometry":{"type":"Polygon","coordinates":[[[-9.89,30.21],[-9.66,29.52],[-10.12,28.84],[-9.62,29.56],[-9.09,29.27],[-10.18,28.67],[-10.49,29.12],[-9.89,30.21]]]}},{"type":"Feature","properties":{},"geometry":{"type":"Polygon","coordinates":[[[-12.55,29.62],[-12.3,29.21],[-10.91,29.47],[-11.4,28.86],[-12.57,29.14],[-12.55,29.62]]]}},{"type":"Feature","properties":{},"geometry":{"type":"Polygon","coordinates":[[[-13.31,32.62],[-11.26,32.13],[-12.77,32.13],[-13.31,32.62]]]}},{"type":"Feature","properties":{},"geometry":{"type":"Polygon","coordinates":[[[-68.53,0.29],[-66.81,0.02],[-65.26,-1.51],[-66.38,-1.48],[-66.21,-0.97],[-66.62,-1.38],[-67.34,-1.04],[-67.12,-0.68],[-68.33,-0.45],[-68.09,0.08],[-68.46,-0.14],[-68.53,0.29]]]}},{"type":"Feature","properties":{},"geometry":{"type":"Polygon","coordinates":[[[-6.51,33.04],[-5.93,33.57],[-5.08,33.43],[-5.39,32.47],[-4.54,32.87],[-5.16,32.31],[-4.74,31.71],[-4.28,32.41],[-4.06,30.95],[-4.46,30.86],[-4.56,31.44],[-4.96,30.95],[-5.16,32],[-6.17,30.73],[-5.81,31.81],[-6.2,31.29],[-6.68,31.3],[-6.49,31.81],[-7.19,31.23],[-9.11,30.96],[-6.51,33.04]]]}},{"type":"Feature","properties":{},"geometry":{"type":"Polygon","coordinates":[[[-7.58,35.36],[-7.21,35.19],[-7.65,35.04],[-7.31,34.86],[-7.84,33.38],[-6.86,33.84],[-7.23,33.32],[-6.44,33.44],[-6.51,33.04],[-9.11,31.1],[-8.53,31.98],[-9.27,31.87],[-8.77,32.59],[-8.36,32.48],[-8.73,32.77],[-8.34,32.98],[-8.46,34.24],[-7.58,35.36]]]}},{"type":"Feature","properties":{},"geometry":{"type":"Polygon","coordinates":[[[-26.53,34.48],[-25.99,33.98],[-27.01,34.24],[-26.53,34.48]]]}},{"type":"Feature","properties":{},"geometry":{"type":"Polygon","coordinates":[[[-71.1,2.39],[-70.61,1.29],[-71.54,2.18],[-71.1,2.39]]]}},{"type":"Feature","properties":{},"geometry":{"type":"Polygon","coordinates":[[[-71.9,3.25],[-71.38,3.13],[-71.52,2.66],[-71.09,3.31],[-71.33,2.26],[-71.9,3.25]]]}},{"type":"Feature","properties":{},"geometry":{"type":"Polygon","coordinates":[[[161.26,59.02],[160.8,57.51],[159.76,56.54],[160.06,56.66],[159.75,53.27],[159.34,54],[158.16,54.1],[156.96,52.93],[157.37,51.35],[156.99,51.06],[157.11,51.55],[156.59,51.91],[155.52,51.22],[156.75,54.01],[158.57,56.16],[158.34,56.85],[159.61,58.36],[160.57,58.28],[160.69,59.1],[161.26,59.02]]]}},{"type":"Feature","properties":{},"geometry":{"type":"Polygon","coordinates":[[[-87.84,8.19],[-87.75,7.64],[-88.73,8.09],[-87.84,8.19]]]}},{"type":"Feature","properties":{},"geometry":{"type":"Polygon","coordinates":[[[166.7,72.91],[167.49,72.74],[165.45,72.6],[166.7,72.91]]]}},{"type":"Feature","properties":{},"geometry":{"type":"Polygon","coordinates":[[[-3.23,37.69],[-2.43,38.17],[-3.37,37.84],[-2.83,38.66],[-3.85,38.62],[-3.52,39.1],[-4.1,39.43],[-2.92,39.68],[-2.8,40.16],[-3.32,40.09],[-2.56,40.98],[-2.17,40.92],[-2.4,40.55],[-1.54,41.03],[-0.79,40.47],[-1.33,40],[-1.03,39.56],[-3.23,37.69]]]}},{"type":"Feature","properties":{},"geometry":{"type":"Polygon","coordinates":[[[-1.92,37.48],[-2.86,36.8],[-2.72,37.13],[-3.21,36.9],[-2.85,37.26],[-3.46,37.08],[-3.09,37.48],[-3.63,37.39],[-1.03,39.56],[-0.57,38.11],[-1.92,37.48]]]}},{"type":"Feature","properties":{},"geometry":{"type":"Polygon","coordinates":[[[10.21,44.72],[10.73,44.31],[9.7,44.49],[10.21,44.72]]]}},{"type":"Feature","properties":{},"geometry":{"type":"Polygon","coordinates":[[[-72.51,27.03],[-72.3,26.3],[-72.51,26.73],[-72.74,26.47],[-72.51,27.03]]]}},{"type":"Feature","properties":{},"geometry":{"type":"Polygon","coordinates":[[[11.35,45.63],[11.75,44.51],[10.45,44.96],[10.97,45.38],[11.38,45.15],[11.03,45.38],[11.35,45.63]]]}},{"type":"Feature","properties":{},"geometry":{"type":"Polygon","coordinates":[[[-72.38,5.39],[-71.35,3.8],[-72.1,4.34],[-72.38,5.39]]]}},{"type":"Feature","properties":{},"geometry":{"type":"Polygon","coordinates":[[[-25.38,37.98],[-25.08,37.68],[-25.65,37.11],[-25.38,37.98]]]}},{"type":"Feature","properties":{},"geometry":{"type":"Polygon","coordinates":[[[-2.78,43.37],[-2.27,42.77],[-2.98,43.02],[-2.78,43.37]]]}},{"type":"Feature","properties":{},"geometry":{"type":"Polygon","coordinates":[[[14.84,48.74],[15.25,48.38],[15.01,47.72],[14.57,48.27],[14.84,48.74]]]}},{"type":"Feature","properties":{},"geometry":{"type":"Polygon","coordinates":[[[-72.75,3.9],[-72.52,2.98],[-73.22,3.56],[-72.75,3.9]]]}},{"type":"Feature","properties":{},"geometry":{"type":"Polygon","coordinates":[[[-73.18,7.31],[-72.59,6.49],[-72.97,6.02],[-73.18,7.31]]]}},{"type":"Feature","properties":{},"geometry":{"type":"Polygon","coordinates":[[[-3.09,44.14],[-3.24,43.28],[-3.51,43.75],[-3.09,44.14]]]}},{"type":"Feature","properties":{},"geometry":{"type":"Polygon","coordinates":[[[17.02,50.34],[17.66,50.39],[17.15,49.57],[16.57,50.05],[17.02,50.34]]]}},{"type":"Feature","properties":{},"geometry":{"type":"Polygon","coordinates":[[[-1.16,44.78],[-0.86,44.56],[-1.54,43.9],[-1.08,43.96],[-1.38,43.48],[-1.05,43.71],[-1.45,42.65],[-2.29,42.44],[-1.86,42.96],[-2.49,43.6],[-1.96,43.69],[-2.29,44.46],[-1.16,44.78]]]}},{"type":"Feature","properties":{},"geometry":{"type":"Polygon","coordinates":[[[-1.05,43.71],[0.4,44.08],[0.38,42.96],[-0.11,42.64],[0.48,42.67],[-0.35,42.29],[0.96,42.42],[1.68,41.96],[-0.52,40.72],[-0.72,42],[-1.02,42.22],[-1.27,41.79],[-1.17,42.25],[-1.39,41.18],[-1.71,42.15],[-1.05,43.71]]]}},{"type":"Feature","properties":{},"geometry":{"type":"Polygon","coordinates":[[[1.68,41.96],[3.27,41.13],[3.67,40.68],[2.99,40.61],[3.73,40.57],[3.87,39.99],[5.2,40.18],[5.39,39.55],[4.74,38.69],[5.65,38.64],[0.72,36.17],[1.39,37.55],[2.3,37.81],[2.57,38.49],[1.99,37.9],[0.31,38.03],[1.07,38.91],[0.84,39.23],[0.37,38.98],[0.55,39.37],[1.65,39.85],[0.52,41.09],[1.68,41.96]]]}},{"type":"Feature","properties":{},"geometry":{"type":"Polygon","coordinates":[[[16.65,50.75],[17.19,50.65],[16.39,50.47],[16.65,50.75]]]}},{"type":"Feature","properties":{},"geometry":{"type":"Polygon","coordinates":[[[14.12,51.2],[14.29,50.94],[13.67,51.09],[14.12,51.2]]]}},{"type":"Feature","properties":{},"geometry":{"type":"Polygon","coordinates":[[[-16.82,44.05],[-16.59,43.7],[-17.1,43.93],[-16.82,44.05]]]}},{"type":"Feature","properties":{},"geometry":{"type":"Polygon","coordinates":[[[-26.24,43.69],[-26.39,42.88],[-26.72,43.29],[-26.24,43.69]]]}},{"type":"Feature","properties":{},"geometry":{"type":"Polygon","coordinates":[[[-28.1,44.19],[-27.88,43.92],[-28.94,43.29],[-28.91,43.99],[-28.1,44.19]]]}},{"type":"Feature","properties":{},"geometry":{"type":"Polygon","coordinates":[[[-54.92,71.24],[-58.68,70.55],[-58.25,70.77],[-58.65,70.97],[-55.92,71.51],[-54.92,71.24]]]}},{"type":"Feature","properties":{},"geometry":{"type":"Polygon","coordinates":[[[-30.36,47.02],[-29.95,46.33],[-29.71,46.6],[-28.01,45.76],[-28.04,45.18],[-26.87,45.04],[-27.4,44.68],[-28.74,45.34],[-30.11,44.2],[-30.34,44.85],[-31.25,44.67],[-30.64,45.17],[-30.36,47.02]]]}},{"type":"Feature","properties":{},"geometry":{"type":"Polygon","coordinates":[[[41.07,70.63],[41.71,70.51],[40.88,70.24],[41.07,70.63]]]}},{"type":"Feature","properties":{},"geometry":{"type":"Polygon","coordinates":[[[-25.14,49.79],[-24.6,49.66],[-24.54,48.94],[-25.55,48.65],[-25.69,49.49],[-25.14,49.79]]]}},{"type":"Feature","properties":{},"geometry":{"type":"Polygon","coordinates":[[[3.51,57.66],[4.35,57.48],[3.77,56.93],[3.51,57.66]]]}},{"type":"Feature","properties":{},"geometry":{"type":"Polygon","coordinates":[[[-37.66,69.5],[-43.5,69.6],[-46.85,70.39],[-47.36,70.18],[-45.19,69.91],[-47.74,69.2],[-51.1,69.15],[-50.93,69.6],[-51.49,69.75],[-50.28,69.88],[-51.44,69.99],[-49.43,70.41],[-51.48,70.56],[-51.24,71.11],[-52.94,71.05],[-52.11,71.23],[-52.58,71.43],[-51.5,71.28],[-51.9,71.56],[-47.12,71.48],[-44.47,72.11],[-42.84,71.37],[-41.99,71.84],[-43.59,72.34],[-42.47,72.29],[-37.26,69.48],[-37.66,69.5]]]}},{"type":"Feature","properties":{},"geometry":{"type":"Polygon","coordinates":[[[3.12,57.6],[3.5,57.2],[3.01,57.16],[3.12,57.6]]]}},{"type":"Feature","properties":{},"geometry":{"type":"Polygon","coordinates":[[[21.97,65.93],[22.87,65.57],[22.2,65.14],[21.24,65.7],[21.97,65.93]]]}},{"type":"Feature","properties":{},"geometry":{"type":"Polygon","coordinates":[[[4,58.48],[4.52,58.31],[4.22,57.97],[3.69,58.23],[4,58.48]]]}},{"type":"Feature","properties":{},"geometry":{"type":"Polygon","coordinates":[[[-37.22,50.81],[-36.03,49.9],[-36.83,49.51],[-38.41,50.01],[-37.54,50.97],[-37.22,50.81]]]}},{"type":"Feature","properties":{},"geometry":{"type":"Polygon","coordinates":[[[-25.22,69.74],[-26.37,69.89],[-24.69,69.96],[-25.22,69.74]]]}},{"type":"Feature","properties":{},"geometry":{"type":"Polygon","coordinates":[[[-14.71,48.26],[-13.46,47.74],[-14.66,47.38],[-14.2,47.46],[-15.07,47.64],[-14.71,48.26]]]}},{"type":"Feature","properties":{},"geometry":{"type":"Polygon","coordinates":[[[24.87,69.13],[27.38,69.09],[25.52,68.77],[24.87,69.13]]]}},{"type":"Feature","properties":{},"geometry":{"type":"Polygon","coordinates":[[[5.48,60.71],[5.59,60.36],[4.96,60.27],[5.48,60.71]]]}},{"type":"Feature","properties":{},"geometry":{"type":"Polygon","coordinates":[[[-1.14,51.6],[-0.7,51.3],[-1.95,50.74],[-1.14,51.6]]]}},{"type":"Feature","properties":{},"geometry":{"type":"Polygon","coordinates":[[[-34.45,67.85],[-33.97,68.07],[-33.6,67.65],[-34.45,67.85]]]}},{"type":"Feature","properties":{},"geometry":{"type":"Polygon","coordinates":[[[-34.69,67.04],[-36.36,67.23],[-34.73,67.72],[-34.1,67.22],[-34.69,67.04]]]}},{"type":"Feature","properties":{},"geometry":{"type":"Polygon","coordinates":[[[-13.47,29.65],[-12.47,28.76],[-11.13,28.54],[-10.74,28.92],[-9.87,28.49],[-12.34,27.31],[-13.06,26.07],[-13.63,26.28],[-13.8,26.96],[-12.64,28.04],[-12.33,27.7],[-11.74,28.22],[-12.99,27.98],[-12.81,28.67],[-15.47,26.52],[-16.07,26.66],[-16.11,26.14],[-16.92,25.82],[-17.34,24.34],[-16.68,23.82],[-16.52,24.18],[-16.38,23.71],[-17.34,23.49],[-17.54,23.82],[-17.56,23.37],[-18.22,23.21],[-16.58,26.77],[-13.47,29.65]]]}},{"type":"Feature","properties":{},"geometry":{"type":"Polygon","coordinates":[[[-10.62,-27.29],[-11.73,-30.77],[-12.57,-32.01],[-11.71,-30],[-12.55,-29.73],[-12.24,-30.03],[-12.86,-31.63],[-12.78,-33.05],[-13.67,-34.9],[-15.51,-35.65],[-17.31,-35.63],[-18.12,-35.14],[-18.05,-34.18],[-18.37,-34.44],[-18,-35.75],[-16.36,-36.26],[-16.04,-37.1],[-24.46,-36.56],[-26.37,-36.14],[-32.92,-29.75],[-33.6,-27.94],[-33.58,-26.06],[-34.57,-23.66],[-21.5,-26.77],[-10.62,-27.29]]]}},{"type":"Feature","properties":{},"geometry":{"type":"Polygon","coordinates":[[[-19.76,-39.61],[-20.39,-39.53],[-19.76,-40.03],[-20.09,-40.03],[-19.47,-41.57],[-22.12,-42.17],[-21.48,-43.33],[-20.78,-43.53],[-20.27,-43.01],[-19.83,-43.63],[-21.17,-43.86],[-20.38,-44],[-21.03,-44.88],[-20.59,-46.13],[-21.83,-46.84],[-22,-47.75],[-19.44,-48.6],[-19.27,-49.19],[-20.31,-50.46],[-20.05,-51.43],[-20.8,-51.48],[-20.38,-51.7],[-20.82,-52.24],[-20.23,-53.32],[-18.98,-53.71],[-19.87,-53.78],[-21.09,-54.68],[-20.62,-55.83],[-22.15,-55.68],[-21.4,-55.61],[-21.22,-54.89],[-21.87,-54.69],[-23.17,-54.98],[-22.89,-55.46],[-23.37,-55.57],[-23.65,-55.41],[-23.16,-55.01],[-23.86,-55.39],[-24.36,-54.76],[-23.35,-54.77],[-23.46,-54.44],[-23.06,-54.62],[-23.31,-54.95],[-22.89,-54.86],[-23.28,-54.2],[-24.25,-53.86],[-23.38,-54.19],[-24.23,-54.22],[-23.66,-54.39],[-23.82,-54.69],[-24.29,-54.31],[-23.84,-54.78],[-24.81,-54.42],[-24.48,-54.34],[-24.83,-53.96],[-25.59,-53.85],[-24.91,-53.42],[-25.29,-53.2],[-25.44,-53.74],[-25.71,-53.29],[-26.51,-53.3],[-25.62,-53.18],[-26.5,-52.68],[-25.8,-52.6],[-26.54,-52.1],[-26.43,-52.55],[-26.75,-52.48],[-27.14,-51.94],[-26.79,-51.79],[-27.21,-51.75],[-26.81,-51.45],[-27.82,-51.26],[-26.43,-50.93],[-27.15,-50.61],[-28.05,-51.01],[-27.55,-50.75],[-28.02,-50.67],[-27.69,-50.31],[-28.15,-49.99],[-29.56,-50.37],[-29.13,-49.23],[-28.49,-49.07],[-27.81,-49.73],[-27.63,-48.7],[-28.08,-48.57],[-27.41,-48.39],[-28.25,-48.34],[-27.67,-47.46],[-28.55,-47.32],[-28.89,-45.67],[-28.58,-45.63],[-29.02,-45.46],[-28.48,-45.53],[-29.24,-45.1],[-28.84,-44.57],[-30.19,-45.16],[-30.93,-43.5],[-30.68,-42.79],[-32.03,-40.96],[-31.59,-40.62],[-31.4,-36.96],[-32.92,-32.44],[-33.09,-28.51],[-28.61,-32.5],[-24.64,-37.01],[-19.76,-39.61]]]}},{"type":"Feature","properties":{},"geometry":{"type":"Polygon","coordinates":[[[-38.65,5.83],[-36.73,6.28],[-35.5,5.93],[-34.19,6.66],[-34.83,6.7],[-32.52,7.29],[-33.48,6.85],[-32.78,6.27],[-31.28,6.23],[-31.21,5.34],[-30.3,5.55],[-28.76,4.89],[-28.45,3.74],[-28.23,4.26],[-26.88,3.46],[-24.88,4.1],[-22.71,4.02],[-20.76,3.08],[-20.04,1.55],[-18.85,0.73],[-19.92,-1.46],[-19.35,-0.83],[-19.54,-1.57],[-19.04,-0.86],[-17,-0.62],[-17.21,-1.84],[-18.63,-2.65],[-17.58,-2.18],[-17.59,-2.65],[-16.7,-1.75],[-16.48,-0.76],[-15.4,-0.68],[-13.81,-0.95],[-13.73,-1.37],[-13.34,-0.95],[-13.01,-1.21],[-13.06,-1.75],[-12.65,-1.73],[-12.84,-2.77],[-12.56,-1.87],[-12.39,-2.21],[-11.69,-1.51],[-10.46,-1.74],[-8.25,-1.28],[-5.05,-2.72],[-3.09,-2.84],[-2.14,-5.21],[-4.21,-10.35],[-4.63,-10.9],[-4.9,-10.56],[-4.15,-15.58],[-4.91,-20.19],[-5.65,-21.37],[-7.96,-21.83],[-10.99,-25.1],[-11.52,-25.13],[-11.09,-25.24],[-11.41,-25.91],[-11.06,-25.9],[-10.68,-27.79],[-21.57,-26.95],[-34.52,-23.45],[-36.08,-22.1],[-41.13,-20.43],[-45.51,-14.74],[-46.82,-13.45],[-48.08,-12.98],[-47.91,-12.42],[-48.55,-11.25],[-47.53,-10.19],[-47.34,-9.3],[-47.63,-9.09],[-47.85,-9.57],[-48.7,-9.16],[-48.33,-6.1],[-47.34,-5.5],[-47.16,-4.53],[-43.14,-1.69],[-42.31,1.96],[-39.84,5.28],[-38.65,5.83]]]}},{"type":"Feature","properties":{},"geometry":{"type":"Polygon","coordinates":[[[-47.94,1.16],[-47.05,0.48],[-47.31,1.09],[-46.16,2.14],[-46.02,3.57],[-44.17,4.35],[-42.79,5.76],[-42.19,5.44],[-42.93,4.82],[-42.42,4.04],[-42.82,3.07],[-42.28,2.39],[-41.72,3.15],[-42.45,4.13],[-41.06,5.01],[-41.15,5.76],[-40.64,5.1],[-39.19,4.75],[-40.36,3.96],[-42.95,0.74],[-43.92,-2.88],[-48.05,-5.55],[-46.69,-3.51],[-47.25,-3.29],[-47.4,-0.94],[-48.29,-0.18],[-47.94,1.16]]]}},{"type":"Feature","properties":{},"geometry":{"type":"Polygon","coordinates":[[[-16.54,-36.39],[-15.75,-36.93],[-16.09,-38.29],[-19.82,-40.22],[-24.27,-38.03],[-26.8,-35.56],[-16.54,-36.39]]]}},{"type":"Feature","properties":{},"geometry":{"type":"Polygon","coordinates":[[[-60.33,18.14],[-59.99,18.07],[-60.06,18.63],[-60.7,18.62],[-61.53,21.01],[-60.55,21.6],[-59.19,20.76],[-57.4,17.63],[-57,16.22],[-57.29,15.12],[-60.33,18.14]]]}},{"type":"Feature","properties":{},"geometry":{"type":"Polygon","coordinates":[[[-61.53,21.01],[-61.12,22.23],[-61.36,23.56],[-60.49,26.88],[-60.08,26.88],[-60.53,26.92],[-60.14,27.58],[-60.51,27.59],[-60.73,29.08],[-59.27,28.68],[-59.53,27.57],[-58.93,27.98],[-59.16,29.33],[-58.43,29.66],[-58.34,28.23],[-56.93,28.05],[-56.13,26.87],[-54.38,26.6],[-54.51,25.4],[-61.53,21.01]]]}},{"type":"Feature","properties":{},"geometry":{"type":"Polygon","coordinates":[[[-64.41,-0.25],[-65.13,-0.81],[-65.43,0],[-65.29,-0.45],[-65.71,-0.62],[-65.73,0.09],[-65.95,-0.42],[-66.38,-0.18],[-66.13,0.33],[-66.59,0.07],[-66.24,0.78],[-66.67,0.96],[-66.65,0.12],[-67.37,0.11],[-67.03,0.74],[-67.33,0.27],[-67.44,0.82],[-68.13,0.4],[-67.71,0.74],[-68.42,0.75],[-67.82,1.38],[-68.45,0.95],[-68.57,1.32],[-68.18,1.8],[-67.84,1.49],[-68.07,1.81],[-67.7,2],[-68.27,2],[-65.3,0.81],[-64.41,-0.25]]]}},{"type":"Feature","properties":{},"geometry":{"type":"Polygon","coordinates":[[[-68.16,2.18],[-68.91,1.64],[-68.69,2.17],[-69.13,2.41],[-68.16,2.18]]]}},{"type":"Feature","properties":{},"geometry":{"type":"Polygon","coordinates":[[[-54.98,16.35],[-55.1,15.81],[-57.06,15.57],[-57.11,16.93],[-58.81,20.22],[-60.55,21.6],[-58.56,23.13],[-54.88,24.93],[-54.38,26.6],[-53.86,26.58],[-53.18,26.34],[-54.98,16.35]]]}},{"type":"Feature","properties":{},"geometry":{"type":"Polygon","coordinates":[[[-55.07,16.26],[-54.94,15.6],[-57.43,17.21],[-55.29,27.7],[-53.71,27.29],[-53.9,25.95],[-52.18,24.65],[-53.28,20.89],[-54.61,19.14],[-55.07,16.26]]]}},{"type":"Feature","properties":{},"geometry":{"type":"Polygon","coordinates":[[[-51.53,13.54],[-54.02,14.11],[-54.93,15.32],[-56.26,16.09],[-55.69,19.6],[-54.25,21.27],[-53,23.99],[-52.87,24.96],[-54.5,26.36],[-54.21,27.68],[-53.33,27.78],[-51.06,23.78],[-50.19,21.11],[-50.03,17.78],[-51.4,15.4],[-51.53,13.54]]]}},{"type":"Feature","properties":{},"geometry":{"type":"Polygon","coordinates":[[[-44.91,-3],[-45.78,-1.97],[-47.3,-2.22],[-48.6,-1.42],[-53.7,4.23],[-53.92,5.5],[-53.47,5.5],[-53.07,6.29],[-53.14,7.64],[-54.05,10.67],[-54.82,11.55],[-54.47,12.43],[-55.65,15.08],[-55.76,17.64],[-53.98,14.08],[-52.78,12.73],[-49.58,9.5],[-47.18,8.42],[-46.91,1.84],[-46.4,0.41],[-43.96,-2.98],[-44.91,-3]]]}},{"type":"Feature","properties":{},"geometry":{"type":"Polygon","coordinates":[[[-39.4,10.94],[-37.87,9.31],[-35.33,10.09],[-34.84,9.88],[-32.96,7.76],[-34.86,7.36],[-34.75,7.06],[-36.07,6.52],[-35.68,7.07],[-36.27,7.03],[-37.26,6],[-38.58,5.9],[-38.5,5.61],[-40.61,8.15],[-40.35,10.31],[-39.4,10.94]]]}},{"type":"Feature","properties":{},"geometry":{"type":"Polygon","coordinates":[[[-54.99,15.48],[-55.44,13.69],[-54.1,9.65],[-54.14,7.16],[-53.33,5.94],[-53.9,5.53],[-55.27,8.1],[-54.88,8.88],[-55.36,10.41],[-55.85,10.3],[-56.66,11.69],[-55.79,11.28],[-55.57,12.11],[-56.48,13.78],[-56.53,17.47],[-57.14,18.66],[-58.61,19.82],[-58.8,23.17],[-57.43,20.07],[-55.71,18.17],[-54.99,15.48]]]}},{"type":"Feature","properties":{},"geometry":{"type":"Polygon","coordinates":[[[-52.7,12.81],[-52.59,13.26],[-54.08,14.13],[-55.45,16.57],[-56.87,17.49],[-56.59,17.93],[-55.91,18.26],[-54.12,17.92],[-52.72,16.4],[-50.87,15.51],[-49.96,14.3],[-47.47,13.74],[-45.83,12.73],[-45.2,11.74],[-44.76,7.46],[-49.86,10.01],[-52.7,12.81]]]}},{"type":"Feature","properties":{},"geometry":{"type":"Polygon","coordinates":[[[-58.75,66.83],[-59.29,67.63],[-58.35,67.62],[-58.93,67.74],[-57.88,68.44],[-53.13,68.92],[-53.06,67.77],[-53.56,66.95],[-54.78,67.19],[-55.74,66.18],[-58.75,66.83]]]}},{"type":"Feature","properties":{},"geometry":{"type":"Polygon","coordinates":[[[-55.58,66.13],[-53.6,66.4],[-55.04,66.21],[-53.87,65.96],[-52.53,66.63],[-48.23,66.89],[-47.53,66.37],[-48.49,65.53],[-46.94,64.29],[-47.32,63.98],[-47.04,63.28],[-47.59,62.9],[-47.09,62.23],[-48.45,62.41],[-48.03,61.96],[-50.65,61.13],[-50.76,60.53],[-52.73,59.24],[-52.71,58.63],[-55.53,56.67],[-57.41,57.23],[-59.37,59.85],[-57.43,61.1],[-56.08,63.81],[-54.48,65.06],[-55.58,66.13]]]}},{"type":"Feature","properties":{},"geometry":{"type":"Polygon","coordinates":[[[-19.5,22.23],[-20.03,20.66],[-20.73,21.26],[-20.13,20.15],[-20.74,18.76],[-20.57,19.64],[-21.27,20.45],[-20.99,21.22],[-21.52,20.84],[-21.15,19.65],[-22.02,19.99],[-21.06,19.5],[-21.62,19.55],[-21.03,18.62],[-21.59,18.8],[-20.76,18.57],[-20.26,17.48],[-20.72,18.36],[-20.51,17.74],[-21.28,17.55],[-20.4,17.3],[-21.4,17.03],[-21,16.88],[-21.4,16.58],[-20.84,16.52],[-24.51,13.81],[-24.98,12.41],[-23.41,8.2],[-23.68,6.54],[-24.3,6.49],[-24.89,7.21],[-24.95,8.03],[-25.21,7.83],[-25.85,8.73],[-25.6,9.21],[-26.01,9.11],[-25.84,10.15],[-27.3,11.39],[-28.32,10.8],[-29.09,11.6],[-30.69,11.28],[-30.67,11.87],[-30.79,11.37],[-31.79,11.34],[-34.1,12.19],[-31.09,12.86],[-27.29,14.45],[-24.84,16.57],[-21.92,20.49],[-19.5,22.23]]]}},{"type":"Feature","properties":{},"geometry":{"type":"Polygon","coordinates":[[[-50.85,0.21],[-48.31,-2.24],[-47.79,-4.24],[-51.11,-6.6],[-52.62,-6.43],[-52.7,-5.85],[-52.95,-6.42],[-53.02,-5.46],[-52.36,-5.13],[-52.32,-2.43],[-52,-2.7],[-51.76,-2.3],[-52.64,-1.7],[-53.91,0.97],[-53.99,3.77],[-53.16,3.31],[-52.66,2.02],[-50.85,0.21]]]}},{"type":"Feature","properties":{},"geometry":{"type":"Polygon","coordinates":[[[-33.55,50.58],[-33.95,50.38],[-33.38,49.91],[-33.46,49.35],[-32.58,50.29],[-31.97,49.79],[-32.19,49.03],[-31.51,48.16],[-30.69,49.81],[-30.08,50.13],[-30.74,50.95],[-28.91,50.82],[-29.45,50.69],[-28.27,50.3],[-28.69,50.07],[-28.2,49.86],[-28.97,49.61],[-28.01,48.68],[-28.1,48.22],[-29.25,47.49],[-30.12,48.17],[-29.38,47.29],[-31.15,47.61],[-30.6,47.25],[-31.43,46.38],[-33.94,46.98],[-31.16,46.21],[-31.8,45.23],[-33.01,45.24],[-33.42,44.48],[-35.54,45],[-34.09,44.74],[-33.4,44.07],[-34.5,43.87],[-34.31,43.44],[-35.45,42.99],[-35.06,42.76],[-35.76,42.43],[-35.42,42.36],[-36.27,40.09],[-35.04,39.78],[-34.74,37.95],[-33.28,38.26],[-29.36,36.38],[-27.33,36.33],[-27.18,34.17],[-25.66,32.64],[-25.18,32.51],[-24.88,33.04],[-24.49,32.56],[-24.31,33.67],[-25.51,35.96],[-24.17,36.7],[-23.45,37.94],[-24.01,39.49],[-25.19,40.05],[-24.47,41.24],[-24.77,42.26],[-25.23,42.17],[-24.86,42.95],[-25.42,43.63],[-24.98,44],[-23.8,43.6],[-22.59,44.12],[-21.03,43.41],[-20.98,42.95],[-19.57,43.04],[-19.43,42.05],[-20.34,41.93],[-19.46,41.93],[-18.85,41.09],[-19.64,40.58],[-18.6,40.98],[-18.12,40.67],[-18.77,39.75],[-18.01,40.72],[-17.65,40.09],[-16.96,41.14],[-16.59,40.64],[-16.73,41.24],[-16.28,41.43],[-16.65,41.61],[-16.2,41.8],[-16.63,42.1],[-16,42.71],[-15.02,41.78],[-15.44,41.54],[-14.54,41.35],[-14.94,40.87],[-14.28,41.17],[-14.68,40.59],[-14.12,40.88],[-13.58,40.42],[-14,40.21],[-13.07,39.96],[-13.16,39.45],[-13.83,39.5],[-12.15,38.53],[-11.96,38.8],[-12,37.98],[-11.45,38.44],[-11.39,37.84],[-10.97,38.42],[-10.84,38.02],[-9.49,38.02],[-10.96,37.19],[-10.14,37.54],[-11.59,36.27],[-9.47,37.64],[-9.14,36.93],[-8.19,37.21],[-7.77,36.35],[-8.34,36.21],[-7.57,35.84],[-8.31,35],[-9.63,34.8],[-9.65,34.06],[-10.38,33.36],[-15.11,32.68],[-15.61,31.65],[-16.8,30.94],[-18.13,28.83],[-14.74,31.64],[-13.76,31.8],[-13.05,31.32],[-13.75,30.59],[-14.92,30.4],[-13.26,30.38],[-13.47,29.65],[-16.58,26.77],[-18.22,23.21],[-19.28,22.81],[-21.92,20.49],[-24.37,17.11],[-26.76,14.85],[-31.09,12.86],[-36.97,12.06],[-41.8,8.96],[-41.62,6.84],[-44.23,7.09],[-45.02,8.51],[-45.44,12.31],[-47.54,14.19],[-47.35,15.6],[-45.98,17.98],[-46.67,23.05],[-48.92,26.82],[-51.83,34.36],[-55.82,38.9],[-56.97,42.9],[-56.07,44.26],[-56.07,46.68],[-59.6,49.51],[-59.55,51.46],[-58.97,52.41],[-59.4,52.98],[-58.55,52.57],[-58.59,53.19],[-57.46,53.47],[-57.15,53.21],[-57.5,52.99],[-54.54,53.4],[-56.21,52.98],[-56.37,52.69],[-55.68,52.94],[-55.85,52.43],[-55.22,52.93],[-53.27,53.09],[-53.48,53.52],[-52.73,52.04],[-51.81,52.81],[-52.14,51.96],[-50.48,52.16],[-48.66,51.05],[-47.1,50.71],[-46.64,50.18],[-47.84,49.83],[-47.54,49.66],[-44.56,49.54],[-43.52,48.71],[-43.93,48.62],[-43.26,47.74],[-43.52,48.2],[-43.04,48.53],[-43.46,49.21],[-41.93,49.94],[-43.8,49.72],[-42.16,50.27],[-41.19,49.13],[-40.77,49.39],[-40.09,48.86],[-37.96,48.83],[-38.05,49.5],[-37.6,49.64],[-36.75,49.37],[-36.95,49.07],[-36.46,49.34],[-36.83,48.52],[-36.18,48.21],[-36.24,49.11],[-35,49.67],[-35.26,50.11],[-35.73,49.79],[-35.1,50.56],[-36.71,51.19],[-36.27,51.76],[-36.71,51.85],[-36.62,52.33],[-36.12,52.34],[-36.3,52.65],[-35.6,52.9],[-35.9,52.99],[-35.14,52.8],[-34,51.21],[-34.42,51.31],[-34.23,51.05],[-34.81,50.71],[-33.55,50.58]]]}},{"type":"Feature","properties":{},"geometry":{"type":"Polygon","coordinates":[[[-72.35,4.22],[-72.46,3.73],[-72.58,4.48],[-73.17,4.84],[-72.85,4.16],[-73.22,3.96],[-74.19,7],[-75.45,8.22],[-76.95,9.16],[-78.31,9.18],[-77.99,9.48],[-80.82,8.82],[-81.23,8.45],[-80.9,8.07],[-81.71,7.71],[-84.55,7.53],[-84.82,7.15],[-87.79,7.9],[-86.43,8.17],[-85.79,7.56],[-85.54,8.01],[-83.59,8.14],[-82.45,9.17],[-83.22,9.24],[-83.06,9.7],[-83.65,9.27],[-83.94,10.16],[-81.35,11.28],[-77.24,11.15],[-76.13,10.8],[-74.09,9.12],[-72.35,4.22]]]}},{"type":"Feature","properties":{},"geometry":{"type":"Polygon","coordinates":[[[-64.44,22.11],[-64.24,22.39],[-64.45,22.13],[-65.68,23.45],[-70.3,24.79],[-69.41,24.82],[-70.34,25.09],[-70.37,25.79],[-70.6,24.86],[-71.28,25.25],[-70.84,25.74],[-71.63,25.6],[-71.29,25.61],[-71.63,25.88],[-71.29,26.81],[-71.57,26.26],[-71.75,27.19],[-71.87,25.96],[-72.24,27.04],[-72.88,26.95],[-72.88,26.51],[-72.72,27.28],[-74.22,28.04],[-74.41,28.46],[-73.91,28.34],[-74.59,28.65],[-74.36,28.9],[-74.73,28.75],[-74.66,29.26],[-75.23,28.98],[-75.84,30],[-75.57,29.25],[-80.11,32.71],[-76.92,33.24],[-75.82,32.96],[-74.6,31.24],[-72.53,30.13],[-70.52,29.93],[-63.99,24.53],[-62.44,21.18],[-63.73,20.83],[-64.44,22.11]]]}},{"type":"Feature","properties":{},"geometry":{"type":"Polygon","coordinates":[[[-61.33,40.63],[-60.44,38.98],[-60.14,35.5],[-61.34,36.64],[-61.96,38.69],[-61.33,40.63]]]}},{"type":"Feature","properties":{},"geometry":{"type":"Polygon","coordinates":[[[-63.52,50.63],[-63.32,49.09],[-59.99,46.51],[-60.01,44.09],[-60.91,42.73],[-59.78,38.72],[-55.82,34.18],[-53.33,27.78],[-58.29,28.76],[-59.1,29.32],[-59.08,34.46],[-62.68,43.55],[-65.37,46.94],[-70.73,51.68],[-69.56,52.12],[-64.62,52.1],[-63.27,52.82],[-62.84,52.24],[-63.52,50.63]]]}},{"type":"Feature","properties":{},"geometry":{"type":"Polygon","coordinates":[[[28.33,75.45],[28.76,75.24],[27.51,75.3],[28.33,75.45]]]}},{"type":"Feature","properties":{},"geometry":{"type":"Polygon","coordinates":[[[-1.75,53.46],[-0.49,53.42],[-0.78,53.26],[-0.3,53.05],[-1.75,53.46]]]}},{"type":"Feature","properties":{},"geometry":{"type":"Polygon","coordinates":[[[-1.46,53.75],[-0.6,53.62],[-1.99,53.48],[-1.46,53.75]]]}},{"type":"Feature","properties":{},"geometry":{"type":"Polygon","coordinates":[[[-45.31,55.08],[-45.64,54.3],[-44.74,54.64],[-43.9,54.25],[-44.27,53.84],[-43.25,53.94],[-43.59,54.46],[-43.06,54.38],[-42.49,52.98],[-42.13,53.26],[-42.3,54.55],[-41.4,54.52],[-40.94,54.04],[-40.9,52.31],[-39.14,51.35],[-39.17,50.81],[-40.57,50.94],[-40.48,50.32],[-39.93,50.7],[-39.66,50.33],[-40.37,50.01],[-41.6,50.18],[-42.3,50.84],[-43.81,50.2],[-46.26,50.19],[-46.12,50.89],[-47.77,51.34],[-48.06,51.98],[-44.73,51.87],[-47.94,52.6],[-48.21,53.04],[-46.25,53.32],[-47.93,53.4],[-47.56,53.65],[-48.26,53.87],[-47.41,54.62],[-45.31,55.08]]]}},{"type":"Feature","properties":{},"geometry":{"type":"Polygon","coordinates":[[[16.06,69.68],[17.23,69.9],[17.27,69.54],[18.31,69.34],[17.94,69.24],[19.55,68.89],[23.74,68.69],[21.24,67.83],[19.57,68.26],[18.65,67.77],[16.78,68.66],[17.17,68.92],[16.2,68.75],[16.58,69.03],[15.79,69.06],[16.06,69.68]]]}},{"type":"Feature","properties":{},"geometry":{"type":"Polygon","coordinates":[[[-2.43,53.87],[-1.38,53.88],[-2.67,53.54],[-2.43,53.87]]]}},{"type":"Feature","properties":{},"geometry":{"type":"Polygon","coordinates":[[[22.65,73.8],[23.19,73.85],[23.24,73.46],[21.77,73.59],[22.65,73.8]]]}},{"type":"Feature","properties":{},"geometry":{"type":"Polygon","coordinates":[[[-40.65,55],[-40.36,54.76],[-40.89,54.11],[-41.62,54.79],[-40.65,55]]]}},{"type":"Feature","properties":{},"geometry":{"type":"Polygon","coordinates":[[[-28.68,54.98],[-27.04,54.84],[-26.31,54.26],[-28.05,54],[-28.81,54.54],[-28.68,54.98]]]}},{"type":"Feature","properties":{},"geometry":{"type":"Polygon","coordinates":[[[-23.26,46.28],[-23.66,46.45],[-23.45,45.96],[-24.36,46.1],[-24.77,45.63],[-25.86,46.06],[-25.4,46.88],[-23.07,47.07],[-23.83,47.71],[-22.74,48.95],[-23.47,49.85],[-24.7,50.47],[-25.63,50.1],[-25.17,50.68],[-27.32,52],[-27.59,51.64],[-27.08,51.19],[-28.71,51.32],[-28.2,50.94],[-29.43,51.47],[-28.68,51.07],[-30.9,51.1],[-31.25,51.6],[-32.25,51.39],[-32.97,52.13],[-31.61,52.06],[-33.16,52.4],[-32.86,54.22],[-31.64,54.92],[-30.8,54.84],[-31.63,53.77],[-30.5,52.38],[-31.52,52.06],[-30.42,52.11],[-30.35,52.76],[-31.21,53.1],[-30.36,53.24],[-31.13,53.98],[-30.53,53.98],[-31.07,54.12],[-30.37,54.15],[-30.89,54.41],[-29.84,54.88],[-28.6,54.33],[-28.58,53.1],[-28.1,53.75],[-26.89,53.07],[-27.58,53.51],[-26.93,53.55],[-27.33,53.95],[-25.79,53.94],[-26.03,53.1],[-25.08,53.47],[-25.64,53.13],[-25.25,53.14],[-25.35,52.64],[-24.94,53.27],[-24.92,52.7],[-24.7,53.11],[-24.4,52.52],[-24.2,53.24],[-23.62,53.15],[-23.44,52.73],[-24.06,52.41],[-22.98,52.78],[-23.51,52.06],[-23.12,52.24],[-23.16,51.7],[-22.54,52.65],[-22.8,52.19],[-22.28,52.59],[-21.56,52.4],[-22.42,51.79],[-21.64,52.04],[-22.18,51.4],[-21.43,52.22],[-20.66,51.73],[-22.2,51.32],[-20.24,51.31],[-21.58,51.22],[-20.68,50.75],[-21.61,50.66],[-19.95,50.51],[-20.57,50.24],[-19.63,50.23],[-19.55,49.87],[-19.39,50.16],[-19.3,49.73],[-19.29,50.12],[-18.9,49.78],[-18.68,50.22],[-18.85,49.85],[-18.01,49.67],[-18.5,49.61],[-17.98,49.59],[-18.32,49.27],[-17.5,49.73],[-17.75,49.17],[-17.22,49.4],[-17.14,49.07],[-16.78,49.57],[-16.17,49.23],[-17.02,48.79],[-16.33,48.57],[-17.03,48.55],[-16.61,48.07],[-17.25,48.33],[-16.9,47.32],[-18.37,47.96],[-17.88,48.67],[-18.66,48.13],[-18.56,48.6],[-18.77,48.28],[-20.09,48.63],[-19.43,48.1],[-20.18,48.05],[-19.84,47.44],[-19.43,47.74],[-18.79,46.86],[-18.85,47.17],[-17.7,46.77],[-18.02,46.54],[-17.26,46.33],[-16.97,45.62],[-17.63,46.09],[-16.92,45.28],[-17.38,45.34],[-17.19,44.89],[-18.28,45.6],[-18.17,45.2],[-19.24,45.83],[-18.97,45.49],[-19.91,45.72],[-17.48,44.14],[-21.25,44.84],[-21.79,45.18],[-21.25,45.39],[-22.2,45.53],[-22.79,46.3],[-23.23,45.92],[-23.26,46.28]]]}},{"type":"Feature","properties":{},"geometry":{"type":"Polygon","coordinates":[[[-97.48,82.29],[-102.29,81.94],[-100.57,83.03],[-97.03,82.34],[-97.48,82.29]]]}},{"type":"Feature","properties":{},"geometry":{"type":"Polygon","coordinates":[[[-38.03,55.03],[-36.79,54.91],[-36.81,54.41],[-37.5,54.08],[-36.44,53.46],[-36.58,52.95],[-37.5,52.99],[-37.79,52.38],[-39.66,53.95],[-38.26,53.99],[-38.33,54.47],[-38.98,54.64],[-38.03,55.03]]]}},{"type":"Feature","properties":{},"geometry":{"type":"Polygon","coordinates":[[[-34.98,55.2],[-33.39,54.92],[-34.3,53.77],[-35.42,53.8],[-35.01,53.47],[-35.9,53.01],[-36.07,54.72],[-34.98,55.2]]]}},{"type":"Feature","properties":{},"geometry":{"type":"Polygon","coordinates":[[[-96.36,82.69],[-96.79,82.74],[-93.96,82.63],[-96.36,82.69]]]}},{"type":"Feature","properties":{},"geometry":{"type":"Polygon","coordinates":[[[12.36,84.93],[11.54,85.11],[16.5,85.21],[16,84.79],[12.36,84.93]]]}},{"type":"Feature","properties":{},"geometry":{"type":"Polygon","coordinates":[[[-48.07,56.69],[-47.27,56],[-46.35,56.1],[-45.65,55.24],[-50.47,53.49],[-51.69,54.64],[-49.61,56.13],[-49.76,56.78],[-48.07,56.69]]]}},{"type":"Feature","properties":{},"geometry":{"type":"Polygon","coordinates":[[[-1.16,56.43],[-0.72,56.13],[-1.61,56.29],[-1.16,56.43]]]}},{"type":"Feature","properties":{},"geometry":{"type":"Polygon","coordinates":[[[-36.23,56.91],[-36.53,57.08],[-36.01,57.28],[-36.23,56.91]]]}},{"type":"Feature","properties":{},"geometry":{"type":"Polygon","coordinates":[[[-88.72,80.85],[-88.13,80.68],[-89.82,80.47],[-89.55,80.27],[-90.57,79.87],[-92.7,80.41],[-89.12,81.08],[-86.88,80.94],[-88.72,80.85]]]}},{"type":"Feature","properties":{},"geometry":{"type":"Polygon","coordinates":[[[-31.84,56.57],[-31.52,56.13],[-31.81,55.61],[-33.04,56.14],[-31.84,56.57]]]}},{"type":"Feature","properties":{},"geometry":{"type":"Polygon","coordinates":[[[-89.52,82.7],[-88.04,82.76],[-90.34,82.98],[-83.78,83.32],[-78.56,82.56],[-83.57,82.33],[-84.09,82.22],[-80.66,81.95],[-87.11,81.22],[-90.7,82.09],[-89.06,82.11],[-89.52,82.7]]]}},{"type":"Feature","properties":{},"geometry":{"type":"Polygon","coordinates":[[[11.59,80.42],[11.15,80.53],[12.39,80.56],[11.59,80.42]]]}},{"type":"Feature","properties":{},"geometry":{"type":"Polygon","coordinates":[[[-34.97,58.39],[-34.71,58.07],[-35.35,58.1],[-34.97,58.39]]]}},{"type":"Feature","properties":{},"geometry":{"type":"Polygon","coordinates":[[[-32.72,57.88],[-33.07,56.58],[-33.62,56.29],[-34.65,56.51],[-33.95,57.05],[-35.29,57.17],[-34.52,57.27],[-34.26,57.97],[-33.85,57.28],[-33.46,57.48],[-33.86,57.93],[-32.72,57.88]]]}},{"type":"Feature","properties":{},"geometry":{"type":"Polygon","coordinates":[[[-36.63,58.98],[-37.29,58.02],[-36.18,57.78],[-37.06,57.13],[-40.51,57.36],[-40.99,57.84],[-38.98,57.87],[-40.42,58.09],[-40.09,58.45],[-40.98,58.16],[-41.79,58.75],[-40.3,58.78],[-41.26,58.98],[-39.96,58.92],[-40.72,59.18],[-39.36,59.47],[-38.72,58.87],[-38.85,58.15],[-37.95,57.85],[-37.75,58.78],[-36.63,58.98]]]}},{"type":"Feature","properties":{},"geometry":{"type":"Polygon","coordinates":[[[8.92,73.97],[11.65,73.92],[13.28,72],[12.92,72.02],[14.82,71.14],[14.11,70.98],[15.23,70.95],[15.69,70.7],[14.85,70.63],[16.19,70.46],[15.33,70.27],[17.06,69.99],[15.94,69.89],[16.55,69.83],[15.79,69.4],[15.2,69.7],[15.74,70],[14.5,69.49],[14.66,69.9],[14.02,70.02],[14.9,70.27],[13.82,70.08],[12.91,70.45],[13.34,70.72],[11.68,70.67],[12.17,70.76],[11.45,71.02],[11.88,71.21],[10.93,71.38],[10.28,72.05],[10.74,72.12],[9.97,72.28],[10.63,72.58],[10.58,73.13],[8.92,73.97]]]}},{"type":"Feature","properties":{},"geometry":{"type":"Polygon","coordinates":[[[-31.32,58],[-30.65,57.72],[-30.91,57.23],[-29.86,57.34],[-29.18,56.82],[-30.08,56.85],[-29.46,55.96],[-26.13,55.91],[-25.39,55.48],[-25.87,55.08],[-25.44,54.91],[-26.68,54.6],[-27.3,55.13],[-27.77,54.78],[-31.01,55.4],[-30.73,57.15],[-31.76,57.2],[-31.6,57.57],[-32.08,57.8],[-31.32,58]]]}},{"type":"Feature","properties":{},"geometry":{"type":"Polygon","coordinates":[[[7.11,80.29],[7.86,80.21],[6.05,80.28],[7.11,80.29]]]}},{"type":"Feature","properties":{},"geometry":{"type":"Polygon","coordinates":[[[-38.79,60.51],[-38.67,60.19],[-40.33,59.58],[-40.7,59.77],[-40.15,60.09],[-42.06,59.57],[-41.99,59.94],[-43.08,60.01],[-40.08,60.67],[-38.79,60.51]]]}},{"type":"Feature","properties":{},"geometry":{"type":"Polygon","coordinates":[[[-29.07,58.21],[-28.98,57.75],[-29.38,58],[-29.07,58.21]]]}},{"type":"Feature","properties":{},"geometry":{"type":"Polygon","coordinates":[[[58.57,51.51],[58.54,51.13],[57.51,50.99],[56.59,53.38],[51.17,56.78],[51,59.43],[50.13,60.63],[40.42,66.11],[39.58,67.35],[39.74,68.47],[47.52,67.79],[57.29,65.36],[63.23,64.84],[71.88,61.22],[91.28,57.87],[81.99,53.35],[79,51.24],[74.14,46.77],[66.82,46],[61.69,46.92],[59.28,47.96],[60.19,49.98],[58.83,50.26],[58.57,51.51]]]}},{"type":"Feature","properties":{},"geometry":{"type":"Polygon","coordinates":[[[99.17,50.89],[100.49,50.42],[101.51,49.13],[98.99,47.78],[89.74,46.68],[87.27,45.4],[84.12,46.24],[79.74,49.66],[77.23,50.22],[84.69,52.29],[91.01,53.12],[99.17,50.89]]]}},{"type":"Feature","properties":{},"geometry":{"type":"Polygon","coordinates":[[[98.96,56.67],[94.36,55.31],[83.98,54.32],[91.28,57.87],[98.96,56.67]]]}},{"type":"Feature","properties":{},"geometry":{"type":"Polygon","coordinates":[[[103.48,43.97],[109,41.09],[106.63,41.1],[100.55,43.06],[93.03,44.1],[82.72,43.57],[83.51,44.35],[86.1,45.12],[91.94,46.79],[95.05,47.17],[96.11,47.1],[103.48,43.97]]]}},{"type":"Feature","properties":{},"geometry":{"type":"Polygon","coordinates":[[[154.42,59.86],[155.74,59.74],[154.77,59.52],[155.57,59.35],[156.53,59.61],[156.08,59.2],[156.84,59.87],[158.05,59.63],[159.08,58.35],[158.24,58.32],[158.46,57.25],[156.9,56.59],[154.8,54.06],[146.96,50.38],[145.11,49.98],[143.57,50.29],[143.76,50.77],[143.2,50.87],[142.22,50.23],[138.19,51.98],[124.21,53.51],[110.22,53.33],[105.99,54.35],[98.63,54.58],[95.38,55.51],[93.31,57],[100.54,56.39],[107.07,56.86],[113.18,58.26],[118.26,58.54],[122.51,59.79],[128.64,59.9],[133.91,62],[138.27,62.76],[145.31,61.04],[154.42,59.86]]]}},{"type":"Feature","properties":{},"geometry":{"type":"Polygon","coordinates":[[[179.99,85.31],[179.99,76.07],[161.64,72.93],[164.62,72.53],[163.94,71.74],[149.07,71.82],[139.49,72.43],[135.7,72.06],[131.34,70.47],[127.67,67.92],[120.46,66.6],[116.86,64.58],[111.58,63.24],[104.63,60.02],[96.95,58.15],[92.83,57.77],[71.88,61.22],[64.62,64.51],[57.29,65.36],[44.97,68.17],[39.22,69.83],[43.05,70.41],[42.49,70.76],[42.57,71.43],[41.46,72.1],[38.45,72.62],[39.03,73.4],[44.52,72.79],[44.59,73.2],[46.97,73.43],[43.24,72.99],[39.98,73.68],[37.84,73.36],[36.75,72.66],[32.77,73.53],[29.56,73.51],[27.95,74.4],[25.51,74.63],[31.67,74.26],[34.01,74.87],[29.41,74.57],[29.19,74.89],[30.44,75.17],[28.65,75.45],[32.75,76.14],[33.37,76.61],[38.36,75.59],[37.68,75.81],[42.31,76.16],[38.79,75.99],[39.05,76.17],[33.92,76.71],[29.44,76.16],[24.87,76.38],[25.48,77.74],[25.05,78.29],[22.48,77.99],[22.01,78.18],[23.07,78.28],[22.29,78.38],[22.66,78.35],[21.05,77.99],[20.22,78.1],[21.46,78.3],[18.93,78.31],[16.13,79.52],[13.95,80.08],[14.5,79.78],[13.16,79.83],[13.7,79.89],[12.59,80.15],[12.48,80.55],[14.18,80.47],[12.92,80.61],[13.78,80.65],[10.46,81.1],[11.18,81.33],[9.16,81.04],[7.44,81.5],[-1.76,81.52],[-2.41,81.93],[1.88,81.89],[-0.5,82.51],[3.66,82.67],[-3.88,83.5],[-0.84,84.07],[-3.34,84.05],[-1.14,84.36],[-1.73,84.42],[1.71,84.54],[0.54,84.52],[1.44,84.39],[0.91,84.39],[1.16,84.13],[2.72,84.43],[1.06,84.47],[2.05,84.69],[7.95,84.78],[34.43,83.44],[30.41,83.67],[30.3,84.08],[29.41,84.17],[30.63,84.3],[23.07,84.86],[22.05,84.76],[24.25,84.55],[20.58,84.51],[20.07,84.59],[20.65,84.81],[18.51,84.89],[21.36,85.23],[17.47,85.25],[25.62,85.69],[16.99,86],[10.91,86.9],[16.99,87],[17.11,87.44],[0.56,88.3],[-20.01,87.66],[-96.26,89.22],[-87.77,89.25],[-89.62,89.3],[-117.2,89.3],[-148.07,88.88],[-147,88.77],[-154.09,88.34],[-119.26,88.22],[-179.99,87.01],[-179.99,89.99],[179.99,89.99],[179.99,87.01],[171.1,86.44],[179.99,85.31]]]}},{"type":"Feature","properties":{},"geometry":{"type":"Polygon","coordinates":[[[-179.99,76.07],[-179.99,85.31],[-165.09,82.52],[-160.92,80.88],[-158.39,78.79],[-159.59,76.62],[-164.29,74.7],[-179.99,76.07]]]}},{"type":"Feature","properties":{},"geometry":{"type":"Polygon","coordinates":[[[165.09,71.87],[164.78,71.99],[166.1,72.11],[165.09,71.87]]]}},{"type":"Feature","properties":{},"geometry":{"type":"Polygon","coordinates":[[[35.59,70.61],[34.36,71.12],[31.43,70.81],[27.91,71.45],[26.24,72.39],[23.06,73.14],[25.27,73.99],[26.69,73.83],[28.74,73.22],[38.56,72.21],[41.3,70.74],[39.17,69.85],[35.59,70.61]]]}},{"type":"Feature","properties":{},"geometry":{"type":"Polygon","coordinates":[[[78.07,28.06],[83.22,28.55],[87.49,27.83],[89.53,26.27],[91.8,22.85],[86.33,25.25],[78.06,24.93],[74.73,25.44],[70.81,27.04],[67.03,29.64],[66.04,31],[72.32,28.55],[78.07,28.06]]]}},{"type":"Feature","properties":{},"geometry":{"type":"Polygon","coordinates":[[[44.36,-35.07],[44.89,-34.88],[44.63,-34.11],[44.41,-34.9],[44.13,-33.47],[44.31,-34.51],[43.83,-34.99],[41.6,-34.52],[41.95,-34.14],[41.17,-34.17],[41.7,-33.62],[40.11,-33.2],[39.57,-33.63],[38.46,-33.49],[33.23,-31.4],[32.75,-31.61],[30.88,-30.21],[24.87,-31.88],[24.43,-31.34],[23.57,-31.27],[23.45,-31.69],[22.97,-30.94],[22.02,-30.86],[21.47,-30.24],[22.04,-29.26],[28.43,-23.99],[31.95,-21.9],[33.54,-21.27],[33.99,-21.57],[33.71,-21.1],[34.35,-21.06],[34.26,-20.68],[33.09,-20.91],[32.11,-19.91],[33.03,-17.76],[33.72,-18.74],[34.35,-18.8],[33.64,-17.8],[33.93,-16.89],[34.5,-17.05],[34.04,-16.76],[34.4,-16.62],[34.08,-15.93],[34.93,-15.61],[34.71,-14.91],[35.46,-14.52],[34.95,-13.98],[38.58,-12.96],[41.24,-13.12],[46.87,-14.54],[48.18,-15.63],[48.35,-16.57],[47.39,-17.88],[46.29,-21.97],[46.48,-26.71],[47.38,-28.75],[52.26,-35],[52.56,-36.22],[44.36,-35.07]]]}},{"type":"Feature","properties":{},"geometry":{"type":"Polygon","coordinates":[[[68.77,34.18],[71.23,33.22],[73.45,33.16],[74.83,34.28],[81.92,36.18],[87.94,35.05],[92.76,33.14],[93.95,30.81],[94.23,28.35],[91.45,31.28],[89.01,32.34],[85.44,32.5],[80.15,31.63],[74.18,31.64],[66.94,33.66],[65.76,33.5],[64.29,35.19],[66.38,35.27],[68.77,34.18]]]}},{"type":"Feature","properties":{},"geometry":{"type":"Polygon","coordinates":[[[101.37,36.05],[101.08,35.68],[100.11,38.1],[98.17,39.26],[88.86,41.93],[97.18,42.04],[101.39,41.04],[106.08,40.74],[103.98,39.27],[101.37,36.05]]]}},{"type":"Feature","properties":{},"geometry":{"type":"Polygon","coordinates":[[[39.17,69.85],[44.97,68.17],[39.74,68.47],[37.89,70.16],[39.17,69.85]]]}},{"type":"Feature","properties":{},"geometry":{"type":"Polygon","coordinates":[[[54.22,43.36],[53.23,44.12],[52.94,45.07],[51.31,44.99],[49.45,45.95],[50.68,46.3],[49.85,46.37],[50.04,47.03],[51.46,47.53],[50.13,48.76],[48.77,48.44],[47.8,47.27],[47.26,47.31],[47.41,46.41],[47.03,46.65],[47.15,46.29],[46.43,46.1],[46.24,44.83],[47.59,44.57],[47.87,43.69],[50.22,42.72],[44.13,42.64],[47.42,48.33],[52.64,51.41],[53.43,52.32],[53.32,53.99],[51.17,56.78],[56.59,53.38],[57.51,51.07],[57.49,50.34],[56.98,50.4],[57.37,50],[56.55,49.8],[56.76,48.72],[57.64,47.84],[58.64,48.3],[61.69,46.92],[66.82,46],[74.76,46.95],[72.7,44.41],[63.22,41.69],[54.35,42.87],[54.22,43.36]]]}},{"type":"Feature","properties":{},"geometry":{"type":"Polygon","coordinates":[[[43.59,-0.11],[43.04,0.22],[41.63,-0.08],[40.77,0.38],[39.17,2.16],[38.78,4.65],[38.28,4.63],[38.07,5.25],[37.75,4.83],[36.96,5.14],[37,4.58],[36.54,4.56],[36.92,2.55],[37.73,1.27],[37.39,0.7],[37.66,-0.73],[38.23,0.41],[38.71,0.2],[37.98,-1.29],[38.42,-1.78],[40.62,-2.16],[43.07,-0.64],[42.68,-2.47],[44.32,-3.91],[44.9,-5.45],[43.32,-6.86],[42.67,-6.86],[42.34,-8.06],[41.36,-8.03],[40.67,-8.73],[39.79,-8.59],[39.19,-9.26],[36.63,-9.11],[36.14,-9.82],[32.37,-10.23],[29.33,-9.89],[28.53,-10.23],[27.15,-9.75],[27.2,-7.07],[27.86,-5.7],[27.26,-2.25],[26.4,-0.42],[26.8,2.33],[26.17,3.23],[25.83,7.39],[25.33,7.67],[29.06,12.5],[30.24,14.96],[32.43,15.52],[35.39,15.06],[41.82,3.58],[42.45,1.65],[43.84,1.14],[43.59,-0.11]]]}},{"type":"Feature","properties":{},"geometry":{"type":"Polygon","coordinates":[[[48.69,-10.57],[47.79,-13.74],[46.04,-14.48],[38.99,-12.46],[36.83,-12.46],[37.45,-9.42],[39.17,-7.91],[40.76,-8.67],[43.65,-7.59],[45.23,-7.69],[48.89,-9.49],[48.69,-10.57]]]}},{"type":"Feature","properties":{},"geometry":{"type":"Polygon","coordinates":[[[74.21,31.86],[61.9,34.52],[63.71,38.09],[71.14,33.71],[74.65,33.91],[74.21,31.86]]]}},{"type":"Feature","properties":{},"geometry":{"type":"Polygon","coordinates":[[[60.71,28.05],[60.23,28.38],[61.07,30.36],[62.92,32.37],[63.74,32.5],[72.61,27.81],[66.23,27.72],[63.41,27.05],[60.71,28.05]]]}},{"type":"Feature","properties":{},"geometry":{"type":"Polygon","coordinates":[[[44.33,36.26],[45.21,36.03],[48.46,37.62],[53.61,35.36],[58.37,36.07],[59.12,35.41],[57.86,34.34],[55.42,34.53],[39.95,32.18],[39.18,32.78],[38.76,34.3],[41.34,36.4],[44.33,36.26]]]}},{"type":"Feature","properties":{},"geometry":{"type":"Polygon","coordinates":[[[-17.82,70.33],[-24.74,70.01],[-27.17,70.91],[-28.42,70.54],[-27.22,70.07],[-27.56,69.87],[-27.23,69.53],[-35.67,69.32],[-36.73,69.43],[-42.23,72.37],[-25.32,72.44],[-20.92,71.66],[-17.82,70.33]]]}},{"type":"Feature","properties":{},"geometry":{"type":"Polygon","coordinates":[[[-93.6,71.41],[-94.15,71.29],[-93.65,71.35],[-95.11,69.76],[-95.25,68.77],[-94.2,67.39],[-91.92,65.71],[-103.43,65.72],[-107.48,66.46],[-108.59,66.12],[-113.22,66.48],[-110.98,67.03],[-112.01,67.06],[-110.82,67.65],[-108.26,70.64],[-106.84,71.28],[-99.92,72.08],[-93.6,71.41]]]}},{"type":"Feature","properties":{},"geometry":{"type":"Polygon","coordinates":[[[-117.88,85.3],[-114.09,85.05],[-120.32,84.64],[-116.8,84.16],[-119.54,83.43],[-115.56,83.25],[-117.28,83.08],[-116.63,82.9],[-110.62,82.87],[-109.94,82.95],[-111.06,83.14],[-110,83.22],[-107.15,82.59],[-104.89,82.74],[-106.04,82.41],[-106.64,81.31],[-107.83,80.86],[-107.24,80.43],[-107.63,80.14],[-110.7,80.11],[-110.37,79.85],[-111.64,79.5],[-111.45,79.25],[-113.38,78.78],[-109.59,77.41],[-109.47,76.94],[-110.33,76.43],[-113.01,76.21],[-113.15,75.77],[-121.86,76.29],[-127.66,76.03],[-132.31,74.75],[-133.59,73.73],[-134.9,71.72],[-136.23,71.1],[-136.45,71.49],[-139.97,71.91],[-147.25,71.05],[-145.96,70.85],[-146.27,70.52],[-151.82,71.37],[-149.85,71.41],[-150.47,71.64],[-150.36,71.98],[-151.77,72.14],[-146.33,74.44],[-145.06,76.16],[-145.94,78.28],[-147.76,80],[-151.56,82.27],[-155.87,84.08],[-117.88,85.3]]]}},{"type":"Feature","properties":{},"geometry":{"type":"Polygon","coordinates":[[[141.11,49.86],[139.35,49.26],[138.79,48.36],[135.79,47.43],[136.67,46.53],[137.18,44.31],[133.78,44.4],[133.67,45.18],[134.68,45.13],[134.28,45.36],[134.52,46.02],[133.39,46.41],[132.99,46.1],[133.25,46.28],[132.67,46.41],[133.04,46.51],[132.37,46.66],[133.58,47.06],[133.15,47.3],[133.74,47.92],[132.81,48.09],[132.68,48.52],[128.61,47.84],[129.73,48.37],[128.95,48.47],[129.33,48.84],[130.48,49.36],[130.11,49.91],[129.11,49.92],[126.3,48.66],[124.94,48.82],[124.54,48.11],[125.83,47.72],[125.61,46.81],[126.5,46.53],[127.87,47.05],[129.96,46.28],[129.59,45.83],[126.69,45.55],[125.28,44.45],[126.29,43.7],[122.2,41.34],[117.52,43.56],[109.85,45.13],[104.17,48.24],[96.4,51.63],[109.6,53],[121.63,53.27],[137.3,51.51],[141.11,49.86]]]}},{"type":"Feature","properties":{},"geometry":{"type":"Polygon","coordinates":[[[135.57,47.87],[135.48,46.43],[133.58,46.08],[133.69,45.76],[133.49,46.01],[133.35,45.55],[133.19,45.88],[132.41,45.33],[132.05,45.72],[132.48,45.68],[131.97,46.13],[132.63,46.98],[132.2,47.13],[135.57,47.87]]]}},{"type":"Feature","properties":{},"geometry":{"type":"Polygon","coordinates":[[[125.08,44.8],[126.08,43.16],[127.41,42.43],[125.54,42.44],[127.56,41.6],[125.81,40.78],[127.99,40.57],[127.24,40.09],[127.87,40.27],[127.9,39.87],[127.26,39.73],[127.66,39.6],[127.64,38.91],[126.57,38.59],[126.18,37.14],[125.55,37.25],[126.04,36.87],[125.66,36.59],[125.85,35.82],[125.43,36.05],[124.85,34.93],[124.1,34.86],[124.33,34.59],[123.8,33.99],[122.69,33.57],[123.01,33.42],[122.7,33.09],[120.86,32.79],[120.42,32.16],[119.36,32.89],[119.64,32.01],[119.17,31.84],[118.94,32.25],[118.99,31.6],[118.39,31.75],[118.4,31.39],[116.27,30.85],[116.42,29.67],[115.64,30.26],[115.86,30.86],[115.41,31.07],[115.02,30.67],[114.2,31.11],[113.16,30.03],[112.39,29.97],[112.64,29.63],[111.99,28.83],[105.16,32.88],[104.13,34.3],[103.86,36.76],[104.37,37.77],[106.38,40.54],[108.33,42.15],[110.77,42.68],[115.65,42.73],[122.16,41.62],[125.08,44.8]]]}},{"type":"Feature","properties":{},"geometry":{"type":"Polygon","coordinates":[[[108.76,29.12],[108.74,28.07],[109.24,27.63],[113.78,25.96],[115.44,23.79],[115.56,22.43],[113.73,20.72],[113.91,19.83],[112.75,18.25],[112.2,19.7],[110.72,19.52],[110.51,20.07],[110.09,19.66],[109.01,20.69],[107.16,20.37],[106.9,21.17],[106.15,21.05],[104.83,24.14],[104.66,27.37],[100.9,31.29],[108.76,29.12]]]}},{"type":"Feature","properties":{},"geometry":{"type":"Polygon","coordinates":[[[104.82,20.64],[105.98,17.45],[106.75,16.64],[107.21,17.05],[109.46,15.79],[110.9,16.01],[113.71,12.88],[111.35,13.3],[109.76,14.74],[108.25,15.39],[106.92,15.6],[106.67,15.24],[104.01,19.11],[101.88,20.13],[100.63,21.28],[100.99,21.28],[99.33,21.37],[95,24.97],[92.82,28.79],[96.14,29.58],[100.44,27.38],[101.5,26.49],[102.58,23.4],[104.82,20.64]]]}},{"type":"Feature","properties":{},"geometry":{"type":"Polygon","coordinates":[[[109.96,16.27],[112.12,15.99],[113.34,14.54],[115.01,13.84],[114.59,13.86],[114.45,13.29],[112.88,13.23],[109.96,16.27]]]}},{"type":"Feature","properties":{},"geometry":{"type":"Polygon","coordinates":[[[26.99,-4.21],[29.6,-7.77],[29.55,-8.27],[28.63,-8.56],[29.26,-8.59],[30.13,-9.97],[35.33,-9.97],[36.78,-9.53],[37.24,-9.75],[36.76,-11.11],[37.16,-11.15],[36.63,-11.2],[36.42,-12.07],[32.66,-16.52],[30.29,-18.15],[25.46,-20.42],[24.6,-21.4],[23.09,-21.98],[21.55,-23.63],[20.76,-24.82],[21.31,-26],[20.63,-27.6],[20.66,-28.91],[21.48,-29.81],[20.99,-30.37],[20.19,-34.24],[18.88,-35.19],[15.67,-35.68],[12.07,-37.12],[13.75,-32.77],[14.42,-26.47],[16.79,-25.31],[17.28,-23.09],[19.88,-18.07],[20.46,-14.7],[21.46,-13.12],[22.74,-13.33],[23.36,-11.79],[27.24,-8.97],[26.99,-4.21]]]}},{"type":"Feature","properties":{},"geometry":{"type":"Polygon","coordinates":[[[11.97,-36.85],[11.47,-37.55],[11.7,-39.41],[10.66,-41.18],[6.28,-41.75],[6.29,-42.22],[6.77,-42.05],[4.73,-44.03],[0.33,-45.58],[-3.73,-46.31],[-6.2,-46.19],[-9.28,-44.86],[-12.44,-44.49],[-13.08,-43.32],[-13.58,-43.42],[-13.12,-41.84],[-12.49,-41.81],[-11.99,-40.99],[-11.69,-38.16],[-12.08,-35.97],[-10.1,-31.21],[-10.34,-26.01],[-9.35,-24.24],[-7.46,-22.4],[-5.52,-21.47],[-5.03,-20.43],[-5.06,-18.66],[-4.37,-18.18],[-4.45,-15.69],[-3.7,-15.77],[-4.35,-15.4],[-4.23,-14.09],[-5.33,-11.21],[-5.45,-9.24],[-4.86,-9.29],[-4.43,-8.58],[-3.96,-8.97],[-4.39,-8.41],[-2.72,-6.35],[-2.54,-5.32],[-3.06,-5.25],[-3.53,-4.04],[-4.71,-4.02],[-6.02,-3.19],[-2.77,-2.44],[-2.05,-1.42],[0.58,-0.99],[6.8,-4.65],[9.6,-4.52],[14.86,-5.15],[18.47,-13.61],[14.27,-17.07],[12.87,-20.09],[12.75,-22.08],[15.36,-26.56],[15.29,-27.83],[14.18,-32.8],[11.97,-36.85]]]}},{"type":"Feature","properties":{},"geometry":{"type":"Polygon","coordinates":[[[-11.99,24.67],[-11.73,25.67],[-10.72,26.53],[-7.95,27.07],[-6.34,28.37],[-5.78,28.25],[-5.4,27.29],[-4.04,27.07],[-3.36,26.4],[0.04,26.71],[2.32,26.26],[3.4,25.57],[4.49,25.65],[5.61,24.99],[7.37,24.89],[-2.69,23.8],[-8.23,24.95],[-11.99,24.67]]]}},{"type":"Feature","properties":{},"geometry":{"type":"Polygon","coordinates":[[[10.81,29.35],[10.66,28.57],[8.13,28.06],[6.93,27.09],[7.13,26.26],[4.48,24.95],[2.56,25.52],[1.29,25.17],[0.85,26.06],[1.27,26.28],[0.93,26.12],[0.72,26.71],[-1.19,27.03],[-0.34,28.23],[-0.77,28.65],[-0.14,28.92],[-0.92,28.81],[0.6,30.4],[1.37,32.88],[2.64,33.02],[6.22,31.37],[7.52,31.27],[10.81,29.35]]]}},{"type":"Feature","properties":{},"geometry":{"type":"Polygon","coordinates":[[[-4.56,-4.39],[-4.84,-2.84],[-5.62,-2.09],[-8.03,-1.51],[-11.82,-1.69],[-13.43,-0.56],[-17.12,-0.15],[-17.64,0.28],[-20.62,4.41],[-20.79,7.21],[-21.98,9.15],[-21.3,9.58],[-22.25,9.69],[-22.52,10.15],[-22.21,10.27],[-22.76,10.61],[-22.35,10.61],[-22.69,10.75],[-22.32,11.56],[-21.26,11.18],[-22.16,11.39],[-22.59,13.05],[-21.3,13.64],[-20.08,15.31],[-19.9,17.01],[-19.27,17.65],[-19.44,18.86],[-19.84,18.55],[-19.31,19.42],[-13.2,23.66],[-11.77,23.52],[-9.21,24.8],[-6.33,25.13],[0.11,24.06],[10.22,25.2],[10.37,24.59],[11.07,24.52],[10.25,24.02],[10.48,22.96],[9.24,22.35],[7.51,19.41],[4.56,9.95],[4.3,6.42],[5.9,1.47],[2.54,-0.1],[1.78,-1.53],[-0.79,-2.23],[-1.41,-3.32],[-4.56,-4.39]]]}},{"type":"Feature","properties":{},"geometry":{"type":"Polygon","coordinates":[[[25.74,10.97],[25.56,10.07],[26.77,4.44],[26.49,3.51],[27.45,1.29],[26.97,-0.23],[13.89,-5.22],[8.62,-4.72],[5.82,-4.93],[-0.5,-1.42],[0.37,-0.05],[3.84,1.25],[2.63,6.31],[3.17,9.81],[6.89,19.01],[8.74,21.39],[10.05,19.74],[12.24,18.37],[12.29,17.29],[14.51,15.22],[15.64,15.41],[16.18,16.64],[18,16.77],[18.83,15.64],[20.13,14.98],[20.14,14.51],[23.12,12.77],[24.43,13.07],[25.46,12.69],[25.74,10.97]]]}},{"type":"Feature","properties":{},"geometry":{"type":"Polygon","coordinates":[[[25.99,13.25],[25.01,14.04],[23.32,14.29],[22.38,16.03],[21.99,15.69],[21.3,15.93],[21,17.14],[20.17,17.51],[21.03,17.34],[20.28,17.81],[20.96,18.58],[20.6,19.23],[23.68,18.91],[24.45,18.44],[24.98,17.14],[26.34,16.93],[29.48,15.18],[31.01,12.37],[28.23,13.37],[25.99,13.25]]]}},{"type":"Feature","properties":{},"geometry":{"type":"Polygon","coordinates":[[[15.42,-26.21],[14.9,-26.57],[12.11,-22.19],[12.15,-20.19],[13.42,-17.13],[17.49,-13.52],[22.35,-13.41],[21.31,-14.97],[20.63,-18.32],[17.88,-23.26],[17.32,-25.47],[15.42,-26.21]]]}},{"type":"Feature","properties":{},"geometry":{"type":"Polygon","coordinates":[[[27.09,9.74],[25.93,8.56],[25.13,12.79],[26.23,11.94],[27.64,12.14],[29.78,14.4],[30.58,16.24],[30.04,14.42],[27.09,9.74]]]}},{"type":"Feature","properties":{},"geometry":{"type":"Polygon","coordinates":[[[26.68,-0.11],[26.73,-0.89],[27.54,-1.83],[27.87,-4.94],[28.18,-4.66],[28.3,-9.43],[24.33,-12.15],[23.67,-13.67],[20.95,-13.3],[17.54,-13.53],[14.14,-6.19],[14.06,-5.05],[26.68,-0.11]]]}},{"type":"Feature","properties":{},"geometry":{"type":"Polygon","coordinates":[[[3.77,48.28],[3.23,48.59],[4.74,48.83],[4.9,49.28],[3.32,48.67],[3.42,48.99],[2.77,49.2],[3.9,49.68],[2.55,49.63],[3.43,49.75],[3.08,49.82],[3.56,49.84],[3.44,50.18],[3.99,49.96],[3.06,50.21],[4.21,50.68],[3.24,50.64],[4.48,50.74],[3.81,50.93],[4.47,50.91],[3.92,51.08],[4.38,51.31],[4.03,51.44],[4.54,51.86],[5.13,51.68],[5.55,52.35],[5.2,52.59],[4.9,51.8],[4.34,51.93],[4.59,52.96],[5.16,52.98],[4.62,52.98],[5.05,53.51],[4.59,53.26],[5.26,53.98],[4.73,53.71],[4.62,54.08],[5.02,54.07],[4.57,54.45],[4.98,54.48],[4.45,54.6],[5.13,55.11],[4.56,54.75],[4.78,54.97],[4.22,55.04],[4.62,55.26],[4.19,55.25],[4.59,55.48],[4.15,55.51],[5.19,56.04],[4.35,55.94],[4.48,56.37],[5.11,56.33],[4.08,56.52],[4.65,56.81],[4.15,56.81],[4.34,57.12],[5.11,56.86],[4.4,57.21],[5.3,57.65],[4.37,57.43],[4.89,57.9],[4.31,58.56],[5.35,58.64],[4.53,58.98],[5.19,58.82],[4.95,59.4],[5.51,58.76],[5.42,59.12],[5.82,59.13],[5.23,59.27],[5.36,59.63],[6.17,59.6],[5.13,59.92],[6.61,60.06],[6.15,60.19],[6.43,60.83],[5.92,61.1],[6.75,61.27],[7.34,60.44],[6.98,61.46],[7.76,61.01],[7.76,61.6],[7.21,61.67],[7.62,61.93],[8.37,61.36],[8.69,61.52],[8.31,61.94],[10.16,62.01],[10.09,61.6],[9.09,61.32],[10.29,61.13],[11.38,61.47],[11.31,61.94],[13.09,61.5],[14.46,62.26],[19.63,62.46],[21.04,61.87],[21.07,61.13],[20.5,60.63],[14.92,59.74],[18.29,59.51],[19.89,58.41],[22.5,58.54],[22.26,59.13],[20.81,59.03],[20.47,59.44],[21.94,59.32],[23.68,59.95],[21.83,60.58],[22.13,61.93],[24.25,61.98],[21.15,63.59],[19.48,63.75],[22.3,64.23],[22.89,64.05],[22.23,63.6],[22.55,63.2],[24.03,63.14],[24.95,63.65],[23.98,64.21],[24.66,64.56],[23.88,64.64],[24.33,64.75],[24.9,66.07],[25.47,65.97],[24.9,66.11],[25.14,66.78],[25.52,66.99],[25.11,66.67],[26.27,66.44],[26.25,66.03],[27.05,66.18],[26.79,66.52],[27.34,66.49],[26.84,66.93],[28.04,67.47],[27.61,67.55],[28.06,68.2],[29.89,68.06],[29.27,68.32],[29.87,68.74],[27.25,69.27],[33.47,70.49],[36.15,70.58],[38.34,69.9],[39.74,68.47],[39.58,67.35],[40.42,66.11],[50.13,60.63],[51,59.43],[50.86,57.37],[53.55,53.34],[53.43,52.32],[52.64,51.41],[47.42,48.33],[44.13,42.64],[40.77,41.8],[36.98,42.28],[37.67,42.73],[37.84,43.48],[37.03,43.98],[37.82,44.21],[37.97,44.95],[35.54,43.4],[35.08,42.61],[34.99,43.03],[35.26,42.31],[36.01,42.05],[36.91,42.47],[36.86,42.1],[34.66,40.89],[33.95,41.56],[33.35,41.24],[34.13,42.11],[32.22,41.85],[31.86,42.03],[32.68,42.21],[32.1,42.43],[30.71,40.81],[31.21,39.92],[30.82,39.63],[27.79,40.38],[24.77,42.13],[17.73,43.94],[14.32,44.32],[16.48,45.91],[17.24,45.62],[17.78,46.11],[17.65,45.62],[18.14,46.29],[17.63,46.39],[18.1,46.72],[17.96,47.4],[18.05,46.57],[18.59,46.71],[17.34,48.12],[17.14,49.18],[17.66,49.59],[18.99,49.15],[19.35,49.6],[18.66,50.59],[18.04,50.39],[17.2,51.11],[21.42,53.36],[19.89,53.38],[19.58,53.76],[16.33,51.46],[15.99,51.94],[14.66,51.79],[12.63,53.61],[12.97,56.12],[13.46,56.32],[12.83,56.84],[10.28,56.26],[10.76,56.19],[10.47,55.85],[10.84,55.79],[10.39,55.84],[10.7,55.32],[11.47,55.12],[11.46,54.36],[10.63,53.48],[10.68,52.89],[10,53.12],[10.68,52.77],[10.4,52.46],[11.66,50.84],[13.69,50.48],[13.14,49.93],[13.69,49.82],[13.51,49.4],[13.12,49.64],[13.29,49.24],[12.46,48.81],[13.1,48.84],[12.64,48.7],[13.24,48.55],[13.9,47.1],[13.89,46.42],[12.85,45.96],[13.08,45.4],[12.07,45.07],[11.27,45.82],[11.46,46.19],[9.88,46.95],[9.63,47.57],[9.16,47.42],[7.83,48.72],[7.91,48.31],[7.56,48.45],[8.05,47.83],[7.47,47.75],[7.19,46.56],[6.44,46.17],[4.9,46.56],[5.53,47.08],[4.99,46.93],[5.2,47.53],[4.28,47.19],[4.97,48.48],[4.38,48.28],[4.37,47.74],[3.77,48.28]]]}},{"type":"Feature","properties":{},"geometry":{"type":"Polygon","coordinates":[[[9.18,43.89],[8.51,44.17],[7.96,45.3],[9.12,46.73],[9.4,45.68],[10.11,45.61],[9.5,44.63],[10.08,43.96],[9.18,43.89]]]}},{"type":"Feature","properties":{},"geometry":{"type":"Polygon","coordinates":[[[31.28,36.81],[30.86,37.74],[30.13,37.36],[29.94,37.87],[30.17,38.4],[32.77,39.84],[32.14,39.67],[37.15,42.01],[40.51,42.36],[36.64,40.41],[35.68,39.32],[33.89,39.4],[32.95,38.92],[31.28,36.81]]]}},{"type":"Feature","properties":{},"geometry":{"type":"Polygon","coordinates":[[[20.71,23.07],[20.41,21.66],[19.63,21.72],[20.34,20.64],[20.16,20.17],[19.46,20.72],[19.56,20.11],[19.04,20.53],[18.92,19.84],[18.26,19.87],[18.33,20.31],[17.89,20.32],[18.11,21.52],[18.86,21.56],[19.74,20.84],[18.32,21.87],[18.35,22.46],[18.74,22.45],[18.27,24.38],[19.32,25.41],[17.92,28.31],[18.25,30.09],[18.08,30.5],[17.4,30.21],[17.88,31.18],[17,31.44],[16.02,30.42],[16.38,29.34],[16.05,28.54],[16.31,27.4],[17.01,26.93],[16.59,26.65],[17.52,24.45],[17.17,24.33],[16.6,25.4],[15.91,25.03],[15.89,24.07],[14.26,23.79],[15.15,24.38],[15.49,25.6],[13.88,29.51],[14.35,31.17],[13.76,32.16],[12.53,32.17],[12.4,32.82],[13.34,34.27],[17.29,33.93],[21.63,31.84],[19.7,30.49],[20.56,26.6],[20.71,23.07]]]}},{"type":"Feature","properties":{},"geometry":{"type":"Polygon","coordinates":[[[13.56,33.07],[12.65,32],[10.76,32.03],[10.25,30.96],[6.26,30.83],[5.91,32.81],[6.5,32.41],[5.61,33.5],[3.88,34.45],[2.53,34.27],[2.15,34.44],[2.49,34.8],[1.96,34.91],[3.13,35.57],[3.58,35.28],[4.56,35.68],[3.69,36.6],[5.19,36.51],[5.67,37.25],[8.12,36.91],[10.22,37.37],[12.77,40.83],[15.1,42.32],[19.47,43.38],[22.85,42.41],[20.44,41.15],[18.9,39.48],[14.71,37.65],[12.85,36.29],[11.83,34.75],[12.83,33.32],[13.56,33.07]]]}},{"type":"Feature","properties":{},"geometry":{"type":"Polygon","coordinates":[[[5.67,37.25],[6.28,37.77],[5.92,38.41],[7.73,39.42],[7.04,39.42],[7.87,39.84],[7.28,39.94],[7.36,41.04],[7.91,40.92],[7.66,40.52],[8.22,40.91],[7.85,41.55],[9.08,41.83],[8.82,42.13],[9.32,42.42],[9.97,42.23],[9.83,42.76],[10.88,42.69],[9.55,43.12],[9.81,43.38],[9.1,43.46],[9.18,43.89],[10.08,43.96],[10.69,43.48],[11.39,43.78],[11.4,43.24],[12.37,44.19],[14.41,43.85],[14.32,44.32],[15.21,44.28],[19.47,43.38],[13.98,41.76],[12.2,40.16],[10.22,37.37],[8.12,36.91],[5.67,37.25]]]}},{"type":"Feature","properties":{},"geometry":{"type":"Polygon","coordinates":[[[30.75,39.4],[31.03,38.43],[30.66,37.84],[26.71,36.58],[25.6,37.24],[25.47,37.95],[27.66,39.44],[27.79,40.38],[30.75,39.4]]]}},{"type":"Feature","properties":{},"geometry":{"type":"Polygon","coordinates":[[[-34.6,59.27],[-35,58.95],[-34.82,59.53],[-34.6,59.27]]]}},{"type":"Feature","properties":{},"geometry":{"type":"Polygon","coordinates":[[[-30.76,58.66],[-29.95,58.37],[-31.23,58.56],[-30.76,58.66]]]}},{"type":"Feature","properties":{},"geometry":{"type":"Polygon","coordinates":[[[-35.87,60.26],[-36.51,59.77],[-37.65,60.11],[-35.87,60.26]]]}},{"type":"Feature","properties":{},"geometry":{"type":"Polygon","coordinates":[[[-6.16,65.98],[-4.96,65.94],[-4.48,65.28],[-6.68,65.59],[-6.16,65.98]]]}},{"type":"Feature","properties":{},"geometry":{"type":"Polygon","coordinates":[[[-7.34,65.98],[-6.53,65.86],[-7.55,65.73],[-7.34,65.98]]]}},{"type":"Feature","properties":{},"geometry":{"type":"Polygon","coordinates":[[[-35.34,60.86],[-35.46,60.37],[-36.82,60.74],[-35.34,60.86]]]}},{"type":"Feature","properties":{},"geometry":{"type":"Polygon","coordinates":[[[-30.66,59.62],[-30.16,59.2],[-30.38,58.88],[-31.39,58.81],[-31.15,59.8],[-30.66,59.62]]]}},{"type":"Feature","properties":{},"geometry":{"type":"Polygon","coordinates":[[[-11.11,64.66],[-9.82,64.39],[-11.46,64.69],[-11.11,64.66]]]}},{"type":"Feature","properties":{},"geometry":{"type":"Polygon","coordinates":[[[-32.52,60.79],[-32.53,60.23],[-32.08,60.37],[-31.68,59.72],[-32.13,59.01],[-33.73,59.85],[-32.91,60.17],[-33.44,60.37],[-33.33,60.74],[-32.52,60.79]]]}},{"type":"Feature","properties":{},"geometry":{"type":"Polygon","coordinates":[[[-8.91,80.26],[-5.96,80.62],[-8.83,80.6],[-7.11,81.23],[0.26,80.61],[-8.91,80.26]]]}},{"type":"Feature","properties":{},"geometry":{"type":"Polygon","coordinates":[[[-11.61,66.27],[-7.76,66.16],[-7.93,65.54],[-6.55,64.8],[-11.61,66.27]]]}},{"type":"Feature","properties":{},"geometry":{"type":"Polygon","coordinates":[[[-6.67,64.71],[-5.57,63.96],[-8.13,64.14],[-7.14,64.41],[-8.03,64.35],[-7.66,64.88],[-8.41,64.29],[-9.06,64.48],[-8.41,65.18],[-6.67,64.71]]]}},{"type":"Feature","properties":{},"geometry":{"type":"Polygon","coordinates":[[[-9.16,65.37],[-9.09,65.03],[-9.77,65.29],[-9.17,64.88],[-9.51,64.51],[-12.59,65.52],[-12.02,65.82],[-11.94,65.43],[-10.89,65.43],[-11.61,65.87],[-9.16,65.37]]]}},{"type":"Feature","properties":{},"geometry":{"type":"Polygon","coordinates":[[[-6.33,78.31],[-6.42,78.69],[-4.36,78.48],[-6.33,78.31]]]}},{"type":"Feature","properties":{},"geometry":{"type":"Polygon","coordinates":[[[-30.41,61.15],[-30.58,60.66],[-30.79,60.98],[-30.41,61.15]]]}},{"type":"Feature","properties":{},"geometry":{"type":"Polygon","coordinates":[[[-9.09,79.05],[-6.57,79.36],[-9.8,79.39],[-5.17,80.15],[-3.32,79.98],[-3.61,79.61],[-3,79.42],[-3.46,79.36],[-2.86,79.3],[-5.21,78.83],[-4.1,78.79],[-4.52,78.7],[-9.09,79.05]]]}},{"type":"Feature","properties":{},"geometry":{"type":"Polygon","coordinates":[[[-10.51,67.37],[-9.78,67.2],[-9.95,67.53],[-8.59,67.74],[-7.68,67.16],[-8.9,66.41],[-9.78,66.4],[-9.22,66.56],[-9.51,66.79],[-10.23,66.36],[-11.33,66.49],[-10.83,66.74],[-11.52,66.98],[-9.77,66.99],[-10.51,67.37]]]}},{"type":"Feature","properties":{},"geometry":{"type":"Polygon","coordinates":[[[-6.43,71.11],[-5.73,71.23],[-6.22,71.08],[-5.49,70.78],[-6.15,70.61],[-6.43,71.11]]]}},{"type":"Feature","properties":{},"geometry":{"type":"Polygon","coordinates":[[[-5.11,73.38],[-3.55,73.18],[-5.05,72.97],[-5.11,73.38]]]}},{"type":"Feature","properties":{},"geometry":{"type":"Polygon","coordinates":[[[-6.29,71.63],[-5.53,71.72],[-4.08,70.99],[-4.99,70.8],[-6.29,71.63]]]}},{"type":"Feature","properties":{},"geometry":{"type":"Polygon","coordinates":[[[-12.79,78.26],[-12.04,78.75],[-9.44,79.02],[-6.7,78.32],[-12.79,78.26]]]}},{"type":"Feature","properties":{},"geometry":{"type":"Polygon","coordinates":[[[-27.5,61.88],[-26.89,60.46],[-26.36,60.67],[-26.78,59.82],[-26.01,59.45],[-27.32,58.97],[-27.33,59.35],[-28.04,58.57],[-28.2,59.08],[-28.26,58.62],[-29.22,58.82],[-29.4,59.14],[-28.85,59.11],[-29.53,59.71],[-28.11,59.7],[-29.63,60.05],[-29.02,60.37],[-29.66,60.7],[-28.84,60.66],[-29.32,61.12],[-28.25,61.11],[-28.57,61.49],[-27.5,61.88]]]}},{"type":"Feature","properties":{},"geometry":{"type":"Polygon","coordinates":[[[-16.19,60.71],[-15.5,60.24],[-16.6,60.63],[-16.19,60.71]]]}},{"type":"Feature","properties":{},"geometry":{"type":"Polygon","coordinates":[[[-20.05,62.82],[-19.12,62.62],[-19.78,62.33],[-18.71,62.6],[-17.69,61.92],[-18.62,61.4],[-20.1,61.43],[-19.31,61.2],[-20.42,60.81],[-18.64,61.17],[-20.36,60.09],[-20.76,60.28],[-20.59,59.92],[-21.36,59.97],[-20.72,59.82],[-21.12,59.48],[-23.56,59.26],[-22.3,59.03],[-23.51,59.11],[-22.51,58.65],[-23.09,58.34],[-22.73,58.16],[-23.48,58.1],[-23.15,57.82],[-24.12,57.87],[-24.28,57.32],[-25.86,57.4],[-24.7,57.2],[-24.28,56.59],[-25.8,56.21],[-25.58,56.47],[-26.2,56.85],[-26.16,56.55],[-27.37,56.54],[-29.2,57.11],[-27.67,57.51],[-27.96,58.25],[-26.76,57.5],[-25.6,58.16],[-26.45,57.67],[-26.95,58.19],[-26.42,58.55],[-27.56,58.48],[-26.97,59.04],[-25.41,58.65],[-25.64,58.95],[-25.02,58.94],[-26.08,59.2],[-25.64,59.15],[-26.3,60],[-26.04,60.52],[-24.42,59.57],[-24.06,59.63],[-24.94,60.4],[-22.54,60.7],[-23.32,60.8],[-22.42,61.28],[-24.05,60.64],[-25.77,60.71],[-24.25,61.19],[-26.19,60.87],[-26.61,61.24],[-24.92,61.39],[-26.63,61.35],[-25.57,61.69],[-26.86,62.04],[-25.41,62.31],[-24.55,61.95],[-25.02,62.36],[-24.37,62.56],[-23.01,61.72],[-23.75,62.39],[-23.08,62.47],[-23.22,62.76],[-22.17,62.77],[-21.93,62.26],[-21.65,62.41],[-22.05,62.82],[-20.85,62.45],[-21.06,62.71],[-20.05,62.82]]]}},{"type":"Feature","properties":{},"geometry":{"type":"Polygon","coordinates":[[[-12.48,42.59],[-12.1,43.21],[-12.61,42.93],[-12.92,43.45],[-11.86,43.94],[-12.89,43.5],[-13.36,43.81],[-12.6,44.22],[-13.56,44.08],[-11.98,45.06],[-13.62,44.14],[-13.75,44.54],[-13.08,44.65],[-13.68,44.68],[-13.03,44.95],[-14.05,45.11],[-12.08,45.39],[-14.02,45.24],[-13.53,45.82],[-12.01,45.75],[-12.64,46.15],[-14.02,45.62],[-13.76,46.11],[-13.18,46.08],[-13.91,46.23],[-12.15,46.16],[-12.91,46.34],[-12.65,46.68],[-13.98,46.36],[-12.79,46.74],[-12.95,47.29],[-12.44,47.17],[-12.99,47.35],[-12.73,48.21],[-15.08,48.61],[-12.97,48.49],[-13.85,49.1],[-13.35,49.16],[-14.02,49.18],[-13.71,49.4],[-14.18,49.21],[-13.68,49.58],[-14.45,49.44],[-13.87,49.8],[-14.84,49.98],[-14.89,49.42],[-15.68,49.37],[-15.37,49.94],[-15.83,49.89],[-15.56,50.25],[-15.94,50.34],[-15.52,50.76],[-16.11,50.97],[-15.86,51.27],[-16.53,52.11],[-17.02,51.92],[-16.54,52.24],[-17.84,53.12],[-17.8,53.5],[-19.92,54.06],[-21.47,53.82],[-21.13,53.56],[-21.96,53.74],[-22.41,54.03],[-21.74,54.33],[-23.07,54.67],[-21.08,54.91],[-21.08,55.25],[-22.21,55.1],[-23.6,55.84],[-20.97,56.86],[-20.83,57.65],[-20.36,57.78],[-21.59,57.98],[-20.49,58.8],[-20.16,58.42],[-20.4,58.81],[-19.73,58.81],[-19.79,59.57],[-18.44,59.1],[-19.46,59.7],[-18.22,60.17],[-17.63,59.35],[-17.67,59.89],[-16.59,59.6],[-17.39,60.41],[-15.29,59.91],[-15.61,60.42],[-14.97,60.46],[-16.2,60.83],[-14.51,60.84],[-16.38,61.19],[-14.44,61.13],[-14.75,61.31],[-14.38,61.58],[-15.06,61.74],[-14.33,62.1],[-12.06,62.35],[-13.62,61.75],[-13.29,61.72],[-13.68,61.29],[-11.82,62.27],[-11.5,61.89],[-10.27,62.09],[-12.13,60.56],[-10.27,61.34],[-10.11,60.72],[-9.6,61.67],[-8.86,61.16],[-8.55,60.19],[-8.45,61.49],[-7.7,61.48],[-7.96,61.96],[-6.43,62.1],[-6.31,61.04],[-7.68,60.46],[-6.11,60.86],[-7.08,60.13],[-6.48,59.86],[-6.57,60.24],[-6.01,60.39],[-6.19,59.82],[-5.5,59.49],[-5.77,58.95],[-4.95,57.92],[-4.62,57.96],[-4.88,58.32],[-4.1,58.28],[-4.48,57.88],[-3.36,58],[-2.79,57.54],[-4.32,57.37],[-3.7,57.42],[-4.29,57],[-2.84,56.95],[-3.42,56.53],[-2.59,56.68],[-1.73,56.18],[-3.17,56.18],[-2.05,55.92],[-2.85,55.7],[-0.85,55.56],[-2.23,55.25],[-1.07,55.16],[-2.13,54.95],[-1.35,54.44],[-1.63,54.82],[-0.85,54.86],[-0.61,54.45],[-1.28,54.02],[-2.33,54.23],[-1.5,54.38],[-3.23,54.23],[-2.45,53.97],[-3.57,53.63],[-2.97,53.5],[-3.49,53.24],[-2.27,53.5],[-3.16,53.03],[-1.83,53.21],[-2.35,52.74],[-1.87,52.88],[-1.75,52.51],[-1.61,52.99],[-0.25,52.81],[-0.34,52.47],[0.14,52.74],[0.04,52.4],[0.5,52.48],[0.45,52.07],[1.17,51.73],[0.5,51.87],[0.74,51.48],[0.37,51.38],[-0.83,52.01],[-3.25,52.17],[-2.36,51.99],[-2.78,51.7],[-1.21,51.89],[-1.6,51.35],[-2.28,51.4],[-2.07,50.89],[-2.49,50.59],[-1.01,50.89],[-1.96,50.35],[-1.27,50.38],[-0.52,51.08],[1.18,51.1],[0.01,49.33],[-1.66,48.28],[-3.13,48.46],[-2.52,47.88],[-3.03,47.5],[-3.19,46.08],[-3.89,46.01],[-3.6,45.74],[-4.53,45.51],[-4.37,45.19],[-5.01,45.77],[-4.89,44.96],[-5.57,44.94],[-5.96,44.61],[-5.76,44.15],[-6.35,44.15],[-5.68,43.5],[-6.31,43.27],[-5.52,42.83],[-6.15,42.88],[-5.61,42.69],[-6.28,42.46],[-5.94,41.94],[-6.79,41.63],[-6.08,41.38],[-6.63,41.43],[-5.95,41.02],[-6.42,40.51],[-5.95,40.4],[-6.45,40.24],[-6.01,40.07],[-6.63,40.01],[-6.04,40.03],[-6.48,39.73],[-5.99,39.53],[-6.84,39.46],[-6.03,39.03],[-6.72,39.23],[-7.31,38.83],[-7,39.37],[-7.34,38.87],[-7.14,39.53],[-7.96,39.23],[-7.58,39.63],[-8.14,39.38],[-7.62,39.92],[-8.08,39.56],[-8.01,40],[-8.54,39.38],[-9.4,39.27],[-9.32,39.81],[-10.04,39.79],[-9.57,39.98],[-10.2,39.92],[-9.79,40.06],[-10.36,40.17],[-10.05,40.47],[-11.03,40.77],[-10.78,41.37],[-11.12,41.05],[-11.03,41.51],[-11.67,41.55],[-11.12,41.66],[-12,41.86],[-11.67,42.15],[-12.12,42.2],[-11.52,42.45],[-12.22,42.34],[-11.35,42.71],[-11.61,42.95],[-11,42.66],[-12.02,43.43],[-11.69,42.98],[-12.48,42.59]]]}}]}
