{"type":"FeatureCollection","features":[{"type":"Feature","properties":{},"geometry":{"type":"Polygon","coordinates":[[[22.5,-72.85],[25.39,-73],[26.04,-73.51],[24.91,-73.71],[22.1,-73.1],[22.5,-72.85]]]}},{"type":"Feature","properties":{},"geometry":{"type":"Polygon","coordinates":[[[36.14,-72.49],[35.01,-72.52],[35.54,-72.38],[35.25,-72.11],[37.19,-72.43],[36.14,-72.49]]]}},{"type":"Feature","properties":{},"geometry":{"type":"Polygon","coordinates":[[[-16.54,-65.47],[-14.06,-65.15],[-13.78,-65.52],[-14.86,-66.19],[-16.54,-65.47]]]}},{"type":"Feature","properties":{},"geometry":{"type":"Polygon","coordinates":[[[-7.81,-77.19],[-8.17,-77.58],[-8.76,-77.31],[-7.81,-77.19]]]}},{"type":"Feature","properties":{},"geometry":{"type":"Polygon","coordinates":[[[-17.98,-75.4],[-16.65,-75.63],[-18.73,-75.46],[-17.98,-75.4]]]}},{"type":"Feature","properties":{},"geometry":{"type":"Polygon","coordinates":[[[-15.19,-77.03],[-17.41,-76.16],[-14.61,-76.09],[-12.97,-76.63],[-15.19,-77.03]]]}},{"type":"Feature","properties":{},"geometry":{"type":"Polygon","coordinates":[[[-13.93,-78.07],[-14.03,-77.71],[-12.53,-77.44],[-13.87,-77.34],[-12.55,-76.89],[-11.6,-77.53],[-12.31,-77.89],[-11.42,-77.91],[-13.93,-78.07]]]}},{"type":"Feature","properties":{},"geometry":{"type":"Polygon","coordinates":[[[-26.1,-64.16],[-24.13,-64.2],[-25.17,-64.53],[-26.1,-64.16]]]}},{"type":"Feature","properties":{},"geometry":{"type":"Polygon","coordinates":[[[-27.45,-68.33],[-27.03,-68.56],[-27.81,-68.45],[-27.45,-68.33]]]}},{"type":"Feature","properties":{},"geometry":{"type":"Polygon","coordinates":[[[-26.74,-64.78],[-25.82,-65.14],[-26.43,-65.25],[-26.74,-64.78]]]}},{"type":"Feature","properties":{},"geometry":{"type":"Polygon","coordinates":[[[-30.7,-71.02],[-29.8,-71.02],[-30.75,-70.85],[-29.63,-70.7],[-30.89,-70.59],[-29.61,-70.47],[-30.18,-70.16],[-28.5,-70.56],[-29.35,-72.22],[-30.64,-71.65],[-30,-71.69],[-30.48,-71.43],[-29.96,-71.12],[-31.19,-71.14],[-30.7,-71.02]]]}},{"type":"Feature","properties":{},"geometry":{"type":"Polygon","coordinates":[[[-30.57,-63.07],[-30.35,-63.62],[-30.95,-63.43],[-30.57,-63.07]]]}},{"type":"Feature","properties":{},"geometry":{"type":"Polygon","coordinates":[[[-33.03,-63.01],[-32.06,-63.12],[-33.09,-63.46],[-33.03,-63.01]]]}},{"type":"Feature","properties":{},"geometry":{"type":"Polygon","coordinates":[[[-32.9,-61.21],[-26.99,-61.73],[-25.32,-62.54],[-26.4,-63.33],[-26.74,-63.1],[-26.42,-62.66],[-27.92,-62.8],[-28.18,-62.98],[-27.58,-63.05],[-28.01,-63.32],[-27.21,-63.51],[-29.2,-63.92],[-28.59,-63.69],[-29.49,-63.56],[-28.49,-63.29],[-29.31,-63.38],[-28.82,-62.85],[-29.52,-63.04],[-29.51,-62.36],[-29.02,-62.24],[-30.41,-62.28],[-30.28,-61.74],[-31.64,-62.16],[-33.06,-61.98],[-33.23,-61.31],[-32.9,-61.21]]]}},{"type":"Feature","properties":{},"geometry":{"type":"Polygon","coordinates":[[[-36.01,-59.35],[-34.37,-60.2],[-35.12,-60.23],[-36.01,-59.35]]]}},{"type":"Feature","properties":{},"geometry":{"type":"Polygon","coordinates":[[[60.09,-57.54],[59.23,-58.32],[58.59,-57.97],[60.09,-57.54]]]}},{"type":"Feature","properties":{},"geometry":{"type":"Polygon","coordinates":[[[-37.79,-56.51],[-37.12,-56.51],[-37.09,-56.98],[-37.6,-57.09],[-37.79,-56.51]]]}},{"type":"Feature","properties":{},"geometry":{"type":"Polygon","coordinates":[[[-35.78,-54.32],[-34.78,-54.52],[-35.19,-54.84],[-35.78,-54.32]]]}},{"type":"Feature","properties":{},"geometry":{"type":"Polygon","coordinates":[[[-17.2,-65.53],[-16.83,-66.24],[-15.57,-66.33],[-16.54,-66.46],[-16.36,-66.74],[-9.97,-66.03],[-11.2,-66],[-10.23,-65.71],[-7.62,-65.72],[-4.57,-66.47],[1.98,-65.56],[3.98,-67.54],[2.49,-68.54],[2.38,-69.09],[-0.24,-69.45],[-13.05,-68.16],[-15.24,-68.34],[-17.48,-67.79],[-17.17,-67.53],[-17.75,-66.66],[-18.76,-66.02],[-17.2,-65.53]]]}},{"type":"Feature","properties":{},"geometry":{"type":"Polygon","coordinates":[[[-36.26,-53.76],[-35.55,-53.83],[-36.1,-54.35],[-35.3,-55.12],[-36.01,-55.44],[-35.7,-56.74],[-34.84,-57.16],[-34.29,-57.13],[-34.09,-56.57],[-33.76,-56.86],[-34.19,-56.94],[-33.77,-57.24],[-34.62,-57.48],[-33.72,-57.69],[-35.02,-57.68],[-33.95,-58.13],[-34.29,-58.55],[-33.7,-59.08],[-31.58,-59.52],[-30.97,-59.26],[-31.41,-58.98],[-31.08,-58.72],[-30.46,-59.28],[-25.82,-59.47],[-23.35,-60.32],[-22.49,-60.33],[-22.44,-59.96],[-20.35,-61.03],[-20.01,-60.82],[-18.93,-62.07],[-18.63,-61.76],[-17.36,-63.64],[-15.32,-63.31],[-14.44,-64.65],[-17.4,-65.03],[-17.2,-65.53],[-22.32,-66.98],[-25.07,-66.53],[-24.38,-66.27],[-26.45,-65.64],[-24.73,-65.29],[-24.77,-64.77],[-23.96,-64.9],[-24.49,-62.03],[-26.22,-61.48],[-31.45,-61.04],[-31.09,-60.53],[-31.44,-60.21],[-32.08,-60.34],[-34.04,-59.37],[-34.35,-59.76],[-35.18,-59.48],[-34.35,-59.27],[-35.49,-58.96],[-35.1,-58.71],[-35.96,-58.39],[-35.68,-57.92],[-36.17,-57.82],[-36.08,-57.34],[-36.87,-57.13],[-36.36,-56.95],[-36.94,-56.43],[-36.41,-56.12],[-36.97,-55.55],[-36.26,-53.76]]]}},{"type":"Feature","properties":{},"geometry":{"type":"Polygon","coordinates":[[[-4.1,-62.17],[-4.65,-61.19],[-4.91,-57.99],[-4.36,-57.34],[-3.63,-57.44],[-4.83,-56.5],[-7.02,-56.98],[-8.03,-56.11],[-7.72,-54.03],[-6.9,-53],[-7.16,-51.76],[-6.37,-50.24],[-4.43,-48.59],[-4.39,-47.85],[-5.24,-47.49],[-4.45,-47.67],[-4.55,-46.83],[-3.3,-47.47],[-2.91,-47.24],[-3.44,-46.49],[-3.2,-46.25],[-2.67,-46.15],[-2.41,-46.84],[-1.18,-46.41],[-1.56,-46.32],[-1.56,-45.47],[-0.73,-46.53],[0.13,-46.58],[1.29,-45.16],[3.44,-44.53],[5.37,-44.78],[7.38,-44.19],[10.66,-44.41],[15.5,-43.73],[15.62,-42.82],[16.03,-42.69],[17.98,-44.37],[19.49,-43.03],[22.56,-42.21],[23.46,-42.68],[24,-42.47],[23.61,-42.1],[24.15,-42.01],[24.24,-42.5],[24.84,-42.53],[24.85,-41.75],[25.92,-41.49],[27.77,-41.96],[28.37,-42.75],[27.72,-42.83],[28.87,-43.78],[33.92,-45.72],[33.44,-46.59],[32.81,-46.65],[33.25,-46.77],[32.66,-46.79],[32.94,-47.04],[32.37,-46.89],[32.24,-47.46],[31.44,-47.65],[31.87,-47.88],[31.6,-48.3],[32.06,-49.21],[34.23,-48.19],[35.34,-48.5],[38.15,-47.83],[41.53,-48.04],[45.58,-49.31],[48.17,-50.9],[48.96,-51.11],[49.55,-50.54],[50.28,-50.83],[49.83,-51.31],[51.48,-51.8],[52.61,-53.17],[52.89,-54.26],[56.42,-54.77],[56.01,-55.66],[56.82,-56.11],[56.62,-56.99],[58.37,-57.95],[57.88,-58.14],[61.33,-59.34],[60.79,-60.33],[61.33,-60.8],[63.3,-60.32],[64.76,-62.09],[66.82,-61.9],[65.57,-62.35],[65.34,-62.99],[66.58,-65.13],[66.27,-65.45],[66.96,-65.7],[66.66,-66.24],[68.06,-66.82],[65.86,-66.63],[66.1,-66.91],[65.62,-67.38],[66.23,-67.87],[64.63,-67.8],[65.67,-68.9],[64.59,-69.13],[66.23,-69.92],[64.41,-70.42],[64.84,-70.6],[64.11,-71.12],[64.84,-71.2],[64.14,-71.33],[63.99,-71.88],[60.8,-72.63],[61.08,-72.82],[60.38,-72.88],[61.06,-72.94],[60.34,-72.93],[60.83,-73.17],[59.39,-73.46],[60.08,-73.47],[58.4,-74.81],[53.5,-75.59],[48.31,-74.54],[48.04,-74.32],[48.87,-74.27],[48.27,-73.89],[48.63,-73.81],[46.99,-73.59],[47.33,-73.19],[45.4,-73.18],[46.11,-72.94],[45.02,-72.72],[46.49,-72.74],[45.81,-72.46],[44.37,-72.32],[43.23,-72.76],[42.79,-72.69],[43.64,-72.28],[39.17,-71.64],[36.23,-71.75],[35.06,-71.3],[34.55,-71.51],[35.19,-71.8],[32.82,-71.77],[33.95,-71.3],[33.14,-70.8],[33.36,-70.36],[24.98,-69.22],[25.29,-68.91],[24.11,-69.27],[21.52,-68.83],[17.23,-68.95],[15.66,-67.87],[17.15,-69.08],[13.62,-68.99],[11.92,-68.38],[9.06,-68.69],[6.97,-68.37],[6.57,-68.51],[9.72,-69.6],[10.07,-71.27],[5.63,-71.16],[5.89,-69.83],[4.09,-67.94],[-0.44,-67.19],[-0.86,-65.26],[-4.1,-62.17]]]}},{"type":"Feature","properties":{},"geometry":{"type":"Polygon","coordinates":[[[16.94,-70.56],[17.96,-71.49],[17.57,-71.96],[13.56,-72.61],[22.38,-74.08],[22.65,-74.72],[23.82,-74.56],[25.02,-75.57],[19.83,-75.79],[17.19,-75.43],[17.46,-75.58],[13.86,-76.23],[15.49,-76.78],[18.26,-76.85],[14.21,-76.82],[15.1,-77.22],[12.73,-77.63],[-0.41,-78.21],[0.11,-77.93],[-8.08,-77.1],[-16.42,-75.62],[-15.94,-75.29],[-17.36,-74.77],[-19.89,-74.92],[-17.06,-74.14],[-19.92,-74.11],[-20.17,-73.82],[-18.95,-73.23],[-20.22,-72.98],[-18.17,-72.57],[-20.56,-72.34],[-20.82,-71.84],[-19.55,-71.44],[-20.34,-71.09],[-21.96,-71.57],[-23.29,-71.33],[-24.72,-71.94],[-24.92,-71.4],[-25.82,-71.34],[-26.36,-71.65],[-25.22,-72.08],[-27.04,-72.32],[-26.3,-71.35],[-27.33,-70.81],[-26.18,-70.19],[-27.57,-69.77],[-26.66,-69.53],[-26.48,-68.75],[-28.33,-68.2],[-27.06,-68.06],[-26.26,-67.55],[-27.06,-67.24],[-25.93,-67.17],[-25.07,-66.53],[-15.24,-68.34],[-13.05,-68.16],[-0.8,-69.46],[2.58,-69.09],[10.93,-70.84],[16.94,-70.56]]]}},{"type":"Feature","properties":{},"geometry":{"type":"Polygon","coordinates":[[[-35.48,-53.1],[-35.05,-53.06],[-35.75,-53.62],[-35.48,-53.1]]]}},{"type":"Feature","properties":{},"geometry":{"type":"Polygon","coordinates":[[[-37,-53.39],[-36.68,-53.35],[-37.33,-53.92],[-37,-53.39]]]}},{"type":"Feature","properties":{},"geometry":{"type":"Polygon","coordinates":[[[-25.33,-52.73],[-25.79,-52.96],[-24.54,-53.39],[-26.64,-53.17],[-25.33,-52.73]]]}},{"type":"Feature","properties":{},"geometry":{"type":"Polygon","coordinates":[[[-24.97,-52.66],[-23.91,-52.74],[-24.87,-52.97],[-24.97,-52.66]]]}},{"type":"Feature","properties":{},"geometry":{"type":"Polygon","coordinates":[[[-28.92,-52.19],[-28.61,-52.65],[-29.14,-52.45],[-28.92,-52.19]]]}},{"type":"Feature","properties":{},"geometry":{"type":"Polygon","coordinates":[[[-27.71,-51.7],[-27.42,-52.37],[-27.95,-52.12],[-27.71,-51.7]]]}},{"type":"Feature","properties":{},"geometry":{"type":"Polygon","coordinates":[[[-30.18,-51.89],[-29.24,-52.43],[-30.56,-52.33],[-30.18,-51.89]]]}},{"type":"Feature","properties":{},"geometry":{"type":"Polygon","coordinates":[[[-29.62,-51.06],[-28.86,-51.09],[-29.88,-51.53],[-29.51,-51.96],[-30.53,-51.72],[-29.9,-51.76],[-30.36,-51.37],[-29.62,-51.06]]]}},{"type":"Feature","properties":{},"geometry":{"type":"Polygon","coordinates":[[[-28.32,-52.68],[-26.94,-52.6],[-27.89,-52.31],[-25.95,-52.36],[-27.32,-51.93],[-26.77,-51.34],[-27.77,-51.5],[-27.6,-51.03],[-27.97,-50.92],[-27.15,-50.47],[-24.55,-51.74],[-22.33,-52.01],[-23.46,-52.59],[-28.76,-52.84],[-28.32,-52.68]]]}},{"type":"Feature","properties":{},"geometry":{"type":"Polygon","coordinates":[[[-18.29,-47.99],[-18.91,-48.94],[-19.61,-48.88],[-18.73,-48.46],[-19.44,-48.17],[-18.29,-47.99]]]}},{"type":"Feature","properties":{},"geometry":{"type":"Polygon","coordinates":[[[-17.83,-47.88],[-16.66,-48.11],[-18.17,-48.92],[-17.83,-47.88]]]}},{"type":"Feature","properties":{},"geometry":{"type":"Polygon","coordinates":[[[-32.67,-49.53],[-32.3,-49.87],[-32.88,-49.85],[-32.67,-49.53]]]}},{"type":"Feature","properties":{},"geometry":{"type":"Polygon","coordinates":[[[35.27,-80.83],[34.85,-80.78],[35.53,-80.63],[34.82,-80.51],[36.19,-80.56],[35.27,-80.83]]]}},{"type":"Feature","properties":{},"geometry":{"type":"Polygon","coordinates":[[[-33.53,-48.95],[-33,-49.01],[-33.45,-49.37],[-33.53,-48.95]]]}},{"type":"Feature","properties":{},"geometry":{"type":"Polygon","coordinates":[[[-33.21,-48.32],[-33.36,-48.82],[-33.97,-48.29],[-33.37,-48.28],[-33.55,-47.6],[-33.1,-47.81],[-32.9,-48.9],[-33.21,-48.32]]]}},{"type":"Feature","properties":{},"geometry":{"type":"Polygon","coordinates":[[[-33.64,-47.04],[-33.31,-47.57],[-33.76,-47.53],[-33.64,-47.04]]]}},{"type":"Feature","properties":{},"geometry":{"type":"Polygon","coordinates":[[[21.94,-85.84],[20.89,-85.57],[23.26,-85.58],[20.79,-85.54],[28.44,-85.41],[21.94,-85.84]]]}},{"type":"Feature","properties":{},"geometry":{"type":"Polygon","coordinates":[[[20.89,-87.37],[22.18,-87.46],[19.96,-87.51],[20.89,-87.37]]]}},{"type":"Feature","properties":{},"geometry":{"type":"Polygon","coordinates":[[[-33.72,-43.83],[-33.54,-44.1],[-34.07,-44.06],[-33.72,-43.83]]]}},{"type":"Feature","properties":{},"geometry":{"type":"Polygon","coordinates":[[[-33.13,-43.1],[-32.8,-43.22],[-33.26,-43.68],[-33.13,-43.1]]]}},{"type":"Feature","properties":{},"geometry":{"type":"Polygon","coordinates":[[[-34.22,-76.92],[-33.99,-76.61],[-32.37,-76.94],[-34.22,-76.92]]]}},{"type":"Feature","properties":{},"geometry":{"type":"Polygon","coordinates":[[[-34.7,-40.7],[-34.03,-41.1],[-34.41,-41.43],[-33.98,-41.71],[-34.2,-42.31],[-34.81,-42.2],[-34.7,-40.7]]]}},{"type":"Feature","properties":{},"geometry":{"type":"Polygon","coordinates":[[[35.79,-83.66],[35,-83.53],[36.15,-83.56],[35.49,-83.57],[35.79,-83.66]]]}},{"type":"Feature","properties":{},"geometry":{"type":"Polygon","coordinates":[[[43.54,-77.79],[44.97,-77.6],[40.9,-77.3],[41.78,-77.09],[41.49,-76.7],[44.09,-76.35],[53.66,-75.68],[53.06,-76],[53.61,-76.09],[51.75,-76.98],[52.29,-77.09],[51.71,-77.15],[52.53,-77.26],[51.11,-77.55],[52.65,-77.28],[54.5,-78.11],[51.95,-78.47],[42.42,-78.16],[44.79,-77.79],[43.54,-77.79]]]}},{"type":"Feature","properties":{},"geometry":{"type":"Polygon","coordinates":[[[42.38,-83.04],[35.18,-82.82],[35.23,-83.23],[34.51,-83.33],[34.98,-83.45],[32.94,-83.24],[33.27,-83.14],[32.11,-83.43],[33.99,-83.51],[32.34,-83.66],[31.68,-83.47],[32.46,-83.25],[30.94,-83.51],[31.36,-83.34],[28.09,-83.09],[27.13,-82.31],[33.39,-80.47],[35.1,-78.6],[35.26,-77.71],[36.35,-78.38],[35.53,-78.66],[35.18,-79.41],[35.59,-80.02],[35.13,-80.5],[38.84,-81.55],[38.24,-81.75],[38.96,-82.13],[41.86,-82.45],[42.38,-83.04]]]}},{"type":"Feature","properties":{},"geometry":{"type":"Polygon","coordinates":[[[-40.92,-84.25],[-38.4,-84.68],[-31.92,-84.32],[-31.24,-84.41],[-32.62,-84.45],[-24.23,-85.48],[10.48,-85.34],[21.23,-86.36],[20.12,-86.39],[32.92,-86.83],[12.69,-87.61],[-17.8,-87.26],[-39.41,-85.86],[-44.8,-84.4],[-40.92,-84.25]]]}},{"type":"Feature","properties":{},"geometry":{"type":"Polygon","coordinates":[[[56.71,-78.38],[55.91,-78.43],[56.13,-78.11],[56.71,-78.38]]]}},{"type":"Feature","properties":{},"geometry":{"type":"Polygon","coordinates":[[[65.13,-68.96],[64.6,-69.39],[63.09,-68.44],[63.79,-68.24],[65.13,-68.96]]]}},{"type":"Feature","properties":{},"geometry":{"type":"Polygon","coordinates":[[[96.33,-84.17],[93.54,-84.47],[95.91,-84.52],[93.96,-84.61],[95.01,-84.69],[94.23,-85.15],[91.73,-85.24],[94.29,-85.37],[70.99,-85.94],[72.59,-86],[66.24,-86.47],[77.95,-86.42],[73.15,-86.57],[73.41,-86.74],[56.6,-86.79],[40.3,-87.68],[42.48,-87.86],[42.11,-88.1],[28.73,-88.32],[20.36,-87.51],[23.17,-87.2],[18.47,-86.88],[28.18,-86.4],[23.66,-86.06],[21.49,-85.16],[22.39,-84.88],[21.64,-84.25],[23.92,-83.65],[29.04,-83.61],[28.76,-83.85],[32.15,-84.66],[46.98,-84.34],[48.72,-84.5],[48.89,-84.81],[48.1,-84.95],[48.9,-85.14],[65.98,-85.82],[77.96,-85.42],[78.57,-85.48],[75.69,-85.65],[80.96,-85.69],[80.1,-85.58],[82.67,-85.58],[78.91,-85.32],[96.74,-83.83],[98.23,-84.1],[96.33,-84.17]]]}},{"type":"Feature","properties":{},"geometry":{"type":"Polygon","coordinates":[[[113.87,-69.6],[114.23,-69.72],[113.93,-70],[113.87,-69.6]]]}},{"type":"Feature","properties":{},"geometry":{"type":"Polygon","coordinates":[[[133.15,-71.79],[133.48,-71.93],[132.49,-71.92],[133.15,-71.79]]]}},{"type":"Feature","properties":{},"geometry":{"type":"Polygon","coordinates":[[[132.55,-70.89],[132.44,-71.27],[131.62,-71.11],[132.55,-70.89]]]}},{"type":"Feature","properties":{},"geometry":{"type":"Polygon","coordinates":[[[126.33,-68.63],[127.78,-69.87],[127.76,-70.49],[129.34,-71.85],[129.09,-72.08],[127.72,-71.76],[127.62,-71.23],[126.11,-70.16],[125.92,-69.37],[126.33,-68.63]]]}},{"type":"Feature","properties":{},"geometry":{"type":"Polygon","coordinates":[[[100.32,-54.03],[100.01,-54.69],[99.24,-54.29],[100.32,-54.03]]]}},{"type":"Feature","properties":{},"geometry":{"type":"Polygon","coordinates":[[[20.43,-31.08],[21.49,-29.07],[22.89,-28.24],[24.74,-28.8],[24.9,-29.26],[25.13,-28.81],[25.84,-29.19],[27.43,-28.64],[27.68,-28.03],[27.86,-28.41],[28.65,-28.35],[29.16,-27.53],[29.92,-27.43],[29.89,-28.68],[28.79,-30.99],[28.24,-31.28],[27.97,-30.59],[27.3,-31.77],[18.98,-36.71],[16.72,-36.1],[16.24,-35.06],[17.55,-32.45],[20.43,-31.08]]]}},{"type":"Feature","properties":{},"geometry":{"type":"Polygon","coordinates":[[[94.69,-48.42],[94.53,-48.97],[93.87,-48.61],[94.69,-48.42]]]}},{"type":"Feature","properties":{},"geometry":{"type":"Polygon","coordinates":[[[94.92,-48.32],[95.04,-48.86],[95.88,-48.86],[95.96,-49.24],[94.82,-49.27],[94.55,-48.76],[94.92,-48.32]]]}},{"type":"Feature","properties":{},"geometry":{"type":"Polygon","coordinates":[[[60.57,-73.36],[60.68,-72.96],[59.96,-72.73],[60.65,-72.46],[60.74,-71.83],[65.23,-70.69],[66.27,-69.9],[65.02,-70.79],[66.28,-70.04],[65.37,-69.33],[67.93,-69.35],[69.17,-68.72],[66.41,-68.87],[65.18,-68.26],[70.47,-68.36],[72.89,-67.66],[71.59,-67.96],[65.08,-67.48],[65.34,-66.67],[65.79,-66.68],[65.63,-66.99],[66.85,-66.53],[68.14,-65.76],[67.74,-65.49],[68.13,-65.16],[69.02,-65.16],[68.7,-64.83],[69.43,-64.49],[68.24,-63.36],[68.38,-62.31],[63.66,-59.74],[62.78,-58.84],[60.23,-57.82],[58.19,-57.67],[55.88,-54.9],[52.97,-53.94],[52.34,-52.36],[52.89,-51.3],[56.09,-51.06],[59.3,-49.18],[62.28,-46.05],[62.09,-46.39],[62.58,-46.14],[61.99,-46.71],[63.29,-45.97],[62.53,-46.92],[63.26,-46.82],[64.5,-45.29],[67.73,-44.27],[68.11,-44.37],[67.48,-44.9],[68.43,-44.73],[71.65,-45.54],[72.14,-46.27],[76.44,-48.04],[79.26,-48.02],[80.01,-47.31],[81.67,-47.24],[80.95,-48.53],[82.19,-48.28],[81.95,-47.83],[82.52,-47.53],[82.94,-48.38],[83.67,-48.64],[83.18,-48.22],[84.32,-48.03],[83.65,-48.05],[84.06,-47.68],[84.63,-47.66],[84.88,-48.32],[84.88,-47.7],[85.57,-48.16],[85.63,-47.61],[86.63,-47.55],[86.25,-47.88],[86.56,-48.07],[87.38,-47.59],[87.25,-47.99],[88.47,-48.04],[88.86,-48.55],[88.93,-49.66],[87.56,-50.09],[89.21,-49.87],[89.7,-50.34],[89.34,-50.64],[89.97,-50.43],[89.92,-50.9],[90.9,-50.53],[90.6,-50.09],[93.41,-49.46],[93.82,-49.75],[93.94,-49.39],[94.12,-49.84],[95.11,-49.55],[96.78,-50.54],[97.25,-50.08],[96.36,-49.27],[96.8,-49.24],[96.75,-49.59],[96.99,-49.33],[97.27,-49.97],[97.74,-49.96],[97.93,-50.74],[98.58,-50.87],[98.54,-51.35],[99.44,-51.53],[99.72,-52.12],[100.93,-52.19],[100.36,-52.24],[101,-52.35],[100.56,-52.69],[101.86,-52.49],[101.6,-52.86],[101.98,-53.1],[100.92,-53.47],[99.66,-53.26],[98.73,-54],[96.9,-53.94],[97.4,-54.02],[97.54,-54.59],[96.89,-54.62],[97.56,-54.64],[98.25,-55.68],[97.58,-55.69],[98.45,-55.98],[100.73,-59.2],[101.52,-59.4],[106.02,-58.06],[106.93,-56.76],[109.01,-55.91],[108.33,-55.7],[111.32,-54.52],[110.85,-55.69],[111.34,-55.98],[110.78,-56.23],[111.1,-56.63],[110.72,-56.84],[111.07,-56.88],[110.04,-58.34],[111.45,-58.5],[112.11,-59.57],[110.77,-60.9],[110.85,-61.56],[111.27,-61.56],[109.71,-63.41],[110.65,-64.32],[111.34,-64.32],[111.23,-64.9],[112.94,-65.76],[112.26,-66.13],[112.89,-66.7],[112.47,-67.14],[112.87,-67.22],[111.83,-68.21],[112.68,-68.47],[113.31,-67.99],[113.94,-68.72],[114.42,-68.46],[113.39,-69.55],[112.61,-69.24],[113.61,-69.69],[113.9,-70.33],[114.77,-70.41],[114.78,-71.18],[115.37,-71.41],[115.09,-71.78],[115.81,-72.01],[115.03,-72.69],[115.6,-72.71],[112.83,-73.82],[113.2,-74.13],[112.03,-75.26],[103.04,-77.23],[98.88,-77.73],[92.13,-77.8],[91.03,-77.41],[91.7,-77.6],[90.94,-77.74],[91.71,-77.78],[72.24,-78.88],[70.24,-78.62],[67.57,-77.27],[63.6,-76.95],[62.56,-76.44],[60.87,-76.68],[62.03,-76.43],[61.45,-76.27],[62.43,-76.13],[62.13,-75.97],[62.49,-75.76],[63.76,-75.77],[62.27,-75.42],[62.75,-75.16],[64.87,-75.22],[59.89,-74.47],[60.57,-73.36]]]}},{"type":"Feature","properties":{},"geometry":{"type":"Polygon","coordinates":[[[125.46,-57.01],[125.89,-57.25],[125.18,-56.88],[125.46,-57.01]]]}},{"type":"Feature","properties":{},"geometry":{"type":"Polygon","coordinates":[[[108.63,-49.85],[108.92,-50.16],[108.11,-50.51],[106.87,-49.9],[108.63,-49.85]]]}},{"type":"Feature","properties":{},"geometry":{"type":"Polygon","coordinates":[[[129.8,3.73],[129.65,3.16],[128.85,2.82],[129.8,3.73]]]}},{"type":"Feature","properties":{},"geometry":{"type":"Polygon","coordinates":[[[103.65,-46.45],[103.8,-46.96],[103.12,-47.08],[103.65,-46.45]]]}},{"type":"Feature","properties":{},"geometry":{"type":"Polygon","coordinates":[[[104.35,-46.47],[104.07,-46.83],[103.83,-46.44],[104.35,-46.47]]]}},{"type":"Feature","properties":{},"geometry":{"type":"Polygon","coordinates":[[[122.83,-0.12],[124.85,0.92],[125.51,0.7],[126.94,1.55],[127.04,2.33],[128.63,2.91],[129.42,2.48],[130.7,3.24],[131.26,2.59],[124.02,-1.11],[123.86,-0.71],[122.7,-1.28],[122.83,-0.12]]]}},{"type":"Feature","properties":{},"geometry":{"type":"Polygon","coordinates":[[[104.53,-46.07],[104.53,-46.56],[103.96,-46.37],[104.53,-46.07]]]}},{"type":"Feature","properties":{},"geometry":{"type":"Polygon","coordinates":[[[122.94,3.7],[123.52,3.79],[123.57,3.28],[123.24,3.06],[122.94,3.7]]]}},{"type":"Feature","properties":{},"geometry":{"type":"Polygon","coordinates":[[[120.84,3.11],[121.76,2.73],[122.28,3],[122.55,2.56],[120.7,2.16],[120.84,3.11]]]}},{"type":"Feature","properties":{},"geometry":{"type":"Polygon","coordinates":[[[120.77,-52.72],[120.71,-53.49],[121.85,-54.39],[121.99,-55.5],[123.17,-55.68],[122.78,-56.1],[124.05,-56.55],[123.52,-56.8],[125.14,-57.32],[123.7,-57.56],[120.18,-56.1],[119.14,-55.05],[119.42,-54.85],[118.82,-54.7],[118.33,-53.39],[116.69,-52.45],[115.87,-52.62],[115.4,-51.9],[115.41,-52.72],[114.51,-52.33],[114.79,-52.8],[112.67,-52.15],[113.89,-52.78],[113.88,-53.39],[110.42,-52.57],[109.6,-51.11],[110.12,-50.91],[108.17,-50.68],[108.95,-50.16],[108.62,-49.63],[109.96,-50.06],[108.64,-49.35],[109.51,-49.71],[108.9,-48.75],[109.4,-48.26],[108.91,-48.04],[109.27,-47.85],[108.66,-47.31],[108.97,-47.1],[108.62,-47.26],[105.86,-45],[112.48,-47.57],[120.77,-52.72]]]}},{"type":"Feature","properties":{},"geometry":{"type":"Polygon","coordinates":[[[118,4.16],[118.3,3.87],[117.85,3.79],[118,4.16]]]}},{"type":"Feature","properties":{},"geometry":{"type":"Polygon","coordinates":[[[-3.29,-4],[-3.47,-4.38],[-3.69,-4.14],[-3.29,-4]]]}},{"type":"Feature","properties":{},"geometry":{"type":"Polygon","coordinates":[[[109.22,0.93],[110.93,2.01],[112.18,1.58],[116.97,2.28],[119.86,-1.46],[117.13,-0.6],[115.5,-0.58],[114.26,0.28],[113.15,-0.02],[111.51,0.43],[109.67,0.29],[109.03,0.66],[109.22,0.93]]]}},{"type":"Feature","properties":{},"geometry":{"type":"Polygon","coordinates":[[[116.64,2.35],[117.48,2.58],[117.35,2.12],[118.04,2.89],[118.5,1.92],[119.42,2.4],[120.75,1.52],[121.26,2.27],[122,2.14],[123.78,-0.17],[123.15,-0.14],[123.31,-0.49],[122.66,-0.73],[122.96,-1],[119.16,-1.09],[116.64,2.35]]]}},{"type":"Feature","properties":{},"geometry":{"type":"Polygon","coordinates":[[[123.84,16.6],[124.07,16.25],[124.12,16.83],[124.94,16.71],[125.62,16.21],[126.9,16.74],[126.24,15.69],[126.94,15.63],[126.1,14.99],[126.69,14.48],[126.1,14.01],[126.66,14.27],[126.34,14.04],[127.78,13.59],[127.85,13.05],[129.33,12.98],[128.31,12.5],[129.21,10.79],[128.64,9.16],[128.97,9.2],[128.8,8.69],[129.28,8.91],[129.37,7.29],[128.75,6.29],[128.19,6.92],[127.52,6.3],[126.71,6.37],[126.16,5.19],[125.56,5.7],[124.53,4.69],[123.17,6.04],[122.45,5.83],[122.61,6.1],[121.44,6.56],[120.79,8.1],[122.78,8.8],[122.37,8.8],[122.04,9.98],[123.06,11.3],[122.97,13.01],[123.94,14.1],[123.84,16.6]]]}},{"type":"Feature","properties":{},"geometry":{"type":"Polygon","coordinates":[[[20.33,-41.76],[17.01,-42.94],[15.45,-42.52],[15.08,-41.46],[15.68,-40.99],[18.17,-40.99],[18.46,-41.11],[17.84,-41.06],[20.33,-41.76]]]}},{"type":"Feature","properties":{},"geometry":{"type":"Polygon","coordinates":[[[-29.85,11.9],[-29.77,11.2],[-30.69,11.01],[-30.25,11.31],[-30.5,11.7],[-29.85,11.9]]]}},{"type":"Feature","properties":{},"geometry":{"type":"Polygon","coordinates":[[[-48.85,-0.98],[-47.77,-1.93],[-49.23,-1.44],[-48.85,-0.98]]]}},{"type":"Feature","properties":{},"geometry":{"type":"Polygon","coordinates":[[[-52.75,3.02],[-50.61,1.4],[-50.15,0.68],[-50.64,0.72],[-49.82,-0.32],[-50.28,-0.51],[-52.2,0.76],[-52.87,0.33],[-53.06,1.19],[-54.64,1.92],[-54.92,2.48],[-54.56,2.64],[-53.13,1.59],[-52.93,2.54],[-53.41,3.12],[-52.75,3.02]]]}},{"type":"Feature","properties":{},"geometry":{"type":"Polygon","coordinates":[[[116.48,19.83],[117.36,20.14],[117.34,18.87],[116.6,18.02],[115.66,18.11],[115.38,18.94],[116.48,19.83]]]}},{"type":"Feature","properties":{},"geometry":{"type":"Polygon","coordinates":[[[-50.35,4.91],[-48.97,3.36],[-46.57,-2.04],[-49.44,-0.22],[-48.56,0.17],[-49.15,0.73],[-49.03,1.78],[-50.86,4.01],[-50.59,4.44],[-53.29,5.68],[-52.72,5.39],[-52.07,5.76],[-50.35,4.91]]]}},{"type":"Feature","properties":{},"geometry":{"type":"Polygon","coordinates":[[[-30.87,18.23],[-30.52,17.48],[-30.83,17.3],[-31.2,17.67],[-30.87,18.23]]]}},{"type":"Feature","properties":{},"geometry":{"type":"Polygon","coordinates":[[[132.86,40.33],[133.81,40.15],[133.7,39.74],[134.37,39.46],[133.79,37.83],[133.1,37.4],[133.15,38.11],[133,37.55],[132.45,37.76],[132.82,39.17],[132.31,39.55],[132.54,39.05],[131.89,38.88],[131.74,39.39],[132.15,39.18],[131.59,39.62],[132.86,40.33]]]}},{"type":"Feature","properties":{},"geometry":{"type":"Polygon","coordinates":[[[136.42,41.06],[137.13,40.6],[136.6,39.95],[135.72,40.08],[135.01,39.39],[134.66,40.02],[134.25,39.86],[135.08,40.71],[136.42,41.06]]]}},{"type":"Feature","properties":{},"geometry":{"type":"Polygon","coordinates":[[[21.11,19.36],[22.68,17.99],[21.45,18.45],[20.81,19.24],[21.11,19.36]]]}},{"type":"Feature","properties":{},"geometry":{"type":"Polygon","coordinates":[[[26.02,10.91],[25.19,11.2],[24.65,11.96],[24.82,12.54],[25.48,12.19],[26.02,10.91]]]}},{"type":"Feature","properties":{},"geometry":{"type":"Polygon","coordinates":[[[16.94,25.33],[15.52,24.26],[14.39,26.45],[14.87,26.61],[16.94,25.33]]]}},{"type":"Feature","properties":{},"geometry":{"type":"Polygon","coordinates":[[[22.84,22.45],[23.06,21.09],[22.35,22.54],[22.84,22.45]]]}},{"type":"Feature","properties":{},"geometry":{"type":"Polygon","coordinates":[[[33.95,35.69],[34.27,35.37],[33.5,35.44],[33.95,35.69]]]}},{"type":"Feature","properties":{},"geometry":{"type":"Polygon","coordinates":[[[10.45,31.48],[10.28,30.8],[9.67,31.1],[10.45,31.48]]]}},{"type":"Feature","properties":{},"geometry":{"type":"Polygon","coordinates":[[[15.12,34.3],[14.73,33.85],[12.9,33.58],[12.17,34.23],[14.54,35.01],[15.12,34.3]]]}},{"type":"Feature","properties":{},"geometry":{"type":"Polygon","coordinates":[[[136.47,41.41],[134.46,40.9],[134.3,40.36],[132.91,40.36],[132.95,40.86],[135.07,42.2],[138.34,42.53],[138.84,44.27],[139.48,44.46],[139,44.03],[139.45,43.69],[140.82,44.42],[142.04,46.05],[141.83,47.75],[142.27,48.43],[143.21,48.09],[142.87,48.75],[143.52,48.68],[144.45,46.77],[144.01,45.54],[143.34,45.26],[143.57,44.24],[143.19,43.48],[143.61,42.95],[143.12,42.38],[142.47,42.11],[142.63,42.85],[141.41,41.76],[141.34,42.21],[140.83,41.65],[139.51,41.52],[139.85,41.75],[139.11,41.98],[138.97,41.52],[139.43,41.21],[138.04,40.34],[137.47,40.67],[137.79,41.51],[136.47,41.41]]]}},{"type":"Feature","properties":{},"geometry":{"type":"Polygon","coordinates":[[[17.24,34.5],[15.24,34.36],[16.33,35.02],[17.24,34.5]]]}},{"type":"Feature","properties":{},"geometry":{"type":"Polygon","coordinates":[[[149.76,46.11],[150.07,46.13],[148.9,45.39],[149.76,46.11]]]}},{"type":"Feature","properties":{},"geometry":{"type":"Polygon","coordinates":[[[145.28,47.17],[147.77,45.63],[148.8,46.01],[148.52,45.47],[148.9,44.92],[147.35,44.53],[146.7,43.69],[143.96,44.22],[143.67,44.97],[144.78,44.97],[145.28,47.17]]]}},{"type":"Feature","properties":{},"geometry":{"type":"Polygon","coordinates":[[[142.38,49.76],[142.06,49.41],[143.15,49.03],[141.95,48.57],[141.47,49.73],[142.38,49.76]]]}},{"type":"Feature","properties":{},"geometry":{"type":"Polygon","coordinates":[[[-12.23,38.46],[-12.24,37.74],[-12.96,37.21],[-12.18,37.77],[-11.72,37.36],[-13.08,37.05],[-13.25,37.57],[-12.23,38.46]]]}},{"type":"Feature","properties":{},"geometry":{"type":"Polygon","coordinates":[[[-15.27,38.54],[-15.15,38.09],[-13.57,37.99],[-14.31,37.54],[-15.45,38.08],[-15.27,38.54]]]}},{"type":"Feature","properties":{},"geometry":{"type":"Polygon","coordinates":[[[-14.99,41.6],[-12.97,40.64],[-14.59,41.01],[-15.32,41.54],[-14.99,41.6]]]}},{"type":"Feature","properties":{},"geometry":{"type":"Polygon","coordinates":[[[-81.09,30.87],[-79.24,30.16],[-78.03,28.26],[-79.24,28.6],[-78.9,29.04],[-79.47,28.75],[-80.16,29.27],[-79.82,29.56],[-81.09,30.1],[-80.66,30.56],[-81.14,30.44],[-81.09,30.87]]]}},{"type":"Feature","properties":{},"geometry":{"type":"Polygon","coordinates":[[[-7.59,40.32],[-6.78,40.67],[-5.94,40.32],[-6.65,39.49],[-5.6,39.65],[-6.47,39.28],[-6.27,38.6],[-5.51,39.15],[-5.85,37.71],[-6.3,37.72],[-6.19,38.29],[-6.79,37.93],[-6.59,38.98],[-8.13,38.03],[-7.14,38.81],[-11.13,38.99],[-7.59,40.32]]]}},{"type":"Feature","properties":{},"geometry":{"type":"Polygon","coordinates":[[[-7.77,42.8],[-7.44,42.55],[-7.97,42.52],[-7.69,42.25],[-8.85,40.98],[-7.63,41.17],[-8.24,40.77],[-7.36,40.69],[-7.59,40.32],[-11.07,39.12],[-10.13,39.82],[-10.95,39.9],[-10.15,40.46],[-9.75,40.26],[-10.03,40.62],[-9.54,40.73],[-9.16,41.96],[-7.77,42.8]]]}},{"type":"Feature","properties":{},"geometry":{"type":"Polygon","coordinates":[[[-29.08,46.31],[-28.63,45.72],[-29.71,46.18],[-29.08,46.31]]]}},{"type":"Feature","properties":{},"geometry":{"type":"Polygon","coordinates":[[[-83.43,33.54],[-83.17,32.35],[-84,33.43],[-83.43,33.54]]]}},{"type":"Feature","properties":{},"geometry":{"type":"Polygon","coordinates":[[[-84.12,34.56],[-83.55,34.32],[-83.85,33.9],[-83.15,34.43],[-83.73,33.46],[-84.12,34.56]]]}},{"type":"Feature","properties":{},"geometry":{"type":"Polygon","coordinates":[[[146,55.99],[146.6,54.5],[146.31,53.38],[148.14,50.32],[147.39,50.92],[146.3,50.78],[145.86,49.44],[147,48.03],[146.79,47.68],[146.04,48.4],[145.42,47.54],[145.13,48.23],[145.52,49.63],[145.13,50.42],[145.51,52.8],[144.9,53.39],[144.94,54.08],[145.04,55.05],[146.03,55.36],[145.46,55.94],[146,55.99]]]}},{"type":"Feature","properties":{},"geometry":{"type":"Polygon","coordinates":[[[-103.24,41.74],[-103.16,41.19],[-104.42,41.69],[-103.24,41.74]]]}},{"type":"Feature","properties":{},"geometry":{"type":"Polygon","coordinates":[[[140.03,62.24],[140.63,62.17],[139.54,61.81],[140.03,62.24]]]}},{"type":"Feature","properties":{},"geometry":{"type":"Polygon","coordinates":[[[0.76,43.65],[1.78,43.94],[0.67,43.83],[1.56,44.5],[0.46,44.68],[1,45.07],[0.52,45.52],[1.86,45.5],[2.18,45.93],[1.61,45.98],[2.03,46.44],[3.87,46.49],[4.42,45.79],[2.48,44.14],[0.76,43.65]]]}},{"type":"Feature","properties":{},"geometry":{"type":"Polygon","coordinates":[[[2.05,43.17],[0.82,42.72],[1.08,43.01],[0.49,42.89],[0.99,43.15],[0.29,43.11],[0.83,43.43],[0.22,43.45],[3.79,44.97],[3.71,43.48],[2.05,43.17]]]}},{"type":"Feature","properties":{},"geometry":{"type":"Polygon","coordinates":[[[17.53,47.34],[17.85,46.83],[16.91,47.23],[17.53,47.34]]]}},{"type":"Feature","properties":{},"geometry":{"type":"Polygon","coordinates":[[[-75.39,50.27],[-75.77,49.63],[-76.06,49.76],[-75.71,50.05],[-76.22,50],[-75.39,50.27]]]}},{"type":"Feature","properties":{},"geometry":{"type":"Polygon","coordinates":[[[19.1,47.93],[18.96,46.79],[17.89,47.51],[18.9,47.48],[18.66,47.78],[19.1,47.93]]]}},{"type":"Feature","properties":{},"geometry":{"type":"Polygon","coordinates":[[[-84.09,36.76],[-83.26,35.75],[-83.69,35.69],[-83.2,35.54],[-83.31,34.97],[-84.05,35.66],[-84.09,36.76]]]}},{"type":"Feature","properties":{},"geometry":{"type":"Polygon","coordinates":[[[-26.42,49.47],[-26.56,48.72],[-26.22,49.2],[-26.65,48.7],[-26.42,49.07],[-27.25,48.81],[-26.42,49.47]]]}},{"type":"Feature","properties":{},"geometry":{"type":"Polygon","coordinates":[[[-84.4,37.39],[-84.09,37],[-84.52,36.45],[-84.4,37.39]]]}},{"type":"Feature","properties":{},"geometry":{"type":"Polygon","coordinates":[[[-84.11,37.51],[-83.63,37.25],[-83.79,36.81],[-84.11,37.51]]]}},{"type":"Feature","properties":{},"geometry":{"type":"Polygon","coordinates":[[[3.6,49],[4.15,48.56],[3.86,48.31],[3.22,48.71],[3.6,49]]]}},{"type":"Feature","properties":{},"geometry":{"type":"Polygon","coordinates":[[[24.11,50.05],[24.31,49.62],[23.73,49.06],[23.6,49.68],[24.11,50.05]]]}},{"type":"Feature","properties":{},"geometry":{"type":"Polygon","coordinates":[[[-84.96,35.38],[-84.9,34.44],[-85.3,34.95],[-85.53,34.62],[-85.45,35.38],[-84.96,35.38]]]}},{"type":"Feature","properties":{},"geometry":{"type":"Polygon","coordinates":[[[-84.51,38.81],[-84.02,37.87],[-84.62,37.5],[-84.51,38.81]]]}},{"type":"Feature","properties":{},"geometry":{"type":"Polygon","coordinates":[[[27.08,51.04],[27.72,50.94],[26.78,50.3],[26.49,50.87],[27.08,51.04]]]}},{"type":"Feature","properties":{},"geometry":{"type":"Polygon","coordinates":[[[5.98,49.98],[6.18,49.7],[5.15,49.23],[5.66,49.19],[4.67,48.02],[3.69,48.01],[4.38,48.41],[4.01,49.15],[4.61,49.12],[4.29,49.37],[4.63,49.93],[5.98,49.98]]]}},{"type":"Feature","properties":{},"geometry":{"type":"Polygon","coordinates":[[[5.57,48.94],[7.26,48.97],[6.73,47.91],[6.07,47.71],[6.7,47.61],[5.65,47.43],[7.09,47.26],[7.62,46.66],[4.9,45.94],[4.61,46.28],[5.15,47.24],[4.93,47.52],[4.47,47.16],[4.68,47.55],[4.09,46.6],[4.17,47.59],[5.57,48.94]]]}},{"type":"Feature","properties":{},"geometry":{"type":"Polygon","coordinates":[[[7.62,46.66],[7.9,45.96],[8.9,45.51],[9.12,45],[8.4,45.08],[9.14,44.88],[9.03,44.29],[10.47,44.17],[10.41,43.52],[9.4,42.85],[10.31,42.59],[4.32,41.33],[5.52,42.51],[6.56,42.55],[7.1,43.15],[6.28,42.71],[4.58,43.21],[5.72,43.88],[5.61,44.24],[5.02,44.1],[5.37,44.44],[6.7,44.65],[6.63,45.57],[6.26,45.44],[6.04,46.09],[7.62,46.66]]]}},{"type":"Feature","properties":{},"geometry":{"type":"Polygon","coordinates":[[[26.98,51.51],[27.43,51.3],[26.57,51.31],[26.98,51.51]]]}},{"type":"Feature","properties":{},"geometry":{"type":"Polygon","coordinates":[[[-13.61,53.32],[-13.55,52.94],[-13.99,53.28],[-13.61,53.32]]]}},{"type":"Feature","properties":{},"geometry":{"type":"Polygon","coordinates":[[[-24.84,55.13],[-25.43,54.39],[-25.62,54.85],[-24.84,55.13]]]}},{"type":"Feature","properties":{},"geometry":{"type":"Polygon","coordinates":[[[-26.84,56],[-26.71,55.7],[-28.33,55.31],[-27.94,55.98],[-26.84,56]]]}},{"type":"Feature","properties":{},"geometry":{"type":"Polygon","coordinates":[[[-23.44,56.11],[-23.01,55.77],[-23.75,56.09],[-23.44,56.11]]]}},{"type":"Feature","properties":{},"geometry":{"type":"Polygon","coordinates":[[[-27.49,86.02],[-48.01,86.07],[-44.73,86.22],[-45.6,86.39],[-45.24,86.45],[-30.83,86.46],[-26.97,86.03],[-27.49,86.02]]]}},{"type":"Feature","properties":{},"geometry":{"type":"Polygon","coordinates":[[[-21.42,85.04],[-22.9,85.1],[-20.1,85.19],[-21.42,85.04]]]}},{"type":"Feature","properties":{},"geometry":{"type":"Polygon","coordinates":[[[-28.11,59.17],[-27.99,58.43],[-27.54,58.64],[-25.88,57.48],[-26.24,56.93],[-24.88,56.55],[-25.73,56.32],[-26.76,56.67],[-27.02,57.24],[-29.32,56.42],[-29.28,57.08],[-30.52,57.09],[-29.49,57.46],[-28.78,58.83],[-28.11,59.17]]]}},{"type":"Feature","properties":{},"geometry":{"type":"Polygon","coordinates":[[[-27.11,59.23],[-26.43,58.74],[-26.94,58.74],[-27.11,59.23]]]}},{"type":"Feature","properties":{},"geometry":{"type":"Polygon","coordinates":[[[63.73,64.26],[64.01,64.05],[63.14,63.96],[63.73,64.26]]]}},{"type":"Feature","properties":{},"geometry":{"type":"Polygon","coordinates":[[[-18.69,60.27],[-18.11,59.97],[-19.09,60.25],[-18.69,60.27]]]}},{"type":"Feature","properties":{},"geometry":{"type":"Polygon","coordinates":[[[-19.78,60.66],[-19.2,60.42],[-19.64,59.73],[-21.07,59.69],[-20.67,60.5],[-19.78,60.66]]]}},{"type":"Feature","properties":{},"geometry":{"type":"Polygon","coordinates":[[[19.24,60.89],[19.34,60.46],[19.62,60.88],[19.91,60.54],[18.86,60.17],[19.24,60.89]]]}},{"type":"Feature","properties":{},"geometry":{"type":"Polygon","coordinates":[[[-1.89,80.63],[-11.83,82.51],[-11.3,82.8],[-11.7,83.16],[-10.79,83.21],[-12.54,83.57],[-15.04,83.47],[-13.06,83.4],[-14.27,83.24],[-12.17,82.83],[-21.33,82.9],[-29.74,83.58],[-26.95,83.91],[-27.58,84.15],[-23.64,83.99],[-26.03,84.33],[-18.09,84.2],[-21.72,84.38],[-21.37,84.56],[-22.3,84.78],[-17.3,85.12],[-22.67,85.46],[-18.08,85.65],[-4.57,84.79],[-5.6,84.67],[-5.03,84.33],[4.53,83.96],[3.24,83.78],[4.1,83.53],[3.77,83.4],[1.21,83.14],[5.71,83.16],[7.62,83.83],[8.56,83.5],[-1.89,80.63]]]}},{"type":"Feature","properties":{},"geometry":{"type":"Polygon","coordinates":[[[18.79,60.92],[19.07,60.6],[18.36,60.48],[18.79,60.92]]]}},{"type":"Feature","properties":{},"geometry":{"type":"Polygon","coordinates":[[[-20.15,61.85],[-19.82,61.75],[-20.4,61.56],[-20.15,61.85]]]}},{"type":"Feature","properties":{},"geometry":{"type":"Polygon","coordinates":[[[44.34,63.97],[44.97,63.76],[43.98,63.22],[43.38,63.54],[43.49,63.93],[44.34,63.97]]]}},{"type":"Feature","properties":{},"geometry":{"type":"Polygon","coordinates":[[[20.46,61.51],[20.82,61.24],[19.95,61.05],[20.46,61.51]]]}},{"type":"Feature","properties":{},"geometry":{"type":"Polygon","coordinates":[[[-34.87,64.11],[-33.82,63.02],[-35.16,62.79],[-37.02,63.55],[-34.87,64.11]]]}},{"type":"Feature","properties":{},"geometry":{"type":"Polygon","coordinates":[[[13.55,77.42],[12.99,77.82],[14.18,77.94],[14.88,77.41],[13.55,77.42]]]}},{"type":"Feature","properties":{},"geometry":{"type":"Polygon","coordinates":[[[21.41,62.18],[21.77,62.1],[21.09,62],[21.41,62.18]]]}},{"type":"Feature","properties":{},"geometry":{"type":"Polygon","coordinates":[[[-8.59,56.73],[-7.55,55.93],[-9.13,55.9],[-8.57,55.86],[-9.43,56.25],[-8.59,56.73]]]}},{"type":"Feature","properties":{},"geometry":{"type":"Polygon","coordinates":[[[50.68,66.05],[52.43,65.51],[50.36,65.75],[50.68,66.05]]]}},{"type":"Feature","properties":{},"geometry":{"type":"Polygon","coordinates":[[[-15.64,63.01],[-15.31,62.91],[-15.93,62.8],[-15.64,63.01]]]}},{"type":"Feature","properties":{},"geometry":{"type":"Polygon","coordinates":[[[8.3,56.18],[8.52,55.79],[6.82,55.62],[8.3,56.18]]]}},{"type":"Feature","properties":{},"geometry":{"type":"Polygon","coordinates":[[[45.12,66.2],[45.79,65.83],[44.81,66.05],[45.12,66.2]]]}},{"type":"Feature","properties":{},"geometry":{"type":"Polygon","coordinates":[[[-4.03,78.64],[-2.6,78.68],[-4.74,78.18],[-4.03,78.64]]]}},{"type":"Feature","properties":{},"geometry":{"type":"Polygon","coordinates":[[[-7.07,78.11],[-9.22,78.57],[-4.88,78.62],[-5.65,78.09],[-7.07,78.11]]]}},{"type":"Feature","properties":{},"geometry":{"type":"Polygon","coordinates":[[[136.21,78.81],[137.13,78.79],[135.51,78.7],[136.21,78.81]]]}},{"type":"Feature","properties":{},"geometry":{"type":"Polygon","coordinates":[[[-16.24,38.78],[-15.85,37.92],[-15.19,37.79],[-15.47,37.7],[-14.13,37.16],[-13.59,37.43],[-12.81,36.8],[-15.83,36.27],[-17,35.24],[-17.54,35.58],[-17.19,36.38],[-17.5,36.27],[-15.91,37.04],[-15.69,36.64],[-14.89,37],[-16.3,37.07],[-15.87,37.69],[-19.42,36.23],[-20.03,36.51],[-20.24,36.02],[-21.2,35.88],[-22.1,34.54],[-21.55,33.89],[-21.27,34.21],[-21.26,33.71],[-22.35,33.72],[-22.47,34.08],[-22.62,33.65],[-23.37,33.63],[-20.54,36.72],[-16.24,38.78]]]}},{"type":"Feature","properties":{},"geometry":{"type":"Polygon","coordinates":[[[-13.13,-25.04],[-15.73,-29.49],[-14.59,-27.6],[-15.37,-27.23],[-15.11,-27.57],[-15.95,-29.08],[-16.1,-30.49],[-17.25,-32.23],[-19.14,-32.75],[-20.86,-32.54],[-21.55,-31.96],[-21.34,-31.01],[-21.69,-31.24],[-21.55,-32.58],[-20.06,-33.26],[-19.9,-34.13],[-27.8,-32.69],[-29.55,-32.08],[-31.14,-29.52],[-34.92,-25.09],[-35.36,-23.22],[-35.12,-21.36],[-35.82,-18.88],[-29.02,-21.61],[-22.29,-23.64],[-13.13,-25.04]]]}},{"type":"Feature","properties":{},"geometry":{"type":"Polygon","coordinates":[[[-23.86,-36.21],[-24.45,-36.06],[-23.93,-36.63],[-24.24,-36.59],[-23.93,-38.18],[-26.54,-38.49],[-26.15,-39.7],[-25.54,-39.98],[-24.96,-39.52],[-24.66,-40.18],[-25.96,-40.26],[-25.25,-40.48],[-26.03,-41.28],[-25.87,-42.57],[-27.17,-43.14],[-27.53,-44.02],[-26.47,-44.78],[-25.44,-44.83],[-25.24,-45.56],[-26.58,-46.87],[-26.58,-47.86],[-27.29,-47.83],[-26.95,-48.09],[-27.49,-48.58],[-27.24,-49.7],[-26.21,-50.22],[-28.39,-50.95],[-28.3,-52.13],[-29.63,-51.83],[-28.94,-51.83],[-28.56,-51.14],[-29.1,-50.88],[-30.35,-51.03],[-30.23,-51.53],[-30.7,-51.59],[-30.34,-51.06],[-31.08,-51.37],[-31.36,-50.7],[-30.45,-50.81],[-30.47,-50.48],[-30.15,-50.69],[-30.47,-50.99],[-30.07,-50.94],[-30.24,-50.26],[-31.02,-49.82],[-30.32,-50.23],[-31.1,-50.18],[-30.63,-50.41],[-30.85,-50.68],[-31.17,-50.26],[-30.89,-50.77],[-31.67,-50.32],[-31.56,-49.86],[-32.22,-49.68],[-31.5,-49.32],[-31.79,-49.06],[-32.06,-49.58],[-32.19,-49.11],[-32.92,-49.05],[-32.08,-49.02],[-32.76,-48.44],[-32.1,-48.43],[-32.65,-47.86],[-32.93,-48.22],[-33.15,-47.64],[-32.8,-47.54],[-33.18,-47.45],[-32.74,-47.2],[-33.61,-46.91],[-32.28,-46.72],[-32.87,-46.33],[-33.77,-46.64],[-33.26,-46.43],[-33.67,-46.31],[-33.29,-45.98],[-33.64,-45.62],[-35,-45.86],[-34.37,-44.77],[-33.75,-44.68],[-33.28,-45.4],[-32.9,-44.4],[-33.26,-44.57],[-33.28,-44.23],[-32.63,-44.11],[-33.39,-43.98],[-32.68,-43.17],[-33.47,-42.94],[-33.17,-41.26],[-33.54,-41.05],[-33.06,-41.17],[-33.68,-40.68],[-33.22,-40.19],[-34.57,-40.64],[-34.97,-38.93],[-34.62,-38.25],[-35.58,-36.3],[-35.12,-36.01],[-34.4,-32.26],[-35.25,-27.77],[-34.94,-23.84],[-31.17,-28.24],[-28.05,-33.12],[-23.86,-36.21]]]}},{"type":"Feature","properties":{},"geometry":{"type":"Polygon","coordinates":[[[-37.03,10.86],[-35.05,11.13],[-33.84,10.66],[-32.45,11.26],[-33.09,11.37],[-30.7,11.73],[-31.72,11.38],[-31.07,10.73],[-29.57,10.54],[-29.58,9.65],[-28.65,9.77],[-27.17,8.95],[-26.98,7.77],[-26.71,8.28],[-25.44,7.33],[-23.37,7.75],[-21.21,7.43],[-19.37,6.29],[-18.82,4.69],[-17.73,3.74],[-19.04,1.68],[-18.41,2.24],[-18.68,1.52],[-18.1,2.18],[-16.04,2.18],[-16.4,0.99],[-17.9,0.35],[-16.81,0.69],[-16.87,0.23],[-15.88,1.02],[-15.55,1.98],[-14.47,1.94],[-12.92,1.48],[-12.89,1.05],[-12.45,1.42],[-12.16,1.12],[-12.26,0.6],[-11.85,0.57],[-12.17,-0.45],[-11.79,0.42],[-11.65,0.06],[-10.88,0.67],[-9.69,0.3],[-7.43,0.48],[-4.44,-1.34],[-2.51,-1.7],[-1.86,-4.17],[-4.56,-9.02],[-5.05,-9.5],[-5.27,-9.13],[-5.18,-14.21],[-6.54,-18.69],[-7.43,-19.76],[-9.76,-19.94],[-13.17,-22.83],[-13.69,-22.79],[-13.29,-22.95],[-13.69,-23.57],[-13.35,-23.61],[-13.26,-25.52],[-22.39,-23.85],[-29.05,-21.61],[-35.74,-18.67],[-37.11,-17.19],[-41.82,-15.08],[-45.58,-9.07],[-46.76,-7.68],[-47.96,-7.13],[-47.76,-6.58],[-48.3,-5.37],[-47.21,-4.38],[-46.96,-3.5],[-47.23,-3.28],[-47.48,-3.73],[-48.29,-3.27],[-47.7,-0.24],[-46.67,0.29],[-46.42,1.24],[-42.19,3.75],[-41.06,7.32],[-38.28,10.41],[-37.03,10.86]]]}},{"type":"Feature","properties":{},"geometry":{"type":"Polygon","coordinates":[[[-46.77,6.98],[-45.93,6.23],[-46.15,6.86],[-44.91,7.81],[-44.65,9.23],[-42.72,9.86],[-41.21,11.15],[-40.63,10.78],[-41.44,10.23],[-40.99,9.4],[-41.47,8.47],[-40.99,7.74],[-40.36,8.46],[-41.01,9.5],[-39.53,10.25],[-39.56,11.01],[-39.1,10.3],[-37.67,9.83],[-38.92,9.15],[-41.8,6.16],[-43.06,2.63],[-47.38,0.29],[-45.87,2.22],[-46.42,2.48],[-46.39,4.84],[-47.22,5.66],[-46.77,6.98]]]}},{"type":"Feature","properties":{},"geometry":{"type":"Polygon","coordinates":[[[-20.26,-33.37],[-19.59,-33.99],[-20.15,-35.31],[-24.02,-36.8],[-27.86,-34.16],[-29.87,-31.45],[-20.26,-33.37]]]}},{"type":"Feature","properties":{},"geometry":{"type":"Polygon","coordinates":[[[-71.32,33.99],[-70.94,33.92],[-71,34.48],[-71.73,34.48],[-72.64,36.89],[-71.48,37.46],[-69.93,36.58],[-67.99,33.4],[-67.61,31.97],[-67.99,30.88],[-71.32,33.99]]]}},{"type":"Feature","properties":{},"geometry":{"type":"Polygon","coordinates":[[[-72.64,36.89],[-72.13,38.1],[-72.38,39.44],[-71.25,42.74],[-70.75,42.72],[-71.3,42.78],[-70.95,43.15],[-71.22,43.42],[-70.79,43.43],[-71.25,43.45],[-71.46,44.94],[-69.69,44.51],[-70.22,43.77],[-69.6,44.3],[-69.57,43.85],[-70.05,43.4],[-69.3,43.79],[-69.52,45.15],[-68.6,45.45],[-68.56,44.02],[-66.85,43.79],[-65.96,42.58],[-63.87,42.21],[-64.61,40.57],[-69.09,38.94],[-72.64,36.89]]]}},{"type":"Feature","properties":{},"geometry":{"type":"Polygon","coordinates":[[[-77.38,28.47],[-77.68,28.76],[-77.07,28.79],[-77.38,28.47]]]}},{"type":"Feature","properties":{},"geometry":{"type":"Polygon","coordinates":[[[-76.68,29.22],[-77.66,28.89],[-77.73,29.75],[-77.72,29.29],[-78.23,29.24],[-78.03,29.93],[-78.44,29.5],[-78.83,29.85],[-78.4,30.26],[-78.98,30.15],[-78.37,30.73],[-78.79,31.02],[-79.04,30.21],[-79.84,30.39],[-79.27,30.91],[-79.75,30.54],[-79.71,31.09],[-80.6,30.87],[-80.03,31.1],[-80.83,31.29],[-79.95,31.73],[-80.8,31.49],[-80.82,31.88],[-80.24,32.23],[-79.94,31.85],[-80.11,32.22],[-79.62,32.3],[-80.28,32.45],[-79.78,32.46],[-77.31,30.49],[-76.68,29.22]]]}},{"type":"Feature","properties":{},"geometry":{"type":"Polygon","coordinates":[[[-80.09,32.6],[-81.11,32.27],[-80.71,32.73],[-81.14,33.08],[-80.09,32.6]]]}},{"type":"Feature","properties":{},"geometry":{"type":"Polygon","coordinates":[[[-65.32,32.01],[-65.49,31.48],[-67.7,31.33],[-67.7,32.69],[-69.5,36.03],[-71.48,37.46],[-69.09,38.94],[-64.61,40.57],[-63.87,42.21],[-63.24,42.17],[-62.45,41.88],[-65.32,32.01]]]}},{"type":"Feature","properties":{},"geometry":{"type":"Polygon","coordinates":[[[-65.42,31.93],[-65.32,31.26],[-65.9,31.38],[-67,32.66],[-68.05,32.98],[-64.88,43.37],[-63.01,42.86],[-63.35,41.54],[-61.42,40.13],[-63.05,36.45],[-64.71,34.78],[-65.42,31.93]]]}},{"type":"Feature","properties":{},"geometry":{"type":"Polygon","coordinates":[[[-61.65,29.01],[-64.38,29.73],[-65.32,30.98],[-66.78,31.81],[-65.93,35.29],[-64.14,36.89],[-62.46,39.53],[-62.22,40.48],[-64.03,41.98],[-63.57,43.28],[-62.5,43.33],[-60.19,39.18],[-59.45,36.45],[-59.6,33.13],[-61.36,30.85],[-61.65,29.01]]]}},{"type":"Feature","properties":{},"geometry":{"type":"Polygon","coordinates":[[[-40.75,24.62],[-41.71,24.49],[-40.8,24.35],[-41.2,23.96],[-40.7,23.25],[-41.38,23.9],[-41.69,23.48],[-42.48,23.69],[-43.1,24.43],[-43.58,24.19],[-44.99,24.85],[-45.94,24.35],[-45.63,24.5],[-46.08,24.71],[-45.99,24.36],[-47.62,23.62],[-47.21,23.82],[-47.85,23.97],[-47.65,23.66],[-48.48,23.43],[-48.81,22.7],[-49.13,22.88],[-48.77,21.32],[-49.3,20.44],[-49.1,20.8],[-49.46,20.82],[-49.97,17.48],[-49.01,14.65],[-47.86,13.71],[-47.39,12.59],[-48,12.74],[-49.5,14.14],[-51.09,18.06],[-51.67,23.57],[-45.46,26.16],[-42.93,25.76],[-40.75,24.62]]]}},{"type":"Feature","properties":{},"geometry":{"type":"Polygon","coordinates":[[[-46.95,10.74],[-48.03,11.57],[-49.49,11.02],[-50.96,11.53],[-57.39,15.88],[-57.92,17.07],[-57.46,17.17],[-57.25,18.03],[-57.67,19.33],[-59.39,22.05],[-60.42,22.71],[-60.3,23.65],[-62.27,25.92],[-63.15,28.36],[-60.25,25.37],[-58.63,24.35],[-54.48,21.97],[-51.73,21.44],[-49.98,15.07],[-46.01,10.94],[-46.95,10.74]]]}},{"type":"Feature","properties":{},"geometry":{"type":"Polygon","coordinates":[[[-47.3,14.39],[-45.03,14.06],[-43.51,16.24],[-42.98,16.37],[-40.09,15.86],[-41.37,14.38],[-41.09,14.22],[-41.81,12.98],[-41.85,13.66],[-42.29,13.26],[-42.44,11.84],[-43.43,10.95],[-43.18,10.77],[-46.47,11.47],[-47.64,13.32],[-47.3,14.39]]]}},{"type":"Feature","properties":{},"geometry":{"type":"Polygon","coordinates":[[[-61.7,26.47],[-61.66,24.63],[-59.17,21.05],[-58.56,18.62],[-57.43,17.63],[-57.91,17.1],[-59.95,19.25],[-59.76,20.11],[-60.66,21.47],[-61.13,21.25],[-62.35,22.39],[-61.34,22.21],[-61.35,23.07],[-62.75,24.45],[-63.9,28],[-64.9,28.99],[-66.8,29.71],[-68.12,32.87],[-65.65,30.26],[-63.25,28.88],[-61.7,26.47]]]}},{"type":"Feature","properties":{},"geometry":{"type":"Polygon","coordinates":[[[-63.15,28.36],[-63,28.79],[-64.6,29.75],[-65.98,32.26],[-67.54,33.24],[-67.21,33.67],[-66.41,33.96],[-64.39,33.54],[-62.91,31.94],[-60.91,30.92],[-60,29.66],[-57.28,28.89],[-55.59,27.74],[-55.01,26.69],[-55,22.39],[-60.25,25.37],[-63.15,28.36]]]}},{"type":"Feature","properties":{},"geometry":{"type":"Polygon","coordinates":[[[-59.26,82.51],[-58.55,82.9],[-59.6,83.33],[-56.64,83.24],[-58.27,83.41],[-53.18,83.99],[-48.49,84.23],[-42.43,83.82],[-44.26,83.88],[-43.99,83.7],[-36.47,83.75],[-43.19,82.18],[-47.1,82.43],[-51.93,81.59],[-59.26,82.51]]]}},{"type":"Feature","properties":{},"geometry":{"type":"Polygon","coordinates":[[[-51.61,81.52],[-31.71,81.09],[-32.57,80.92],[-31.74,80.5],[-36.03,79.93],[-36.11,79.59],[-35.19,79.17],[-35.31,78.68],[-39.41,77.35],[-39.51,76.64],[-41.86,77.03],[-42.46,76.83],[-41.69,76.54],[-47.78,76.12],[-60.16,72.23],[-63.33,72.92],[-65.94,75.17],[-66.1,75.63],[-65.51,75.9],[-61.51,76.76],[-56.25,79.32],[-50.02,80.6],[-51.61,81.52]]]}},{"type":"Feature","properties":{},"geometry":{"type":"Polygon","coordinates":[[[-25.01,32.96],[-26,31.54],[-26.6,32.27],[-26.24,31.06],[-27.25,29.84],[-26.85,30.66],[-27.39,31.6],[-26.89,32.28],[-27.55,32.03],[-27.46,30.79],[-28.31,31.3],[-27.41,30.62],[-28,30.79],[-27.59,29.76],[-28.14,30.05],[-27.32,29.66],[-27.06,28.49],[-27.33,29.44],[-27.26,28.79],[-28.12,28.76],[-27.26,28.34],[-28.38,28.28],[-27.98,28.05],[-28.48,27.84],[-27.9,27.67],[-32.41,25.74],[-33.2,24.45],[-32.43,20.02],[-33.03,18.44],[-33.68,18.51],[-34.15,19.33],[-34.06,20.14],[-34.37,19.99],[-34.85,20.99],[-34.5,21.42],[-34.94,21.39],[-34.56,22.39],[-35.85,23.87],[-37.04,23.46],[-37.15,24.13],[-38.01,24.32],[-37.7,24.39],[-39.45,24.33],[-39.33,24.92],[-39.54,24.44],[-40.62,24.57],[-42.93,25.76],[-35.22,26.87],[-32.15,28.51],[-28.08,31.77],[-25.01,32.96]]]}},{"type":"Feature","properties":{},"geometry":{"type":"Polygon","coordinates":[[[-53.57,12.63],[-50.49,10.79],[-49.55,8.94],[-52.3,5.93],[-53.81,5.76],[-54.02,6.31],[-54.13,5.7],[-54.41,6.61],[-53.85,7.08],[-54.43,9.72],[-54.04,9.53],[-53.9,9.98],[-54.91,10.36],[-56.8,12.67],[-57.56,15.37],[-56.61,15.12],[-55.8,13.98],[-53.57,12.63]]]}},{"type":"Feature","properties":{},"geometry":{"type":"Polygon","coordinates":[[[-30.02,63.19],[-30.69,63.09],[-30.25,62.53],[-30.72,62.01],[-28.94,62.73],[-28.47,62.13],[-29.25,61.45],[-28.9,60.49],[-25.77,62.06],[-26.33,62.39],[-26.04,62.98],[-23.77,62.47],[-24.56,62.46],[-23.33,61.84],[-24.02,61.72],[-23.55,61.41],[-24.7,61.34],[-24.28,61.19],[-24.65,61.2],[-24.11,60.26],[-24.53,59.83],[-26.26,59.38],[-26.42,59.98],[-27.42,60.07],[-26.91,60.06],[-26.72,59.22],[-28.78,59.9],[-28.28,59.44],[-29.84,58.77],[-31.44,59.69],[-32.75,59.83],[-29.62,58.66],[-30.92,57.74],[-32.45,57.98],[-33.36,57.32],[-35.85,58.21],[-34.09,57.7],[-33.46,57.04],[-36.62,56.25],[-36.23,55.95],[-37.25,55.76],[-36.85,55.63],[-38.29,54.43],[-38.81,53.56],[-37.38,53.05],[-37.26,51.6],[-37.67,51.21],[-35.76,51.26],[-31.72,48.71],[-29.41,48.33],[-29.94,46.14],[-28.7,44.36],[-28.21,44.13],[-27.68,44.58],[-27.4,44.04],[-27.42,44.65],[-26.79,45.18],[-26.83,46.84],[-27.36,47.55],[-25.52,47.98],[-24.2,49.02],[-24.17,50.63],[-25.32,51.42],[-23.83,52.59],[-24.14,53.03],[-23.79,53.45],[-24.38,53.46],[-23.55,54.13],[-23.88,54.9],[-23.16,55.15],[-21.02,54.43],[-20.24,54.74],[-19.38,53.72],[-18.8,53.71],[-18.98,53.26],[-17.31,53.02],[-17.66,52.04],[-18.76,52.15],[-17.76,51.94],[-17.95,51.3],[-17.47,51],[-18.63,50.7],[-17.24,50.84],[-16.85,50.43],[-18.02,49.71],[-16.7,50.45],[-16.6,49.77],[-15.32,50.61],[-15.15,50.04],[-15,50.64],[-14.4,50.72],[-14.72,50.97],[-14.12,51.05],[-14.46,51.43],[-13.43,51.86],[-13.73,51.65],[-12.82,50.74],[-13.41,50.62],[-12.51,50.22],[-13.19,49.86],[-12.31,49.98],[-13.04,49.53],[-12.28,49.67],[-12.5,49.44],[-11.92,49.1],[-12.48,49.01],[-11.58,48.54],[-11.92,48.08],[-12.63,48.29],[-11.25,46.95],[-10.92,47.16],[-11.34,46.4],[-10.53,46.7],[-10.26,46.5],[-10.74,46.11],[-10.03,46.56],[-10.06,46.15],[-8.62,45.81],[-11.65,44.67],[-8.77,45.44],[-8.73,44.69],[-7.6,44.71],[-7.55,44.01],[-7.89,44.02],[-7.53,43.79],[-8.2,43.8],[-7.47,43.37],[-8.69,42.65],[-10.17,42.78],[-10.5,42.08],[-11.55,41.6],[-16.92,42.08],[-17.84,41.21],[-19.4,40.8],[-21.56,39.07],[-18.66,40.6],[-16.9,41],[-15.17,40.41],[-15.56,40.53],[-15.26,40.17],[-16.21,39.75],[-17.54,39.85],[-15.75,39.44],[-16.24,38.78],[-20.54,36.72],[-23.37,33.63],[-24.62,33.48],[-28.08,31.77],[-32.15,28.51],[-35.22,26.87],[-40.43,25.88],[-46.05,26.04],[-51.67,23.57],[-51.73,21.44],[-54.48,21.97],[-55.16,23.46],[-55.21,27.28],[-57.03,28.62],[-57.32,29.35],[-56.95,30.73],[-55.02,33.5],[-55.3,38.09],[-57.45,42.05],[-60.02,49.79],[-63.86,53.3],[-64.63,54.57],[-65.72,58.62],[-64.26,59.93],[-63.84,62.34],[-65.67,63.83],[-68.75,65.33],[-68.4,67.27],[-67.31,68.19],[-67.91,68.79],[-66.58,68.34],[-66.53,68.96],[-64.58,69.18],[-64.13,68.9],[-64.88,68.73],[-59.7,68.74],[-62.99,68.36],[-61.78,68.55],[-62.21,68.06],[-61.03,68.51],[-57.81,68.51],[-58.37,68.69],[-57.98,68.96],[-57.8,67.76],[-57.33,67.43],[-55.57,68.1],[-56.42,67.3],[-53.73,67.33],[-51.41,66.04],[-49.21,65.52],[-48.77,64.94],[-50.71,64.74],[-50.33,64.54],[-46.02,64.05],[-44.92,63.09],[-45.54,63.05],[-44.99,62.11],[-45.16,62.59],[-44.33,62.84],[-44.59,63.57],[-42.03,64.06],[-44.84,64.12],[-42.19,64.41],[-41.41,63.15],[-40.68,63.34],[-40.01,62.72],[-37.09,62.33],[-36.83,62.99],[-36.13,63.05],[-35.12,62.65],[-35.58,62.4],[-34.75,62.56],[-35.73,61.84],[-35.03,61.42],[-34.58,62.3],[-32.57,62.61],[-32.92,62.63],[-32.64,63.08],[-33.48,62.86],[-32.13,63.48],[-33.91,64.38],[-32.91,64.85],[-33.45,65.01],[-32.98,65.45],[-31.13,65.8],[-31.47,65.95],[-30.57,65.61],[-30.38,65.15],[-30.8,64.67],[-30.19,63.89],[-31.63,63.57],[-30.02,63.19]]]}},{"type":"Feature","properties":{},"geometry":{"type":"Polygon","coordinates":[[[-84.38,35.61],[-84.65,35.16],[-84.98,35.51],[-84.7,36.17],[-84.91,35.9],[-85.2,36.4],[-85,35.66],[-85.5,35.55],[-85.94,36.79],[-85.86,38.73],[-87.1,40.18],[-88.77,41.4],[-90.54,41.65],[-90.05,41.9],[-91.62,42.09],[-94.44,41.51],[-94.13,40.96],[-95.25,40.71],[-98.97,40.84],[-99.37,40.49],[-101.52,41.03],[-101.48,41.35],[-103.21,41.4],[-101.36,41.64],[-100.59,40.98],[-100.2,41.41],[-97.63,41.36],[-95.97,42.25],[-96.98,42.41],[-96.7,42.85],[-97.55,42.49],[-97.41,43.15],[-97.81,43.4],[-94.12,44.2],[-88.64,43.4],[-87.28,42.84],[-85.12,40.77],[-84.38,35.61]]]}},{"type":"Feature","properties":{},"geometry":{"type":"Polygon","coordinates":[[[-92.66,41.19],[-91.62,41.83],[-90.83,41.77],[-92.66,41.19]]]}},{"type":"Feature","properties":{},"geometry":{"type":"Polygon","coordinates":[[[-72.3,41.7],[-71.87,41.8],[-72.29,41.73],[-72.24,43.47],[-74.3,46.45],[-75.44,47.27],[-75.21,47.51],[-74.53,46.76],[-75.19,47.53],[-74.51,48.06],[-75.67,47.51],[-75.96,48.21],[-75.04,48.31],[-75.97,48.68],[-75.73,48.9],[-75.62,48.49],[-75.7,48.89],[-74.38,49.38],[-75.23,49.14],[-74.45,49.93],[-75.86,49.1],[-75.11,50.12],[-75.86,50.44],[-76.32,50.11],[-75.34,50.59],[-76.07,52.05],[-75.66,52],[-75.81,52.47],[-75.42,52.08],[-75.71,52.5],[-75.3,52.5],[-75.77,52.71],[-75.25,52.76],[-75.82,52.87],[-75.16,53.19],[-76.08,53.34],[-75.53,54.44],[-76.12,53.74],[-76,55.46],[-76.78,58.93],[-72.54,57.36],[-71.78,56.5],[-72.68,55.37],[-72.72,54.57],[-71.97,52.51],[-70.22,51.13],[-69.89,47.25],[-70.18,45.68],[-69.67,43.22],[-71.27,39.78],[-72.76,40.31],[-72.3,41.7]]]}},{"type":"Feature","properties":{},"geometry":{"type":"Polygon","coordinates":[[[-71.78,56.5],[-70.66,54.83],[-70.44,51.34],[-71.97,52.51],[-72.72,54.57],[-72.68,55.37],[-71.78,56.5]]]}},{"type":"Feature","properties":{},"geometry":{"type":"Polygon","coordinates":[[[-74.63,66.53],[-74.36,64.98],[-71.41,63.8],[-69.47,62.34],[-69.71,59.92],[-71.09,58.59],[-71.08,58.05],[-69.45,53.93],[-64.97,49.85],[-62.5,43.33],[-68.48,44.55],[-69.45,45.14],[-69.76,46.01],[-68.99,48.99],[-69.13,50.28],[-70.3,51.95],[-71.27,55.32],[-73.98,59.98],[-79.67,64.2],[-86.29,67.42],[-84.47,67.91],[-76.39,68],[-74.15,68.71],[-73.47,68.13],[-74.63,66.53]]]}},{"type":"Feature","properties":{},"geometry":{"type":"Polygon","coordinates":[[[9.23,58.01],[10.43,57.39],[9.1,57.74],[9.23,58.01]]]}},{"type":"Feature","properties":{},"geometry":{"type":"Polygon","coordinates":[[[9.78,58.19],[10.52,57.84],[9.01,58.09],[9.78,58.19]]]}},{"type":"Feature","properties":{},"geometry":{"type":"Polygon","coordinates":[[[63.49,71.01],[64.22,70.71],[63.33,70.68],[63.49,71.01]]]}},{"type":"Feature","properties":{},"geometry":{"type":"Polygon","coordinates":[[[-43.89,69.54],[-44.17,68.98],[-44.96,68.83],[-43.31,69.03],[-42.27,68.53],[-43.14,68.19],[-40.9,68.52],[-40.54,68.12],[-41.02,67.08],[-40.29,67.3],[-39.61,68.57],[-38.27,68.39],[-37.95,67.85],[-39.11,66.18],[-37.21,64.96],[-37.42,64.57],[-39.52,64.8],[-39.3,64.54],[-39.75,64.19],[-38.74,64.48],[-38.58,64.07],[-39.77,63.87],[-41.43,64.24],[-41.09,64.38],[-42.18,64.66],[-42.06,64.98],[-44.6,64.58],[-48.2,64.91],[-47.65,65.58],[-50.15,66.65],[-49.54,66.95],[-45.05,66.34],[-46.51,67.06],[-49.55,67.48],[-49.74,67.94],[-46.53,67.96],[-49.48,68.62],[-47.98,69.3],[-43.89,69.54]]]}},{"type":"Feature","properties":{},"geometry":{"type":"Polygon","coordinates":[[[45.08,68.32],[46.31,68.24],[45.74,67.95],[46.26,68.04],[45.82,67.82],[46.19,67.57],[45.77,67.57],[46.44,66.95],[49.3,65.96],[46.2,65.72],[45.93,66],[46.47,66.09],[45.53,66.43],[44.14,66.22],[43.67,66.71],[44.32,66.79],[44.47,67.36],[44,67.35],[44.7,67.48],[43.69,67.55],[45.08,68.32]]]}},{"type":"Feature","properties":{},"geometry":{"type":"Polygon","coordinates":[[[8.92,58.56],[9.97,58.28],[8.38,58.33],[8.92,58.56]]]}},{"type":"Feature","properties":{},"geometry":{"type":"Polygon","coordinates":[[[57.03,70.14],[57.45,70.07],[56.31,69.74],[55.92,70.06],[57.03,70.14]]]}},{"type":"Feature","properties":{},"geometry":{"type":"Polygon","coordinates":[[[-36.75,68.72],[-36.5,68.44],[-37.82,67.91],[-38.39,68.68],[-36.75,68.72]]]}},{"type":"Feature","properties":{},"geometry":{"type":"Polygon","coordinates":[[[-19.92,66.28],[-17.93,65.78],[-17.56,65.08],[-20.02,65.24],[-20.51,65.91],[-19.92,66.28]]]}},{"type":"Feature","properties":{},"geometry":{"type":"Polygon","coordinates":[[[-19.8,56.94],[-22,56.66],[-23.08,57.3],[-22.03,57.99],[-19.09,57.64],[-19.59,58.41],[-17.45,59.32],[-17.78,60.49],[-18.32,60.58],[-18,60.81],[-19.16,61.3],[-20.16,61.06],[-19.15,61.5],[-19.77,61.92],[-19.37,61.98],[-20.11,62.04],[-19.77,62.37],[-20.37,62.18],[-20.17,62.62],[-20.83,63.22],[-21.46,62.94],[-21.01,62.84],[-21.15,62.41],[-23.14,62.89],[-22.77,62.43],[-23.94,63.19],[-23.21,62.71],[-26.14,63.15],[-26.54,63.45],[-26.23,63.7],[-27.53,63.59],[-28.12,64.55],[-26.35,64.21],[-28.17,64.84],[-27.9,65.4],[-25.08,66.82],[-22.93,66.68],[-24.96,65.81],[-25.24,65.12],[-24.63,64.27],[-26.23,64.19],[-24.78,64.21],[-24.92,63.94],[-24.12,64.59],[-24.98,65.1],[-23.73,65.05],[-24.3,65.47],[-24.1,65.91],[-20.68,66.33],[-20.48,65.28],[-21.52,64.52],[-20.33,65.02],[-19.89,64.73],[-20.25,64.45],[-19.37,64.12],[-19.87,64.68],[-19,64.57],[-19.48,64.91],[-18.66,65.09],[-17.2,64.66],[-18.26,63.95],[-16.74,64.06],[-17.75,63.89],[-17.25,63.8],[-17.8,63.36],[-16.48,63.84],[-17.21,63.32],[-16.58,63.64],[-17.04,63.15],[-16.35,63.32],[-16.72,63.03],[-15.84,63.65],[-15.04,63.17],[-16.33,62.63],[-14.76,62.93],[-16.01,62.4],[-15.38,62.47],[-15.88,61.98],[-14.33,62.71],[-15.04,62.35],[-14.06,62.59],[-13.37,62.24],[-15.21,61.73],[-13.76,61.93],[-14.95,61.47],[-13.36,62.04],[-12.84,61.61],[-15.02,61.4],[-12.7,60.92],[-14.36,61.16],[-13.72,60.96],[-14.49,60.78],[-13.83,60.9],[-13.53,60.74],[-14.16,60.67],[-13.66,60.51],[-14.83,60.65],[-12.98,60.11],[-13.92,60.01],[-12.82,59.77],[-12.99,59.42],[-12.58,59.65],[-12.8,59.23],[-11.72,59.53],[-12.19,59.23],[-11.62,59.35],[-11.35,58.85],[-11.96,58.92],[-11.37,58.78],[-12,58.56],[-10.72,58.79],[-11.42,58.33],[-10.01,58.46],[-9.56,57.99],[-10.84,57.79],[-10.21,57.42],[-11.02,57.58],[-10.53,57.23],[-10.93,57.37],[-10.88,57.03],[-11.43,57.43],[-11.71,56.4],[-12.97,57.36],[-11.93,57.9],[-13.19,57.58],[-12.76,58],[-13.22,57.75],[-14.52,58.4],[-13.97,58.16],[-14.59,58.28],[-14.11,57.74],[-15.02,57.88],[-14.68,57.55],[-15.03,57.23],[-14.35,57.41],[-14.18,56.43],[-14.01,56.73],[-13.9,56.3],[-13.52,56.55],[-13.48,56.12],[-12.98,56.09],[-13.5,55.95],[-12.75,55.57],[-12.86,54.83],[-13.33,55.43],[-13.01,54.5],[-13.5,54.67],[-13.54,54.2],[-14.37,55.13],[-14.49,54.72],[-15.34,55.58],[-15.23,55.19],[-16.18,55.63],[-14.18,53.89],[-14.31,53.57],[-18.27,55.12],[-18.71,55.56],[-17.95,55.64],[-18.99,55.99],[-19.22,56.85],[-19.98,56.59],[-19.8,56.94]]]}},{"type":"Feature","properties":{},"geometry":{"type":"Polygon","coordinates":[[[139.73,81.42],[143.36,80.92],[136.47,80.75],[139.73,81.42]]]}},{"type":"Feature","properties":{},"geometry":{"type":"Polygon","coordinates":[[[-32.83,68.27],[-31.07,67.8],[-32.88,67.28],[-31.74,66.84],[-32.46,66.03],[-33.43,65.89],[-33.73,66.24],[-34.59,65.71],[-36.13,67.42],[-35.42,67.78],[-34.98,67.27],[-34.04,67.34],[-34.21,67.64],[-33.75,67.81],[-34.57,68.08],[-32.83,68.27]]]}},{"type":"Feature","properties":{},"geometry":{"type":"Polygon","coordinates":[[[-28.29,67.84],[-26.32,67.26],[-28.61,66.37],[-30.16,66.61],[-29.84,66.22],[-31.47,65.96],[-30.28,67.61],[-28.29,67.84]]]}},{"type":"Feature","properties":{},"geometry":{"type":"Polygon","coordinates":[[[136.91,81.37],[135.34,81.52],[137.23,81.45],[136.91,81.37]]]}},{"type":"Feature","properties":{},"geometry":{"type":"Polygon","coordinates":[[[89.52,77.08],[90.6,77.15],[90.95,76.76],[89.05,76.81],[89.52,77.08]]]}},{"type":"Feature","properties":{},"geometry":{"type":"Polygon","coordinates":[[[-47.19,71.48],[-46.7,70.87],[-46.05,70.89],[-46.37,70.71],[-44.8,70.68],[-44.32,69.74],[-53.11,68.64],[-53.67,69.73],[-54.52,69.9],[-50.18,71.13],[-49.99,71.78],[-47.19,71.48]]]}},{"type":"Feature","properties":{},"geometry":{"type":"Polygon","coordinates":[[[12.58,60.45],[12.71,60.07],[12.03,60.17],[12.58,60.45]]]}},{"type":"Feature","properties":{},"geometry":{"type":"Polygon","coordinates":[[[-28.37,69.69],[-28.63,69.91],[-27.59,69.87],[-28.37,69.69]]]}},{"type":"Feature","properties":{},"geometry":{"type":"Polygon","coordinates":[[[145.02,83.21],[153.74,83.31],[148.79,82.78],[143.58,83.04],[143.15,83.42],[145.02,83.21]]]}},{"type":"Feature","properties":{},"geometry":{"type":"Polygon","coordinates":[[[-22.52,68.45],[-22.54,67.98],[-23.48,67.55],[-24.65,68.2],[-22.52,68.45]]]}},{"type":"Feature","properties":{},"geometry":{"type":"Polygon","coordinates":[[[-32.82,72.89],[-34.75,73.05],[-32.45,72.93],[-32.82,72.89]]]}},{"type":"Feature","properties":{},"geometry":{"type":"Polygon","coordinates":[[[126.99,83.22],[131.53,82.9],[132.55,82.94],[130.97,83.31],[141.28,83.23],[140.41,83.12],[141.1,82.99],[140.63,82.73],[138.92,82.65],[139.43,82.51],[132.1,82.12],[132.66,82.08],[132.36,81.82],[126.71,82.14],[125.13,82.8],[126.99,83.22]]]}},{"type":"Feature","properties":{},"geometry":{"type":"Polygon","coordinates":[[[70.59,76.01],[71.42,76],[70.22,75.9],[70.59,76.01]]]}},{"type":"Feature","properties":{},"geometry":{"type":"Polygon","coordinates":[[[-24.83,70.8],[-24.84,70.45],[-25.75,70.61],[-24.83,70.8]]]}},{"type":"Feature","properties":{},"geometry":{"type":"Polygon","coordinates":[[[-22.24,69.84],[-25.29,68.57],[-26.51,69],[-24.93,69.35],[-26.71,69.74],[-25.5,69.67],[-24.31,70.26],[-24.54,69.53],[-23.76,69.63],[-24.14,69.85],[-23.8,70.14],[-22.24,69.84]]]}},{"type":"Feature","properties":{},"geometry":{"type":"Polygon","coordinates":[[[-26.54,71.68],[-28.71,70.94],[-27.41,70.85],[-27.33,70.49],[-29.36,70.06],[-34.35,70.94],[-34.59,71.47],[-31.44,71.12],[-33.44,71.6],[-32.51,71.87],[-34.24,71.77],[-33.84,71.92],[-34.57,71.9],[-34.31,72.15],[-34.87,72.48],[-32.45,72.22],[-33.75,72.59],[-31.75,72.29],[-32.64,72.68],[-30.11,72.68],[-30.55,72.31],[-29.87,72],[-30.93,71.36],[-29.9,70.9],[-28.49,71.73],[-26.54,71.68]]]}},{"type":"Feature","properties":{},"geometry":{"type":"Polygon","coordinates":[[[48.97,72.97],[50.32,72.87],[50.55,72.38],[47.14,70.77],[46.65,70.31],[47.17,70.13],[46.51,70.08],[47,69.92],[46.33,69.98],[46.74,69.71],[45.95,69.74],[46.68,69.48],[45.75,69.18],[46.49,68.9],[45.54,68.94],[46.56,68.79],[45.56,68.79],[46.33,68.36],[44.41,68.15],[45.38,68.64],[43.58,68.5],[44.42,68.79],[44.14,69.02],[45.23,69.03],[44.1,69.11],[44.63,69.46],[44.1,69.59],[44.9,69.71],[43.59,70.03],[44.78,70.39],[44.44,70.72],[45.85,71.3],[45.66,71.58],[48,72.06],[48.97,72.97]]]}},{"type":"Feature","properties":{},"geometry":{"type":"Polygon","coordinates":[[[-20.15,69.64],[-19.56,69.23],[-20.5,68.84],[-18.95,68.71],[-18.9,68.4],[-19.4,68.59],[-18.65,68.08],[-19.82,68.31],[-19.5,68.04],[-20.07,68.08],[-19.48,67.67],[-19.95,67.36],[-16,66.68],[-15.18,65.97],[-16.2,65.72],[-15.82,65.47],[-17.7,65.47],[-18.17,65.72],[-17.98,66.1],[-18.93,65.89],[-22.21,67.14],[-21.79,67.24],[-22.6,67.19],[-20.36,68.73],[-21.7,69.01],[-21.05,69.31],[-21.44,69.63],[-20.15,69.64]]]}},{"type":"Feature","properties":{},"geometry":{"type":"Polygon","coordinates":[[[-27.78,73.52],[-31.51,72.97],[-31.84,73.22],[-30.53,73.41],[-34.32,73.29],[-34.63,73.39],[-33.72,73.62],[-35.47,73.88],[-29.6,73.93],[-27.78,73.52]]]}},{"type":"Feature","properties":{},"geometry":{"type":"Polygon","coordinates":[[[-16.83,69.31],[-16.9,68.91],[-17.5,68.91],[-16.83,69.31]]]}},{"type":"Feature","properties":{},"geometry":{"type":"Polygon","coordinates":[[[64.04,43.53],[62.97,43.22],[63.16,45.67],[60.34,49.86],[61.65,52.39],[61.68,53.66],[58.52,60.42],[59.11,61.68],[60.38,62.63],[65.1,60.67],[70.02,56.87],[74.7,55],[78.34,50.88],[91.71,45.58],[83.5,42],[75.49,36.51],[70.18,36.63],[65.07,38.57],[63.36,39.99],[64.82,41.78],[63.79,42.29],[64.04,43.53]]]}},{"type":"Feature","properties":{},"geometry":{"type":"Polygon","coordinates":[[[93.37,41.7],[94.61,41.44],[95.87,40.34],[94.17,38.64],[86.71,36.27],[84.92,34.7],[82.12,35.16],[77.83,38.08],[75.7,38.39],[81.26,41.18],[86.09,42.74],[93.37,41.7]]]}},{"type":"Feature","properties":{},"geometry":{"type":"Polygon","coordinates":[[[97.29,43.86],[93.56,42.81],[85.3,42.75],[91.71,45.58],[94.97,44.24],[97.29,43.86]]]}},{"type":"Feature","properties":{},"geometry":{"type":"Polygon","coordinates":[[[100.38,35.29],[105.96,33.39],[103.88,33],[98.09,33.96],[91.41,33.92],[82.75,32.21],[83.29,33.07],[89.89,36.43],[92.4,37.2],[100.38,35.29]]]}},{"type":"Feature","properties":{},"geometry":{"type":"Polygon","coordinates":[[[139.73,55.44],[140.89,55.58],[140.24,55.2],[141,55.19],[141.64,55.61],[141.53,55.14],[141.72,55.91],[142.89,55.92],[144.6,54.94],[143.9,54.75],[144.77,53.8],[143.83,52.87],[143.41,50.08],[138.32,45.1],[136.88,44.39],[135.44,44.4],[135.41,44.9],[134.3,44.1],[130.21,45.1],[126.22,44.94],[116.58,44.38],[106.91,42.66],[103.33,43.27],[96.97,43],[94.8,43.65],[93,45.02],[98.66,44.86],[103.63,45.84],[107.97,47.8],[111.79,48.63],[114.6,50.36],[119.26,51.27],[122.28,54.01],[125.16,55.39],[131.65,54.92],[139.73,55.44]]]}},{"type":"Feature","properties":{},"geometry":{"type":"Polygon","coordinates":[[[86.63,75.41],[86.37,74.51],[86.97,74.66],[86.64,75.01],[88.89,75.27],[88.23,75.36],[89.97,76.13],[88.33,76.26],[89.72,76.53],[91.82,76.63],[93.58,76.15],[93.92,76.34],[92.97,76.38],[98.35,77.21],[100.7,76.88],[104.97,77.33],[103.38,78],[104.16,78.27],[112.3,78.31],[111.89,78.23],[114.32,77.56],[113.34,77.25],[116.69,76.65],[118.95,76.46],[119.38,76.74],[118.78,77.5],[119.28,77.31],[121.34,76.29],[122.34,74.23],[123.16,74.01],[139.71,73.13],[149.68,71.65],[153.74,69.92],[154.6,67.69],[143.93,66.54],[137.06,61.73],[139.1,61.65],[139.26,60.85],[130.27,59.58],[122.93,59.37],[120.3,57.7],[117.97,54.66],[113.33,53.23],[110.91,51.21],[107.2,49.93],[103.29,47.48],[98.54,45.9],[92.85,45.36],[83.84,48.38],[78.34,50.88],[74.7,55],[68.27,57.98],[63.7,61.44],[61.56,63.9],[64.76,63.73],[65.81,65.44],[64.66,66.38],[65.74,66.85],[67.26,66.56],[68.58,65.53],[70.86,65.68],[68.08,65.9],[67.76,66.24],[68.2,66.47],[67.11,66.99],[63.67,66.7],[62.85,67.22],[62.61,68.09],[60.65,68.64],[61.33,69.61],[60.35,70.14],[61.38,70.01],[62.41,68.95],[63.22,68.85],[65.62,68.92],[62.49,69.48],[64.21,69.75],[63.23,69.97],[64.07,70.19],[63.78,70.26],[68.59,70.33],[68.82,70.02],[68.38,69.78],[69.27,68.78],[72.32,68.62],[70.19,69.01],[70.67,69.28],[69.33,69.78],[69.07,70.31],[65.67,70.64],[63.81,71.57],[68.55,72.75],[66.7,73.02],[67.69,73.29],[65.94,73.43],[67.11,73.38],[66.57,73.73],[66.98,73.82],[66.08,73.8],[70.03,75.51],[68.88,75.52],[71.5,75.64],[72.95,76.43],[74.02,76.41],[72.42,76.6],[73.99,76.99],[72.6,77.46],[72.37,78.13],[72.72,78.32],[75.61,78.38],[74.91,77.86],[78.17,78.21],[78.73,77.74],[79.61,77.92],[79.3,78.21],[82.6,78.68],[87.11,78.38],[87.77,78.05],[85.6,78.11],[88.68,77.79],[88.24,77.32],[88.52,77.08],[87.1,76.4],[87.66,76.48],[87.39,75.71],[85.47,75.37],[86.63,75.41]]]}},{"type":"Feature","properties":{},"geometry":{"type":"Polygon","coordinates":[[[60.1,65.21],[59.97,65.86],[57.61,66.15],[56.96,67.28],[56.21,67.33],[56.05,67.74],[56.67,68.39],[56,69.57],[58.97,69.79],[59.64,68.57],[61.13,68.13],[62.64,66.46],[64.16,66.02],[64.43,65.25],[64.01,64.31],[61.54,63.92],[60.1,65.21]]]}},{"type":"Feature","properties":{},"geometry":{"type":"Polygon","coordinates":[[[82.79,17.05],[87.55,17.31],[91.45,16.45],[93.3,14.85],[95.37,11.4],[90.31,13.9],[82.58,13.93],[79.51,14.63],[76.01,16.51],[72.78,19.41],[72.02,20.84],[77.53,17.9],[82.79,17.05]]]}},{"type":"Feature","properties":{},"geometry":{"type":"Polygon","coordinates":[[[42.26,-46.97],[42.91,-46.84],[42.56,-46.68],[42.72,-46.05],[42.34,-46.81],[42.6,-45.87],[42.21,-45.37],[42.28,-46.41],[41.63,-46.85],[39.04,-46.18],[39.54,-45.85],[38.62,-45.8],[39.32,-45.31],[37.53,-44.72],[36.83,-45.1],[35.56,-44.84],[29.93,-42.16],[29.34,-42.31],[28.63,-41.48],[27.72,-41.28],[27.5,-40.68],[20.39,-41.47],[20.03,-40.88],[19.09,-40.67],[18.86,-41.06],[18.51,-40.26],[17.49,-40.02],[17.03,-39.32],[17.89,-38.46],[20.8,-37.28],[26.5,-33.97],[31.73,-32.22],[32.45,-32.52],[32.22,-32.02],[32.92,-32.06],[32.88,-31.67],[31.58,-31.76],[30.65,-30.65],[31.96,-28.63],[32.57,-29.68],[33.24,-29.82],[32.61,-28.73],[33.05,-27.87],[33.65,-28.09],[33.19,-27.75],[33.59,-27.65],[33.35,-26.94],[34.3,-26.72],[34.15,-25.99],[35,-25.69],[34.53,-25.1],[38.52,-24.46],[41.33,-24.86],[47.26,-26.7],[48.6,-27.87],[48.72,-28.82],[47.57,-30.07],[46,-34.08],[45.77,-38.82],[46.59,-40.91],[51.75,-47.44],[52.01,-48.67],[42.26,-46.97]]]}},{"type":"Feature","properties":{},"geometry":{"type":"Polygon","coordinates":[[[73.52,25.52],[75.68,24.38],[77.19,24.14],[78.25,24.27],[79.05,25.2],[84.81,26.67],[91,25.38],[95.33,23.36],[96.38,21.02],[96.61,18.56],[94.1,21.52],[91.88,22.63],[88.62,22.9],[83.73,22.26],[78.24,22.61],[71.8,25.15],[70.69,25.09],[69.55,26.9],[71.46,26.8],[73.52,25.52]]]}},{"type":"Feature","properties":{},"geometry":{"type":"Polygon","coordinates":[[[101.43,26.56],[101.25,26.15],[99.89,28.38],[97.94,29.25],[89.39,30.72],[95.66,31.78],[100.36,31.46],[104.51,31.88],[103.02,30.12],[101.43,26.56]]]}},{"type":"Feature","properties":{},"geometry":{"type":"Polygon","coordinates":[[[61.54,63.92],[63.7,61.44],[60.38,62.63],[61.06,64.41],[61.54,63.92]]]}},{"type":"Feature","properties":{},"geometry":{"type":"Polygon","coordinates":[[[57.5,36.46],[56.89,37.38],[56.96,38.35],[55.51,38.59],[54.23,39.87],[55.43,39.96],[54.74,40.19],[55.15,40.79],[56.56,41],[56.41,42.03],[55.89,42.42],[54.6,42.39],[53.3,41.46],[52.85,41.6],[52.64,40.71],[52.4,41.02],[52.36,40.65],[51.66,40.61],[51.02,39.43],[52.11,38.91],[52.05,38],[53.78,36.62],[48.36,37.76],[53.4,42.55],[60.12,45.21],[60.75,46.83],[60.34,49.86],[63.16,45.67],[62.75,42.64],[62.38,42.82],[62.48,42.29],[61.73,42.24],[61.5,41.16],[61.94,40.16],[62.95,40.43],[65.07,38.57],[69.13,36.84],[76.05,36.61],[73.69,34.41],[64.85,33.23],[57.46,35.96],[57.5,36.46]]]}},{"type":"Feature","properties":{},"geometry":{"type":"Polygon","coordinates":[[[44.22,-4.52],[43.7,-4.14],[42.27,-4.29],[41.46,-3.74],[40.05,-1.81],[39.92,0.71],[39.43,0.74],[39.28,1.38],[38.93,0.99],[38.18,1.39],[38.16,0.83],[37.7,0.86],[37.86,-1.18],[38.52,-2.54],[38.12,-3.07],[38.24,-4.52],[38.93,-3.45],[39.39,-3.71],[38.5,-5.11],[38.89,-5.64],[41.05,-6.25],[43.65,-4.99],[43.07,-6.77],[44.57,-8.37],[45,-9.96],[43.27,-11.2],[42.61,-11.14],[42.16,-12.3],[41.17,-12.17],[40.4,-12.8],[39.53,-12.56],[38.85,-13.17],[36.29,-12.74],[35.72,-13.39],[31.88,-13.38],[28.87,-12.69],[28.02,-12.94],[26.69,-12.29],[27.07,-9.64],[27.89,-8.36],[27.71,-4.86],[27.06,-2.95],[27.78,-0.25],[27.26,0.71],[27.42,4.88],[26.96,5.21],[31.21,9.58],[32.67,11.89],[34.88,12.2],[37.72,11.42],[39.3,6.87],[42.83,-0.67],[43.26,-2.65],[44.6,-3.3],[44.22,-4.52]]]}},{"type":"Feature","properties":{},"geometry":{"type":"Polygon","coordinates":[[[48.58,-15.85],[47.35,-18.93],[45.48,-19.5],[38.52,-16.79],[36.33,-16.55],[37.3,-13.6],[39.2,-12.28],[40.73,-13.2],[43.76,-12.42],[45.34,-12.67],[48.88,-14.8],[48.58,-15.85]]]}},{"type":"Feature","properties":{},"geometry":{"type":"Polygon","coordinates":[[[78.29,22.83],[67.28,26.44],[69.39,29.83],[75.64,24.88],[78.86,24.85],[78.29,22.83]]]}},{"type":"Feature","properties":{},"geometry":{"type":"Polygon","coordinates":[[[66.77,18.43],[66.38,18.8],[67.4,20.68],[69.34,22.49],[70.1,22.55],[77.74,17.14],[71.83,17.56],[69.15,17.16],[66.77,18.43]]]}},{"type":"Feature","properties":{},"geometry":{"type":"Polygon","coordinates":[[[50.48,31.97],[51.13,31.47],[54.69,31.86],[58.03,28.14],[62.38,27.33],[62.74,26.49],[61.23,25.88],[59.22,26.8],[44.7,29.72],[44.29,30.53],[44.64,32.06],[47.95,33.1],[50.48,31.97]]]}},{"type":"Feature","properties":{},"geometry":{"type":"Polygon","coordinates":[[[22.15,75.75],[18.66,76.44],[16.89,77.42],[15.01,77.45],[16.35,77.93],[15.63,78.3],[16.34,78.63],[13.56,78.76],[12.31,78.29],[12.84,78.16],[10.76,77.83],[-0.9,80.34],[3.3,81.94],[9.51,83.47],[11.31,83.17],[22.8,79.96],[24.3,79.17],[25.09,78.31],[24.89,77.92],[22.15,75.75]]]}},{"type":"Feature","properties":{},"geometry":{"type":"Polygon","coordinates":[[[-161.04,80.58],[-151.3,78.53],[-137.08,77.1],[-152.05,74.15],[-158.24,73.61],[-158.6,73.06],[-163.31,71.88],[-162.98,72.17],[-164.01,72.38],[-163.11,73.08],[-164.16,72.81],[-164.48,73.56],[-170.99,76.19],[-172.12,76.93],[-172.52,77.88],[-170,79.2],[-161.04,80.58]]]}},{"type":"Feature","properties":{},"geometry":{"type":"Polygon","coordinates":[[[128.46,78.64],[131.69,78.25],[140.38,78.98],[138.54,79.33],[139.64,79.63],[137.65,79.62],[140.61,80.12],[139.34,80.36],[153.34,80.41],[156.78,80.06],[155.14,79.82],[161.97,79.15],[172.72,79.43],[175.32,78.78],[174.65,78.39],[176.49,78.17],[169.95,76.55],[167.96,75.23],[168.31,74.27],[169.28,73.53],[175,70.93],[175.34,70.19],[171.66,70.13],[168.22,68.5],[167.84,67.84],[169.37,67.62],[164.31,67.17],[163.95,67.42],[165.53,67.59],[163.1,67.79],[162.58,70.14],[158.79,71.95],[148.94,73.61],[131.97,74.77],[131.16,75],[130.61,77.08],[128.26,78.31],[128.46,78.64]]]}},{"type":"Feature","properties":{},"geometry":{"type":"Polygon","coordinates":[[[133.49,43.56],[132.21,42.67],[132.04,41.71],[129.77,40.3],[130.81,39.58],[131.95,37.52],[128.95,37.02],[128.63,37.77],[129.52,37.89],[129.11,38.73],[128.01,38.93],[127.77,38.56],[127.07,39],[127.98,39.58],[127.54,39.75],[127.85,40.44],[126.76,40.86],[123.51,39.57],[124.3,40.26],[123.61,40.24],[123.83,40.65],[124.64,41.33],[124.15,41.81],[123.31,41.67],[121.32,40.03],[120.14,39.99],[119.99,39.25],[121.19,39.04],[121.48,38.04],[123.11,38.69],[125.11,38.25],[124.92,37.76],[122.5,37.05],[121.57,35.77],[122.63,35.18],[119.63,32.28],[115.1,33.84],[108.25,34.52],[96.13,39.85],[106.49,42.27],[116.12,43.9],[129.64,44.5],[133.49,43.56]]]}},{"type":"Feature","properties":{},"geometry":{"type":"Polygon","coordinates":[[[129.39,40.95],[129.78,39.54],[128.24,38.88],[128.43,38.59],[128.19,38.81],[128.2,38.33],[127.97,38.62],[127.45,37.97],[127.03,38.29],[127.41,38.31],[126.84,38.68],[127.15,39.6],[126.73,39.69],[129.39,40.95]]]}},{"type":"Feature","properties":{},"geometry":{"type":"Polygon","coordinates":[[[121.27,36.31],[122.55,34.86],[123.92,34.26],[122.25,34.07],[124.23,33.56],[122.89,32.48],[124.86,32.61],[124.32,32.03],[124.83,32.31],[124.94,32],[124.44,31.86],[124.96,31.02],[124.07,30.45],[124.05,28.97],[123.47,28.98],[123.99,28.68],[124.04,27.63],[123.62,27.78],[123.33,26.6],[122.73,26.49],[122.93,26.18],[121.65,24.94],[121.76,24.46],[120.15,23.9],[119.87,23.22],[118.77,23.79],[119.19,22.96],[118.79,22.73],[118.51,23.1],[118.67,22.46],[118.1,22.53],[118.17,22.17],[116.32,21.35],[116.65,20.2],[115.85,20.68],[115.95,21.3],[115.51,21.46],[115.21,21.01],[114.4,21.34],[113.62,20.14],[112.93,19.99],[113.2,19.68],[112.73,18.81],[105.53,22.46],[104.86,23.37],[104.3,25.79],[105.16,28.29],[107.41,31.58],[109.42,32.37],[113.61,33],[119.49,32.77],[121.27,36.31]]]}},{"type":"Feature","properties":{},"geometry":{"type":"Polygon","coordinates":[[[109.73,18.72],[109.85,17.67],[110.37,17.29],[114.8,16.2],[116.67,14.26],[116.99,12.93],[115.52,11],[115.81,10.14],[114.93,8.42],[114.21,9.79],[112.83,9.43],[112.43,9.96],[112.22,9.49],[111.06,10.38],[109.36,9.85],[109.02,10.62],[108.33,10.42],[106.73,13.35],[106.19,16.54],[102.31,20.08],[109.73,18.72]]]}},{"type":"Feature","properties":{},"geometry":{"type":"Polygon","coordinates":[[[107.32,9.97],[108.66,6.86],[109.46,6.11],[109.88,6.56],[112.14,5.48],[113.51,5.82],[116.52,2.96],[114.19,3.16],[111.01,4.98],[109.71,5.09],[109.49,4.71],[106.66,8.38],[104.57,9.27],[103.32,10.35],[103.65,10.37],[102.08,10.37],[98.72,12.94],[96.91,14.9],[95.68,17.53],[98.7,18.43],[102.77,16.43],[103.8,15.6],[105.01,12.58],[107.32,9.97]]]}},{"type":"Feature","properties":{},"geometry":{"type":"Polygon","coordinates":[[[112.58,6],[114.69,5.91],[116,4.57],[117.69,4.05],[117.2,3.44],[115.69,3.23],[112.58,6]]]}},{"type":"Feature","properties":{},"geometry":{"type":"Polygon","coordinates":[[[27.2,-6.78],[29.38,-10.62],[29.28,-11.1],[28.32,-11.28],[28.95,-11.39],[29.66,-12.86],[34.89,-13.45],[36.39,-13.18],[36.83,-13.45],[36.19,-14.74],[36.59,-14.83],[36.05,-14.82],[35.74,-15.66],[31.4,-19.66],[28.79,-21],[23.61,-22.69],[19.22,-25.39],[18.25,-26.48],[18.62,-27.71],[17.69,-29.21],[17.51,-30.51],[18.18,-31.51],[17.59,-32],[16.1,-35.73],[14.61,-36.51],[11.3,-36.59],[7.44,-37.55],[9.93,-33.47],[11.64,-27.32],[14.2,-26.47],[15.02,-24.33],[18.33,-19.68],[19.37,-16.41],[20.58,-14.96],[21.83,-15.32],[22.64,-13.87],[26.88,-11.53],[27.2,-6.78]]]}},{"type":"Feature","properties":{},"geometry":{"type":"Polygon","coordinates":[[[7.39,-37.27],[6.75,-37.91],[6.6,-39.77],[5.18,-41.39],[0.74,-41.4],[0.64,-41.86],[1.16,-41.76],[-1.3,-43.46],[-5.94,-44.43],[-10.03,-44.66],[-12.35,-44.25],[-14.97,-42.58],[-17.88,-41.84],[-18.25,-40.62],[-18.74,-40.66],[-17.98,-39.15],[-17.38,-39.2],[-16.75,-38.44],[-15.92,-35.68],[-15.91,-33.47],[-13.22,-28.98],[-12.67,-23.81],[-11.46,-22.17],[-9.35,-20.57],[-7.32,-19.88],[-6.69,-18.91],[-6.48,-17.16],[-5.73,-16.76],[-5.49,-14.28],[-4.75,-14.46],[-5.35,-14],[-5.06,-12.72],[-5.78,-9.73],[-5.65,-7.76],[-5.06,-7.88],[-4.55,-7.23],[-4.14,-7.67],[-4.5,-7.07],[-2.58,-5.22],[-2.28,-4.23],[-2.78,-4.1],[-3.1,-2.84],[-4.26,-2.67],[-5.45,-1.69],[-2.14,-1.35],[-1.3,-0.42],[1.36,-0.32],[7.07,-4.74],[9.87,-4.95],[15.02,-6.24],[17.2,-12.84],[17.52,-15.08],[12.87,-17.99],[11.06,-20.8],[10.64,-22.76],[12.57,-27.53],[12.3,-28.77],[10.34,-33.55],[7.39,-37.27]]]}},{"type":"Feature","properties":{},"geometry":{"type":"Polygon","coordinates":[[[-5.5,26.51],[-5.11,27.48],[-3.96,28.22],[-1.1,28.43],[0.7,29.54],[1.25,29.37],[1.48,28.36],[2.82,28],[3.4,27.25],[6.84,27.17],[9.04,26.47],[10.01,25.65],[11.11,25.61],[12.13,24.82],[13.86,24.53],[3.7,24.59],[-1.69,26.37],[-5.5,26.51]]]}},{"type":"Feature","properties":{},"geometry":{"type":"Polygon","coordinates":[[[12.18,32.55],[11.86,31.8],[9.18,31.67],[7.77,30.9],[7.82,30.05],[4.86,29.14],[2.99,29.97],[1.62,29.8],[1.33,30.74],[1.8,30.91],[1.42,30.8],[1.31,31.41],[-0.61,31.98],[0.49,33.05],[0.12,33.53],[0.83,33.7],[0,33.71],[1.89,35.07],[2.89,36.47],[2.71,37.17],[3.19,37.4],[4.55,37.36],[7.89,35.22],[9.22,34.93],[12.18,32.55]]]}},{"type":"Feature","properties":{},"geometry":{"type":"Polygon","coordinates":[[[-4.16,-3.06],[-4.24,-1.49],[-4.92,-0.64],[-7.25,0.23],[-11.03,0.51],[-12.49,1.82],[-16.11,2.66],[-19.08,7.59],[-18.93,10.39],[-19.89,12.46],[-19.16,12.8],[-20.1,13.02],[-20.32,13.51],[-19.99,13.59],[-20.51,13.99],[-20.1,13.94],[-20.42,14.13],[-19.95,14.89],[-18.93,14.38],[-19.81,14.7],[-19.57,15.15],[-20.04,16.39],[-18.67,16.84],[-17.23,18.35],[-16.84,20.02],[-16.11,20.59],[-16.13,21.81],[-16.58,21.54],[-15.58,22.6],[-12.6,23.91],[-11.37,25.03],[-9.16,25.83],[-6.5,25.7],[-4.97,26.47],[-1.16,26.34],[4.23,24.58],[14.4,24.45],[14.46,23.82],[15.14,23.66],[14.26,23.27],[14.33,22.19],[13.01,21.74],[10.89,19.04],[6.69,10.03],[5.98,6.56],[6.94,1.45],[3.42,0.32],[2.48,-1.01],[-0.16,-1.38],[-0.9,-2.39],[-4.16,-3.06]]]}},{"type":"Feature","properties":{},"geometry":{"type":"Polygon","coordinates":[[[27.76,8.45],[27.47,7.57],[28,1.84],[27.61,0.94],[28.31,-1.37],[27.65,-2.82],[14.04,-6.18],[8.86,-5.03],[6.06,-4.88],[0.24,-0.62],[1.27,0.64],[4.88,1.49],[4.32,6.66],[5.3,10.07],[10.22,18.72],[12.38,20.85],[13.45,19.06],[15.42,17.42],[15.31,16.34],[17.23,14.02],[18.37,14.06],[19.07,15.22],[20.87,15.13],[21.54,13.91],[22.73,13.1],[22.69,12.62],[25.4,10.54],[26.73,10.68],[27.7,10.18],[27.76,8.45]]]}},{"type":"Feature","properties":{},"geometry":{"type":"Polygon","coordinates":[[[28.28,10.67],[27.42,11.57],[25.79,12.03],[25.08,13.87],[24.66,13.57],[24.01,13.9],[23.87,15.13],[23.1,15.6],[23.92,15.32],[23.25,15.89],[24.02,16.56],[23.76,17.26],[26.73,16.57],[27.42,16.01],[27.77,14.66],[29.08,14.3],[31.95,12.19],[33.12,9.23],[30.5,10.54],[28.28,10.67]]]}},{"type":"Feature","properties":{},"geometry":{"type":"Polygon","coordinates":[[[12.69,-27.19],[12.11,-27.48],[9.99,-22.79],[10.32,-20.82],[12.02,-17.94],[16.56,-14.87],[21.43,-15.35],[20.18,-16.77],[19.05,-20.01],[15.59,-24.58],[14.7,-26.69],[12.69,-27.19]]]}},{"type":"Feature","properties":{},"geometry":{"type":"Polygon","coordinates":[[[28.94,7.07],[27.66,6.03],[27.38,10.32],[28.36,9.35],[29.77,9.38],[32.15,11.38],[33.15,13.13],[32.4,11.38],[28.94,7.07]]]}},{"type":"Feature","properties":{},"geometry":{"type":"Polygon","coordinates":[[[27.38,-2.67],[27.34,-3.45],[28.03,-4.47],[27.99,-7.61],[28.34,-7.37],[27.89,-12.11],[23.57,-14.34],[22.72,-15.77],[20.04,-15.07],[16.6,-14.88],[14.17,-7.18],[14.23,-6.03],[27.38,-2.67]]]}},{"type":"Feature","properties":{},"geometry":{"type":"Polygon","coordinates":[[[44.74,37.75],[41.78,38.93],[43.02,39.9],[42.48,40.54],[43.29,40.6],[43.71,41.27],[40.18,39.66],[40.26,40.09],[40.23,39.35],[40.81,38.92],[41.79,39.13],[41.6,38.78],[39.14,38.11],[38.74,38.91],[38.07,38.74],[39.12,39.39],[37.26,39.58],[37,39.82],[37.82,39.81],[37.37,40.15],[35.46,38.92],[35.59,37.95],[35.02,37.78],[32.56,39.17],[30.43,41.52],[24.51,44.86],[21.38,46.01],[24.23,47.01],[24.82,46.56],[25.58,46.9],[25.21,46.47],[26.01,46.99],[25.58,47.2],[26.19,47.41],[26.39,48.07],[26.06,47.28],[26.64,47.29],[26.17,48.9],[26.56,49.94],[27.27,50.2],[28.29,49.48],[28.87,49.82],[28.78,50.9],[28.08,50.86],[27.71,51.72],[33,52.84],[31.6,53.21],[31.56,53.63],[27.09,52.25],[27.06,52.77],[25.71,52.94],[25.73,53.89],[24.95,55.09],[27.09,57.31],[27.7,57.38],[27.23,58.14],[24.65,58.06],[25.05,57.88],[24.43,57.65],[24.7,57.33],[24.34,57.11],[24.92,56.74],[24.35,56.05],[22.6,54.88],[22.1,55.25],[22.52,54.77],[22.03,54.54],[22.25,52.75],[24,51.95],[23.14,51.56],[23.61,51.33],[23.2,50.98],[22.95,51.29],[22.89,50.88],[21.85,50.67],[22.49,50.55],[21.96,50.53],[22.46,50.24],[22.33,48.73],[21.98,48.09],[20.73,47.9],[20.68,47.31],[19.54,47.24],[19.11,48.13],[19.48,48.44],[18.32,49.52],[18.4,50.16],[17.85,50.13],[17.24,51.66],[17.09,51.25],[16.82,51.47],[16.97,50.77],[16.34,50.82],[15.43,49.77],[14.48,49.58],[13.3,50.09],[13.17,50.58],[13.76,50.41],[14.03,50.64],[13.41,50.63],[13.94,51.14],[12.82,51.03],[14.23,52.08],[13.22,51.53],[13.17,51.94],[12.7,51.9],[13.15,52.28],[12.77,52.08],[12.47,52.33],[12.97,52.42],[12.53,52.59],[14.2,52.46],[14.61,52.85],[12.66,52.64],[12.95,52.92],[12.41,53.27],[13.84,53.46],[12.43,53.72],[13.4,53.62],[13.09,53.78],[13.67,54.03],[14.11,53.7],[13.3,54.14],[14.76,54.32],[13.85,54.31],[14.04,54.61],[15.08,54.31],[14.51,54.65],[15.16,54.47],[14.72,54.76],[15.85,55.34],[16,55.01],[16.8,55.21],[17.05,55.87],[16.17,55.2],[15.69,55.4],[18.03,57.14],[17.31,57],[17.86,57.28],[17.68,57.73],[18.12,57.66],[17.68,57.89],[18.74,58.2],[17.9,58],[18.28,58.15],[17.78,58.35],[18.35,58.46],[17.91,58.55],[18.49,58.66],[18.08,58.79],[19.53,59.03],[18.62,59.14],[19.69,59.32],[18.82,59.73],[19.63,59.86],[19.14,59.97],[19.59,60.21],[20.12,59.8],[19.72,60.28],[20.99,60.47],[19.88,60.48],[20.74,60.7],[20.39,60.77],[20.81,60.78],[20.49,61.01],[20.84,61.51],[21.94,61.35],[21.45,61.84],[21.94,61.55],[22.26,62.12],[22.19,61.42],[22.85,61.68],[22.41,61.94],[22.88,62.23],[23.64,62.01],[22.96,62.54],[24.51,62.33],[24.21,62.54],[25.12,63.04],[24.93,63.4],[25.89,63.36],[25.58,62.49],[26.31,63.47],[26.56,62.89],[27.19,63.41],[26.76,63.6],[27.42,63.73],[27.74,63.63],[27.29,63.41],[27.7,63.35],[27.5,63.06],[28.07,63.58],[29.85,63.22],[28.13,62.86],[29.04,62.42],[30.81,62.89],[31.68,62.76],[30.93,62.7],[31.16,62.39],[32.13,62.47],[31.95,62.1],[33.95,62.46],[38.63,61.48],[39.26,60.65],[37.64,59.67],[31.91,60.13],[33.63,59.58],[33.15,59.37],[34.71,59.16],[34.49,58.61],[35.22,57.81],[37.62,57.34],[37.88,57.92],[36.53,58.16],[36.58,58.6],[37.93,58.45],[37.76,58.17],[39.79,58.35],[38.79,59.07],[39.3,59.79],[40.23,60.46],[42.06,60.04],[41.81,61.06],[41.03,61.32],[41.06,62.13],[39.85,62.64],[42.69,62.43],[42.98,62.15],[41.83,61.48],[42.99,61.12],[44.24,61.36],[44.03,62.06],[44.96,62.22],[44.41,62.45],[47.14,63.26],[46.86,63.5],[47.84,64.03],[48.38,64.12],[47.68,63.94],[48.29,63.5],[47.82,63.15],[48.6,63.11],[49.3,63.8],[51.77,64.63],[52.93,64.15],[52.79,64.49],[53.76,64.73],[52.32,65.32],[52.59,65.69],[55.71,65.76],[60.43,65.08],[61.06,64.41],[60.94,63.81],[58.52,60.42],[61.68,53.66],[61.65,52.39],[60.41,50.47],[60.75,46.83],[60.45,45.65],[59.08,44.49],[53.4,42.55],[48.36,37.76],[44.74,37.75]]]}},{"type":"Feature","properties":{},"geometry":{"type":"Polygon","coordinates":[[[16.11,46.8],[15.58,47.21],[15.57,48.41],[17.45,49.49],[17.2,48.43],[17.87,48.2],[16.78,47.42],[17.04,46.65],[16.11,46.8]]]}},{"type":"Feature","properties":{},"geometry":{"type":"Polygon","coordinates":[[[34.54,34.96],[34.47,35.95],[33.66,35.75],[33.65,36.28],[37.01,37.53],[36.36,37.51],[41.84,38.64],[45.01,38.25],[40.78,37.22],[39.51,36.38],[37.88,36.86],[36.84,36.61],[34.54,34.96]]]}},{"type":"Feature","properties":{},"geometry":{"type":"Polygon","coordinates":[[[23.3,24.01],[22.93,22.61],[22.15,22.7],[22.82,21.6],[22.62,21.13],[21.93,21.71],[22.01,21.09],[21.51,21.53],[21.36,20.85],[20.7,20.9],[20.78,21.34],[20.34,21.36],[20.61,22.55],[21.36,22.56],[22.22,21.81],[20.84,22.89],[20.9,23.48],[21.28,23.46],[20.95,23.56],[20.9,25.4],[22,26.4],[20.72,29.35],[21.14,31.11],[20.99,31.52],[20.28,31.26],[20.82,32.21],[19.94,32.51],[18.9,31.52],[19.21,30.43],[18.84,29.64],[19.05,28.49],[19.74,28],[19.3,27.73],[20.15,25.5],[19.79,25.4],[19.25,26.48],[18.54,26.14],[18.48,25.18],[16.83,24.96],[17.75,25.52],[18.14,26.72],[16.7,30.69],[17.25,32.33],[16.7,33.34],[15.45,33.39],[15.35,34.04],[16.38,35.47],[20.36,34.98],[24.64,32.74],[22.62,31.46],[23.3,27.54],[23.3,24.01]]]}},{"type":"Feature","properties":{},"geometry":{"type":"Polygon","coordinates":[[[16.2,35.44],[14.95,34.62],[13.07,35.09],[12.21,34.17],[8.16,34.95],[8.4,36.89],[8.92,36.42],[8.3,37.06],[8.38,37.67],[6.95,38.98],[5.51,39.1],[5.18,39.35],[5.65,39.62],[5.14,39.84],[8.08,40],[7.53,41.09],[9.02,40.66],[9.79,41.26],[12.14,40.38],[14.42,40.34],[18.33,43.06],[21.25,43.93],[25.93,43.93],[28.73,42.23],[25.92,41.59],[23.76,40.35],[18.97,39.57],[16.63,38.7],[15.06,37.46],[15.56,35.85],[16.2,35.44]]]}},{"type":"Feature","properties":{},"geometry":{"type":"Polygon","coordinates":[[[9.79,41.26],[10.6,41.62],[10.49,42.31],[12.72,42.87],[12.02,43.03],[13.03,43.24],[12.48,43.47],[13.02,44.49],[13.41,43.87],[13.83,44.17],[13.73,44.87],[15.09,44.86],[14.96,45.21],[15.59,45.36],[16.15,45.03],[16.24,45.57],[17.26,45.26],[16.13,45.98],[16.5,46.17],[15.83,46.41],[16.11,46.8],[17.04,46.65],[17.43,46.05],[18.26,46.17],[18.01,45.66],[19.41,46.34],[21.26,45.55],[21.38,46.01],[22.23,45.77],[25.93,43.93],[19.91,43.66],[17.48,42.55],[14.42,40.34],[12.14,40.38],[9.79,41.26]]]}},{"type":"Feature","properties":{},"geometry":{"type":"Polygon","coordinates":[[[34.97,37.56],[34.88,36.57],[34.32,36.09],[30.15,35.78],[29.34,36.67],[29.47,37.38],[32.09,38.3],[32.56,39.17],[34.97,37.56]]]}},{"type":"Feature","properties":{},"geometry":{"type":"Polygon","coordinates":[[[-23.15,71.51],[-24.17,71.3],[-22.91,71.74],[-23.15,71.51]]]}},{"type":"Feature","properties":{},"geometry":{"type":"Polygon","coordinates":[[[-18.54,70.1],[-17.81,69.66],[-19.41,69.95],[-18.54,70.1]]]}},{"type":"Feature","properties":{},"geometry":{"type":"Polygon","coordinates":[[[-23.63,72.68],[-25.31,72.38],[-26.7,72.71],[-25.41,73.14],[-23.63,72.68]]]}},{"type":"Feature","properties":{},"geometry":{"type":"Polygon","coordinates":[[[19.74,70.36],[20.92,69.78],[19.01,69.5],[19.13,69.98],[18.57,70.11],[19.74,70.36]]]}},{"type":"Feature","properties":{},"geometry":{"type":"Polygon","coordinates":[[[18.56,70.63],[19.17,70.34],[17.92,70.47],[18.56,70.63]]]}},{"type":"Feature","properties":{},"geometry":{"type":"Polygon","coordinates":[[[-21.94,73.1],[-22.86,72.69],[-24.38,73.32],[-21.94,73.1]]]}},{"type":"Feature","properties":{},"geometry":{"type":"Polygon","coordinates":[[[-17.11,70.93],[-17.01,70.44],[-17.73,70.21],[-19.22,70.38],[-18.15,71.04],[-17.11,70.93]]]}},{"type":"Feature","properties":{},"geometry":{"type":"Polygon","coordinates":[[[12.44,70.39],[13.4,69.87],[12.11,70.5],[12.44,70.39]]]}},{"type":"Feature","properties":{},"geometry":{"type":"Polygon","coordinates":[[[-17.95,72.4],[-18.82,71.9],[-17.98,71.93],[-18.49,71.65],[-18.1,71.54],[-18.37,71.26],[-19.79,70.74],[-20.53,70.97],[-20.07,71.14],[-20.43,71.52],[-20.13,71.63],[-21.09,71.84],[-19.45,71.94],[-19.09,72.22],[-19.9,72.24],[-19.18,72.54],[-17.95,72.4]]]}},{"type":"Feature","properties":{},"geometry":{"type":"Polygon","coordinates":[[[65.47,79.26],[71.2,78.83],[68.72,77.83],[65.47,79.26]]]}},{"type":"Feature","properties":{},"geometry":{"type":"Polygon","coordinates":[[[14.63,71.85],[18.49,70.71],[17.22,70.4],[17.18,69.42],[14.54,71.46],[14.63,71.85]]]}},{"type":"Feature","properties":{},"geometry":{"type":"Polygon","coordinates":[[[17.18,69.42],[17.18,68.53],[16.72,68.43],[16.09,68.69],[16.62,68.87],[14.81,69.27],[16.23,69.27],[15.22,69.43],[16.42,69.79],[14.73,69.46],[14.34,69.77],[16.12,70.21],[17.18,69.42]]]}},{"type":"Feature","properties":{},"geometry":{"type":"Polygon","coordinates":[[[15.66,70.54],[15.17,70.24],[14.89,70.62],[14.48,70.43],[14.85,70.13],[13.9,69.9],[12.56,70.59],[13.24,70.58],[12.83,70.95],[11.88,71.14],[13.4,71.57],[12.81,71.23],[13.92,70.99],[13.93,71.52],[15.66,70.54]]]}},{"type":"Feature","properties":{},"geometry":{"type":"Polygon","coordinates":[[[56.36,78.32],[58.35,78.22],[55.84,78.19],[56.36,78.32]]]}},{"type":"Feature","properties":{},"geometry":{"type":"Polygon","coordinates":[[[59.14,79.05],[61.3,78.67],[60.32,79.14],[62.37,79.19],[65.66,78.45],[59.28,78.06],[58.02,78.73],[59.14,79.05]]]}},{"type":"Feature","properties":{},"geometry":{"type":"Polygon","coordinates":[[[23.47,72.9],[23.79,72.82],[22.78,72.62],[23.47,72.9]]]}},{"type":"Feature","properties":{},"geometry":{"type":"Polygon","coordinates":[[[36.2,74.73],[36.8,74.5],[35.72,74.6],[36.2,74.73]]]}},{"type":"Feature","properties":{},"geometry":{"type":"Polygon","coordinates":[[[34.2,74.44],[34.78,74.36],[33.82,74.23],[34.2,74.44]]]}},{"type":"Feature","properties":{},"geometry":{"type":"Polygon","coordinates":[[[36.51,74.94],[37.51,74.92],[37.18,74.59],[36,74.82],[36.51,74.94]]]}},{"type":"Feature","properties":{},"geometry":{"type":"Polygon","coordinates":[[[17.89,72.49],[20.65,72.18],[19.34,71.35],[15.35,71.96],[16.35,72.06],[16.08,72.41],[17.91,72.01],[17.89,72.49]]]}},{"type":"Feature","properties":{},"geometry":{"type":"Polygon","coordinates":[[[30.34,74.38],[31.25,74.31],[29.29,73.96],[30.34,74.38]]]}},{"type":"Feature","properties":{},"geometry":{"type":"Polygon","coordinates":[[[37.88,75.6],[38.4,75.13],[36.66,75.33],[37.88,75.6]]]}},{"type":"Feature","properties":{},"geometry":{"type":"Polygon","coordinates":[[[31.84,74.71],[32.72,74.6],[31.74,74.06],[32.27,73.91],[30.77,73.83],[31.47,73.94],[30.87,74.02],[31.71,74.22],[31.14,74.43],[31.84,74.71]]]}},{"type":"Feature","properties":{},"geometry":{"type":"Polygon","coordinates":[[[36.69,75.74],[37.12,75.55],[36.43,75.52],[36.69,75.74]]]}},{"type":"Feature","properties":{},"geometry":{"type":"Polygon","coordinates":[[[38.43,76.13],[39.39,75.74],[38.19,75.6],[38.43,76.13]]]}},{"type":"Feature","properties":{},"geometry":{"type":"Polygon","coordinates":[[[51.57,78.96],[52.26,78.84],[51.22,78.84],[51.57,78.96]]]}},{"type":"Feature","properties":{},"geometry":{"type":"Polygon","coordinates":[[[54.01,79.55],[58.87,79.11],[57.69,78.51],[55.41,78.38],[55.87,78.6],[53.73,79.03],[53.91,79.5],[53.45,79.47],[54.01,79.55]]]}},{"type":"Feature","properties":{},"geometry":{"type":"Polygon","coordinates":[[[-9.32,72.13],[-10.84,70.76],[-9.83,70.81],[-11.64,70.17],[-10.81,70.01],[-11.19,69.66],[-13.54,69.57],[-13.03,69.89],[-15.01,69.38],[-14.54,69.88],[-15.24,69.48],[-16.25,69.88],[-15.37,70.06],[-15.95,70.33],[-15.44,70.75],[-13.56,70.4],[-14.22,70.69],[-13.65,70.79],[-15.08,71.07],[-13.77,71.2],[-14.46,71.4],[-14.14,71.64],[-13.51,71.82],[-13.08,71.41],[-12.54,71.48],[-13.11,71.61],[-12.76,71.67],[-13.01,71.92],[-11.6,71.66],[-11.4,72.06],[-9.32,72.13]]]}},{"type":"Feature","properties":{},"geometry":{"type":"Polygon","coordinates":[[[33.75,75.59],[34.66,75.61],[33.47,75.37],[34.09,75.46],[33.75,75.59]]]}},{"type":"Feature","properties":{},"geometry":{"type":"Polygon","coordinates":[[[33.88,76.16],[34.25,76.07],[33.42,76.02],[33.88,76.16]]]}},{"type":"Feature","properties":{},"geometry":{"type":"Polygon","coordinates":[[[2.29,68.19],[2.63,67.85],[2.21,67.59],[1.72,68.24],[2.29,68.19]]]}},{"type":"Feature","properties":{},"geometry":{"type":"Polygon","coordinates":[[[1.42,70.97],[2.1,70.56],[0.85,70.49],[2.51,70.42],[2.13,69.93],[2.78,69.77],[0.63,69.42],[-1.02,69.83],[-0.46,69.44],[-2.36,69.39],[0.32,69.29],[-3.54,69.04],[-3.87,68.69],[-4.71,68.93],[-4.17,68.64],[-5.12,68.45],[-5.95,68.87],[-6.29,68.91],[-5.81,68.68],[-6.08,68.48],[-8.37,68.88],[-7.14,68.36],[-8.52,68.74],[-8,68.45],[-9.04,68.54],[-7.92,68.08],[-9.81,67.85],[-9.37,67.62],[-9.75,67.52],[-10.89,67.8],[-11.75,67.36],[-13.65,67.81],[-12.42,67.35],[-12.79,66.96],[-12.19,67.04],[-13.16,66.62],[-14.93,66.73],[-14.36,66.91],[-14.71,67.41],[-16.57,67.41],[-18.04,68],[-17.55,68.32],[-18.34,68.34],[-15.85,68.34],[-16.03,68.64],[-15.32,69.08],[-14.57,68.82],[-15.06,68.41],[-14.68,68.12],[-12.37,68.43],[-14.08,68.2],[-14.43,68.34],[-14.08,68.78],[-12.94,68.97],[-14.5,69.18],[-12.99,69.54],[-11.96,69.43],[-11.51,68.81],[-10.63,68.97],[-11.61,69.46],[-11.14,69.31],[-10.77,70.21],[-9.66,70.59],[-8.85,70.26],[-9.25,69.52],[-8.54,69.32],[-9.04,69.57],[-8.45,70.22],[-6.15,69.81],[-6.73,70.06],[-5.04,69.86],[-5.84,70.14],[-3.98,70.32],[-6.99,70.19],[-9.01,70.69],[-6.35,70.72],[-9.3,70.93],[-9.24,71.36],[-6.85,71.06],[-9.1,71.45],[-7.18,71.48],[-8.43,71.75],[-7.52,71.82],[-8.21,72.1],[-5.9,71.96],[-6.09,71.68],[-5.45,71.43],[-5.32,71.9],[-4.17,71.89],[-4.62,71.4],[-3.96,71.51],[-3.98,70.84],[-3.71,71.59],[-2.4,71.75],[-1.13,71.49],[-1.77,71],[-0.9,71.5],[0.01,71.28],[-0.18,70.87],[1.42,70.97]]]}},{"type":"Feature","properties":{},"geometry":{"type":"Polygon","coordinates":[[[-9.59,50.87],[-8.83,51.36],[-9.54,51.23],[-9.22,51.72],[-9.6,51.79],[-8.15,51.99],[-9.54,51.83],[-9.88,52.24],[-8.81,52.43],[-9.95,52.54],[-7.63,53.06],[-9.98,52.61],[-9.61,52.76],[-9.88,53.02],[-9.08,52.96],[-9.73,53.14],[-8.85,53.23],[-9.89,53.63],[-7.54,53.4],[-9.78,53.75],[-8.87,54.16],[-7.24,53.71],[-7.97,54],[-7.18,54.05],[-7.68,54.24],[-9.57,54.02],[-8.96,54.49],[-8.33,54.32],[-9.04,54.64],[-7.14,54.13],[-7.87,54.49],[-7.36,54.74],[-9.04,54.78],[-7.47,54.83],[-7.29,55.38],[-6.81,55.14],[-6.8,55.53],[-7.3,55.45],[-6.43,56.17],[-7.68,56.37],[-8.77,57.14],[-6.5,56.5],[-6.89,56.78],[-6.47,57.06],[-7.04,57.28],[-6.44,57.21],[-7.17,57.4],[-6.67,57.52],[-7.33,57.47],[-6.5,57.69],[-7.46,57.75],[-6.56,57.93],[-7.5,58.35],[-7.98,57.84],[-8.9,58],[-8.13,58.44],[-8.69,58.52],[-8.11,58.78],[-8.47,58.96],[-7.67,59.23],[-8.17,59.58],[-7.65,59.79],[-8.04,60.15],[-7.72,60.73],[-8.44,60.68],[-7.62,60.85],[-8.35,61.97],[-7.95,62.31],[-9.91,63.34],[-11.99,63.52],[-11.82,63.19],[-12.66,63.56],[-12.93,63.93],[-11.82,64.04],[-13.12,64.68],[-10.47,64.4],[-10.12,64.71],[-11.63,64.86],[-12.57,65.87],[-8.23,66.12],[-6.43,66.78],[-7.84,66.97],[-7.66,67.26],[-5.29,67.7],[-5.4,67.28],[-3.43,68.18],[-2.5,67.43],[-2.86,68.2],[-0.76,68.28],[-1.3,67.48],[-0.55,67.89],[0.16,67.35],[0.52,68.26],[2.14,67.28],[2.5,67.79],[3.26,67.65],[2.46,68.3],[4.31,67.85],[2.81,68.64],[4.81,68.07],[5.56,68.42],[5.09,68.75],[6.43,68.84],[9.19,68.42],[5.83,68.03],[9.32,68.29],[9.05,67.9],[10.6,67.72],[6.43,66.97],[9.47,67.11],[8.76,66.56],[10.63,67.19],[10.64,66.58],[9.61,65.69],[12.69,66.99],[14.37,66.68],[12.98,65.78],[10.84,65.68],[12.92,65.58],[11,65.24],[11.25,64.84],[12.39,65.16],[11.48,64.73],[11.42,64.24],[11.75,64.27],[10.82,63.88],[10.53,63.23],[10.55,62.6],[10.95,63.1],[11.69,62.86],[10.86,62.62],[12.1,62.42],[12.15,61.86],[10.45,62.13],[11.12,62.01],[10.08,61.81],[11.55,61.24],[10.49,61.09],[11.77,60.85],[11.68,60.27],[10.17,60.67],[11.21,60.26],[10.2,60.28],[11.14,60.17],[10.9,59.79],[12.04,59.61],[10.38,59.72],[11.44,59.32],[10.19,59.42],[10.5,58.77],[10.58,59.18],[11.37,59],[11.33,58.66],[10.2,58.38],[9.3,58.79],[10.29,58.76],[8.43,59.09],[8.97,58.65],[7.54,58.65],[8.05,58.38],[7.29,58.29],[8.75,58.18],[7.44,58.01],[8.94,57.8],[8.02,57.53],[8.62,57.53],[8.43,57.16],[8.97,57.55],[10.17,57.02],[9.81,56.74],[10.51,56.85],[10.13,56.58],[10.65,56.52],[10.26,56.16],[10.64,56.2],[10.64,55.56],[10.16,55.98],[9.65,55.57],[8.94,56.47],[6.64,57.27],[7.39,56.86],[6.73,56.71],[8.47,56.46],[6.72,56.15],[6.82,55.8],[6.22,55.57],[7.89,55.51],[6.55,55.22],[8.53,55.55],[10.23,55.1],[7.77,53.81],[5.21,53.28],[3.98,53.88],[4.2,53.18],[3.42,52.97],[2.35,51.7],[1.58,51.83],[1.71,51.5],[0.61,51.54],[0.58,51.19],[0.19,51.35],[0.71,51.74],[0.26,51.9],[-0.1,51.12],[-2.11,50.75],[-1.77,49.97],[-2.57,49.93],[-1.95,49.74],[-1.98,49.3],[-2.62,49.52],[-2.16,49.21],[-2.98,49.17],[-2.71,48.78],[-3.25,48.81],[-2.9,48.58],[-3.96,48.52],[-3.35,48.1],[-3.9,48.28],[-3.4,47.72],[-3.98,47.53],[-3.54,47.43],[-4.15,47.37],[-3.7,47.23],[-4.32,47.13],[-3.94,46.85],[-4.62,46.95],[-3.99,46.82],[-4.61,46.65],[-4.19,46.34],[-5.12,46.49],[-4.47,45.87],[-5.1,46.24],[-5.92,46.02],[-5.33,46.45],[-5.93,46.07],[-5.4,46.64],[-6.41,46.56],[-5.82,46.84],[-6.54,46.75],[-5.72,47.12],[-6.38,46.91],[-6.1,47.3],[-7.94,46.97],[-7.59,47.45],[-8.38,47.62],[-7.77,47.68],[-8.48,47.79],[-7.97,47.81],[-8.35,47.94],[-8,48.17],[-8.52,48.06],[-8.04,48.26],[-8.67,48.27],[-8.31,48.49],[-8.96,48.8],[-8.37,49.3],[-8.91,49.08],[-8.57,49.5],[-9.25,49.69],[-8.59,49.66],[-9.45,50.08],[-8.61,50.5],[-9.43,50.58],[-8.28,50.71],[-8.56,50.98],[-7.93,50.56],[-8.14,51.09],[-8.62,51.55],[-8.51,51.04],[-9.59,50.87]]]}}]}
