{"type":"FeatureCollection","features":[{"type":"Feature","properties":{},"geometry":{"type":"Polygon","coordinates":[[[34.71,-63.74],[36.64,-63.65],[37.4,-64.18],[35.26,-64.19],[34.71,-63.74]]]}},{"type":"Feature","properties":{},"geometry":{"type":"Polygon","coordinates":[[[43.24,-62.44],[42.75,-62.76],[42.51,-62.11],[43.88,-62.32],[43.24,-62.44]]]}},{"type":"Feature","properties":{},"geometry":{"type":"Polygon","coordinates":[[[-1.54,-62.7],[0.25,-62],[0.94,-62.73],[0.49,-63.09],[-1.54,-62.7]]]}},{"type":"Feature","properties":{},"geometry":{"type":"Polygon","coordinates":[[[20.99,-70.84],[21.44,-71.21],[20.64,-71.05],[20.99,-70.84]]]}},{"type":"Feature","properties":{},"geometry":{"type":"Polygon","coordinates":[[[11.9,-70.69],[13.12,-70.69],[11.36,-70.77],[11.9,-70.69]]]}},{"type":"Feature","properties":{},"geometry":{"type":"Polygon","coordinates":[[[16.48,-71.64],[13.43,-71.13],[17.06,-71.02],[16.48,-71.64]]]}},{"type":"Feature","properties":{},"geometry":{"type":"Polygon","coordinates":[[[19.19,-72.31],[18.43,-72.04],[18.77,-71.63],[17.82,-71.72],[17.53,-71.32],[20.37,-72.07],[19.19,-72.31]]]}},{"type":"Feature","properties":{},"geometry":{"type":"Polygon","coordinates":[[[-10.87,-63.14],[-9.11,-62.83],[-9.72,-63.32],[-10.87,-63.14]]]}},{"type":"Feature","properties":{},"geometry":{"type":"Polygon","coordinates":[[[-3.96,-69.02],[-3.27,-68.87],[-5.01,-68.4],[-3.82,-68.49],[-4.77,-68.19],[-3.38,-68.01],[-1.11,-69.81],[-3.96,-69.02]]]}},{"type":"Feature","properties":{},"geometry":{"type":"Polygon","coordinates":[[[-15.85,-62.94],[-15.15,-63.41],[-15.87,-63.34],[-15.85,-62.94]]]}},{"type":"Feature","properties":{},"geometry":{"type":"Polygon","coordinates":[[[-18.17,-63.34],[-17.17,-63.26],[-17.17,-63.59],[-17.82,-63.75],[-18.17,-63.34]]]}},{"type":"Feature","properties":{},"geometry":{"type":"Polygon","coordinates":[[[-19.56,-61.65],[-13.7,-61.06],[-11.55,-61.51],[-11.39,-62.2],[-13.3,-62.03],[-13.81,-62.4],[-12.43,-62.74],[-13.84,-63.48],[-13.51,-63.16],[-14.44,-63.2],[-13.76,-62.77],[-14.42,-63],[-14.44,-62.43],[-14.92,-62.72],[-15.48,-62.1],[-15.13,-61.9],[-16.37,-62.18],[-16.7,-61.66],[-17.61,-62.3],[-19.08,-62.39],[-19.56,-61.65]]]}},{"type":"Feature","properties":{},"geometry":{"type":"Polygon","coordinates":[[[-23.94,-60.49],[-21.74,-60.98],[-22.42,-61.15],[-23.94,-60.49]]]}},{"type":"Feature","properties":{},"geometry":{"type":"Polygon","coordinates":[[[57.87,-46.7],[57.23,-47.5],[56.72,-47.16],[57.87,-46.7]]]}},{"type":"Feature","properties":{},"geometry":{"type":"Polygon","coordinates":[[[-27.61,-58.15],[-26.94,-58.03],[-26.62,-58.47],[-27.05,-58.67],[-27.61,-58.15]]]}},{"type":"Feature","properties":{},"geometry":{"type":"Polygon","coordinates":[[[-26.93,-55.71],[-25.83,-55.72],[-26.05,-56.1],[-26.93,-55.71]]]}},{"type":"Feature","properties":{},"geometry":{"type":"Polygon","coordinates":[[[-2.03,-62.87],[-1.08,-63.46],[0.02,-63.33],[-0.64,-63.61],[-0.23,-63.83],[4.31,-62.16],[3.3,-62.33],[3.83,-61.9],[5.93,-61.5],[8.93,-61.74],[13.38,-59.94],[16.31,-61.53],[15.95,-62.66],[16.32,-63.18],[14.71,-63.88],[3.78,-64.59],[2.24,-65.1],[-0.11,-64.97],[-2.88,-63.57],[-2.03,-62.87]]]}},{"type":"Feature","properties":{},"geometry":{"type":"Polygon","coordinates":[[[-27.71,-55.27],[-26.97,-55.21],[-27.22,-55.8],[-26,-56.38],[-26.51,-56.81],[-25.41,-57.99],[-24.3,-58.22],[-23.8,-58.1],[-23.95,-57.53],[-23.45,-57.74],[-23.82,-57.89],[-23.22,-58.11],[-23.88,-58.49],[-22.89,-58.51],[-24.15,-58.74],[-22.81,-58.97],[-22.85,-59.43],[-22.18,-59.75],[-19.59,-59.84],[-19.2,-59.49],[-19.81,-59.3],[-19.68,-59],[-18.71,-59.41],[-14.27,-58.75],[-11.45,-59.11],[-10.66,-58.96],[-10.87,-58.61],[-8.12,-58.99],[-6.28,-59.97],[-6.25,-59.63],[-3.73,-61.16],[-2.25,-60.51],[-0.48,-61.6],[-2.63,-62.44],[-2.03,-62.87],[-4.91,-65.04],[-7.69,-65.12],[-7.37,-64.76],[-7.99,-64.51],[-9.78,-64.55],[-8.63,-63.93],[-9.15,-63.46],[-8.33,-63.45],[-11.22,-60.9],[-18.34,-61.23],[-18.96,-60.45],[-22.03,-60.15],[-22.04,-60.57],[-23.04,-60.46],[-22.4,-60.11],[-23.72,-60.03],[-23.52,-59.72],[-24.57,-59.59],[-25.39,-58.62],[-26.31,-58.57],[-25.93,-58.3],[-27.39,-57.1],[-27.71,-55.27]]]}},{"type":"Feature","properties":{},"geometry":{"type":"Polygon","coordinates":[[[8.86,-56.69],[5.99,-52.82],[6.15,-52.12],[6.8,-52.11],[5.36,-51.38],[3.72,-52.18],[2.46,-51.52],[1.8,-49.47],[2.09,-48.35],[1.37,-47.2],[1.5,-45.59],[2.64,-43.68],[2.43,-42.96],[1.56,-42.75],[2.32,-42.8],[1.97,-42],[3.28,-42.42],[3.56,-42.13],[3,-41.22],[3.43,-41.03],[3.88,-41.66],[4.85,-41.05],[4.23,-40.2],[5.28,-41.1],[6.06,-41.01],[6.68,-39.45],[8.43,-38.51],[10.21,-38.47],[11.84,-37.6],[14.8,-37.37],[18.91,-36.06],[18.94,-35.04],[21.22,-36.39],[22.27,-34.89],[24.82,-33.73],[25.7,-34.09],[26.14,-33.83],[25.73,-33.5],[26.18,-33.35],[26.35,-33.83],[26.88,-33.8],[26.76,-33.02],[27.65,-32.65],[29.36,-32.93],[30.01,-33.66],[29.46,-33.8],[30.61,-34.63],[35.27,-36.11],[34.99,-37.01],[34.46,-37.13],[34.85,-37.21],[34.35,-37.27],[34.63,-37.5],[34.11,-37.4],[34.1,-37.98],[33.45,-38.24],[34.23,-39.73],[35.9,-38.53],[36.88,-38.75],[39.17,-37.88],[42.04,-37.88],[45.58,-38.91],[47.88,-40.38],[48.55,-40.56],[49,-39.97],[49.62,-40.23],[49.29,-40.72],[50.68,-41.15],[52,-43.57],[54.87,-43.99],[54.58,-44.89],[55.25,-45.32],[55.13,-46.21],[56.55,-47.14],[56.17,-47.34],[58.88,-48.5],[58.49,-49.49],[58.91,-49.96],[60.4,-49.47],[61.5,-51.24],[63.05,-51.06],[62.1,-51.5],[61.92,-52.14],[62.79,-54.28],[62.56,-54.6],[63.05,-54.85],[62.82,-55.4],[63.79,-55.99],[62.24,-55.78],[62.06,-56.53],[62.48,-57.03],[61.37,-56.95],[62.07,-58.05],[61.33,-58.28],[62.42,-59.08],[61.2,-59.57],[61.49,-59.75],[61,-60.27],[61.47,-60.35],[60.92,-61.02],[58.91,-61.79],[58.95,-62.33],[58.07,-62.63],[58.5,-62.63],[57.59,-63.99],[54.8,-64.84],[51.48,-63.93],[51.49,-63.19],[50.43,-63.03],[50.54,-62.62],[49.33,-62.68],[49.7,-62.42],[48.96,-62.24],[49.89,-62.2],[49.39,-61.95],[48.43,-61.86],[47.84,-62.35],[47.54,-62.3],[47.95,-61.86],[47.48,-61.77],[42.06,-61.33],[41.81,-61.57],[42.34,-61.81],[40.79,-61.93],[41.33,-61.4],[40.56,-60.52],[34.47,-60.08],[34.43,-59.7],[33.72,-59.83],[34.04,-60.12],[31.77,-59.95],[28.84,-60.48],[27.14,-59.61],[28.86,-60.62],[26.33,-60.9],[24.76,-60.5],[23.26,-60.64],[22.9,-61.11],[21.2,-61.06],[23.99,-61.91],[25.44,-63.44],[22.33,-63.84],[21.47,-62.57],[18.82,-61.01],[14.94,-60.9],[13.31,-59.15],[8.86,-56.69]]]}},{"type":"Feature","properties":{},"geometry":{"type":"Polygon","coordinates":[[[29.6,-62.06],[30.88,-62.85],[30.93,-63.33],[28.78,-64.34],[35.46,-64.94],[38.11,-66.16],[35.23,-66.76],[33.35,-66.65],[33.65,-66.77],[33.01,-67.27],[32.16,-67.33],[32.75,-67.64],[32.15,-67.69],[35.28,-67.93],[32.95,-68.2],[33.81,-68.67],[28.4,-70.34],[28.88,-70.55],[26.71,-70.87],[26.37,-70.55],[13.25,-70.65],[11.25,-70.08],[9.86,-70.56],[10.51,-70.3],[9.59,-70.31],[10.35,-70.05],[9.97,-69.94],[10.46,-69.5],[9.23,-69.44],[8.52,-69.9],[7.9,-69.69],[8.26,-69.34],[7.84,-69.01],[6.59,-68.99],[7.44,-68.32],[5.45,-68.5],[4.58,-68.11],[4.97,-67.55],[3.94,-67.37],[3.39,-68.05],[2.08,-68.06],[1.82,-68.33],[2.3,-68.56],[1.87,-68.81],[0.2,-68.47],[0.24,-68.83],[1.71,-69.01],[0.74,-69.51],[-0.13,-68.56],[-1.68,-68.27],[-1.62,-67.54],[-3.23,-67.41],[-2.81,-67.05],[-3.61,-66.33],[-5.81,-65.93],[-4.87,-65.82],[-4.78,-65.23],[-5.76,-65.09],[-4.92,-64.83],[-4.85,-64.11],[4.73,-64.12],[6.22,-63.62],[16.43,-63.06],[18.55,-62.28],[25.7,-62.94],[29.6,-62.06]]]}},{"type":"Feature","properties":{},"geometry":{"type":"Polygon","coordinates":[[[-27.29,-54.5],[-26.89,-54.38],[-27.28,-55.04],[-27.29,-54.5]]]}},{"type":"Feature","properties":{},"geometry":{"type":"Polygon","coordinates":[[[-28.61,-56.22],[-28.35,-56.41],[-29,-56.7],[-28.61,-56.22]]]}},{"type":"Feature","properties":{},"geometry":{"type":"Polygon","coordinates":[[[-28.64,-55.05],[-28.35,-54.96],[-28.68,-55.62],[-28.64,-55.05]]]}},{"type":"Feature","properties":{},"geometry":{"type":"Polygon","coordinates":[[[-22.84,-52.33],[-23.27,-52.56],[-21.99,-52.95],[-24.09,-52.81],[-22.84,-52.33]]]}},{"type":"Feature","properties":{},"geometry":{"type":"Polygon","coordinates":[[[-22.49,-52.24],[-21.43,-52.28],[-22.36,-52.55],[-22.49,-52.24]]]}},{"type":"Feature","properties":{},"geometry":{"type":"Polygon","coordinates":[[[-26.44,-51.9],[-26.09,-52.35],[-26.64,-52.17],[-26.44,-51.9]]]}},{"type":"Feature","properties":{},"geometry":{"type":"Polygon","coordinates":[[[-25.29,-51.37],[-24.94,-52.03],[-25.49,-51.8],[-25.29,-51.37]]]}},{"type":"Feature","properties":{},"geometry":{"type":"Polygon","coordinates":[[[-27.72,-51.65],[-26.73,-52.15],[-28.06,-52.1],[-27.72,-51.65]]]}},{"type":"Feature","properties":{},"geometry":{"type":"Polygon","coordinates":[[[-27.23,-50.8],[-26.49,-50.8],[-27.46,-51.28],[-27.05,-51.69],[-28.08,-51.49],[-27.46,-51.51],[-27.95,-51.14],[-27.23,-50.8]]]}},{"type":"Feature","properties":{},"geometry":{"type":"Polygon","coordinates":[[[-25.8,-52.37],[-24.44,-52.24],[-25.41,-51.99],[-23.48,-51.98],[-24.88,-51.59],[-24.39,-50.98],[-25.36,-51.18],[-25.23,-50.7],[-25.61,-50.61],[-24.83,-50.13],[-22.16,-51.31],[-19.94,-51.5],[-21,-52.12],[-26.23,-52.55],[-25.8,-52.37]]]}},{"type":"Feature","properties":{},"geometry":{"type":"Polygon","coordinates":[[[-16.27,-47.35],[-16.81,-48.32],[-17.5,-48.28],[-16.67,-47.84],[-17.4,-47.56],[-16.27,-47.35]]]}},{"type":"Feature","properties":{},"geometry":{"type":"Polygon","coordinates":[[[-15.83,-47.22],[-14.65,-47.41],[-16.08,-48.27],[-15.83,-47.22]]]}},{"type":"Feature","properties":{},"geometry":{"type":"Polygon","coordinates":[[[-30.4,-49.38],[-30.01,-49.71],[-30.59,-49.71],[-30.4,-49.38]]]}},{"type":"Feature","properties":{},"geometry":{"type":"Polygon","coordinates":[[[47.59,-70.61],[47.12,-70.32],[47.71,-70.24],[47.59,-70.61]]]}},{"type":"Feature","properties":{},"geometry":{"type":"Polygon","coordinates":[[[-31.3,-48.83],[-30.77,-48.87],[-31.19,-49.25],[-31.3,-48.83]]]}},{"type":"Feature","properties":{},"geometry":{"type":"Polygon","coordinates":[[[-31.03,-48.19],[-31.14,-48.7],[-31.79,-48.18],[-31.2,-48.16],[-31.43,-47.48],[-30.68,-48.76],[-31.03,-48.19]]]}},{"type":"Feature","properties":{},"geometry":{"type":"Polygon","coordinates":[[[-31.56,-46.93],[-31.19,-47.44],[-31.65,-47.42],[-31.56,-46.93]]]}},{"type":"Feature","properties":{},"geometry":{"type":"Polygon","coordinates":[[[49.5,-75.78],[48.45,-75.4],[50.43,-75.17],[49.5,-75.78]]]}},{"type":"Feature","properties":{},"geometry":{"type":"Polygon","coordinates":[[[-31.87,-43.73],[-31.67,-43.98],[-32.21,-43.97],[-31.87,-43.73]]]}},{"type":"Feature","properties":{},"geometry":{"type":"Polygon","coordinates":[[[-31.33,-42.98],[-30.99,-43.08],[-31.42,-43.56],[-31.33,-42.98]]]}},{"type":"Feature","properties":{},"geometry":{"type":"Polygon","coordinates":[[[5.01,-74.3],[4.38,-74.04],[6.19,-74.03],[5.01,-74.3]]]}},{"type":"Feature","properties":{},"geometry":{"type":"Polygon","coordinates":[[[-33.05,-40.63],[-32.35,-41],[-32.71,-41.35],[-32.27,-41.62],[-32.45,-42.22],[-33.06,-42.13],[-33.05,-40.63]]]}},{"type":"Feature","properties":{},"geometry":{"type":"Polygon","coordinates":[[[54.91,-64.93],[54.11,-66.27],[54.61,-66.53],[53.9,-66.85],[54.67,-66.54],[55.86,-67.34],[55.35,-67.69],[49.45,-67.72],[50.57,-67.07],[48.21,-66.92],[48.6,-66.68],[48.26,-66.31],[48.9,-66.43],[49.59,-65.87],[54.91,-64.93]]]}},{"type":"Feature","properties":{},"geometry":{"type":"Polygon","coordinates":[[[52.38,-72.49],[49.35,-72.51],[49.93,-73.12],[48.95,-72.89],[48.84,-73.21],[49.63,-73.21],[49.2,-73.42],[45.54,-72.39],[46.4,-70.34],[45.29,-67.6],[46.36,-68.19],[46.1,-68.49],[47.25,-70.29],[52.38,-72.49]]]}},{"type":"Feature","properties":{},"geometry":{"type":"Polygon","coordinates":[[[29,-79.33],[32.54,-79],[32.21,-78.98],[33.2,-78.57],[31.88,-78.29],[38.41,-78.12],[41.91,-76.6],[41.23,-76.6],[44.74,-75.93],[54.1,-76.52],[52.61,-76.67],[53.62,-76.78],[52.2,-76.94],[53,-77.25],[52.26,-77.52],[44.79,-78.73],[35.57,-79.45],[29,-79.33]]]}},{"type":"Feature","properties":{},"geometry":{"type":"Polygon","coordinates":[[[61.7,-58.1],[61.34,-58.54],[60.31,-57.59],[60.79,-57.39],[61.7,-58.1]]]}},{"type":"Feature","properties":{},"geometry":{"type":"Polygon","coordinates":[[[72.97,-73.93],[70.91,-74.1],[71.62,-74.23],[69.37,-74.77],[69.95,-74.97],[62.83,-75.11],[63.25,-75.18],[61.47,-75.62],[64.39,-75.65],[57.91,-76.25],[56.54,-76.69],[57.67,-77.37],[56.34,-77.74],[51.12,-76.77],[50.73,-76.62],[51.81,-76.59],[52.13,-76.07],[48.93,-75.55],[45.99,-73.91],[47.93,-73.5],[49.74,-74.27],[51.47,-74.37],[55.42,-73.67],[56.2,-74.4],[58.7,-74.79],[65.76,-74.98],[66.51,-74.57],[65.44,-74.58],[72.81,-73.62],[72.97,-73.93]]]}},{"type":"Feature","properties":{},"geometry":{"type":"Polygon","coordinates":[[[104.31,-61.98],[104.36,-63.32],[103.82,-63.89],[103.65,-65.34],[102.97,-65.46],[102.64,-65.05],[103.07,-64.55],[102.94,-63.38],[104.31,-61.98]]]}},{"type":"Feature","properties":{},"geometry":{"type":"Polygon","coordinates":[[[90.35,-44.89],[89.95,-45.52],[89.41,-45.05],[90.35,-44.89]]]}},{"type":"Feature","properties":{},"geometry":{"type":"Polygon","coordinates":[[[21.94,-23.39],[22.84,-21.35],[24.12,-20.46],[25.87,-20.96],[26.04,-21.41],[26.24,-20.96],[26.92,-21.32],[28.39,-20.72],[28.61,-20.11],[28.79,-20.49],[29.53,-20.4],[29.99,-19.57],[30.69,-19.45],[30.7,-20.71],[29.74,-23.04],[29.23,-23.34],[28.95,-22.66],[28.37,-23.85],[20.93,-29.08],[18.82,-28.57],[18.31,-27.56],[19.35,-24.89],[21.94,-23.39]]]}},{"type":"Feature","properties":{},"geometry":{"type":"Polygon","coordinates":[[[86.72,-38.85],[86.49,-39.38],[86,-38.97],[86.72,-38.85]]]}},{"type":"Feature","properties":{},"geometry":{"type":"Polygon","coordinates":[[[86.92,-38.76],[86.94,-39.32],[87.65,-39.38],[87.66,-39.77],[86.69,-39.7],[86.92,-38.76]]]}},{"type":"Feature","properties":{},"geometry":{"type":"Polygon","coordinates":[[[58.8,-62.52],[58.38,-61.89],[58.83,-60.99],[62.45,-59.2],[61.86,-58.48],[63.58,-58.51],[64.46,-57.9],[62.57,-58.03],[61.74,-57.4],[65.37,-57.56],[67.11,-56.9],[66.18,-57.18],[62.46,-56.42],[61.69,-56.63],[61.88,-55.82],[62.08,-56.14],[62.95,-55.68],[64.88,-53.67],[64.06,-52.53],[64.2,-51.48],[59.99,-47.99],[57.99,-46.98],[56.4,-46.86],[54.44,-44.13],[52.04,-43.24],[51.48,-42.24],[51.55,-40.84],[54.82,-40.09],[57.36,-38.07],[59.48,-35.2],[59.24,-35.87],[60.34,-35.12],[59.7,-36.07],[60.31,-35.97],[61.36,-34.44],[63.37,-33.58],[64.39,-33.46],[63.75,-33.94],[67.46,-34.77],[67.85,-35.51],[71.39,-37.41],[73.76,-37.49],[74.45,-36.81],[75.86,-36.82],[75.14,-38.08],[76.2,-37.88],[76.04,-37.42],[76.55,-37.15],[77.41,-38.32],[77.04,-37.88],[78.02,-37.74],[77.45,-37.73],[77.83,-37.38],[78.31,-37.39],[78.46,-38.07],[78.53,-37.45],[79.06,-37.94],[79.17,-37.4],[80.02,-37.4],[79.9,-37.91],[80.65,-37.49],[80.49,-37.88],[81.51,-38],[81.78,-38.54],[81.69,-39.65],[80.49,-39.99],[81.9,-39.88],[82.34,-40.95],[83.21,-40.65],[83.03,-40.2],[85.48,-39.77],[85.78,-40.09],[85.93,-39.75],[86.01,-40.21],[86.89,-40],[88.12,-41.12],[88.59,-40.71],[87.99,-39.83],[88.36,-39.84],[89.04,-41.43],[89.56,-41.61],[89.43,-42.08],[90.15,-42.34],[90.26,-42.95],[91.25,-43.13],[90.76,-43.13],[91.27,-43.3],[90.84,-43.6],[91.96,-43.52],[91.91,-44.14],[90.96,-44.4],[89.98,-44.08],[89.05,-44.72],[87.57,-44.51],[87.95,-45.2],[87.43,-45.18],[87.96,-45.25],[88.3,-46.34],[87.75,-46.29],[88.39,-46.65],[89.29,-48.78],[89.2,-49.63],[89.97,-50.3],[93.92,-49.42],[95.03,-48.24],[96.96,-47.63],[96.46,-47.35],[99.27,-46.53],[98.34,-48.81],[97.04,-50.12],[98.11,-50.44],[98.26,-51.56],[96.72,-52.7],[96.53,-53.35],[96.86,-53.4],[94.91,-55.03],[96.27,-57.65],[95.59,-57.93],[95.47,-59.05],[94.19,-59.89],[94.7,-59.87],[94.64,-60.22],[95.36,-59.84],[95.38,-60.6],[95.88,-60.41],[94.49,-61.34],[94.14,-60.96],[94.56,-61.49],[94.34,-62.13],[94.89,-62.3],[94.14,-63.63],[94.44,-63.92],[93.4,-64.48],[93.75,-64.56],[91.09,-65.33],[89.37,-66.61],[79.81,-67.96],[78.1,-67.51],[76.11,-67.65],[75.74,-67.21],[76,-67.43],[75.5,-67.53],[75.89,-67.61],[75.34,-67.69],[69.76,-67.56],[65.17,-68.09],[64.18,-67.8],[62.89,-66.43],[60.7,-66.1],[60.11,-65.59],[59.16,-65.84],[60.05,-64.91],[60.79,-64.92],[59.91,-64.57],[60.19,-64.31],[61.44,-64.37],[58.45,-63.63],[58.8,-62.52]]]}},{"type":"Feature","properties":{},"geometry":{"type":"Polygon","coordinates":[[[98.24,-41.63],[98.41,-41.97],[97.64,-42.22],[96.74,-41.49],[98.24,-41.63]]]}},{"type":"Feature","properties":{},"geometry":{"type":"Polygon","coordinates":[[[131.21,7.34],[131.02,6.79],[130.19,6.5],[131.21,7.34]]]}},{"type":"Feature","properties":{},"geometry":{"type":"Polygon","coordinates":[[[94.7,-37.74],[94.73,-38.26],[94.13,-38.3],[94.7,-37.74]]]}},{"type":"Feature","properties":{},"geometry":{"type":"Polygon","coordinates":[[[95.31,-37.83],[95,-38.16],[94.87,-37.74],[95.31,-37.83]]]}},{"type":"Feature","properties":{},"geometry":{"type":"Polygon","coordinates":[[[123.97,3.97],[126.05,4.88],[126.7,4.61],[128.19,5.37],[128.34,6.14],[129.98,6.61],[130.74,6.13],[132.07,6.79],[132.59,6.1],[125.09,2.91],[124.96,3.31],[123.77,2.82],[123.97,3.97]]]}},{"type":"Feature","properties":{},"geometry":{"type":"Polygon","coordinates":[[[95.54,-37.45],[95.45,-37.94],[94.99,-37.69],[95.54,-37.45]]]}},{"type":"Feature","properties":{},"geometry":{"type":"Polygon","coordinates":[[[124.32,7.77],[124.9,7.83],[124.93,7.32],[124.58,7.11],[124.32,7.77]]]}},{"type":"Feature","properties":{},"geometry":{"type":"Polygon","coordinates":[[[122.17,7.31],[123.07,6.87],[123.61,7.11],[123.85,6.66],[121.97,6.37],[122.17,7.31]]]}},{"type":"Feature","properties":{},"geometry":{"type":"Polygon","coordinates":[[[107.74,-45.98],[107.43,-46.72],[108.08,-47.75],[107.8,-48.85],[108.72,-49.18],[108.23,-49.54],[109.11,-50.15],[108.57,-50.32],[109.71,-51.04],[108.92,-50.84],[109.13,-51.23],[106.08,-49.18],[105.46,-46.3],[104.37,-45.16],[103.63,-45.22],[103.44,-44.47],[103.21,-45.27],[102.56,-44.77],[102.66,-45.27],[101.06,-44.37],[101.91,-45.14],[101.73,-45.74],[99.07,-44.52],[98.76,-42.99],[99.24,-42.85],[97.65,-42.4],[98.44,-41.98],[98.28,-41.41],[99.32,-41.99],[98.36,-41.14],[99.02,-41.6],[98.73,-40.58],[99.27,-40.16],[98.89,-39.89],[99.16,-38.97],[98.82,-39.08],[96.9,-36.54],[102.08,-39.85],[107.74,-45.98]]]}},{"type":"Feature","properties":{},"geometry":{"type":"Polygon","coordinates":[[[119.37,8.52],[119.66,8.22],[119.2,8.17],[119.37,8.52]]]}},{"type":"Feature","properties":{},"geometry":{"type":"Polygon","coordinates":[[[-3.26,-2.92],[-3.43,-3.31],[-3.66,-3.07],[-3.26,-2.92]]]}},{"type":"Feature","properties":{},"geometry":{"type":"Polygon","coordinates":[[[110.38,5.74],[112.15,6.74],[113.39,6.25],[118.24,6.71],[120.91,2.8],[118.24,3.82],[116.6,3.93],[115.41,4.85],[110.81,5.08],[110.18,5.48],[110.38,5.74]]]}},{"type":"Feature","properties":{},"geometry":{"type":"Polygon","coordinates":[[[117.9,6.8],[118.77,6.97],[118.61,6.53],[119.34,7.25],[119.75,6.26],[120.7,6.68],[121.99,5.73],[122.54,6.45],[123.28,6.27],[124.91,3.86],[124.28,3.92],[124.42,3.57],[123.76,3.37],[124.04,3.08],[120.23,3.22],[117.9,6.8]]]}},{"type":"Feature","properties":{},"geometry":{"type":"Polygon","coordinates":[[[126.1,20.59],[126.3,20.22],[126.39,20.8],[127.23,20.63],[127.88,20.08],[129.23,20.52],[128.48,19.52],[129.18,19.41],[128.28,18.83],[128.85,18.28],[128.21,17.85],[128.8,18.08],[128.46,17.86],[129.88,17.31],[129.92,16.78],[131.41,16.6],[130.34,16.2],[131.13,14.43],[130.43,12.84],[130.76,12.86],[130.56,12.36],[131.06,12.54],[131.03,10.92],[130.34,9.97],[129.82,10.64],[129.09,10.06],[128.29,10.19],[127.65,9.05],[127.08,9.6],[125.98,8.66],[124.7,10.09],[123.96,9.92],[124.13,10.19],[122.98,10.72],[122.43,12.29],[124.49,12.87],[124.07,12.9],[123.81,14.09],[124.93,15.35],[124.96,17.06],[126.02,18.09],[126.1,20.59]]]}},{"type":"Feature","properties":{},"geometry":{"type":"Polygon","coordinates":[[[22.31,-33.82],[19.45,-35.18],[18.02,-34.86],[17.58,-33.82],[18.07,-33.31],[20.31,-33.17],[20.02,-33.26],[22.31,-33.82]]]}},{"type":"Feature","properties":{},"geometry":{"type":"Polygon","coordinates":[[[-30.35,12.1],[-30.24,11.4],[-31.15,11.18],[-30.73,11.5],[-31,11.88],[-30.35,12.1]]]}},{"type":"Feature","properties":{},"geometry":{"type":"Polygon","coordinates":[[[-49.38,-7.78],[-48.58,-8.99],[-49.88,-8.11],[-49.38,-7.78]]]}},{"type":"Feature","properties":{},"geometry":{"type":"Polygon","coordinates":[[[-52.06,-2.87],[-50.44,-5.01],[-50.19,-5.83],[-50.65,-5.66],[-50.15,-6.88],[-50.64,-6.93],[-52.15,-5.19],[-52.91,-5.42],[-52.86,-4.55],[-54.18,-3.41],[-54.29,-2.79],[-53.9,-2.73],[-52.82,-4.14],[-52.36,-3.28],[-52.66,-2.59],[-52.06,-2.87]]]}},{"type":"Feature","properties":{},"geometry":{"type":"Polygon","coordinates":[[[118.77,24.26],[119.7,24.51],[119.59,23.25],[118.78,22.44],[117.82,22.58],[117.58,23.43],[118.77,24.26]]]}},{"type":"Feature","properties":{},"geometry":{"type":"Polygon","coordinates":[[[-49.24,-1.71],[-48.33,-3.57],[-47.44,-9.41],[-49.74,-6.89],[-48.78,-6.75],[-49.21,-6.05],[-48.81,-5.07],[-49.97,-2.43],[-49.6,-2.09],[-51.84,-0.16],[-51.37,-0.6],[-50.65,-0.42],[-49.24,-1.71]]]}},{"type":"Feature","properties":{},"geometry":{"type":"Polygon","coordinates":[[[137.78,43.59],[138.75,43.34],[138.58,42.94],[139.24,42.6],[138.41,41.03],[137.64,40.66],[137.78,41.36],[137.56,40.82],[137.01,41.07],[137.58,42.44],[137.09,42.85],[137.27,42.34],[136.57,42.22],[136.48,42.74],[136.87,42.5],[136.35,42.98],[137.78,43.59]]]}},{"type":"Feature","properties":{},"geometry":{"type":"Polygon","coordinates":[[[141.61,44.04],[142.28,43.52],[141.63,42.92],[140.73,43.12],[139.9,42.49],[139.62,43.14],[139.16,43.02],[140.16,43.8],[141.61,44.04]]]}},{"type":"Feature","properties":{},"geometry":{"type":"Polygon","coordinates":[[[21.67,18.51],[23.12,17.04],[21.93,17.59],[21.35,18.41],[21.67,18.51]]]}},{"type":"Feature","properties":{},"geometry":{"type":"Polygon","coordinates":[[[25.74,12.68],[24.91,12.96],[24.34,13.71],[24.51,14.29],[25.18,13.95],[25.74,12.68]]]}},{"type":"Feature","properties":{},"geometry":{"type":"Polygon","coordinates":[[[17.98,24.74],[16.49,23.77],[15.54,26.02],[16.03,26.16],[17.98,24.74]]]}},{"type":"Feature","properties":{},"geometry":{"type":"Polygon","coordinates":[[[23.61,21.49],[23.72,20.11],[23.13,21.61],[23.61,21.49]]]}},{"type":"Feature","properties":{},"geometry":{"type":"Polygon","coordinates":[[[35.67,35.07],[36.04,34.79],[35.28,34.77],[35.67,35.07]]]}},{"type":"Feature","properties":{},"geometry":{"type":"Polygon","coordinates":[[[13.53,28.33],[13.38,27.65],[12.78,27.93],[13.53,28.33]]]}},{"type":"Feature","properties":{},"geometry":{"type":"Polygon","coordinates":[[[17.63,31.54],[17.32,31.06],[15.6,30.59],[14.81,31.16],[16.96,32.19],[17.63,31.54]]]}},{"type":"Feature","properties":{},"geometry":{"type":"Polygon","coordinates":[[[141.71,44.38],[139.53,44.04],[139.29,43.51],[137.84,43.61],[137.95,44.11],[140.37,45.28],[143.83,45.34],[144.65,47.03],[145.35,47.16],[144.76,46.77],[145.18,46.4],[146.73,47.01],[148.29,48.53],[148.4,50.23],[149,50.86],[149.91,50.45],[150.02,50.85],[149.5,50.73],[149.7,51.13],[150.36,51],[150.94,49.03],[150.24,47.84],[149.5,47.63],[149.55,46.59],[149.03,45.87],[149.37,45.31],[148.77,44.78],[148.06,44.58],[148.34,45.3],[146.9,44.31],[146.9,44.76],[146.28,44.26],[144.89,44.24],[145.28,44.44],[144.55,44.73],[144.33,44.28],[144.76,43.94],[143.18,43.19],[142.64,43.56],[143.1,44.38],[141.71,44.38]]]}},{"type":"Feature","properties":{},"geometry":{"type":"Polygon","coordinates":[[[19.64,31.98],[17.74,31.62],[18.68,32.39],[19.64,31.98]]]}},{"type":"Feature","properties":{},"geometry":{"type":"Polygon","coordinates":[[[156.28,47.89],[156.6,47.89],[155.25,47.26],[156.28,47.89]]]}},{"type":"Feature","properties":{},"geometry":{"type":"Polygon","coordinates":[[[151.87,49.35],[154.14,47.6],[155.27,47.88],[154.88,47.38],[155.17,46.8],[153.5,46.55],[152.69,45.77],[149.95,46.54],[149.78,47.31],[150.93,47.21],[151.42,49.07],[151.87,49.35]]]}},{"type":"Feature","properties":{},"geometry":{"type":"Polygon","coordinates":[[[149.4,52.18],[148.99,51.85],[150.04,51.38],[148.7,51.03],[148.45,52.22],[149.4,52.18]]]}},{"type":"Feature","properties":{},"geometry":{"type":"Polygon","coordinates":[[[-5.5,32.76],[-5.38,32.05],[-5.95,31.43],[-5.33,32.08],[-4.83,31.74],[-6.03,31.26],[-6.28,31.75],[-5.5,32.76]]]}},{"type":"Feature","properties":{},"geometry":{"type":"Polygon","coordinates":[[[-8.31,32.47],[-8.12,32.04],[-6.65,32.14],[-7.25,31.6],[-8.4,32],[-8.31,32.47]]]}},{"type":"Feature","properties":{},"geometry":{"type":"Polygon","coordinates":[[[-8.62,35.54],[-6.59,34.82],[-8.14,34.99],[-8.9,35.44],[-8.62,35.54]]]}},{"type":"Feature","properties":{},"geometry":{"type":"Polygon","coordinates":[[[-68.57,11.93],[-66.85,11.48],[-65.46,9.78],[-66.59,9.94],[-66.36,10.43],[-66.82,10.06],[-67.51,10.48],[-67.25,10.81],[-68.45,11.17],[-68.14,11.68],[-68.55,11.51],[-68.57,11.93]]]}},{"type":"Feature","properties":{},"geometry":{"type":"Polygon","coordinates":[[[-1.6,35.17],[-0.92,35.63],[-0.08,35.39],[-0.56,34.47],[0.37,34.77],[-0.36,34.29],[-0.03,33.65],[0.56,34.29],[0.54,32.82],[0.11,32.78],[0.1,33.36],[-0.38,32.92],[-0.41,33.98],[-1.64,32.85],[-0.88,33.74],[-4.59,33.42],[-1.6,35.17]]]}},{"type":"Feature","properties":{},"geometry":{"type":"Polygon","coordinates":[[[-2.29,37.59],[-1.93,37.39],[-2.41,37.29],[-2.09,37.07],[-2.89,35.67],[-1.81,36],[-2.29,35.53],[-1.46,35.57],[-1.6,35.17],[-4.56,33.55],[-3.83,34.36],[-4.6,34.34],[-3.98,34.99],[-3.57,34.84],[-3.9,35.16],[-3.47,35.33],[-3.37,36.59],[-2.29,37.59]]]}},{"type":"Feature","properties":{},"geometry":{"type":"Polygon","coordinates":[[[-22.03,38.77],[-21.54,38.22],[-22.57,38.58],[-22.03,38.77]]]}},{"type":"Feature","properties":{},"geometry":{"type":"Polygon","coordinates":[[[-70.97,14.29],[-70.58,13.14],[-71.45,14.12],[-70.97,14.29]]]}},{"type":"Feature","properties":{},"geometry":{"type":"Polygon","coordinates":[[[-71.7,15.22],[-71.19,15.05],[-71.38,14.6],[-70.86,15.2],[-71.22,14.18],[-71.7,15.22]]]}},{"type":"Feature","properties":{},"geometry":{"type":"Polygon","coordinates":[[[154.78,58.01],[154.97,56.48],[154.37,55.41],[155.5,52.21],[154.87,52.88],[153.71,52.84],[152.95,51.55],[153.82,50.05],[153.54,49.72],[152.91,50.51],[152.09,49.7],[151.94,50.42],[152.64,51.77],[152.41,52.58],[153.39,54.9],[152.94,55.66],[153.51,57.17],[154.44,57.21],[154.21,58.02],[154.78,58.01]]]}},{"type":"Feature","properties":{},"geometry":{"type":"Polygon","coordinates":[[[-88.04,21.19],[-87.96,20.64],[-88.98,21.13],[-88.04,21.19]]]}},{"type":"Feature","properties":{},"geometry":{"type":"Polygon","coordinates":[[[150.63,68.86],[151.38,68.77],[149.91,68.46],[150.63,68.86]]]}},{"type":"Feature","properties":{},"geometry":{"type":"Polygon","coordinates":[[[2.57,39.39],[3.47,39.77],[2.46,39.56],[3.17,40.3],[2.12,40.38],[2.55,40.82],[2.04,41.21],[3.28,41.32],[3.5,41.78],[2.96,41.77],[3.92,42.56],[4.3,42.45],[4,42.12],[4.96,42.49],[5.6,41.84],[4.96,41.45],[5.16,40.97],[2.57,39.39]]]}},{"type":"Feature","properties":{},"geometry":{"type":"Polygon","coordinates":[[[3.85,39.02],[2.77,38.47],[2.98,38.78],[2.44,38.6],[2.87,38.91],[2.22,38.81],[2.67,39.17],[2.11,39.14],[5.16,40.97],[5.34,39.49],[3.85,39.02]]]}},{"type":"Feature","properties":{},"geometry":{"type":"Polygon","coordinates":[[[17.53,44.71],[17.95,44.25],[16.97,44.54],[17.53,44.71]]]}},{"type":"Feature","properties":{},"geometry":{"type":"Polygon","coordinates":[[[-71.79,33.97],[-71.58,33.24],[-71.8,33.67],[-72.06,33.41],[-71.79,33.97]]]}},{"type":"Feature","properties":{},"geometry":{"type":"Polygon","coordinates":[[[18.87,45.47],[19,44.32],[17.82,44.92],[18.78,44.99],[18.49,45.27],[18.87,45.47]]]}},{"type":"Feature","properties":{},"geometry":{"type":"Polygon","coordinates":[[[-71.99,17.4],[-71.15,16.5],[-71.5,16.39],[-71.07,16.3],[-71.08,15.72],[-71.8,16.32],[-71.99,17.4]]]}},{"type":"Feature","properties":{},"geometry":{"type":"Polygon","coordinates":[[[-20.26,42.13],[-20.24,41.39],[-20.04,41.89],[-20.31,41.36],[-20.19,41.74],[-20.86,41.41],[-20.26,42.13]]]}},{"type":"Feature","properties":{},"geometry":{"type":"Polygon","coordinates":[[[4.24,44.95],[4.82,44.57],[4.61,44.29],[3.94,44.62],[4.24,44.95]]]}},{"type":"Feature","properties":{},"geometry":{"type":"Polygon","coordinates":[[[23.08,48.11],[23.39,47.7],[22.98,47.09],[22.7,47.68],[23.08,48.11]]]}},{"type":"Feature","properties":{},"geometry":{"type":"Polygon","coordinates":[[[-72.52,15.95],[-72.37,15.01],[-73.03,15.65],[-72.52,15.95]]]}},{"type":"Feature","properties":{},"geometry":{"type":"Polygon","coordinates":[[[-72.63,19.39],[-72.1,18.51],[-72.54,18.09],[-72.63,19.39]]]}},{"type":"Feature","properties":{},"geometry":{"type":"Polygon","coordinates":[[[4.1,45.74],[3.74,44.91],[3.58,45.41],[4.1,45.74]]]}},{"type":"Feature","properties":{},"geometry":{"type":"Polygon","coordinates":[[[25.64,49.42],[26.27,49.39],[25.55,48.65],[25.12,49.19],[25.64,49.42]]]}},{"type":"Feature","properties":{},"geometry":{"type":"Polygon","coordinates":[[[6.21,46.14],[6.46,45.89],[5.61,45.32],[6.09,45.33],[5.67,44.88],[6.06,45.07],[5.41,44.08],[4.51,43.97],[5.06,44.44],[4.57,45.14],[5.13,45.16],[4.79,45.38],[4.99,45.96],[6.21,46.14]]]}},{"type":"Feature","properties":{},"geometry":{"type":"Polygon","coordinates":[[[6.06,45.07],[7.61,45.26],[7.33,44.17],[6.76,43.9],[7.36,43.87],[6.43,43.59],[7.79,43.56],[8.41,43.02],[5.92,42.06],[6.01,43.35],[5.74,43.6],[5.4,43.21],[5.6,43.65],[5.14,42.61],[5.04,43.61],[6.06,45.07]]]}},{"type":"Feature","properties":{},"geometry":{"type":"Polygon","coordinates":[[[8.41,43.02],[8.8,42.35],[9.82,42.01],[10.12,41.52],[9.43,41.53],[10.16,41.4],[10.18,40.81],[11.54,40.83],[11.61,40.19],[10.78,39.42],[11.68,39.26],[6.27,37.42],[7.2,38.7],[8.17,38.84],[8.57,39.49],[7.87,38.97],[6.21,39.3],[7.15,40.08],[6.99,40.43],[6.46,40.23],[6.72,40.59],[7.92,40.94],[7.05,42.3],[8.41,43.02]]]}},{"type":"Feature","properties":{},"geometry":{"type":"Polygon","coordinates":[[[25.41,49.87],[25.89,49.71],[25.07,49.63],[25.41,49.87]]]}},{"type":"Feature","properties":{},"geometry":{"type":"Polygon","coordinates":[[[-10.06,47.24],[-9.91,46.87],[-10.38,47.16],[-10.06,47.24]]]}},{"type":"Feature","properties":{},"geometry":{"type":"Polygon","coordinates":[[[-20.1,47.88],[-20.42,47.09],[-20.69,47.53],[-20.1,47.88]]]}},{"type":"Feature","properties":{},"geometry":{"type":"Polygon","coordinates":[[[-21.98,48.56],[-21.8,48.27],[-23.07,47.75],[-22.9,48.44],[-21.98,48.56]]]}},{"type":"Feature","properties":{},"geometry":{"type":"Polygon","coordinates":[[[-43.12,77.45],[-49.17,77],[-48.37,77.2],[-48.8,77.42],[-44.95,77.74],[-43.12,77.45]]]}},{"type":"Feature","properties":{},"geometry":{"type":"Polygon","coordinates":[[[-23.81,51.58],[-23.53,50.86],[-23.21,51.1],[-21.55,50.1],[-21.71,49.53],[-20.48,49.28],[-21.13,48.97],[-22.43,49.76],[-24.15,48.76],[-24.26,49.42],[-25.28,49.33],[-24.52,49.78],[-23.81,51.58]]]}},{"type":"Feature","properties":{},"geometry":{"type":"Polygon","coordinates":[[[56.14,66.63],[56.57,66.45],[55.72,66.27],[56.14,66.63]]]}},{"type":"Feature","properties":{},"geometry":{"type":"Polygon","coordinates":[[[-16.46,53.52],[-15.88,53.29],[-16.78,53.46],[-16.46,53.52]]]}},{"type":"Feature","properties":{},"geometry":{"type":"Polygon","coordinates":[[[-17.48,53.8],[-16.93,53.62],[-17.05,52.89],[-18.22,52.72],[-18.15,53.56],[-17.48,53.8]]]}},{"type":"Feature","properties":{},"geometry":{"type":"Polygon","coordinates":[[[15.03,58.21],[15.78,57.94],[14.98,57.47],[15.03,58.21]]]}},{"type":"Feature","properties":{},"geometry":{"type":"Polygon","coordinates":[[[-21.72,74.33],[-29.04,74.98],[-32.69,76.02],[-33.59,75.86],[-30.96,75.42],[-34.99,74.94],[-39.56,75.15],[-38.97,75.57],[-39.6,75.76],[-37.84,75.8],[-39.34,75.99],[-36.17,76.25],[-38.87,76.55],[-37.99,77.07],[-40.46,77.13],[-39.1,77.25],[-39.56,77.49],[-38.18,77.26],[-38.45,77.56],[-34.29,77.58],[-31.85,77.1],[-27.43,77.48],[-25.97,77.01],[-26.58,76.87],[-26.22,76.62],[-24.49,76.98],[-25.92,77.62],[-24.49,77.46],[-21.24,74.28],[-21.72,74.33]]]}},{"type":"Feature","properties":{},"geometry":{"type":"Polygon","coordinates":[[[14.61,58.2],[15,57.91],[14.41,57.72],[14.61,58.2]]]}},{"type":"Feature","properties":{},"geometry":{"type":"Polygon","coordinates":[[[36.8,64.04],[37.53,63.8],[36.69,63.24],[36.01,63.63],[36.8,64.04]]]}},{"type":"Feature","properties":{},"geometry":{"type":"Polygon","coordinates":[[[15.87,58.94],[16.31,58.72],[15.61,58.44],[15.87,58.94]]]}},{"type":"Feature","properties":{},"geometry":{"type":"Polygon","coordinates":[[[-30.48,55.96],[-29.37,54.96],[-30.36,54.64],[-32,55.27],[-30.8,56.15],[-30.48,55.96]]]}},{"type":"Feature","properties":{},"geometry":{"type":"Polygon","coordinates":[[[-6.67,73.23],[-7.8,73.51],[-5.81,73.38],[-6.67,73.23]]]}},{"type":"Feature","properties":{},"geometry":{"type":"Polygon","coordinates":[[[-6.81,51.16],[-5.64,50.5],[-6.99,50.28],[-6.49,50.31],[-7.36,50.59],[-6.81,51.16]]]}},{"type":"Feature","properties":{},"geometry":{"type":"Polygon","coordinates":[[[41.56,66.79],[43.69,66.48],[41.85,66.37],[41.56,66.79]]]}},{"type":"Feature","properties":{},"geometry":{"type":"Polygon","coordinates":[[[8.12,52.84],[8.48,52.5],[7.04,52.1],[8.12,52.84]]]}},{"type":"Feature","properties":{},"geometry":{"type":"Polygon","coordinates":[[[-19.38,72.42],[-18.34,72.36],[-19.08,71.94],[-19.38,72.42]]]}},{"type":"Feature","properties":{},"geometry":{"type":"Polygon","coordinates":[[[-20.35,71.66],[-22.25,71.89],[-20.37,72.41],[-19.49,71.78],[-20.35,71.66]]]}},{"type":"Feature","properties":{},"geometry":{"type":"Polygon","coordinates":[[[166.88,85.42],[168.84,85.34],[164.82,85.37],[166.88,85.42]]]}},{"type":"Feature","properties":{},"geometry":{"type":"Polygon","coordinates":[[[-9.24,32.61],[-8.35,31.62],[-7.02,31.25],[-6.57,31.57],[-5.74,31.05],[-8.44,30.16],[-9.35,29.01],[-9.9,29.28],[-9.71,30.12],[-9.98,29.97],[-8.64,30.92],[-8.37,30.55],[-7.69,31],[-9,30.9],[-8.72,31.56],[-11.74,29.72],[-12.34,29.93],[-12.46,29.42],[-13.32,29.18],[-13.96,27.76],[-13.35,27.17],[-13.14,27.52],[-13.06,27.03],[-14.07,26.92],[-14.23,27.26],[-14.31,26.82],[-15,26.73],[-12.85,30.09],[-9.24,32.61]]]}},{"type":"Feature","properties":{},"geometry":{"type":"Polygon","coordinates":[[[-12.35,-24.25],[-14.75,-28.78],[-13.7,-26.86],[-14.49,-26.52],[-14.22,-26.84],[-14.99,-28.38],[-15.08,-29.8],[-16.15,-31.57],[-17.99,-32.16],[-19.72,-32],[-20.43,-31.44],[-20.26,-30.49],[-20.6,-30.73],[-20.39,-32.06],[-18.88,-32.69],[-18.68,-33.56],[-26.61,-32.39],[-28.38,-31.84],[-34.05,-25.05],[-34.57,-23.19],[-34.41,-21.32],[-35.2,-18.87],[-28.31,-21.36],[-21.52,-23.16],[-12.35,-24.25]]]}},{"type":"Feature","properties":{},"geometry":{"type":"Polygon","coordinates":[[[-22.51,-35.77],[-23.1,-35.64],[-22.56,-36.19],[-22.87,-36.16],[-22.48,-37.74],[-25.05,-38.14],[-24.6,-39.34],[-23.97,-39.59],[-23.42,-39.11],[-23.09,-39.76],[-24.38,-39.89],[-23.65,-40.09],[-24.38,-40.91],[-24.14,-42.19],[-25.4,-42.81],[-25.69,-43.7],[-24.6,-44.42],[-23.57,-44.43],[-23.32,-45.16],[-24.56,-46.51],[-24.49,-47.5],[-25.18,-47.49],[-24.84,-47.74],[-25.33,-48.25],[-24.99,-49.36],[-23.93,-49.84],[-26.03,-50.65],[-25.83,-51.83],[-27.18,-51.57],[-26.49,-51.55],[-26.18,-50.85],[-26.74,-50.6],[-27.97,-50.8],[-27.8,-51.29],[-28.26,-51.37],[-27.96,-50.83],[-28.67,-51.16],[-29,-50.5],[-28.08,-50.58],[-28.13,-50.25],[-27.8,-50.45],[-28.09,-50.76],[-27.69,-50.7],[-27.92,-50.02],[-28.74,-49.61],[-28,-50],[-28.78,-49.98],[-28.3,-50.18],[-28.49,-50.47],[-28.85,-50.06],[-28.53,-50.55],[-29.34,-50.13],[-29.03,-50.07],[-29.27,-49.67],[-29.94,-49.51],[-29.25,-49.13],[-29.56,-48.88],[-29.79,-49.41],[-29.96,-48.95],[-30.69,-48.91],[-29.86,-48.85],[-30.58,-48.29],[-29.92,-48.26],[-30.52,-47.71],[-30.76,-48.08],[-31.03,-47.51],[-30.69,-47.39],[-31.07,-47.32],[-30.66,-47.05],[-31.55,-46.8],[-30.23,-46.56],[-30.85,-46.19],[-31.72,-46.53],[-31.23,-46.3],[-31.65,-46.2],[-31.29,-45.86],[-31.67,-45.51],[-33.01,-45.8],[-32.45,-44.69],[-31.85,-44.57],[-31.32,-45.28],[-31.01,-44.26],[-31.37,-44.45],[-31.41,-44.1],[-30.77,-43.97],[-31.53,-43.87],[-30.88,-43.03],[-31.68,-42.83],[-31.49,-41.14],[-31.87,-40.95],[-31.39,-41.05],[-32.03,-40.58],[-31.6,-40.07],[-32.93,-40.57],[-33.43,-38.88],[-33.11,-38.18],[-34.18,-36.27],[-33.74,-35.96],[-33.21,-32.19],[-34.27,-27.73],[-34.12,-23.79],[-30.17,-28.06],[-26.83,-32.82],[-22.51,-35.77]]]}},{"type":"Feature","properties":{},"geometry":{"type":"Polygon","coordinates":[[[-37.49,10.81],[-35.52,11.15],[-34.3,10.72],[-32.93,11.37],[-33.57,11.45],[-31.19,11.9],[-32.2,11.51],[-31.53,10.89],[-30.02,10.75],[-30,9.86],[-29.07,10.01],[-27.56,9.25],[-27.33,8.08],[-27.08,8.59],[-25.78,7.69],[-23.72,8.18],[-21.54,7.93],[-19.66,6.85],[-19.06,5.27],[-17.94,4.36],[-19.18,2.25],[-18.57,2.84],[-18.81,2.12],[-18.26,2.79],[-16.2,2.86],[-16.52,1.66],[-18,0.96],[-16.92,1.34],[-16.96,0.88],[-16,1.7],[-15.7,2.67],[-14.62,2.66],[-13.05,2.26],[-13.01,1.83],[-12.58,2.22],[-12.28,1.93],[-12.37,1.4],[-11.96,1.38],[-12.25,0.36],[-11.89,1.24],[-11.74,0.88],[-10.99,1.52],[-9.79,1.18],[-7.54,1.43],[-4.49,-0.29],[-2.55,-0.6],[-1.83,-3.05],[-4.38,-7.97],[-4.85,-8.47],[-5.08,-8.11],[-4.83,-13.18],[-6.04,-17.7],[-6.89,-18.8],[-9.2,-19.05],[-12.48,-22.04],[-13,-22.02],[-12.6,-22.17],[-12.97,-22.81],[-12.63,-22.83],[-12.47,-24.74],[-21.61,-23.37],[-28.34,-21.36],[-35.14,-18.66],[-36.56,-17.23],[-41.35,-15.29],[-45.34,-9.41],[-46.56,-8.06],[-47.78,-7.54],[-47.6,-6.99],[-48.18,-5.8],[-47.13,-4.78],[-46.91,-3.89],[-47.19,-3.67],[-47.42,-4.14],[-48.24,-3.7],[-47.76,-0.65],[-46.75,-0.09],[-46.53,0.87],[-42.39,3.53],[-41.38,7.13],[-38.72,10.32],[-37.49,10.81]]]}},{"type":"Feature","properties":{},"geometry":{"type":"Polygon","coordinates":[[[-47.08,6.59],[-46.22,5.87],[-46.45,6.49],[-45.25,7.49],[-45.04,8.91],[-43.14,9.61],[-41.68,10.95],[-41.09,10.61],[-41.87,10.02],[-41.39,9.21],[-41.84,8.27],[-41.33,7.56],[-40.73,8.29],[-41.41,9.31],[-39.96,10.11],[-40.02,10.87],[-39.53,10.18],[-38.1,9.76],[-39.31,9.03],[-42.08,5.94],[-43.22,2.38],[-47.46,-0.12],[-46.02,1.87],[-46.57,2.11],[-46.63,4.47],[-47.48,5.26],[-47.08,6.59]]]}},{"type":"Feature","properties":{},"geometry":{"type":"Polygon","coordinates":[[[-19.07,-32.82],[-18.38,-33.41],[-18.88,-34.74],[-22.64,-36.37],[-26.59,-33.86],[-28.73,-31.22],[-19.07,-32.82]]]}},{"type":"Feature","properties":{},"geometry":{"type":"Polygon","coordinates":[[[-59.13,24.81],[-58.78,24.73],[-58.83,25.29],[-59.5,25.3],[-60.27,27.72],[-59.22,28.28],[-57.83,27.38],[-56.09,24.19],[-55.75,22.76],[-56.1,21.67],[-59.13,24.81]]]}},{"type":"Feature","properties":{},"geometry":{"type":"Polygon","coordinates":[[[-60.27,27.72],[-59.79,28.92],[-59.99,30.26],[-58.92,33.55],[-58.47,33.53],[-58.96,33.59],[-58.88,34.23],[-58.5,34.23],[-58.9,34.26],[-59.06,35.75],[-57.52,35.3],[-57.86,34.2],[-57.19,34.59],[-57.36,35.94],[-56.56,36.25],[-56.54,34.81],[-55.04,34.58],[-54.26,33.36],[-52.41,33.01],[-53.05,31.37],[-57.05,29.73],[-60.27,27.72]]]}},{"type":"Feature","properties":{},"geometry":{"type":"Polygon","coordinates":[[[-64.93,10.08],[-65.04,10.5],[-64.72,10.45],[-64.93,10.08]]]}},{"type":"Feature","properties":{},"geometry":{"type":"Polygon","coordinates":[[[-64.45,10.93],[-65.25,10.46],[-65.46,11.3],[-65.37,10.84],[-65.81,10.72],[-65.75,11.43],[-66.03,10.95],[-66.44,11.24],[-66.13,11.71],[-66.62,11.51],[-66.19,12.17],[-66.6,12.4],[-66.68,11.56],[-67.41,11.63],[-66.99,12.22],[-67.35,11.79],[-67.4,12.34],[-68.14,12],[-67.69,12.3],[-68.41,12.39],[-67.72,12.94],[-68.41,12.58],[-68.49,12.97],[-68.05,13.4],[-67.73,13.06],[-67.93,13.4],[-67.53,13.54],[-68.11,13.6],[-65.22,12.09],[-64.45,10.93]]]}},{"type":"Feature","properties":{},"geometry":{"type":"Polygon","coordinates":[[[-67.98,13.78],[-68.8,13.32],[-68.53,13.82],[-68.95,14.11],[-67.98,13.78]]]}},{"type":"Feature","properties":{},"geometry":{"type":"Polygon","coordinates":[[[-53.63,22.81],[-53.79,22.27],[-55.83,22.12],[-55.82,23.47],[-57.44,26.83],[-59.22,28.28],[-57.05,29.73],[-53.05,31.37],[-52.41,33.01],[-51.86,32.97],[-51.15,32.69],[-53.63,22.81]]]}},{"type":"Feature","properties":{},"geometry":{"type":"Polygon","coordinates":[[[-53.73,22.72],[-53.64,22.05],[-56.15,23.77],[-53.31,34.16],[-51.66,33.66],[-51.94,32.34],[-50.21,30.95],[-51.61,27.26],[-53.1,25.57],[-53.73,22.72]]]}},{"type":"Feature","properties":{},"geometry":{"type":"Polygon","coordinates":[[[-50.21,19.83],[-52.76,20.52],[-53.63,21.77],[-54.98,22.6],[-54.21,26.08],[-52.6,27.68],[-51.12,30.34],[-50.92,31.3],[-52.55,32.78],[-52.16,34.08],[-51.22,34.14],[-49.08,30.03],[-48.35,27.31],[-48.4,23.98],[-49.97,21.68],[-50.21,19.83]]]}},{"type":"Feature","properties":{},"geometry":{"type":"Polygon","coordinates":[[[-44.49,2.94],[-45.3,4.01],[-46.83,3.85],[-48.09,4.73],[-52.93,10.63],[-53.09,11.92],[-52.63,11.89],[-52.18,12.66],[-52.18,14.02],[-52.97,17.09],[-53.72,18],[-53.3,18.86],[-54.39,21.57],[-54.39,24.13],[-52.72,20.49],[-51.55,19.08],[-48.45,15.69],[-46.06,14.47],[-46.2,7.88],[-45.77,6.42],[-43.54,2.89],[-44.49,2.94]]]}},{"type":"Feature","properties":{},"geometry":{"type":"Polygon","coordinates":[[[-37.96,15.95],[-36.49,14.23],[-33.86,14.87],[-33.38,14.62],[-31.61,12.39],[-33.56,12.11],[-33.46,11.8],[-34.83,11.35],[-34.4,11.87],[-35,11.86],[-36.07,10.9],[-37.41,10.87],[-37.34,10.58],[-39.34,13.23],[-38.96,15.37],[-37.96,15.95]]]}},{"type":"Feature","properties":{},"geometry":{"type":"Polygon","coordinates":[[[-53.69,21.94],[-54.25,20.17],[-53.07,16.07],[-53.23,13.59],[-52.47,12.33],[-53.06,11.94],[-54.34,14.57],[-53.9,15.34],[-54.32,16.88],[-54.83,16.8],[-55.61,18.22],[-54.72,17.77],[-54.46,18.6],[-55.32,20.31],[-55.2,23.99],[-55.77,25.21],[-57.26,26.43],[-57.3,29.78],[-56.01,26.63],[-54.3,24.65],[-53.69,21.94]]]}},{"type":"Feature","properties":{},"geometry":{"type":"Polygon","coordinates":[[[-51.46,19.16],[-51.33,19.6],[-52.82,20.55],[-54.11,23.05],[-55.54,24.03],[-55.24,24.45],[-54.51,24.75],[-52.66,24.33],[-51.29,22.74],[-49.42,21.75],[-48.55,20.5],[-46.01,19.79],[-44.4,18.69],[-43.82,17.65],[-43.66,13.36],[-48.7,16.21],[-51.46,19.16]]]}},{"type":"Feature","properties":{},"geometry":{"type":"Polygon","coordinates":[[[-51.4,73.33],[-51.19,73.73],[-51.76,74.14],[-50.47,74.09],[-51.22,74.24],[-49.38,74.88],[-42.5,75.06],[-43.18,73.93],[-44.35,73.15],[-45.84,73.47],[-47.64,72.52],[-51.4,73.33]]]}},{"type":"Feature","properties":{},"geometry":{"type":"Polygon","coordinates":[[[-47.45,72.46],[-44.69,72.61],[-46.69,72.51],[-45.27,72.19],[-43.15,72.77],[-37.37,72.72],[-37.63,72.52],[-36.79,72.16],[-38.52,71.41],[-37.17,70.23],[-37.86,69.79],[-37.84,69.08],[-38.69,68.74],[-38.37,68.05],[-39.98,68.32],[-40.24,68.1],[-39.64,67.85],[-43.18,67.21],[-43.53,66.63],[-46.34,65.47],[-46.48,64.85],[-48.02,64.39],[-48.75,63.66],[-50.37,63.06],[-51.93,63.34],[-54.4,66.42],[-51.66,67.57],[-49.08,70.19],[-46.24,71.59],[-47.45,72.46]]]}},{"type":"Feature","properties":{},"geometry":{"type":"Polygon","coordinates":[[[-16.43,25.9],[-17.17,24.39],[-17.81,25.06],[-17.33,23.89],[-18.12,22.58],[-17.85,23.43],[-18.46,24.31],[-18.08,25.04],[-18.67,24.72],[-18.43,23.5],[-19.28,23.93],[-18.36,23.34],[-18.93,23.45],[-18.43,22.46],[-18.98,22.7],[-18.17,22.39],[-17.78,21.25],[-18.15,22.17],[-18,21.53],[-18.81,21.43],[-17.95,21.08],[-19,20.92],[-18.6,20.73],[-19.04,20.47],[-18.48,20.36],[-22.51,18.03],[-23.13,16.68],[-21.98,12.34],[-22.41,10.71],[-23.04,10.73],[-23.56,11.5],[-23.55,12.31],[-23.83,12.15],[-24.38,13.1],[-24.09,13.55],[-24.51,13.49],[-24.23,14.51],[-25.59,15.89],[-26.68,15.39],[-26.84,16.05],[-27.68,16.18],[-27.39,16.26],[-29.04,16.08],[-28.97,16.67],[-29.13,16.18],[-30.16,16.24],[-32.43,17.28],[-29.3,17.69],[-25.27,18.93],[-22.55,20.81],[-19.12,24.41],[-16.43,25.9]]]}},{"type":"Feature","properties":{},"geometry":{"type":"Polygon","coordinates":[[[-50.25,6.48],[-47.84,3.9],[-47.44,1.87],[-50.87,-0.31],[-52.36,-0.06],[-52.41,0.52],[-52.69,-0.03],[-52.71,0.92],[-52.03,1.22],[-51.86,3.92],[-51.55,3.63],[-51.3,4.02],[-52.15,4.66],[-53.29,7.39],[-53.24,10.19],[-52.42,9.69],[-51.98,8.38],[-50.25,6.48]]]}},{"type":"Feature","properties":{},"geometry":{"type":"Polygon","coordinates":[[[-26.45,55.4],[-26.95,55.25],[-26.44,54.73],[-26.67,54.18],[-25.46,55.03],[-24.92,54.47],[-25.34,53.74],[-24.8,52.82],[-23.5,54.38],[-22.75,54.63],[-23.3,54.91],[-23.26,55.51],[-21.29,55.2],[-21.92,55.12],[-20.77,54.73],[-21.25,54.44],[-20.77,54.18],[-21.67,54.01],[-20.86,52.99],[-22.36,51.94],[-23.29,52.69],[-22.69,51.75],[-24.54,52.24],[-24.02,51.83],[-25.12,51.05],[-27.73,51.87],[-24.92,50.96],[-26.16,49.79],[-27.07,50.06],[-27.68,49.35],[-29.89,50.05],[-27.7,49.06],[-30.15,48.05],[-29.78,47.79],[-30.59,47.52],[-30.23,47.42],[-31.23,46.14],[-31.53,45.24],[-30.25,44.82],[-30.22,42.98],[-28.6,43.16],[-24.73,40.93],[-22.65,40.74],[-22.77,38.53],[-21.39,36.86],[-20.92,36.69],[-20.52,37.18],[-20.19,36.67],[-19.83,37.85],[-20.15,39.49],[-20.73,40.15],[-19.2,40.75],[-18.24,41.9],[-18.54,43.49],[-19.69,44.17],[-18.66,45.46],[-18.82,46.32],[-19.33,46.27],[-18.78,47.01],[-19.24,47.74],[-18.69,48.06],[-16.7,47.55],[-16.12,47.93],[-14.63,47.07],[-14.67,46.61],[-13.17,46.54],[-13.23,45.54],[-14.21,45.53],[-13.29,45.43],[-13.3,44.78],[-12.81,44.54],[-13.75,44.12],[-12.58,44.4],[-12.14,44.04],[-12.99,43.2],[-12.01,44.08],[-11.76,43.42],[-10.84,44.38],[-10.55,43.84],[-10.57,44.45],[-10.06,44.59],[-10.41,44.81],[-9.91,44.95],[-10.29,45.29],[-9.51,45.82],[-9.72,45.59],[-8.68,44.8],[-9.18,44.61],[-8.28,44.32],[-8.79,43.89],[-8.05,44.11],[-8.57,43.58],[-7.94,43.81],[-7.48,43.29],[-7.95,43.13],[-7.04,42.77],[-7.23,42.28],[-7.92,42.41],[-6.37,41.25],[-6.12,41.5],[-6.32,40.7],[-5.66,41.09],[-5.38,40.93],[-5.72,40.49],[-5.18,41.02],[-5.12,40.61],[-3.74,40.45],[-6.22,38.96],[-3.79,40.07],[-3.59,39.33],[-2.57,39.5],[-2.36,38.81],[-2.67,38.78],[-2.29,38.6],[-2.9,38.53],[-2.17,38.42],[-2.65,38.39],[-2.18,38.06],[-3.1,37.33],[-4.47,37.27],[-4.62,36.54],[-5.49,35.94],[-10.45,35.79],[-11.13,34.83],[-12.47,34.25],[-14.14,32.3],[-10.24,34.73],[-8.56,34.34],[-8.93,34.41],[-8.59,34.09],[-9.38,33.57],[-10.61,33.51],[-8.91,33.31],[-9.24,32.61],[-12.85,30.09],[-15,26.73],[-16.14,26.45],[-19.12,24.41],[-22.01,21.3],[-24.69,19.28],[-29.3,17.69],[-35.38,17.39],[-40.54,14.66],[-40.52,12.53],[-43.15,12.95],[-43.85,14.42],[-44.03,18.24],[-45.77,19.53],[-46.06,20.25],[-45.76,21.64],[-44.08,24.46],[-44.52,29.04],[-46.59,32.94],[-49.09,40.63],[-52.41,44.09],[-53.06,45.36],[-53.98,49.41],[-52.84,50.72],[-52.56,53.14],[-56.31,56.12],[-56.01,58.06],[-55.21,58.98],[-55.64,59.57],[-54.69,59.13],[-54.65,59.75],[-53.26,59.97],[-52.94,59.7],[-53.47,59.52],[-49.82,59.76],[-51.87,59.42],[-52.1,59.14],[-51.24,59.36],[-51.53,58.86],[-50.7,59.33],[-48.39,59.38],[-48.8,59.54],[-48.55,59.82],[-47.94,58.31],[-46.73,59.01],[-47.26,58.19],[-45.3,58.29],[-43.41,57.07],[-41.69,56.63],[-41.26,56.06],[-42.7,55.8],[-42.39,55.61],[-39.02,55.29],[-38.01,54.39],[-38.49,54.32],[-37.9,53.4],[-38.11,53.87],[-37.51,54.17],[-37.84,54.88],[-35.97,55.49],[-38.13,55.41],[-36.16,55.83],[-35.31,54.62],[-34.78,54.85],[-34.13,54.26],[-31.76,54.06],[-31.71,54.73],[-31.18,54.83],[-30.29,54.5],[-30.59,54.22],[-29.98,54.44],[-30.58,53.65],[-29.93,53.29],[-29.79,54.19],[-28.29,54.63],[-28.47,55.09],[-29.07,54.82],[-28.18,55.53],[-29.81,56.29],[-29.18,56.82],[-29.65,56.94],[-29.42,57.41],[-28.12,57.88],[-28.43,58],[-27.64,57.74],[-27.51,56.8],[-26.79,56.07],[-27.82,55.65],[-26.45,55.4]]]}},{"type":"Feature","properties":{},"geometry":{"type":"Polygon","coordinates":[[[-72.07,16.23],[-72.23,15.76],[-72.56,16.07],[-72.28,16.51],[-72.87,16.93],[-72.6,16.22],[-73,16.05],[-73.72,19.17],[-74.93,20.49],[-76.42,21.55],[-77.87,21.67],[-77.51,21.95],[-80.55,21.48],[-81.01,21.14],[-80.69,20.74],[-81.57,20.43],[-84.58,20.4],[-84.89,20.04],[-86.64,20.51],[-86.62,20.84],[-88,20.91],[-86.54,21.13],[-85.89,20.49],[-85.6,20.93],[-83.53,20.96],[-82.26,21.93],[-83.07,22.04],[-82.88,22.49],[-83.53,22.09],[-83.79,23],[-80.95,23.97],[-76.56,23.55],[-75.42,23.11],[-73.41,21.27],[-72.07,16.23]]]}},{"type":"Feature","properties":{},"geometry":{"type":"Polygon","coordinates":[[[-63.31,28.9],[-63.09,29.18],[-63.32,28.93],[-64.58,30.28],[-69.46,31.7],[-68.52,31.72],[-69.51,32],[-69.52,32.7],[-69.78,31.78],[-70.5,32.18],[-70.03,32.66],[-70.87,32.53],[-70.51,32.54],[-70.87,32.81],[-70.49,33.74],[-70.8,33.19],[-70.98,34.12],[-71.13,32.89],[-71.51,33.97],[-72.2,33.89],[-72.2,33.45],[-72.02,34.22],[-73.63,34.99],[-73.36,35.13],[-73.83,35.41],[-73.29,35.29],[-74.02,35.6],[-73.77,35.85],[-74.18,35.7],[-74.09,36.21],[-74.71,35.94],[-75.37,36.95],[-75.08,36.21],[-80.03,39.64],[-76.54,40.19],[-75.35,39.91],[-74.02,38.19],[-71.78,37.06],[-69.61,36.84],[-62.74,31.31],[-61.23,27.92],[-62.61,27.61],[-63.31,28.9]]]}},{"type":"Feature","properties":{},"geometry":{"type":"Polygon","coordinates":[[[-59.05,47.31],[-58.17,45.63],[-58.07,42.15],[-59.32,43.33],[-59.88,45.39],[-59.05,47.31]]]}},{"type":"Feature","properties":{},"geometry":{"type":"Polygon","coordinates":[[[-60.77,57.38],[-60.68,55.83],[-58.51,54.61],[-57.06,53.14],[-57.3,50.72],[-58.43,49.4],[-57.46,45.35],[-56.79,44.09],[-53.44,40.65],[-51.22,34.14],[-56.46,35.34],[-57.3,35.94],[-57.57,36.81],[-56.97,41.07],[-57.93,42.76],[-58.45,45.54],[-60.38,50.28],[-63.21,53.75],[-69.22,58.6],[-67.8,59.01],[-61.93,58.88],[-60.25,59.56],[-59.81,58.96],[-60.77,57.38]]]}},{"type":"Feature","properties":{},"geometry":{"type":"Polygon","coordinates":[[[50.64,72.38],[50.01,71.94],[49.81,72.31],[50.64,72.38]]]}},{"type":"Feature","properties":{},"geometry":{"type":"Polygon","coordinates":[[[8.13,54.74],[9.4,54.55],[9.05,54.43],[9.45,54.16],[8.13,54.74]]]}},{"type":"Feature","properties":{},"geometry":{"type":"Polygon","coordinates":[[[8.53,54.99],[9.36,54.76],[7.9,54.79],[8.53,54.99]]]}},{"type":"Feature","properties":{},"geometry":{"type":"Polygon","coordinates":[[[-38.62,60.84],[-38.68,60.27],[-39.21,60.09],[-38.08,60.36],[-37.2,59.91],[-37.74,59.54],[-36.53,59.56],[-36.79,60.1],[-36.2,59.97],[-35.91,58.54],[-35.43,58.79],[-35.28,60.08],[-34.25,59.99],[-33.86,59.47],[-34.26,57.75],[-32.5,56.66],[-32.56,56.26],[-34.22,56.36],[-34.25,55.75],[-33.55,56.08],[-33.33,55.69],[-34.19,55.42],[-35.55,55.7],[-36.19,56.4],[-38.04,55.88],[-40.83,56.05],[-40.52,56.74],[-42.33,57.3],[-42.54,57.96],[-38.73,57.61],[-39.95,58.26],[-42.27,58.57],[-42.49,59.02],[-40.16,59.16],[-42.08,59.35],[-41.6,59.58],[-42.36,59.84],[-41.2,60.53],[-38.62,60.84]]]}},{"type":"Feature","properties":{},"geometry":{"type":"Polygon","coordinates":[[[34.32,68.29],[35.55,68.36],[35.26,68.01],[36.01,67.71],[35.6,67.66],[36.74,67.14],[40.25,66.49],[37.43,65.94],[36.97,66.18],[37.42,66.33],[36.27,66.54],[35.09,66.18],[34.28,66.59],[34.84,66.74],[34.1,67.24],[34.66,67.44],[33.65,67.39],[34.22,67.61],[33.54,67.73],[34.32,68.29]]]}},{"type":"Feature","properties":{},"geometry":{"type":"Polygon","coordinates":[[[7.6,55.23],[8.66,55.11],[7.24,54.93],[7.6,55.23]]]}},{"type":"Feature","properties":{},"geometry":{"type":"Polygon","coordinates":[[[44.14,71.42],[44.63,71.41],[43.85,70.96],[43.12,71.21],[44.14,71.42]]]}},{"type":"Feature","properties":{},"geometry":{"type":"Polygon","coordinates":[[[-33.25,60.4],[-32.98,60.14],[-33.78,59.53],[-34.43,60.27],[-33.25,60.4]]]}},{"type":"Feature","properties":{},"geometry":{"type":"Polygon","coordinates":[[[-19.76,59.28],[-18,58.98],[-17.4,58.32],[-19.39,58.25],[-20.05,58.86],[-19.76,59.28]]]}},{"type":"Feature","properties":{},"geometry":{"type":"Polygon","coordinates":[[[-16.35,50.14],[-16.74,50.35],[-16.63,49.84],[-17.56,50.08],[-18.11,49.65],[-19.18,50.18],[-18.5,50.95],[-15.96,50.9],[-16.6,51.61],[-15.12,52.72],[-15.66,53.69],[-16.82,54.42],[-17.92,54.15],[-17.26,54.68],[-18.22,55.11],[-18.07,55.47],[-18.48,55.22],[-19.22,56.2],[-19.62,55.87],[-19.19,55.38],[-20.93,55.67],[-20.48,55.25],[-21.68,55.89],[-20.96,55.42],[-23.4,55.67],[-23.64,56.2],[-24.81,56.08],[-25.4,56.88],[-23.91,56.69],[-25.54,57.16],[-24.66,58.94],[-23.07,59.51],[-22.16,59.35],[-23.43,58.38],[-22.6,56.9],[-23.81,56.68],[-22.59,56.62],[-22.31,57.25],[-23.16,57.67],[-22.18,57.73],[-22.8,58.54],[-22.14,58.48],[-22.69,58.66],[-21.9,58.63],[-22.45,58.86],[-21.08,59.29],[-20.37,59.25],[-19.89,58.63],[-20.26,57.41],[-19.53,58],[-18.42,57.22],[-19.04,57.72],[-18.31,57.69],[-18.62,58.13],[-16.94,57.96],[-17.47,57.16],[-16.32,57.42],[-17.04,57.15],[-16.61,57.11],[-16.88,56.63],[-16.23,57.21],[-16.39,56.65],[-16.02,57.02],[-15.88,56.42],[-15.43,57.1],[-14.84,56.95],[-14.78,56.52],[-15.55,56.27],[-14.27,56.52],[-15.06,55.87],[-14.58,56],[-14.79,55.48],[-13.83,56.34],[-14.25,55.92],[-13.57,56.26],[-12.86,55.99],[-13.97,55.49],[-13.05,55.64],[-13.84,55.08],[-12.77,55.8],[-12.1,55.23],[-13.87,55],[-11.78,54.77],[-13.24,54.83],[-12.42,54.28],[-13.43,54.28],[-11.71,53.95],[-12.45,53.76],[-11.45,53.64],[-11.47,53.28],[-11.21,53.56],[-11.24,53.12],[-10.45,53.54],[-10.73,53.18],[-10.3,53.37],[-9.89,52.91],[-10.43,52.91],[-9.88,52.84],[-10.33,52.56],[-9.34,52.92],[-9.76,52.39],[-9.14,52.57],[-9.14,52.23],[-8.62,52.68],[-8.07,52.27],[-9.09,51.94],[-8.43,51.64],[-9.17,51.71],[-8.63,51.42],[-9.02,51.52],[-8.86,51.19],[-9.46,51.51],[-9.36,50.47],[-10.73,51.27],[-10.04,51.91],[-11,51.47],[-10.77,51.92],[-11.08,51.63],[-12.39,52.12],[-11.83,51.52],[-12.63,51.56],[-12.43,50.92],[-11.92,51.17],[-11.46,50.23],[-11.41,50.54],[-10.34,50.03],[-10.74,49.83],[-9.98,49.54],[-9.86,48.81],[-10.43,49.34],[-9.88,48.46],[-10.35,48.57],[-10.25,48.11],[-11.23,48.93],[-11.22,48.52],[-12.19,49.27],[-11.98,48.89],[-12.92,49.23],[-10.73,47.4],[-14.55,48.5],[-15.04,48.89],[-14.42,49.05],[-15.4,49.29],[-15.84,50.11],[-16.4,49.78],[-16.35,50.14]]]}},{"type":"Feature","properties":{},"geometry":{"type":"Polygon","coordinates":[[[-160.94,87.23],[-158.8,86.79],[-161.06,86.48],[-177.72,87.1],[-160.94,87.23]]]}},{"type":"Feature","properties":{},"geometry":{"type":"Polygon","coordinates":[[[-30.24,60.2],[-28.87,59.98],[-29.93,59.22],[-28.9,58.52],[-30.72,57.56],[-32.42,59.27],[-30.81,59.2],[-30.76,59.68],[-31.45,59.9],[-30.24,60.2]]]}},{"type":"Feature","properties":{},"geometry":{"type":"Polygon","coordinates":[[[-26.73,60.1],[-25.03,59.68],[-26.41,58.63],[-27.66,58.76],[-27.29,58.39],[-28.43,58.02],[-28.12,59.73],[-26.73,60.1]]]}},{"type":"Feature","properties":{},"geometry":{"type":"Polygon","coordinates":[[[-167.79,87.51],[-170.37,87.53],[-163.27,87.69],[-167.79,87.51]]]}},{"type":"Feature","properties":{},"geometry":{"type":"Polygon","coordinates":[[[67.36,81.49],[70.28,81.37],[66.85,81.39],[67.36,81.49]]]}},{"type":"Feature","properties":{},"geometry":{"type":"Polygon","coordinates":[[[-41.43,62.63],[-40.67,61.89],[-39.57,61.93],[-38.98,61.02],[-45.03,59.61],[-45.59,60.69],[-46.22,60.83],[-43.4,62.18],[-43.42,62.83],[-41.43,62.63]]]}},{"type":"Feature","properties":{},"geometry":{"type":"Polygon","coordinates":[[[9.86,57.57],[10.18,57.23],[9.34,57.5],[9.86,57.57]]]}},{"type":"Feature","properties":{},"geometry":{"type":"Polygon","coordinates":[[[-27.57,61.9],[-27.86,62.1],[-27.09,62.13],[-27.57,61.9]]]}},{"type":"Feature","properties":{},"geometry":{"type":"Polygon","coordinates":[[[-120.33,87.23],[-116.91,87.13],[-116.59,86.88],[-119.44,86.8],[-117.1,86.65],[-116.75,86.45],[-117.77,86.31],[-116.66,86.22],[-126.94,86.7],[-124.18,87.38],[-115.88,87.45],[-120.33,87.23]]]}},{"type":"Feature","properties":{},"geometry":{"type":"Polygon","coordinates":[[[-22.72,61.16],[-22.51,60.69],[-23.03,60.2],[-24.23,60.85],[-22.72,61.16]]]}},{"type":"Feature","properties":{},"geometry":{"type":"Polygon","coordinates":[[[156.8,89.29],[157.98,89.28],[136.95,89.68],[161.19,89.46],[155.77,89.32],[156.8,89.29]]]}},{"type":"Feature","properties":{},"geometry":{"type":"Polygon","coordinates":[[[179.99,89.24],[179.99,88.83],[173.15,89.09],[179.99,89.24]]]}},{"type":"Feature","properties":{},"geometry":{"type":"Polygon","coordinates":[[[-179.99,89.4],[-103.5,89.31],[-131.36,88.84],[-104.79,88.77],[-116.08,88.43],[-114.41,88.14],[-120.06,87.67],[-161.82,88.35],[-160.63,88.54],[-170.89,88.31],[-179.99,88.78],[-178.77,88.81],[-179.99,88.83],[-179.99,89.24],[-173.05,89.41],[-179.99,89.4]]]}},{"type":"Feature","properties":{},"geometry":{"type":"Polygon","coordinates":[[[-25.58,63.25],[-25.41,62.91],[-26.13,62.99],[-25.58,63.25]]]}},{"type":"Feature","properties":{},"geometry":{"type":"Polygon","coordinates":[[[-23.22,62.53],[-24.1,61.28],[-24.82,61.05],[-25.92,61.37],[-24.93,61.83],[-26.4,62.08],[-25.49,62.1],[-24.93,62.76],[-24.73,62.04],[-24.21,62.2],[-24.5,62.69],[-23.22,62.53]]]}},{"type":"Feature","properties":{},"geometry":{"type":"Polygon","coordinates":[[[-27.25,63.98],[-28.39,63.1],[-27.2,62.76],[-28.45,62.19],[-32.35,62.72],[-32.74,63.24],[-30.4,63.09],[-32,63.43],[-31.48,63.76],[-32.63,63.55],[-33.37,64.2],[-31.6,64.1],[-32.66,64.38],[-31.16,64.21],[-31.95,64.53],[-30.23,64.7],[-30.34,64.3],[-29.73,64.06],[-30.15,63.36],[-29.22,62.98],[-28.64,63.89],[-27.25,63.98]]]}},{"type":"Feature","properties":{},"geometry":{"type":"Polygon","coordinates":[[[32.88,73.09],[35.15,72.73],[33.88,70.83],[34.25,70.52],[33.91,70.35],[34.59,70.24],[34.02,70.12],[34.64,70.02],[33.94,70],[34.6,69.8],[33.83,69.73],[34.77,69.57],[34.93,69.29],[34.18,69.18],[35.14,69],[34.2,68.92],[35.31,68.9],[34.37,68.78],[35.48,68.47],[33.83,68.05],[33.57,68.4],[34.32,68.63],[32.76,68.28],[33.28,68.66],[32.81,68.84],[33.83,68.97],[32.69,68.92],[33.06,69.07],[32.24,69.37],[32.88,69.58],[31.35,69.72],[32.08,70.2],[31.42,70.47],[31.89,71.09],[31.59,71.17],[32.09,71.18],[31.59,71.42],[32.72,71.72],[33.37,72.47],[32.88,72.52],[32.88,73.09]]]}},{"type":"Feature","properties":{},"geometry":{"type":"Polygon","coordinates":[[[-21.59,62.51],[-20.94,62.17],[-21.43,61.71],[-20.21,61.72],[-20.01,61.42],[-20.48,61.56],[-19.65,61.14],[-20.65,61.25],[-20.08,60.66],[-20.28,60.32],[-16.61,59.93],[-15.96,59.43],[-16.63,59.08],[-16.22,58.88],[-17.69,58.7],[-18.19,59.28],[-18.83,58.99],[-22.2,59.92],[-21.26,61.62],[-22.39,61.76],[-22.08,62.12],[-22.52,62.39],[-21.59,62.51]]]}},{"type":"Feature","properties":{},"geometry":{"type":"Polygon","coordinates":[[[44.96,78.73],[45.22,78.59],[44.2,78.84],[44.96,78.73]]]}},{"type":"Feature","properties":{},"geometry":{"type":"Polygon","coordinates":[[[-29.13,65.68],[-29.13,65.35],[-31.33,64.89],[-31.68,65.12],[-30.91,65.38],[-33.38,65.03],[-33.14,65.39],[-34.42,65.54],[-30.58,65.94],[-29.13,65.68]]]}},{"type":"Feature","properties":{},"geometry":{"type":"Polygon","coordinates":[[[-18.97,62.49],[-18.79,62.11],[-19.25,62.05],[-18.97,62.49]]]}},{"type":"Feature","properties":{},"geometry":{"type":"Polygon","coordinates":[[[64.37,46.35],[64.28,45.99],[63.33,45.93],[62.96,48.37],[58.92,52.18],[59.5,54.81],[59.11,56.06],[52.96,62.3],[52.9,63.59],[53.67,64.66],[59.71,63.31],[66.72,60.15],[71.44,59.23],[77.74,55.13],[93.62,51.05],[85.28,46.82],[77.67,40.61],[70.97,40.29],[66.45,41.56],[64.41,42.78],[65.56,44.71],[64.38,45.1],[64.37,46.35]]]}},{"type":"Feature","properties":{},"geometry":{"type":"Polygon","coordinates":[[[99.18,45.39],[100.44,45.03],[101.57,43.82],[98.67,41.96],[91.33,40.56],[89.24,39.14],[86.33,39.81],[82.11,43.02],[79.85,43.48],[86.19,45.88],[91.61,47.05],[99.18,45.39]]]}},{"type":"Feature","properties":{},"geometry":{"type":"Polygon","coordinates":[[[100.07,49.74],[96.1,48.44],[87.09,47.71],[93.62,51.05],[97.45,49.95],[100.07,49.74]]]}},{"type":"Feature","properties":{},"geometry":{"type":"Polygon","coordinates":[[[105.14,38.58],[110.63,36.16],[108.43,35.97],[102.58,37.47],[95.6,38.01],[86.3,36.97],[86.96,37.78],[94.33,40.63],[97.08,41.19],[98.05,41.19],[105.14,38.58]]]}},{"type":"Feature","properties":{},"geometry":{"type":"Polygon","coordinates":[[[148.03,58.03],[149.31,58.06],[148.5,57.74],[149.31,57.67],[150.1,58.03],[149.85,57.57],[150.27,58.31],[151.5,58.23],[153.01,57.1],[152.23,56.97],[152.87,55.96],[151.65,55.12],[150.55,52.4],[144.25,47.9],[142.62,47.3],[141.1,47.44],[141.16,47.94],[139.87,47.23],[135.71,48.54],[131.44,48.67],[121.01,48.74],[110.35,47.52],[106.5,48.28],[100.07,48.12],[97.17,48.92],[95.24,50.33],[101.49,50.02],[107.04,50.83],[112.02,52.6],[116.34,53.24],[119.68,54.81],[124.96,55.43],[128.82,57.97],[132.31,59.13],[139.25,58.17],[148.03,58.03]]]}},{"type":"Feature","properties":{},"geometry":{"type":"Polygon","coordinates":[[[68.3,79.7],[70.38,78.87],[69.24,79.34],[71.56,79.8],[70.48,79.82],[70.81,80.16],[70.42,80.19],[71.08,80.32],[70.81,80.7],[68.3,80.64],[72.24,81.24],[70.81,81.32],[75.67,81.09],[74.17,81.24],[74.87,81.78],[79.45,82.52],[84.15,82.44],[89.81,83.22],[84.72,83.7],[85.94,83.81],[84.96,84.01],[100.34,84.69],[101.03,84.66],[99.8,84.58],[106.69,84.08],[105.46,83.73],[109.41,83.75],[108.01,83.6],[108.55,83.52],[118.36,83.5],[116.08,84.22],[122.68,83.1],[125.66,81.06],[127.16,80.86],[152.01,79.92],[165.68,78.28],[171.32,76.49],[172.51,75.71],[172.52,74.95],[171.91,73.46],[157.05,72.99],[146.7,68.46],[149.31,68.32],[149.37,67.51],[137.82,66.43],[128.52,66.22],[125.33,64.52],[122.72,61.44],[117.28,59.88],[114.65,57.77],[110.49,56.34],[106.32,53.7],[101.17,51.85],[94.92,50.91],[84.38,53.18],[77.74,55.13],[72.49,58.81],[65.35,60.66],[57.82,63.89],[54.1,66.02],[57.58,66.23],[57.37,66.62],[57.89,67.26],[57.51,68],[55.55,68.77],[56.31,69.35],[58.18,69.25],[60.42,68.4],[60.79,68.79],[62.78,68.81],[59.59,68.7],[58.98,68.99],[59.26,69.26],[57.66,69.63],[54.25,68.95],[51.92,70.15],[49.36,70.45],[48.9,70.85],[49.07,71.44],[47.42,71.9],[51.82,70.95],[54.28,71.29],[50.4,71.45],[51.91,71.91],[50.72,72.24],[55.91,72.97],[58.34,71.59],[58.08,71.84],[61.84,71.79],[59.1,71.92],[59.49,72.06],[56.44,73.01],[52.41,72.92],[49.29,73.57],[52.56,75.26],[48.73,75.53],[50.04,75.62],[48.24,75.87],[48.92,76.19],[48.13,76.61],[48.66,76.67],[48.32,76.86],[48.96,77.18],[48.54,77.24],[48.95,77.87],[47.74,77.74],[49.31,78.39],[50.2,78.16],[49.78,78.4],[50.63,78.7],[49.76,79.03],[50.97,79.13],[48.75,79.11],[49.49,79.42],[43.66,80.58],[46.38,80.97],[47.53,80.46],[49.71,81.14],[52.03,80.82],[52.38,81.07],[50.98,81.27],[52.72,82.04],[59.36,82.33],[61.55,82.13],[58.62,81.93],[62.39,82.14],[64.97,81.73],[66.05,81.38],[65.58,81.3],[66.52,80.85],[66.29,80.63],[68.53,80.05],[66.94,79.53],[68.3,79.7]]]}},{"type":"Feature","properties":{},"geometry":{"type":"Polygon","coordinates":[[[150.18,67.73],[149.84,67.82],[150.8,68.04],[150.18,67.73]]]}},{"type":"Feature","properties":{},"geometry":{"type":"Polygon","coordinates":[[[51.68,67.11],[51.07,67.72],[48.42,67.71],[46.84,68.72],[46.04,68.67],[45.52,69.05],[45.55,69.74],[43.72,70.77],[46.47,71.33],[47.41,71.03],[48.4,70.26],[55.31,68.37],[56.18,67.66],[56.39,66.71],[54.07,66.04],[51.68,67.11]]]}},{"type":"Feature","properties":{},"geometry":{"type":"Polygon","coordinates":[[[84.05,15.66],[88.78,16],[92.67,15.23],[94.55,13.67],[96.69,10.26],[91.59,12.65],[83.91,12.53],[80.84,13.18],[77.33,15],[74.08,17.85],[73.31,19.27],[78.82,16.41],[84.05,15.66]]]}},{"type":"Feature","properties":{},"geometry":{"type":"Polygon","coordinates":[[[41.92,-38.42],[42.49,-38.28],[42.32,-37.5],[41.99,-38.26],[42.22,-37.32],[41.87,-36.82],[41.94,-37.86],[41.38,-38.3],[39.13,-37.66],[39.54,-37.31],[38.73,-37.27],[39.34,-36.77],[37.75,-36.21],[37.14,-36.6],[36.01,-36.36],[30.92,-33.82],[30.4,-33.99],[28.66,-32.42],[22.34,-33.53],[21.97,-32.95],[21.11,-32.79],[20.94,-33.2],[20.55,-32.42],[19.61,-32.24],[19.13,-31.57],[19.83,-30.66],[27.39,-25.76],[30.71,-24.26],[32.39,-23.77],[32.81,-24.11],[32.58,-23.62],[33.23,-23.64],[33.18,-23.25],[31.97,-23.37],[31.08,-22.29],[32.23,-20.23],[32.83,-21.27],[33.46,-21.39],[32.84,-20.32],[33.22,-19.45],[33.79,-19.66],[33.35,-19.33],[33.72,-19.22],[33.47,-18.51],[34.36,-18.26],[34.2,-17.54],[34.99,-17.23],[34.54,-16.64],[38.3,-15.93],[40.96,-16.31],[46.55,-18.17],[47.79,-19.35],[47.88,-20.31],[46.8,-21.54],[45.31,-25.54],[45.05,-30.28],[45.77,-32.37],[50.17,-38.97],[50.35,-40.2],[41.92,-38.42]]]}},{"type":"Feature","properties":{},"geometry":{"type":"Polygon","coordinates":[[[75.15,29.24],[77.41,28.15],[79.51,27.98],[80.88,29.03],[87.66,30.64],[93.26,29.33],[97.73,27.31],[98.8,24.96],[99.02,22.5],[96.45,25.47],[94.17,26.58],[90.8,26.84],[85.76,26.15],[80.1,26.43],[73.38,28.82],[72.24,28.73],[70.99,30.51],[72.98,30.47],[75.15,29.24]]]}},{"type":"Feature","properties":{},"geometry":{"type":"Polygon","coordinates":[[[104.71,30.09],[104.47,29.7],[103.34,32.04],[101.43,33.08],[92.68,35.23],[99.36,35.79],[104.2,35.06],[108.55,35.1],[106.78,33.48],[104.71,30.09]]]}},{"type":"Feature","properties":{},"geometry":{"type":"Polygon","coordinates":[[[54.07,66.04],[57.82,63.89],[53.67,64.66],[53.24,66.46],[54.07,66.04]]]}},{"type":"Feature","properties":{},"geometry":{"type":"Polygon","coordinates":[[[59.07,38.62],[58.28,39.46],[58.16,40.43],[56.65,40.5],[55.09,41.61],[56.29,41.85],[55.54,41.99],[55.83,42.63],[57.22,43],[56.24,44.33],[54.93,44.15],[53.81,43.07],[53.33,43.16],[53.3,42.26],[52.99,42.53],[53.04,42.16],[52.34,42.04],[51.93,40.8],[53.14,40.42],[53.25,39.51],[55.27,38.34],[49.58,38.84],[53.67,44.16],[59.92,47.57],[60.17,49.24],[58.92,52.18],[62.96,48.37],[63.23,45.33],[62.81,45.47],[63.02,44.95],[62.26,44.82],[62.26,43.73],[62.91,42.79],[63.89,43.17],[66.45,41.56],[70.97,40.29],[78.25,40.77],[76.13,38.35],[67.16,36.25],[59.12,38.12],[59.07,38.62]]]}},{"type":"Feature","properties":{},"geometry":{"type":"Polygon","coordinates":[[[44.17,-2.54],[43.65,-2.16],[42.22,-2.33],[41.41,-1.78],[39.98,0.14],[39.83,2.66],[39.34,2.68],[39.19,3.32],[38.83,2.93],[38.08,3.33],[38.06,2.76],[37.61,2.78],[37.79,0.75],[38.46,-0.6],[38.07,-1.14],[38.2,-2.59],[38.88,-1.51],[39.34,-1.77],[38.47,-3.17],[38.86,-3.71],[41.02,-4.29],[43.6,-3.01],[43.04,-4.8],[44.54,-6.39],[44.98,-7.97],[43.27,-9.23],[42.61,-9.17],[42.17,-10.33],[41.18,-10.21],[40.43,-10.84],[39.56,-10.62],[38.89,-11.23],[36.34,-10.82],[35.78,-11.48],[31.97,-11.52],[28.97,-10.87],[28.14,-11.13],[26.81,-10.51],[27.14,-7.85],[27.93,-6.56],[27.7,-3.06],[27.02,-1.16],[27.7,1.54],[27.16,2.5],[27.26,6.68],[26.78,7],[30.99,11.42],[32.42,13.76],[34.65,14.09],[37.52,13.34],[39.16,8.81],[42.76,1.3],[43.2,-0.68],[44.54,-1.31],[44.17,-2.54]]]}},{"type":"Feature","properties":{},"geometry":{"type":"Polygon","coordinates":[[[48.3,-13.42],[47.09,-16.5],[45.25,-17.08],[38.36,-14.39],[36.2,-14.18],[37.13,-11.22],[39,-9.88],[40.52,-10.79],[43.52,-9.99],[45.09,-10.24],[48.6,-12.37],[48.3,-13.42]]]}},{"type":"Feature","properties":{},"geometry":{"type":"Polygon","coordinates":[[[80.14,26.64],[68.67,29.99],[70.72,33.43],[77.36,28.65],[80.69,28.67],[80.14,26.64]]]}},{"type":"Feature","properties":{},"geometry":{"type":"Polygon","coordinates":[[[68.15,16.8],[67.75,17.17],[68.74,19.06],[70.64,20.89],[71.39,20.95],[79.04,15.65],[73.18,15.99],[70.53,15.56],[68.15,16.8]]]}},{"type":"Feature","properties":{},"geometry":{"type":"Polygon","coordinates":[[[50.67,33.82],[51.46,33.47],[54.9,34.55],[59.28,31.6],[63.9,31.65],[64.48,30.89],[63.09,30.01],[60.82,30.52],[45.59,30.47],[44.98,31.17],[44.9,32.73],[47.84,34.4],[50.67,33.82]]]}},{"type":"Feature","properties":{},"geometry":{"type":"Polygon","coordinates":[[[2.19,72.93],[-5.81,73.43],[-6.2,73.68],[-5.94,73.99],[-7.47,74.56],[-9.39,74.35],[-8.57,73.77],[-9.2,73.26],[-19.45,73.96],[-20.63,74.17],[-24.05,77.52],[-4.12,75.94],[0.56,74.53],[2.19,72.93]]]}},{"type":"Feature","properties":{},"geometry":{"type":"Polygon","coordinates":[[[-104.67,78.58],[-105.43,78.43],[-104.7,78.52],[-105.57,76.86],[-105.06,75.88],[-98.71,73.04],[-114.43,72.32],[-120.28,72.69],[-121.48,72.27],[-127.68,72.17],[-125.28,72.92],[-126.63,72.84],[-125.63,73.53],[-125.83,75.58],[-125.44,76.66],[-121.69,78.19],[-115.29,78.79],[-104.67,78.58]]]}},{"type":"Feature","properties":{},"geometry":{"type":"Polygon","coordinates":[[[179.99,86.14],[179.99,78.65],[167.88,80.34],[148.93,81.74],[147.67,82],[149.28,84.07],[146.21,85.37],[148.88,85.72],[149.82,85.65],[147.54,85.65],[154.34,85.17],[175.68,85.18],[176.7,85.23],[174.92,85.71],[179.28,85.87],[174.74,85.94],[179.99,86.14]]]}},{"type":"Feature","properties":{},"geometry":{"type":"Polygon","coordinates":[[[-179.99,78.65],[-179.99,86.14],[-174.72,86.18],[-175.98,86.51],[-151.29,84.95],[-149.17,84.44],[-153.42,84.31],[-149.02,83.57],[-149.26,83.2],[-150.33,83.26],[-149.1,82.98],[-140.58,82.53],[-135.85,81.5],[-139,80.82],[-138.01,80.42],[-150.3,79.9],[-156.2,78.99],[-157.94,78.09],[-158.27,77.31],[-155.86,74.24],[-156.12,73.71],[-161.44,73.81],[-167.62,72.13],[-166.11,72.1],[-166.03,71.76],[-172.42,71.87],[-172.63,72.15],[-170.58,72.15],[-173.34,72.59],[-171.92,74.15],[-171.71,75.34],[-173.94,77],[-179.99,78.65]]]}},{"type":"Feature","properties":{},"geometry":{"type":"Polygon","coordinates":[[[138.92,46.75],[137.44,45.97],[137.12,45.02],[134.53,43.8],[135.53,43],[136.45,40.86],[133.25,40.6],[133.01,41.36],[133.95,41.41],[133.54,41.6],[133.63,42.28],[132.51,42.56],[132.21,42.21],[131.85,42.49],[132.16,42.62],[131.52,42.7],[132.56,43.21],[132.11,43.41],[132.53,44.08],[131.43,44.58],[127.83,43.52],[128.76,44.14],[128.02,44.17],[128.3,44.56],[129.25,45.19],[128.79,45.7],[127.88,45.62],[125.57,44.11],[124.3,44.15],[124.06,43.42],[125.31,43.14],[125.51,42.12],[127.3,42.66],[129.36,42.09],[129.11,41.62],[126.48,41.06],[125.36,39.85],[126.42,39.2],[122.99,36.49],[118.35,38.32],[111.15,39.34],[98.43,45.09],[109.86,47.15],[120.45,48.29],[135.01,47.99],[138.92,46.75]]]}},{"type":"Feature","properties":{},"geometry":{"type":"Polygon","coordinates":[[[134.22,44.47],[134.44,43.04],[132.74,42.5],[132.91,42.19],[132.68,42.43],[132.63,41.95],[132.42,42.26],[131.8,41.65],[131.4,41.99],[131.8,41.99],[131.24,42.39],[131.68,43.3],[131.25,43.4],[134.22,44.47]]]}},{"type":"Feature","properties":{},"geometry":{"type":"Polygon","coordinates":[[[125.1,40.41],[126.3,38.88],[127.67,38.2],[125.91,38.11],[127.93,37.47],[126.42,36.49],[128.49,36.49],[127.87,35.94],[128.43,36.19],[128.52,35.87],[127.98,35.76],[128.44,34.9],[127.46,34.39],[127.3,32.91],[126.7,32.96],[127.21,32.63],[126.89,32.32],[127.17,31.57],[126.75,31.76],[126.35,30.59],[125.82,30.62],[125.47,29.56],[124.48,29.05],[124.55,28.57],[122.84,28.1],[122.5,27.44],[121.41,28.07],[121.78,27.22],[121.35,27.01],[121.09,27.4],[121.21,26.75],[120.62,26.86],[120.66,26.49],[118.7,25.78],[118.97,24.62],[118.17,25.14],[118.32,25.75],[117.87,25.93],[117.54,25.5],[116.72,25.87],[115.84,24.72],[115.12,24.6],[115.38,24.28],[114.84,23.43],[107.58,27.41],[106.93,28.34],[106.46,30.78],[107.49,33.24],[110.06,36.44],[112.24,37.13],[116.72,37.55],[122.89,36.99],[125.1,40.41]]]}},{"type":"Feature","properties":{},"geometry":{"type":"Polygon","coordinates":[[[111.75,23.49],[111.82,22.44],[112.33,22.03],[116.82,20.72],[118.62,18.68],[118.86,17.34],[117.25,15.49],[117.5,14.61],[116.51,12.95],[115.86,14.35],[114.44,14.06],[114.05,14.61],[113.82,14.15],[112.68,15.1],[110.93,14.65],[110.62,15.43],[109.9,15.26],[108.4,18.25],[107.99,21.47],[104.14,25.14],[111.75,23.49]]]}},{"type":"Feature","properties":{},"geometry":{"type":"Polygon","coordinates":[[[108.86,14.85],[110.08,11.69],[110.86,10.91],[111.3,11.34],[113.54,10.15],[114.93,10.43],[117.82,7.41],[115.49,7.74],[112.37,9.7],[111.07,9.87],[110.83,9.5],[108.12,13.29],[106.03,14.26],[104.79,15.39],[105.14,15.39],[103.53,15.45],[100.19,18.12],[98.38,20.13],[97.18,22.79],[100.33,23.61],[104.46,21.48],[105.5,20.61],[106.61,17.55],[108.86,14.85]]]}},{"type":"Feature","properties":{},"geometry":{"type":"Polygon","coordinates":[[[114.01,10.65],[116.13,10.45],[117.38,9.05],[119.05,8.43],[118.53,7.85],[116.99,7.73],[114.01,10.65]]]}},{"type":"Feature","properties":{},"geometry":{"type":"Polygon","coordinates":[[[27.22,-4.98],[29.45,-8.79],[29.36,-9.28],[28.41,-9.47],[29.04,-9.57],[29.76,-11.03],[34.96,-11.55],[36.45,-11.26],[36.89,-11.53],[36.27,-12.83],[36.66,-12.91],[36.13,-12.91],[35.83,-13.76],[31.59,-17.8],[29.03,-19.19],[23.94,-20.95],[22.97,-21.83],[21.4,-22.25],[19.67,-23.74],[18.74,-24.84],[19.13,-26.07],[18.26,-27.59],[18.11,-28.89],[18.81,-29.87],[18.24,-30.38],[16.89,-34.14],[15.45,-34.95],[12.2,-35.1],[8.45,-36.16],[10.75,-32.02],[12.24,-25.83],[14.74,-24.92],[15.5,-22.76],[18.66,-18.04],[19.62,-14.76],[20.78,-13.28],[22.03,-13.62],[22.81,-12.16],[26.98,-9.74],[27.22,-4.98]]]}},{"type":"Feature","properties":{},"geometry":{"type":"Polygon","coordinates":[[[8.39,-35.89],[7.79,-36.54],[7.72,-38.4],[6.4,-40.05],[2.05,-40.19],[1.98,-40.65],[2.48,-40.53],[0.15,-42.3],[-4.35,-43.41],[-8.35,-43.76],[-10.67,-43.42],[-13.35,-41.83],[-16.27,-41.2],[-16.7,-39.99],[-17.19,-40.04],[-16.52,-38.51],[-15.92,-38.54],[-15.34,-37.76],[-14.66,-34.98],[-14.76,-32.76],[-12.29,-28.19],[-11.94,-23],[-10.8,-21.33],[-8.76,-19.66],[-6.77,-18.92],[-6.18,-17.93],[-6.03,-16.16],[-5.3,-15.75],[-5.14,-13.26],[-4.4,-13.42],[-5.01,-12.98],[-4.76,-11.69],[-5.57,-8.72],[-5.5,-6.75],[-4.91,-6.85],[-4.42,-6.18],[-4,-6.61],[-4.37,-6.02],[-2.52,-4.12],[-2.24,-3.12],[-2.75,-3],[-3.11,-1.75],[-4.27,-1.62],[-5.49,-0.68],[-2.2,-0.23],[-1.38,0.72],[1.28,0.89],[7.1,-3.37],[9.9,-3.51],[15.06,-4.68],[17.38,-11.23],[17.75,-13.46],[13.2,-16.47],[11.48,-19.33],[11.13,-21.3],[13.16,-26.02],[12.93,-27.27],[11.16,-32.09],[8.39,-35.89]]]}},{"type":"Feature","properties":{},"geometry":{"type":"Polygon","coordinates":[[[-8.78,27.61],[-8.41,28.59],[-7.27,29.35],[-4.38,29.62],[-2.58,30.77],[-2.02,30.6],[-1.77,29.6],[-0.41,29.26],[0.2,28.53],[3.68,28.5],[5.92,27.83],[6.92,27.03],[8.03,27.01],[9.07,26.23],[10.83,25.96],[0.56,25.87],[-4.92,27.55],[-8.78,27.61]]]}},{"type":"Feature","properties":{},"geometry":{"type":"Polygon","coordinates":[[[15.15,29.45],[14.88,28.69],[12.29,28.49],[10.95,27.68],[11.02,26.83],[8.18,25.85],[6.35,26.65],[5.02,26.45],[4.71,27.39],[5.17,27.56],[4.8,27.44],[4.68,28.05],[2.81,28.59],[3.85,29.68],[3.48,30.15],[4.16,30.34],[3.36,30.33],[5.14,31.72],[6.33,34.08],[7.63,34.06],[10.92,32.01],[12.2,31.75],[15.15,29.45]]]}},{"type":"Feature","properties":{},"geometry":{"type":"Polygon","coordinates":[[[-4.16,-2.01],[-4.29,-0.44],[-5,0.39],[-7.34,1.19],[-11.14,1.35],[-12.63,2.61],[-16.28,3.33],[-19.42,8.16],[-19.36,10.96],[-20.41,13],[-19.68,13.37],[-20.63,13.55],[-20.87,14.03],[-20.54,14.13],[-21.07,14.51],[-20.66,14.48],[-20.99,14.65],[-20.55,15.43],[-19.51,14.96],[-20.41,15.24],[-20.18,15.7],[-20.7,16.93],[-19.34,17.42],[-17.95,18.98],[-17.62,20.66],[-16.91,21.25],[-16.98,22.47],[-17.42,22.19],[-16.45,23.28],[-13.51,24.69],[-12.31,25.85],[-11.3,25.93],[-10.13,26.72],[-7.44,26.67],[-5.93,27.49],[-2.08,27.47],[3.43,25.86],[13.72,25.98],[13.79,25.35],[14.48,25.21],[13.6,24.8],[13.71,23.72],[12.39,23.25],[10.31,20.5],[6.34,11.38],[5.72,7.9],[6.82,2.82],[3.32,1.59],[2.42,0.23],[-0.21,-0.21],[-0.92,-1.24],[-4.16,-2.01]]]}},{"type":"Feature","properties":{},"geometry":{"type":"Polygon","coordinates":[[[27.54,10.24],[27.26,9.37],[27.88,3.64],[27.51,2.74],[28.24,0.44],[27.61,-1.03],[14.09,-4.65],[8.9,-3.61],[6.1,-3.54],[0.16,0.56],[1.17,1.85],[4.75,2.8],[4.04,7.95],[4.94,11.38],[9.65,20.16],[11.77,22.34],[12.9,20.57],[14.93,18.98],[14.85,17.9],[16.84,15.62],[17.98,15.69],[18.66,16.86],[20.48,16.8],[21.18,15.6],[22.4,14.81],[22.36,14.33],[25.12,12.3],[26.46,12.47],[27.45,11.98],[27.54,10.24]]]}},{"type":"Feature","properties":{},"geometry":{"type":"Polygon","coordinates":[[[28.03,12.48],[27.14,13.37],[25.49,13.8],[24.75,15.62],[24.33,15.32],[23.66,15.63],[23.5,16.86],[22.72,17.31],[23.55,17.05],[22.87,17.61],[23.62,18.3],[23.35,18.99],[26.36,18.35],[27.07,17.8],[27.45,16.46],[28.77,16.11],[31.69,14.05],[32.91,11.1],[30.26,12.38],[28.03,12.48]]]}},{"type":"Feature","properties":{},"geometry":{"type":"Polygon","coordinates":[[[13.27,-25.68],[12.71,-25.98],[10.48,-21.34],[10.76,-19.36],[12.36,-16.44],[16.79,-13.27],[21.63,-13.66],[20.43,-15.1],[19.37,-18.36],[16.07,-23],[15.24,-25.13],[13.27,-25.68]]]}},{"type":"Feature","properties":{},"geometry":{"type":"Polygon","coordinates":[[[28.75,8.89],[27.48,7.83],[27.13,12.11],[28.13,11.15],[29.55,11.21],[31.91,13.24],[32.89,15],[32.16,13.24],[28.75,8.89]]]}},{"type":"Feature","properties":{},"geometry":{"type":"Polygon","coordinates":[[[27.33,-0.88],[27.3,-1.66],[28.01,-2.67],[28.02,-5.8],[28.36,-5.56],[27.99,-10.31],[23.74,-12.61],[22.92,-14.05],[20.25,-13.41],[16.84,-13.28],[14.24,-5.64],[14.27,-4.49],[27.33,-0.88]]]}},{"type":"Feature","properties":{},"geometry":{"type":"Polygon","coordinates":[[[45.96,38.4],[42.79,39.21],[43.82,40.31],[43.16,40.89],[43.95,41.03],[44.23,41.75],[41.64,40.48],[41.06,39.74],[41.05,40.17],[41.17,39.43],[41.83,39.08],[42.76,39.4],[42.64,39.04],[40.34,38.08],[39.78,38.83],[39.15,38.57],[40.06,39.35],[38.2,39.31],[37.89,39.52],[38.7,39.61],[38.19,39.89],[36.55,38.44],[36.87,37.5],[36.34,37.27],[33.67,38.34],[31.12,40.42],[24.7,43.03],[21.46,43.82],[23.95,45.13],[24.62,44.75],[25.26,45.17],[25.02,44.7],[25.65,45.31],[25.19,45.47],[25.72,45.74],[25.76,46.42],[25.63,45.59],[26.19,45.67],[25.34,47.2],[25.44,48.27],[26.05,48.61],[27.21,48.02],[27.67,48.42],[27.29,49.48],[26.63,49.35],[26.04,50.15],[30.75,51.87],[29.3,52.07],[29.13,52.47],[25.3,50.61],[25.12,51.12],[23.79,51.12],[23.52,52.07],[22.41,53.15],[23.64,55.57],[24.18,55.71],[23.78,56.29],[21.09,56.03],[21.53,55.9],[21.12,55.61],[21.45,55.5],[21.03,55.61],[21.4,55.32],[21.14,55.06],[21.82,54.77],[21.53,54.03],[20.27,52.69],[19.69,52.99],[20.23,52.57],[19.86,52.29],[20.59,50.56],[22.46,49.96],[21.76,49.49],[22.26,49.31],[21.98,48.92],[21.66,49.2],[21.71,48.79],[20.79,48.46],[21.42,48.42],[20.93,48.34],[21.48,48.11],[21.73,46.6],[21.55,45.94],[20.42,45.61],[20.51,45.03],[19.45,44.83],[18.84,45.67],[19.11,46.01],[17.76,46.94],[17.68,47.59],[17.17,47.5],[16.21,48.94],[16.18,48.52],[15.88,48.7],[16.19,48.03],[15.59,48.02],[15,46.88],[14.16,46.6],[12.94,46.98],[12.7,47.45],[13.29,47.35],[13.49,47.6],[12.92,47.52],[13.28,48.08],[12.28,47.86],[13.31,49.04],[12.67,48.92],[12.52,48.39],[11.95,48.7],[12.27,49.12],[11.97,48.88],[11.61,49.36],[13.18,49.41],[13.46,49.83],[11.73,49.43],[11.92,49.73],[11.33,50.02],[12.59,50.35],[11.23,50.46],[12.14,50.47],[11.81,50.59],[12.3,50.55],[12.28,50.9],[12.77,50.62],[11.91,50.97],[13.2,51.3],[12.36,51.19],[12.46,51.51],[13.49,51.33],[12.88,51.6],[13.53,51.49],[13.03,51.73],[13.9,52.41],[14.13,52.11],[14.81,52.39],[14.84,53.06],[14.24,52.31],[13.73,52.51],[15.32,54.41],[14.71,54.2],[15.12,54.53],[14.81,54.95],[15.23,54.93],[14.75,55.11],[15.6,55.53],[14.91,55.24],[15.21,55.43],[14.68,55.57],[15.16,55.74],[14.73,55.78],[15.21,55.95],[14.79,56.04],[16.02,56.42],[15.15,56.43],[16.06,56.72],[15.12,57.03],[15.8,57.24],[15.31,57.3],[15.62,57.59],[16.27,57.24],[15.72,57.67],[16.79,57.98],[15.78,57.88],[16.46,58.19],[16.12,58.21],[16.5,58.27],[16.21,58.99],[17.28,58.94],[16.62,59.37],[17.19,59.14],[17.23,59.73],[17.48,59.04],[17.95,59.36],[17.45,59.57],[17.74,59.9],[18.52,59.78],[17.66,60.22],[19.17,60.17],[18.79,60.35],[19.38,60.94],[19.02,61.26],[19.92,61.33],[20.06,60.45],[20.24,61.49],[20.76,60.95],[21.06,61.52],[20.57,61.66],[21.1,61.86],[21.52,61.22],[21.92,61.33],[21.78,61.78],[23.59,61.64],[22.2,61.09],[23.26,60.77],[24.47,60.97],[24.65,61.42],[25.52,61.39],[24.86,61.25],[25.23,60.98],[26.09,61.17],[26.11,60.79],[27.79,61.36],[32.72,60.96],[33.72,60.23],[32.64,59.08],[27,58.87],[30.07,58.25],[30.1,57.69],[31.12,56.99],[33.6,56.81],[33.62,57.41],[32.22,57.49],[32.08,57.92],[33.45,57.94],[33.4,57.64],[35.28,58.06],[34,58.64],[34.16,59.4],[34.75,60.16],[36.72,59.97],[34.7,61.88],[33.26,62.22],[36.09,62.36],[36.53,62.13],[35.69,61.76],[35.77,61.34],[37.09,61.12],[38.17,61.51],[37.6,62.16],[38.41,62.42],[37.75,62.59],[39.5,63.85],[39.95,63.69],[39.53,63.89],[40.16,64.51],[40.62,64.67],[40.06,64.41],[40.93,64.06],[40.67,63.67],[41.47,63.73],[41.44,64.08],[41.9,63.99],[41.74,64.47],[43.13,64.86],[43.22,65.15],[42.81,64.98],[43.64,65.56],[45.12,65.24],[44.76,65.55],[45.56,65.89],[43.71,66.29],[44.03,66.47],[43.71,66.67],[46.78,67.12],[52.12,67.03],[53.52,65.87],[53.67,64.66],[52.9,63.59],[52.96,62.3],[58.49,56.86],[59.43,55.33],[58.81,52.79],[60.17,49.24],[60.16,48.04],[59.03,46.74],[53.67,44.16],[49.58,38.84],[45.96,38.4]]]}},{"type":"Feature","properties":{},"geometry":{"type":"Polygon","coordinates":[[[16.31,44.02],[15.72,44.37],[15.45,45.56],[16.96,46.82],[16.97,45.76],[17.65,45.6],[16.81,44.7],[17.22,43.98],[16.31,44.02]]]}},{"type":"Feature","properties":{},"geometry":{"type":"Polygon","coordinates":[[[36.39,34.42],[36.14,35.39],[35.38,35.1],[35.28,35.62],[38.35,37.26],[37.71,37.16],[42.9,38.93],[46.13,38.93],[42.13,37.4],[41.03,36.42],[39.33,36.69],[38.35,36.32],[36.39,34.42]]]}},{"type":"Feature","properties":{},"geometry":{"type":"Polygon","coordinates":[[[24.18,23.01],[23.71,21.64],[22.94,21.78],[23.52,20.63],[23.29,20.18],[22.65,20.8],[22.69,20.18],[22.22,20.66],[22.02,19.98],[21.37,20.08],[21.48,20.51],[21.05,20.56],[21.41,21.73],[22.15,21.69],[22.95,20.89],[21.66,22.06],[21.76,22.64],[22.14,22.6],[21.91,24.55],[23.08,25.47],[22.05,28.5],[22.62,30.23],[22.51,30.65],[21.79,30.43],[22.4,31.35],[21.57,31.7],[20.44,30.78],[20.66,29.68],[20.22,28.91],[20.34,27.75],[20.97,27.22],[20.52,26.98],[21.17,24.7],[20.81,24.62],[20.37,25.74],[19.63,25.44],[19.5,24.49],[17.84,24.38],[18.8,24.87],[19.29,26.05],[18.19,30.1],[18.88,31.7],[18.43,32.74],[17.2,32.87],[17.16,33.53],[18.32,34.88],[22.21,34.14],[26.22,31.63],[24.11,30.49],[24.46,26.53],[24.18,23.01]]]}},{"type":"Feature","properties":{},"geometry":{"type":"Polygon","coordinates":[[[18.49,32.8],[17.41,31.85],[15.54,32.11],[14.86,31.11],[10.87,31.47],[10.81,33.41],[11.38,33],[10.67,34.18],[9.12,35.34],[7.74,35.32],[7.39,35.53],[7.79,35.84],[7.28,36.02],[10.02,36.47],[9.33,37.49],[10.8,37.21],[11.42,37.88],[13.8,37.25],[15.97,37.46],[19.18,40.57],[21.78,41.75],[26.27,42.28],[29.33,40.93],[26.74,39.97],[24.91,38.5],[20.44,37.19],[18.36,36.07],[17.07,34.67],[17.81,33.13],[18.49,32.8]]]}},{"type":"Feature","properties":{},"geometry":{"type":"Polygon","coordinates":[[[11.42,37.88],[12.13,38.33],[11.9,39],[13.9,39.78],[13.22,39.86],[14.13,40.18],[13.57,40.35],[13.88,41.42],[14.37,40.85],[14.47,41.87],[15.75,42],[15.56,42.33],[16.12,42.55],[16.72,42.28],[16.7,42.82],[17.72,42.63],[16.5,43.21],[16.82,43.44],[16.14,43.61],[16.31,44.02],[17.22,43.98],[17.71,43.43],[18.47,43.64],[18.35,43.1],[19.53,43.92],[21.45,43.35],[21.46,43.82],[22.33,43.67],[26.27,42.28],[20.56,41.33],[18.47,39.97],[15.97,37.46],[13.8,37.25],[11.42,37.88]]]}},{"type":"Feature","properties":{},"geometry":{"type":"Polygon","coordinates":[[[36.34,37.05],[36.43,36.05],[35.97,35.51],[31.94,34.71],[30.99,35.5],[30.98,36.21],[33.37,37.43],[33.67,38.34],[36.34,37.05]]]}},{"type":"Feature","properties":{},"geometry":{"type":"Polygon","coordinates":[[[-24.79,64.07],[-25.39,63.79],[-24.94,64.35],[-24.79,64.07]]]}},{"type":"Feature","properties":{},"geometry":{"type":"Polygon","coordinates":[[[-20.68,63.11],[-19.89,62.74],[-21.22,62.88],[-20.68,63.11]]]}},{"type":"Feature","properties":{},"geometry":{"type":"Polygon","coordinates":[[[-25.83,65.17],[-26.79,64.75],[-27.97,65.18],[-25.83,65.17]]]}},{"type":"Feature","properties":{},"geometry":{"type":"Polygon","coordinates":[[[10.14,67.42],[11.57,66.99],[11.31,66.54],[10.75,66.84],[10.17,66.52],[9.31,67.1],[10.14,67.42]]]}},{"type":"Feature","properties":{},"geometry":{"type":"Polygon","coordinates":[[[8.94,67.56],[9.67,67.35],[8.53,67.34],[8.94,67.56]]]}},{"type":"Feature","properties":{},"geometry":{"type":"Polygon","coordinates":[[[-24.94,65.71],[-25.3,65.24],[-26.73,65.72],[-24.94,65.71]]]}},{"type":"Feature","properties":{},"geometry":{"type":"Polygon","coordinates":[[[-20.15,64.03],[-19.77,63.57],[-20.16,63.28],[-21.33,63.31],[-20.62,64.26],[-20.15,64.03]]]}},{"type":"Feature","properties":{},"geometry":{"type":"Polygon","coordinates":[[[4.08,66.75],[5.23,66.34],[3.74,66.82],[4.08,66.75]]]}},{"type":"Feature","properties":{},"geometry":{"type":"Polygon","coordinates":[[[-21.72,65.36],[-22,64.81],[-21.42,64.91],[-21.26,64.23],[-21.96,63.61],[-22.62,63.77],[-22.74,64.44],[-23.54,64.56],[-22.46,64.8],[-22.97,65.04],[-22.67,65.4],[-21.72,65.36]]]}},{"type":"Feature","properties":{},"geometry":{"type":"Polygon","coordinates":[[[33.41,80.46],[37.06,80.39],[34.88,80.7],[38.88,80.95],[40.28,80.8],[40.88,80.38],[40.24,80.15],[41.39,79.79],[33.41,80.46]]]}},{"type":"Feature","properties":{},"geometry":{"type":"Polygon","coordinates":[[[4.76,68.34],[8.65,67.78],[8.01,67.21],[8.86,66.33],[4.76,68.34]]]}},{"type":"Feature","properties":{},"geometry":{"type":"Polygon","coordinates":[[[8.69,66.27],[9.29,65.41],[9.01,65.27],[6.8,65.89],[8,66.03],[7.05,66.08],[7.79,66.55],[6.61,66.07],[6.07,66.33],[7.24,66.92],[8.69,66.27]]]}},{"type":"Feature","properties":{},"geometry":{"type":"Polygon","coordinates":[[[6.61,67.2],[6.43,66.86],[5.93,67.19],[6.25,66.73],[5.63,66.41],[3.09,67.62],[3.99,67.97],[3.78,67.59],[4.86,67.45],[4.46,67.97],[6.61,67.2]]]}},{"type":"Feature","properties":{},"geometry":{"type":"Polygon","coordinates":[[[28.74,78.64],[29.8,78.96],[30.85,78.54],[28.74,78.64]]]}},{"type":"Feature","properties":{},"geometry":{"type":"Polygon","coordinates":[[[28.77,79.56],[31.86,79.51],[29.39,79.91],[31,80.04],[36.52,79.62],[31.37,78.74],[28.9,79.16],[29.37,79.21],[28.77,79.56]]]}},{"type":"Feature","properties":{},"geometry":{"type":"Polygon","coordinates":[[[10.96,70.21],[11.31,70.16],[10.68,69.87],[10.96,70.21]]]}},{"type":"Feature","properties":{},"geometry":{"type":"Polygon","coordinates":[[[6.84,69.26],[9.14,69.38],[9.55,68.73],[7.68,68.16],[6.77,68.25],[7.37,68.6],[5.24,68.52],[5.97,68.71],[5.46,69.02],[7.33,68.86],[6.84,69.26]]]}},{"type":"Feature","properties":{},"geometry":{"type":"Polygon","coordinates":[[[14.87,72.29],[15.71,72.32],[14.55,71.79],[14.87,72.29]]]}},{"type":"Feature","properties":{},"geometry":{"type":"Polygon","coordinates":[[[19.28,74.21],[20.45,73.84],[18.67,73.87],[19.28,74.21]]]}},{"type":"Feature","properties":{},"geometry":{"type":"Polygon","coordinates":[[[15.66,72.75],[16.53,72.74],[16.77,72.24],[16.42,72.14],[17.02,71.89],[15.91,71.83],[16.36,72],[15.75,72.02],[16.19,72.29],[15.46,72.42],[15.66,72.75]]]}},{"type":"Feature","properties":{},"geometry":{"type":"Polygon","coordinates":[[[18.84,74.74],[20.29,74.49],[19.54,74.24],[18.84,74.74]]]}},{"type":"Feature","properties":{},"geometry":{"type":"Polygon","coordinates":[[[22.99,79.36],[27.95,79.6],[29.29,78.95],[27.75,78.58],[22.99,79.36]]]}},{"type":"Feature","properties":{},"geometry":{"type":"Polygon","coordinates":[[[-15.46,65.92],[-15.51,64.47],[-14.81,64.62],[-15.69,63.83],[-14.97,63.76],[-15.02,63.38],[-16.69,63.06],[-16.53,63.42],[-17.67,62.74],[-17.63,63.26],[-17.9,62.81],[-18.88,63.1],[-18.94,63.43],[-18.34,63.35],[-18.93,63.56],[-18.83,64.01],[-17.24,63.86],[-18.79,64.35],[-17.94,64.6],[-18.51,64.99],[-17.6,64.87],[-17.26,64.99],[-17.91,65.36],[-16.71,65.25],[-16.88,65.65],[-15.46,65.92]]]}},{"type":"Feature","properties":{},"geometry":{"type":"Polygon","coordinates":[[[-3.7,63.52],[-3.21,62.99],[-4.18,63.5],[-3.7,63.52]]]}},{"type":"Feature","properties":{},"geometry":{"type":"Polygon","coordinates":[[[-6.65,66.02],[-5.77,65.72],[-6.65,65.51],[-5.34,65.65],[-4.57,64.95],[-5.93,64.48],[-7.52,64.67],[-6.79,64.36],[-8.2,64.1],[-6.08,64.25],[-8.5,63.4],[-8.84,63.63],[-8.84,63.25],[-9.65,63.39],[-9.03,63.17],[-9.63,62.89],[-12.39,62.94],[-11.12,62.58],[-12.41,62.79],[-11.83,62.57],[-12.68,62.54],[-11.53,62.23],[-12.83,61.79],[-12.59,61.49],[-13.64,61.64],[-14.04,61.12],[-15.74,61.36],[-14.2,60.77],[-14.72,60.26],[-16.15,60.19],[-15.8,60.42],[-16.33,60.86],[-17.74,60.68],[-19.56,61.42],[-17.7,61.66],[-17.72,62.42],[-17.01,62.24],[-17.15,61.8],[-16.69,61.56],[-15.13,62.09],[-16.29,61.69],[-16.62,62.25],[-15.88,62.55],[-17.17,62.6],[-16.27,63.09],[-14.71,62.54],[-14.83,62.86],[-14.15,62.78],[-15.2,63.15],[-14.75,63.05],[-15.08,63.95],[-14.53,64.43],[-12.82,63.34],[-13.36,63.52],[-13.37,64.2],[-11.37,64.07],[-11.98,64.23],[-10.57,64.23],[-11.38,64.41],[-10.13,64.79],[-13.85,64.51],[-14.28,64.71],[-12.2,64.9],[-14.52,64.79],[-14.79,65.2],[-12.83,65.17],[-14.77,65.3],[-13.4,65.53],[-14.65,66.01],[-12.87,66.11],[-12.11,65.67],[-12.4,66.12],[-11.57,66.24],[-11.48,65.73],[-11.09,65.91],[-10.55,65.27],[-10.98,66.01],[-10.17,66.31],[-9.01,66.21],[-9.05,65.68],[-8.65,65.79],[-8.84,66.24],[-7.75,65.74],[-6.65,66.02]]]}},{"type":"Feature","properties":{},"geometry":{"type":"Polygon","coordinates":[[[-5.88,45.3],[-5.35,45.88],[-5.94,45.66],[-5.79,46.18],[-6.14,46.2],[-4.93,46.57],[-6.1,46.25],[-6.52,46.62],[-5.63,46.93],[-6.66,46.9],[-4.79,47.69],[-6.71,46.97],[-6.75,47.38],[-6.03,47.41],[-6.65,47.51],[-5.91,47.7],[-6.93,47.97],[-4.82,48.03],[-6.87,48.1],[-6.21,48.62],[-4.65,48.37],[-5.38,48.57],[-4.7,48.71],[-5.2,48.84],[-6.78,48.47],[-5.79,48.83],[-6.5,49.06],[-4.69,48.79],[-5.44,49.06],[-5.08,49.36],[-6.55,49.21],[-5.21,49.44],[-5.24,50],[-4.74,49.83],[-5.26,50.07],[-4.76,50.88],[-7.11,51.54],[-4.94,51.19],[-5.68,51.89],[-5.14,51.89],[-5.84,51.99],[-5.45,52.16],[-5.99,52.04],[-5.37,52.34],[-6.21,52.29],[-5.51,52.58],[-6.46,52.87],[-6.68,52.32],[-7.52,52.36],[-7.03,52.88],[-7.53,52.89],[-7.15,53.22],[-7.51,53.35],[-6.95,53.71],[-7.51,53.99],[-7.15,54.25],[-7.6,55.16],[-8.17,55.02],[-7.57,55.28],[-8.65,56.29],[-8.47,56.66],[-10.55,57.44],[-12.85,57.35],[-13.24,57.69],[-12.4,57.91],[-13.73,58.39],[-11.49,58.41],[-11.37,58.74],[-12.64,58.72],[-13.88,59.6],[-10.62,60.31],[-9.58,61.14],[-10.83,61.47],[-9.26,62.15],[-9.08,61.74],[-9.16,62.15],[-8.43,62.08],[-8.14,62.82],[-6.91,62.22],[-7.72,62.91],[-6.15,63.24],[-5.92,62.37],[-5.7,62.89],[-4.69,62.49],[-5.14,63.37],[-3.15,62.65],[-3.23,63.17],[-2.53,63.14],[-3.65,63.65],[-1.85,63.46],[-3.64,64.01],[-1.61,63.73],[-1.85,63.95],[-1.3,64.16],[-1.93,64.4],[-0.95,64.66],[1.58,64.63],[-0.41,64.23],[-0.06,64.17],[-0.72,63.8],[1.8,64.53],[1.91,64.13],[3.3,64.17],[0.52,62.91],[2.87,63.44],[2.71,62.83],[3.76,63.68],[4.24,63.1],[4.04,62.13],[4.84,63.37],[5.61,63.27],[5.62,63.77],[7.26,63.72],[6.8,62.68],[5.08,62.28],[6.9,62.48],[5.53,61.89],[6.01,61.55],[6.75,62.01],[6.28,61.48],[6.82,61.08],[6.29,60.58],[6.65,59.49],[6.9,59.86],[7.68,59.74],[7.11,59.39],[8.3,59.37],[8.68,58.86],[7.05,58.87],[7.7,58.85],[6.92,58.51],[8.37,58.29],[7.61,57.95],[8.52,57.99],[9.18,57.4],[7.72,57.58],[8.75,57.19],[7.86,57.06],[9.82,56.69],[8.31,56.55],[9.44,56.32],[8.3,56.24],[8.9,55.66],[8.76,56.06],[9.55,56],[9.64,55.58],[8.81,55.24],[7.83,55.51],[8.72,55.61],[6.92,55.67],[7.61,55.32],[6.35,55.13],[6.92,54.93],[6.3,54.74],[7.63,54.84],[6.56,54.49],[7.97,54.51],[7.29,54.11],[7.82,54.19],[7.82,53.81],[8.12,54.27],[9.42,53.92],[9.22,53.6],[9.8,53.81],[9.58,53.49],[9.99,53.58],[9.88,53.11],[10.49,52.7],[9.87,52.92],[9.98,52.5],[9.58,52.45],[8.57,53.21],[6.18,53.66],[7.02,53.38],[6.5,53.14],[8.15,53.14],[7.58,52.66],[6.92,52.79],[6.96,52.26],[6.44,52.02],[8.03,52.14],[6.91,51.72],[7.62,51.67],[8.59,52.27],[10.3,52.08],[8.6,50.48],[6.22,49.74],[6.5,49.6],[5.18,50],[5.63,49.35],[5.01,49.05],[4.47,47.67],[3.74,47.68],[3.97,47.38],[2.97,47.27],[3.05,46.93],[2.55,47.57],[2.47,46.77],[1.77,46.83],[1.29,46.54],[1.39,46.06],[0.78,46.13],[1.32,45.42],[0.62,45.27],[1.32,44.73],[0.69,44.87],[1.2,44.61],[0.47,44.47],[0.7,43.91],[-0.24,43.71],[0.43,43.37],[-0.12,43.48],[0.49,43],[-0.1,42.56],[0.36,42.39],[-0.19,42.29],[0.22,42.07],[-0.42,42.08],[0.19,42.04],[-0.33,41.79],[0.13,41.54],[-0.75,41.56],[-0.01,41.04],[-0.67,41.32],[-1.35,40.99],[-0.92,41.49],[-1.38,41.04],[-1.04,41.67],[-1.93,41.47],[-1.46,41.82],[-2.09,41.64],[-1.44,42.11],[-1.99,41.81],[-1.83,42.23],[-3.4,41.68],[-3.21,42.2],[-3.96,42.26],[-3.43,42.39],[-4.1,42.41],[-3.65,42.5],[-4.2,42.68],[-3.82,42.93],[-4.77,43.35],[-4.38,43.91],[-4.81,43.63],[-4.61,44.08],[-5.27,44.19],[-4.67,44.24],[-5.55,44.55],[-4.91,45.06],[-5.67,45.04],[-4.69,45.3],[-5,45.54],[-4.33,45.21],[-4.66,45.69],[-5.22,46.08],[-4.97,45.61],[-5.88,45.3]]]}}]}
